No errors
No warnings
531 ms
data source=metars
4855 results
raw_text,station_id,observation_time,latitude,longitude,temp_c,dewpoint_c,wind_dir_degrees,wind_speed_kt,wind_gust_kt,visibility_statute_mi,altim_in_hg,sea_level_pressure_mb,corrected,auto,auto_station,maintenance_indicator_on,no_signal,lightning_sensor_off,freezing_rain_sensor_off,present_weather_sensor_off,wx_string,sky_cover,cloud_base_ft_agl,sky_cover,cloud_base_ft_agl,sky_cover,cloud_base_ft_agl,sky_cover,cloud_base_ft_agl,flight_category,three_hr_pressure_tendency_mb,maxT_c,minT_c,maxT24hr_c,minT24hr_c,precip_in,pcp3hr_in,pcp6hr_in,pcp24hr_in,snow_in,vert_vis_ft,metar_type,elevation_m
K4BM 021836Z AUTO 22018G36KT 10SM CLR 06/M16 A2977 RMK AO2 LTG DSNT NW,K4BM,2018-04-02T18:36:00Z,39.05,-105.52,6.0,-16.0,220,18,36,10.0,29.769686,,,TRUE,TRUE,,,,,,,CLR,,,,,,,,VFR,,,,,,,,,,,,METAR,3438.0
KBDU 021836Z AUTO 27024G32KT 10SM CLR 21/M07 A2945 RMK AO2,KBDU,2018-04-02T18:36:00Z,40.03,-105.23,21.0,-7.0,270,24,32,10.0,29.450787,,,TRUE,TRUE,,,,,,,CLR,,,,,,,,VFR,,,,,,,,,,,,METAR,1612.0
KMYP 021836Z AUTO 24045G59KT 10SM SCT065 03/M13 A2992 RMK AO2,KMYP,2018-04-02T18:36:00Z,38.48,-106.32,3.0,-13.0,240,45,59,10.0,29.920275,,,TRUE,TRUE,,,,,,,SCT,6500,,,,,,,VFR,,,,,,,,,,,,METAR,3667.0
SPEC B ,SPEC,2018-04-02T18:36:00Z,,,,,,,,,,,,,,,,,,,,,,,,,,,,,,,,,,,,,,,,METAR,
CYTS 021835Z 30012KT 1 1/2SM -SHSN OVC014 M04/M08 A2986 RMK SN4SC4 CVCTV CLD EMBD SLP134,CYTS,2018-04-02T18:35:00Z,48.57,-81.37,-4.0,-8.0,300,12,,1.5,29.861221,1013.4,,,,,,,,,-SHSN,OVC,1400,,,,,,,IFR,,,,,,,,,,,,SPECI,295.0
KCCA 021835Z AUTO 12005KT 6SM BR OVC009 08/06 A2996 RMK AO2,KCCA,2018-04-02T18:35:00Z,35.6,-92.45,8.0,6.0,120,5,,6.0,29.958662,,,TRUE,TRUE,,,,,,BR,OVC,900,,,,,,,IFR,,,,,,,,,,,,SPECI,157.0
KSPF 021835Z AUTO 08005KT 10SM OVC006 M03/M04 A2959 RMK AO2,KSPF,2018-04-02T18:35:00Z,44.47,-103.77,-3.0,-4.0,80,5,,10.0,29.589567,,,TRUE,TRUE,,,,,,,OVC,600,,,,,,,IFR,,,,,,,,,,,,SPECI,1188.0
KGGI 021835Z AUTO 15018G23KT 10SM CLR 04/M06 A2991 RMK AO2 T00381064,KGGI,2018-04-02T18:35:00Z,41.72,-92.73,3.8,-6.4,150,18,23,10.0,29.911417,,,TRUE,TRUE,,,,,,,CLR,,,,,,,,VFR,,,,,,,,,,,,SPECI,307.0
K1S5 021835Z AUTO 30010G14KT 10SM CLR 08/M07 A2996 RMK AO2 T00771073,K1S5,2018-04-02T18:35:00Z,46.33,-119.97,7.7,-7.3,300,10,14,10.0,29.958662,,,TRUE,TRUE,,,,,,,CLR,,,,,,,,VFR,,,,,,,,,,,,SPECI,234.0
KWYS 021835Z AUTO 31012G22KT 270V340 9SM FEW037 FEW043 FEW050 02/M06 A2944 RMK AO2,KWYS,2018-04-02T18:35:00Z,44.67,-111.12,2.0,-6.0,310,12,22,9.0,29.438976,,,TRUE,TRUE,,,,,,,FEW,3700,FEW,4300,FEW,5000,,,VFR,,,,,,,,,,,,METAR,2025.0
KY31 021835Z AUTO 26005KT 10SM CLR 05/M12 A3001 RMK AO2 T00521120,KY31,2018-04-02T18:35:00Z,44.25,-84.18,5.2,-12.0,260,5,,10.0,30.008858,,,TRUE,TRUE,,,,,,,CLR,,,,,,,,VFR,,,,,,,,,,,,METAR,269.0
KDYT 021835Z AUTO 03006KT 10SM CLR M02/M11 A2997 RMK AO2,KDYT,2018-04-02T18:35:00Z,46.72,-92.03,-2.0,-11.0,30,6,,10.0,29.970472,,,TRUE,TRUE,,,,,,,CLR,,,,,,,,VFR,,,,,,,,,,,,METAR,186.0
KDYA 021835Z AUTO 22005KT 10SM 24/13 A3000 RMK AO2 T02390134,KDYA,2018-04-02T18:35:00Z,32.47,-87.95,23.9,13.4,220,5,,10.0,30.0,,,TRUE,TRUE,,,,,,,,,,,,,,,,,,,,,,,,,,,METAR,34.0
KROS 021835Z AUTO 20008KT 7SM SCT019 BKN027 OVC041 00/M07 A2994 RMK AO2 T10011067,KROS,2018-04-02T18:35:00Z,45.7,-92.95,-0.1,-6.7,200,8,,7.0,29.940945,,,TRUE,TRUE,,,,,,,SCT,1900,BKN,2700,OVC,4100,,,MVFR,,,,,,,,,,,,METAR,281.0
KRNP 021835Z AUTO 20005KT 10SM SCT050 05/M08 A3007 RMK AO2 T00511084,KRNP,2018-04-02T18:35:00Z,43.0,-84.13,5.1,-8.4,200,5,,10.0,30.070866,,,TRUE,TRUE,,,,,,,SCT,5000,,,,,,,VFR,,,,,,,,,,,,METAR,224.0
KCKM 021835Z AUTO 14004KT 7SM BKN011 OVC020 14/12 A2998 RMK A01,KCKM,2018-04-02T18:35:00Z,34.3,-90.52,14.0,12.0,140,4,,7.0,29.97933,,,TRUE,TRUE,,,,,,,BKN,1100,OVC,2000,,,,,MVFR,,,,,,,,,,,,METAR,53.0
K6B9 021835Z AUTO 24007KT 170V260 10SM CLR 05/M07 A3007 RMK AO2,K6B9,2018-04-02T18:35:00Z,42.92,-76.43,5.0,-7.0,240,7,,10.0,30.070866,,,TRUE,TRUE,,,,,,,CLR,,,,,,,,VFR,,,,,,,,,,,,METAR,316.0
K33V 021835Z AUTO 24022G36KT 10SM CLR 12/M09 A2961 RMK AO1,K33V,2018-04-02T18:35:00Z,40.75,-106.28,12.0,-9.0,240,22,36,10.0,29.610237,,,TRUE,TRUE,,,,,,,CLR,,,,,,,,VFR,,,,,,,,,,,,METAR,2484.0
K28J 021835Z AUTO 00000KT 10SM BKN050 BKN070 BKN085 29/16 A3003 RMK AO2,K28J,2018-04-02T18:35:00Z,29.65,-81.58,29.0,16.0,0,0,,10.0,30.029528,,,TRUE,TRUE,,,,,,,BKN,5000,BKN,7000,BKN,8500,,,VFR,,,,,,,,,,,,METAR,15.0
K04W 021835Z AUTO 22005KT 10SM SCT038 BKN046 OVC055 00/M07 A2993 RMK AO2,K04W,2018-04-02T18:35:00Z,46.02,-92.9,0.0,-7.0,220,5,,10.0,29.929134,,,TRUE,TRUE,,,,,,,SCT,3800,BKN,4600,OVC,5500,,,VFR,,,,,,,,,,,,METAR,311.0
KBWW 021835Z AUTO 06018KT 2 1/2SM BR FEW009 BKN024 BKN028 M06/M08 A2959 RMK AO2,KBWW,2018-04-02T18:35:00Z,46.17,-103.3,-6.0,-8.0,60,18,,2.5,29.589567,,,TRUE,TRUE,,,,,,BR,FEW,900,BKN,2400,BKN,2800,,,IFR,,,,,,,,,,,,METAR,910.0
KANK 021835Z AUTO 26016G33KT 240V300 10SM CLR 17/M14 A2974 RMK AO1 T01721141,KANK,2018-04-02T18:35:00Z,38.53,-106.05,17.2,-14.1,260,16,33,10.0,29.740158,,,TRUE,TRUE,,,,,,,CLR,,,,,,,,VFR,,,,,,,,,,,,SPECI,2293.0
K2V5 021835Z AUTO 12010G15KT 10SM CLR 16/M02 A2947 RMK AO2,K2V5,2018-04-02T18:35:00Z,40.1,-102.25,16.0,-2.0,120,10,15,10.0,29.471457,,,TRUE,TRUE,,,,,,,CLR,,,,,,,,VFR,,,,,,,,,,,,SPECI,1118.0
K2J9 021835Z AUTO 26009KT 10SM FEW042 FEW050 26/15 A3004 RMK AO2,K2J9,2018-04-02T18:35:00Z,30.6,-84.55,26.0,15.0,260,9,,10.0,30.041338,,,TRUE,TRUE,,,,,,,FEW,4200,FEW,5000,,,,,VFR,,,,,,,,,,,,SPECI,69.0
K1P1 021835Z AUTO 28009KT 10SM CLR 06/M11 A3004 RMK AO2 T00591109,K1P1,2018-04-02T18:35:00Z,43.78,-71.75,5.9,-10.9,280,9,,10.0,30.041338,,,TRUE,TRUE,,,,,,,CLR,,,,,,,,VFR,,,,,,,,,,,,SPECI,154.0
KCOD 021835Z AUTO 32009KT 1/2SM -SN FG OVC005 00/M02 A2952 RMK AO2 CIG 003V009 P0000 FZRANO,KCOD,2018-04-02T18:35:00Z,44.52,-109.02,0.0,-2.0,320,9,,0.5,29.518702,,,TRUE,TRUE,,,,TRUE,,-SN FG,OVC,500,,,,,,,LIFR,,,,,,0.005,,,,,,SPECI,1553.0
KCLW 021835Z AUTO 20007KT 10SM SCT032 26/18 A3003 RMK AO2,KCLW,2018-04-02T18:35:00Z,27.98,-82.75,26.0,18.0,200,7,,10.0,30.029528,,,TRUE,TRUE,,,,,,,SCT,3200,,,,,,,VFR,,,,,,,,,,,,METAR,22.0
KCFS 021835Z AUTO 22007G15KT 10SM CLR 06/M10 A3005 RMK AO2 T00621102,KCFS,2018-04-02T18:35:00Z,43.47,-83.45,6.2,-10.2,220,7,15,10.0,30.050198,,,TRUE,TRUE,,,,,,,CLR,,,,,,,,VFR,,,,,,,,,,,,METAR,214.0
KCCU 021835Z AUTO 25033G52KT 130V290 1/2SM -SN VV005 03/M10 A2978 RMK AO2,KCCU,2018-04-02T18:35:00Z,39.48,-106.15,3.0,-10.0,250,33,52,0.5,29.778543,,,TRUE,TRUE,,,,,,-SN,OVX,0,,,,,,,LIFR,,,,,,,,,,,500,METAR,3680.0
KCBG 021835Z AUTO 17009KT 5SM -SN SCT035 01/M06 A2994 RMK AO2,KCBG,2018-04-02T18:35:00Z,45.57,-93.27,1.0,-6.0,170,9,,5.0,29.940945,,,TRUE,TRUE,,,,,,-SN,SCT,3500,,,,,,,MVFR,,,,,,,,,,,,METAR,287.0
KCBF 021835Z AUTO 15016KT 10SM OVC017 M00/M03 A2979 RMK AO2,KCBF,2018-04-02T18:35:00Z,41.27,-95.77,0.0,-3.0,150,16,,10.0,29.790354,,,TRUE,TRUE,,,,,,,OVC,1700,,,,,,,MVFR,,,,,,,,,,,,METAR,382.0
KCAD 021835Z AUTO 23006KT 10SM CLR 01/M10 A2999 RMK AO2 T00181099,KCAD,2018-04-02T18:35:00Z,44.27,-85.42,1.8,-9.9,230,6,,10.0,29.991142,,,TRUE,TRUE,,,,,,,CLR,,,,,,,,VFR,,,,,,,,,,,,METAR,398.0
KBKN 021835Z AUTO 15011KT 3SM BR OVC005 02/02 A2983 RMK AO2,KBKN,2018-04-02T18:35:00Z,36.75,-97.35,2.0,2.0,150,11,,3.0,29.828741,,,TRUE,TRUE,,,,,,BR,OVC,500,,,,,,,IFR,,,,,,,,,,,,METAR,314.0
KBBB 021835Z AUTO 17009G16KT 3/4SM -SN M01/M03 A2986 RMK AO2 P0001,KBBB,2018-04-02T18:35:00Z,45.32,-95.65,-1.0,-3.0,170,9,16,0.75,29.861221,,,TRUE,TRUE,,,,,,-SN,,,,,,,,,,,,,,,0.01,,,,,,METAR,317.0
KBAX 021835Z AUTO 20010G16KT 10SM CLR 05/M12 A3006 RMK AO2 T00531121,KBAX,2018-04-02T18:35:00Z,43.78,-82.98,5.3,-12.1,200,10,16,10.0,30.059055,,,TRUE,TRUE,,,,,,,CLR,,,,,,,,VFR,,,,,,,,,,,,METAR,234.0
KAUM 021835Z AUTO 15009G15KT CLR 01/M07 A2989 RMK AO2 PWINO,KAUM,2018-04-02T18:35:00Z,43.67,-92.92,1.0,-7.0,150,9,15,,29.890747,,,TRUE,TRUE,,,,,TRUE,,CLR,,,,,,,,,,,,,,,,,,,,METAR,375.0
KARW 021835Z AUTO 21006KT 7SM CLR 26/17 A3001 RMK AO2,KARW,2018-04-02T18:35:00Z,32.42,-80.63,26.0,17.0,210,6,,7.0,30.008858,,,TRUE,TRUE,,,,,,,CLR,,,,,,,,VFR,,,,,,,,,,,,METAR,4.0
KAMN 021835Z AUTO 20005G16KT 10SM CLR 05/M09 A3006 RMK AO2 T00461087,KAMN,2018-04-02T18:35:00Z,43.32,-84.68,4.6,-8.7,200,5,16,10.0,30.059055,,,TRUE,TRUE,,,,,,,CLR,,,,,,,,VFR,,,,,,,,,,,,METAR,230.0
KACQ 021835Z AUTO 15013G19KT 10SM OVC045 00/M07 A2990 RMK AO2,KACQ,2018-04-02T18:35:00Z,44.07,-93.55,0.0,-7.0,150,13,19,10.0,29.899607,,,TRUE,TRUE,,,,,,,OVC,4500,,,,,,,VFR,,,,,,,,,,,,METAR,343.0
KACB 021835Z AUTO 26007G14KT 200V280 10SM CLR 02/M13 A3004 RMK AO2 T00231127,KACB,2018-04-02T18:35:00Z,44.98,-85.2,2.3,-12.7,260,7,14,10.0,30.041338,,,TRUE,TRUE,,,,,,,CLR,,,,,,,,VFR,,,,,,,,,,,,METAR,190.0
K6L4 021835Z AUTO 00000KT 10SM OVC023 07/06 A3003 RMK AO2,K6L4,2018-04-02T18:35:00Z,37.85,-81.92,7.0,6.0,0,0,,10.0,30.029528,,,TRUE,TRUE,,,,,,,OVC,2300,,,,,,,MVFR,,,,,,,,,,,,METAR,508.0
KCOQ 021835Z AUTO 26003KT 10SM SCT065 M01/M12 A2991 RMK AO2,KCOQ,2018-04-02T18:35:00Z,46.7,-92.5,-1.0,-12.0,260,3,,10.0,29.911417,,,TRUE,TRUE,,,,,,,SCT,6500,,,,,,,VFR,,,,,,,,,,,,METAR,390.0
KMZH 021835Z AUTO 00000KT 10SM SCT028 BKN040 OVC050 00/M10 A2991 RMK AO2,KMZH,2018-04-02T18:35:00Z,46.42,-92.8,0.0,-10.0,0,0,,10.0,29.911417,,,TRUE,TRUE,,,,,,,SCT,2800,BKN,4000,OVC,5000,,,VFR,,,,,,,,,,,,METAR,328.0
KMWM 021835Z AUTO 14014KT 10SM 00/M09 A2979 RMK AO2,KMWM,2018-04-02T18:35:00Z,43.9,-95.1,0.0,-9.0,140,14,,10.0,29.790354,,,TRUE,TRUE,,,,,,,,,,,,,,,,,,,,,,,,,,,METAR,430.0
KMJQ 021835Z AUTO 15012G18KT 10SM BKN023 OVC047 00/M05 A2980 RMK AO2,KMJQ,2018-04-02T18:35:00Z,43.63,-94.97,0.0,-5.0,150,12,18,10.0,29.799213,,,TRUE,TRUE,,,,,,,BKN,2300,OVC,4700,,,,,MVFR,,,,,,,,,,,,METAR,441.0
KMGN 021835Z AUTO 27008G16KT 10SM CLR 00/M10 A3003 RMK AO2 T00081098,KMGN,2018-04-02T18:35:00Z,45.43,-84.92,0.8,-9.8,270,8,16,10.0,30.029528,,,TRUE,TRUE,,,,,,,CLR,,,,,,,,VFR,,,,,,,,,,,,METAR,209.0
KMDS 021835Z AUTO 15016G25KT 10SM SCT024 OVC039 00/M01 A2968 RMK AO2,KMDS,2018-04-02T18:35:00Z,44.02,-97.08,0.0,-1.0,150,16,25,10.0,29.681103,,,TRUE,TRUE,,,,,,,SCT,2400,OVC,3900,,,,,VFR,,,,,,,,,,,,METAR,524.0
KMAO 021835Z AUTO 24007G15KT 7SM CLR 27/10 A2997 RMK AO2,KMAO,2018-04-02T18:35:00Z,34.18,-79.33,27.0,10.0,240,7,15,7.0,29.970472,,,TRUE,TRUE,,,,,,,CLR,,,,,,,,VFR,,,,,,,,,,,,METAR,28.0
KLXL 021835Z AUTO 11004KT 3/4SM -SN OVC005 M02/M05 A2991 RMK AO2 P0001,KLXL,2018-04-02T18:35:00Z,45.95,-94.33,-2.0,-5.0,110,4,,0.75,29.911417,,,TRUE,TRUE,,,,,,-SN,OVC,500,,,,,,,LIFR,,,,,,0.01,,,,,,METAR,342.0
KJYG 021835Z AUTO 15013G17KT 10SM OVC033 M01/M05 A2988 RMK AO2,KJYG,2018-04-02T18:35:00Z,43.98,-94.55,-1.0,-5.0,150,13,17,10.0,29.878937,,,TRUE,TRUE,,,,,,,OVC,3300,,,,,,,VFR,,,,,,,,,,,,METAR,325.0
CYNM 021835Z AUTO 25010G22KT 220V280 9SM BKN033 BKN042 BKN048 OVC060 M03/M10 A2979 RMK ICG SLP112,CYNM,2018-04-02T18:35:00Z,49.77,-77.82,-3.0,-10.0,250,10,22,9.0,29.790354,1011.2,,TRUE,,,,,,,,BKN,3300,BKN,4200,BKN,4800,OVC,6000,VFR,,,,,,,,,,,,SPECI,281.0
KRGK 021835Z AUTO 17007KT 3/4SM -SN OVC007 M01/M05 A2995 RMK AO2,KRGK,2018-04-02T18:35:00Z,44.58,-92.48,-1.0,-5.0,170,7,,0.75,29.949802,,,TRUE,TRUE,,,,,,-SN,OVC,700,,,,,,,LIFR,,,,,,,,,,,,METAR,239.0
KPQN 021835Z AUTO 16016G19KT 10SM BKN020 OVC038 M01/M04 A2971 RMK AO2,KPQN,2018-04-02T18:35:00Z,43.97,-96.32,-1.0,-4.0,160,16,19,10.0,29.71063,,,TRUE,TRUE,,,,,,,BKN,2000,OVC,3800,,,,,MVFR,,,,,,,,,,,,METAR,529.0
KPOV 021835Z AUTO 20003KT 10SM SCT039 05/M05 A3010 RMK AO2 T00481047,KPOV,2018-04-02T18:35:00Z,41.22,-81.25,4.8,-4.7,200,3,,10.0,30.100393,,,TRUE,TRUE,,,,,,,SCT,3900,,,,,,,VFR,,,,,,,,,,,,METAR,365.0
KPLR 021835Z AUTO 20008G14KT 10SM CLR 25/11 A2999 RMK A01,KPLR,2018-04-02T18:35:00Z,33.57,-86.25,25.0,11.0,200,8,14,10.0,29.991142,,,TRUE,TRUE,,,,,,,CLR,,,,,,,,VFR,,,,,,,,,,,,METAR,148.0
KPHN 021835Z AUTO 20007KT 10SM CLR 04/M09 A3010 RMK AO2,KPHN,2018-04-02T18:35:00Z,42.92,-82.52,4.0,-9.0,200,7,,10.0,30.100393,,,TRUE,TRUE,,,,,,,CLR,,,,,,,,VFR,,,,,,,,,,,,METAR,198.0
KOZW 021835Z AUTO 21004KT 10SM CLR 05/M08 A3006 RMK AO2 T00471081,KOZW,2018-04-02T18:35:00Z,42.62,-83.97,4.7,-8.1,210,4,,10.0,30.059055,,,TRUE,TRUE,,,,,,,CLR,,,,,,,,VFR,,,,,,,,,,,,METAR,293.0
KOSC 021835Z AUTO 19012G18KT 10SM CLR 04/M08 A3003 RMK AO2 T00441079,KOSC,2018-04-02T18:35:00Z,44.45,-83.4,4.4,-7.9,190,12,18,10.0,30.029528,,,TRUE,TRUE,,,,,,,CLR,,,,,,,,VFR,,,,,,,,,,,,METAR,193.0
CYZP 021835Z AUTO /////KT 9SM 04/01 A2992 RMK WND MISG CLD MISG SLP133,CYZP,2018-04-02T18:35:00Z,53.25,-131.82,4.0,1.0,,,,9.0,29.920275,1013.3,,TRUE,,,,,,,,,,,,,,,,,,,,,,,,,,,,SPECI,6.0
KGDB 021835Z AUTO 10010G16KT 5SM HZ SCT044 OVC065 M01/M04 A2984 RMK AO2 T10081037,KGDB,2018-04-02T18:35:00Z,44.75,-95.55,-0.8,-3.7,100,10,16,5.0,29.840551,,,TRUE,TRUE,,,,,,HZ,SCT,4400,OVC,6500,,,,,MVFR,,,,,,,,,,,,METAR,319.0
KFMH 021835Z AUTO 04007KT 10SM OVC013 02/00 A3009 RMK AO2,KFMH,2018-04-02T18:35:00Z,41.63,-70.52,2.0,0.0,40,7,,10.0,30.088583,,,TRUE,TRUE,,,,,,,OVC,1300,,,,,,,MVFR,,,,,,,,,,,,METAR,40.0
KFKS 021835Z AUTO 26008G15KT 220V280 10SM CLR 02/M08 A3006 RMK AO2 T00161085,KFKS,2018-04-02T18:35:00Z,44.63,-86.2,1.6,-8.5,260,8,15,10.0,30.059055,,,TRUE,TRUE,,,,,,,CLR,,,,,,,,VFR,,,,,,,,,,,,METAR,193.0
KFKA 021835Z AUTO 14015G18KT 10SM SCT100 BKN120 01/M08 A2991 RMK AO2 T00101085,KFKA,2018-04-02T18:35:00Z,43.68,-92.17,1.0,-8.5,140,15,18,10.0,29.911417,,,TRUE,TRUE,,,,,,,SCT,10000,BKN,12000,,,,,VFR,,,,,,,,,,,,METAR,389.0
KFGN 021835Z AUTO 36009KT 10SM CLR M12/M23 A3002 RMK AO2,KFGN,2018-04-02T18:35:00Z,49.32,-94.9,-12.0,-23.0,360,9,,10.0,30.02067,,,TRUE,TRUE,,,,,,,CLR,,,,,,,,VFR,,,,,,,,,,,,METAR,328.0
KFFM 021835Z AUTO 08011KT 1 1/2SM -SN VV007 M03/M05 A2984 RMK AO2,KFFM,2018-04-02T18:35:00Z,46.28,-96.15,-3.0,-5.0,80,11,,1.5,29.840551,,,TRUE,TRUE,,,,,,-SN,OVX,0,,,,,,,LIFR,,,,,,,,,,,700,METAR,361.0
KFFL 021835Z AUTO 15019G26KT 10SM CLR 03/M06 A2993 RMK AO2 PWINO,KFFL,2018-04-02T18:35:00Z,41.03,-91.97,3.0,-6.0,150,19,26,10.0,29.929134,,,TRUE,TRUE,,,,,TRUE,,CLR,,,,,,,,VFR,,,,,,,,,,,,METAR,244.0
KERY 021835Z AUTO 28010G14KT 10SM OVC100 00/M13 A2998 RMK AO2 T00001132,KERY,2018-04-02T18:35:00Z,46.3,-85.45,0.0,-13.2,280,10,14,10.0,29.97933,,,TRUE,TRUE,,,,,,,OVC,10000,,,,,,,VFR,,,,,,,,,,,,METAR,265.0
KHAF 021835Z AUTO 33013KT 6SM HZ OVC012 13/10 A2993 RMK AO2,KHAF,2018-04-02T18:35:00Z,37.52,-122.5,13.0,10.0,330,13,,6.0,29.929134,,,TRUE,TRUE,,,,,,HZ,OVC,1200,,,,,,,MVFR,,,,,,,,,,,,METAR,21.0
KISQ 021835Z AUTO 18012G18KT 10SM CLR M01/M08 A3001 RMK AO2 T10091085,KISQ,2018-04-02T18:35:00Z,45.97,-86.17,-0.9,-8.5,180,12,18,10.0,30.008858,,,TRUE,TRUE,,,,,,,CLR,,,,,,,,VFR,,,,,,,,,,,,METAR,209.0
KIKW 021835Z AUTO 20005KT 10SM CLR 05/M07 A3005 RMK AO2 T00491074,KIKW,2018-04-02T18:35:00Z,43.67,-84.27,4.9,-7.4,200,5,,10.0,30.050198,,,TRUE,TRUE,,,,,,,CLR,,,,,,,,VFR,,,,,,,,,,,,METAR,194.0
KIKV 021835Z AUTO 17012G23KT 10SM FEW036 SCT045 04/M05 A2989 RMK AO2,KIKV,2018-04-02T18:35:00Z,41.68,-93.57,4.0,-5.0,170,12,23,10.0,29.890747,,,TRUE,TRUE,,,,,,,FEW,3600,SCT,4500,,,,,VFR,,,,,,,,,,,,METAR,275.0
KHYX 021835Z AUTO 21008G15KT 10SM CLR 05/M09 A3006 RMK AO2,KHYX,2018-04-02T18:35:00Z,43.43,-83.87,5.0,-9.0,210,8,15,10.0,30.059055,,,TRUE,TRUE,,,,,,,CLR,,,,,,,,VFR,,,,,,,,,,,,METAR,183.0
KJKJ 021835Z AUTO 07013KT 1 1/2SM -RA OVC003 M04/M06 A2988 RMK AO2,KJKJ,2018-04-02T18:35:00Z,46.83,-96.67,-4.0,-6.0,70,13,,1.5,29.878937,,,TRUE,TRUE,,,,,,-RA,OVC,300,,,,,,,LIFR,,,,,,,,,,,,METAR,280.0
KDXX 021835Z AUTO 12015KT 10SM UP BKN010 BKN014 OVC060 M01/M03 A2981 RMK AO2,KDXX,2018-04-02T18:35:00Z,44.98,-96.18,-1.0,-3.0,120,15,,10.0,29.811024,,,TRUE,TRUE,,,,,,UP,BKN,1000,BKN,1400,OVC,6000,,,MVFR,,,,,,,,,,,,METAR,330.0
KDRM 021835Z AUTO 25008G15KT 220V280 10SM CLR 00/M09 A3000 RMK AO2 T00031090,KDRM,2018-04-02T18:35:00Z,46.0,-83.75,0.3,-9.0,250,8,15,10.0,30.0,,,TRUE,TRUE,,,,,,,CLR,,,,,,,,VFR,,,,,,,,,,,,METAR,204.0
KDNS 021835Z AUTO 17016G24KT 10SM OVC023 02/M04 A2980 RMK AO2,KDNS,2018-04-02T18:35:00Z,41.97,-95.37,2.0,-4.0,170,16,24,10.0,29.799213,,,TRUE,TRUE,,,,,,,OVC,2300,,,,,,,MVFR,,,,,,,,,,,,METAR,388.0
KDLZ 021835Z AUTO 05004KT 10SM BKN028 05/M01 A3010 RMK AO2,KDLZ,2018-04-02T18:35:00Z,40.28,-83.12,5.0,-1.0,50,4,,10.0,30.100393,,,TRUE,TRUE,,,,,,,BKN,2800,,,,,,,MVFR,,,,,,,,,,,,METAR,289.0
K20U 021835Z AUTO 10015KT 10SM CLR M04/M08 A2977 RMK AO2,K20U,2018-04-02T18:35:00Z,46.93,-103.98,-4.0,-8.0,100,15,,10.0,29.769686,,,TRUE,TRUE,,,,,,,CLR,,,,,,,,VFR,,,,,,,,,,,,SPECI,840.0
KZPH 021835Z AUTO 17005KT 10SM SCT045 SCT060 SCT120 30/18 A3004 RMK AO2 T02960175,KZPH,2018-04-02T18:35:00Z,28.23,-82.15,29.6,17.5,170,5,,10.0,30.041338,,,TRUE,TRUE,,,,,,,SCT,4500,SCT,6000,SCT,12000,,,VFR,,,,,,,,,,,,SPECI,26.0
KMCJ 021835Z AUTO 14010KT 100V200 9SM FEW034 FEW046 29/18 A2987 RMK A01,KMCJ,2018-04-02T18:35:00Z,29.72,-95.4,29.0,18.0,140,10,,9.0,29.870079,,,TRUE,TRUE,,,,,,,FEW,3400,FEW,4600,,,,,VFR,,,,,,,,,,,,SPECI,69.0
KLUX 021835Z AUTO 27008G18KT 10SM CLR 26/05 A2996 RMK AO2,KLUX,2018-04-02T18:35:00Z,34.5,-81.95,26.0,5.0,270,8,18,10.0,29.958662,,,TRUE,TRUE,,,,,,,CLR,,,,,,,,VFR,,,,,,,,,,,,SPECI,213.0
KDCM 021835Z AUTO 22004KT 7SM CLR 27/01 A2996 RMK AO2,KDCM,2018-04-02T18:35:00Z,34.78,-81.2,27.0,1.0,220,4,,7.0,29.958662,,,TRUE,TRUE,,,,,,,CLR,,,,,,,,VFR,,,,,,,,,,,,SPECI,200.0
KMHL 021835Z AUTO 11008KT 2 1/2SM BR OVC006 00/00 A2994 RMK AO2,KMHL,2018-04-02T18:35:00Z,39.1,-93.2,0.0,0.0,110,8,,2.5,29.940945,,,TRUE,TRUE,,,,,,BR,OVC,600,,,,,,,IFR,,,,,,,,,,,,SPECI,237.0
KGPH 021835Z AUTO 14008G15KT 100V160 4SM BR OVC006 M01/M02 A2989 RMK AO2,KGPH,2018-04-02T18:35:00Z,39.33,-94.32,-1.0,-2.0,140,8,15,4.0,29.890747,,,TRUE,TRUE,,,,,,BR,OVC,600,,,,,,,IFR,,,,,,,,,,,,SPECI,235.0
KLQK 021835Z AUTO 21009KT 180V240 10SM CLR 26/08 A2994 RMK AO2 T02560078,KLQK,2018-04-02T18:35:00Z,34.82,-82.7,25.6,7.8,210,9,,10.0,29.940945,,,TRUE,TRUE,,,,,,,CLR,,,,,,,,VFR,,,,,,,,,,,,SPECI,309.0
KRAW 021835Z AUTO 11003KT 2SM BR OVC005 A2990 RMK AO2,KRAW,2018-04-02T18:35:00Z,38.35,-93.35,,,110,3,,2.0,29.899607,,,TRUE,TRUE,,,,,,BR,OVC,500,,,,,,,IFR,,,,,,,,,,,,SPECI,285.0
KS32 021835Z AUTO 05019G25KT 10SM SCT035 OVC043 M09/M13 A2988 RMK AO2,KS32,2018-04-02T18:35:00Z,47.42,-98.1,-9.0,-13.0,50,19,25,10.0,29.878937,,,TRUE,TRUE,,,,,,,SCT,3500,OVC,4300,,,,,VFR,,,,,,,,,,,,SPECI,684.0
KSPA 021835Z AUTO 25008KT 7SM CLR 26/04 A2994 RMK AO2,KSPA,2018-04-02T18:35:00Z,34.92,-81.93,26.0,4.0,250,8,,7.0,29.940945,,,TRUE,TRUE,,,,,,,CLR,,,,,,,,VFR,,,,,,,,,,,,SPECI,303.0
KCQW 021835Z AUTO 28010KT 220V290 10SM CLR 29/06 A2995 RMK AO2,KCQW,2018-04-02T18:35:00Z,34.72,-79.95,29.0,6.0,280,10,,10.0,29.949802,,,TRUE,TRUE,,,,,,,CLR,,,,,,,,VFR,,,,,,,,,,,,SPECI,73.0
K96D 021835Z AUTO 02011G17KT 10SM CLR M10/M19 A3004 RMK AO2,K96D,2018-04-02T18:35:00Z,48.93,-97.9,-10.0,-19.0,20,11,17,10.0,30.041338,,,TRUE,TRUE,,,,,,,CLR,,,,,,,,VFR,,,,,,,,,,,,SPECI,290.0
KCKI 021835Z AUTO 20008KT 10SM CLR 26/07 A2999 RMK AO2,KCKI,2018-04-02T18:35:00Z,33.72,-79.85,26.0,7.0,200,8,,10.0,29.991142,,,TRUE,TRUE,,,,,,,CLR,,,,,,,,VFR,,,,,,,,,,,,SPECI,21.0
KDEH 021835Z AUTO 16011G16KT 10SM CLR 01/M08 A2993 RMK AO2,KDEH,2018-04-02T18:35:00Z,43.27,-91.72,1.0,-8.0,160,11,16,10.0,29.929134,,,TRUE,TRUE,,,,,,,CLR,,,,,,,,VFR,,,,,,,,,,,,SPECI,353.0
KEKX 021835Z AUTO 09009KT 10SM BKN017 OVC034 08/05 A3003 RMK AO2 T00810048,KEKX,2018-04-02T18:35:00Z,,,8.1,4.8,90,9,,10.0,30.029528,,,TRUE,TRUE,,,,,,,BKN,1700,OVC,3400,,,,,MVFR,,,,,,,,,,,,SPECI,
KIFA 021835Z AUTO 14018KT 10SM CLR 04/M06 A2990 RMK AO2 T00361057,KIFA,2018-04-02T18:35:00Z,42.47,-93.27,3.6,-5.7,140,18,,10.0,29.899607,,,TRUE,TRUE,,,,,,,CLR,,,,,,,,VFR,,,,,,,,,,,,SPECI,347.0
KLRY 021835Z AUTO 14006KT 3SM BR OVC005 01/00 A2990 RMK AO2,KLRY,2018-04-02T18:35:00Z,38.62,-94.35,1.0,0.0,140,6,,3.0,29.899607,,,TRUE,TRUE,,,,,,BR,OVC,500,,,,,,,IFR,,,,,,,,,,,,SPECI,279.0
KRID 021835Z AUTO 13009KT 10SM OVC021 04/00 A3007 RMK AO2,KRID,2018-04-02T18:35:00Z,39.75,-84.85,4.0,0.0,130,9,,10.0,30.070866,,,TRUE,TRUE,,,,,,,OVC,2100,,,,,,,MVFR,,,,,,,,,,,,SPECI,348.0
KSTF 021835Z AUTO 19006KT 10SM BKN047 BKN055 24/13 A2997 RMK AO2,KSTF,2018-04-02T18:35:00Z,33.43,-88.85,24.0,13.0,190,6,,10.0,29.970472,,,TRUE,TRUE,,,,,,,BKN,4700,BKN,5500,,,,,VFR,,,,,,,,,,,,SPECI,102.0
KVDF 021835Z AUTO 00000KT 10SM SCT040 SCT049 BKN110 27/19 A3003 RMK AO2,KVDF,2018-04-02T18:35:00Z,28.02,-82.33,27.0,19.0,0,0,,10.0,30.029528,,,TRUE,TRUE,,,,,,,SCT,4000,SCT,4900,BKN,11000,,,VFR,,,,,,,,,,,,SPECI,7.0
KFDW 021835Z AUTO 20007KT 10SM CLR 27/07 A2997 RMK AO1,KFDW,2018-04-02T18:35:00Z,34.32,-81.12,27.0,7.0,200,7,,10.0,29.970472,,,TRUE,TRUE,,,,,,,CLR,,,,,,,,VFR,,,,,,,,,,,,SPECI,176.0
KRCM 021835Z AUTO 09007KT 4SM BR OVC005 00/M01 A2990 RMK AO2,KRCM,2018-04-02T18:35:00Z,38.78,-93.8,0.0,-1.0,90,7,,4.0,29.899607,,,TRUE,TRUE,,,,,,BR,OVC,500,,,,,,,IFR,,,,,,,,,,,,SPECI,244.0
KSIK 021835Z AUTO 07006KT 10SM OVC008 06/04 A3000 RMK AO2,KSIK,2018-04-02T18:35:00Z,36.9,-89.57,6.0,4.0,70,6,,10.0,30.0,,,TRUE,TRUE,,,,,,,OVC,800,,,,,,,IFR,,,,,,,,,,,,SPECI,96.0
KLUL 021835Z AUTO 00000KT SCT041 SCT050 23/13 A3002 RMK AO2 T02320130,KLUL,2018-04-02T18:35:00Z,31.67,-89.17,23.2,13.0,0,0,,,30.02067,,,TRUE,TRUE,,,,,,,SCT,4100,SCT,5000,,,,,,,,,,,,,,,,,METAR,73.0
KPTS 021835Z AUTO 14004KT 2SM BR OVC005 04/04 A2984 RMK AO2 T00350036,KPTS,2018-04-02T18:35:00Z,37.45,-94.73,3.5,3.6,140,4,,2.0,29.840551,,,TRUE,TRUE,,,,,,BR,OVC,500,,,,,,,IFR,,,,,,,,,,,,METAR,290.0
KTKC 021835Z AUTO 15012G19KT 10SM SCT046 OVC060 00/M04 A2978 RMK AO2 T00001036,KTKC,2018-04-02T18:35:00Z,44.25,-95.62,0.0,-3.6,150,12,19,10.0,29.778543,,,TRUE,TRUE,,,,,,,SCT,4600,OVC,6000,,,,,VFR,,,,,,,,,,,,METAR,408.0
KSYM 021835Z AUTO 13004KT 10SM OVC013 06/02 A3009 RMK AO2,KSYM,2018-04-02T18:35:00Z,38.22,-83.58,6.0,2.0,130,4,,10.0,30.088583,,,TRUE,TRUE,,,,,,,OVC,1300,,,,,,,MVFR,,,,,,,,,,,,METAR,313.0
KRZT 021835Z AUTO 00000KT 10SM OVC017 03/00 A3012 RMK AO2,KRZT,2018-04-02T18:35:00Z,39.43,-83.02,3.0,0.0,0,0,,10.0,30.121063,,,TRUE,TRUE,,,,,,,OVC,1700,,,,,,,MVFR,,,,,,,,,,,,METAR,221.0
KRRT 021835Z AUTO 06008KT 10SM CLR M10/M18 A3001 RMK AO2,KRRT,2018-04-02T18:35:00Z,48.93,-95.33,-10.0,-18.0,60,8,,10.0,30.008858,,,TRUE,TRUE,,,,,,,CLR,,,,,,,,VFR,,,,,,,,,,,,METAR,327.0
KROX 021835Z AUTO 06006KT 10SM CLR M08/M16 A3000 RMK AO2,KROX,2018-04-02T18:35:00Z,48.85,-95.7,-8.0,-16.0,60,6,,10.0,30.0,,,TRUE,TRUE,,,,,,,CLR,,,,,,,,VFR,,,,,,,,,,,,METAR,323.0
KEDJ 021835Z AUTO 18003KT 10SM CLR 03/M04 A3008 RMK AO1,KEDJ,2018-04-02T18:35:00Z,40.37,-83.82,3.0,-4.0,180,3,,10.0,30.079725,,,TRUE,TRUE,,,,,,,CLR,,,,,,,,VFR,,,,,,,,,,,,METAR,342.0
KTNU 021835Z AUTO 15016G23KT 10SM CLR 04/M06 A2989 RMK AO2,KTNU,2018-04-02T18:35:00Z,41.67,-93.02,4.0,-6.0,150,16,23,10.0,29.890747,,,TRUE,TRUE,,,,,,,CLR,,,,,,,,VFR,,,,,,,,,,,,METAR,290.0
KTWM 021835Z AUTO 16006KT 10SM CLR 01/M08 A2993 RMK AO2,KTWM,2018-04-02T18:35:00Z,47.03,-91.75,1.0,-8.0,160,6,,10.0,29.929134,,,TRUE,TRUE,,,,,,,CLR,,,,,,,,VFR,,,,,,,,,,,,METAR,328.0
KUKT 021835Z AUTO 36004KT 10SM OVC022 04/M01 A3013 RMK A01,KUKT,2018-04-02T18:35:00Z,40.43,-75.38,4.0,-1.0,360,4,,10.0,30.129921,,,TRUE,TRUE,,,,,,,OVC,2200,,,,,,,MVFR,,,,,,,,,,,,METAR,160.0
KVVV 021835Z AUTO 12013KT 10SM SCT004 SCT008 BKN044 M02/M04 A2980 RMK AO2,KVVV,2018-04-02T18:35:00Z,45.3,-96.42,-2.0,-4.0,120,13,,10.0,29.799213,,,TRUE,TRUE,,,,,,,SCT,400,SCT,800,BKN,4400,,,VFR,,,,,,,,,,,,METAR,335.0
KVNC 021835Z AUTO 10SM CLR 27/20 A3004 RMK AO2,KVNC,2018-04-02T18:35:00Z,27.07,-82.43,27.0,20.0,,,,10.0,30.041338,,,TRUE,TRUE,,,,,,,CLR,,,,,,,,VFR,,,,,,,,,,,,METAR,6.0
KULM 021835Z AUTO 17010G16KT 10SM OVC038 00/M07 A2988 RMK AO2,KULM,2018-04-02T18:35:00Z,44.32,-94.5,0.0,-7.0,170,10,16,10.0,29.878937,,,TRUE,TRUE,,,,,,,OVC,3800,,,,,,,VFR,,,,,,,,,,,,METAR,308.0
KVWU 021835Z AUTO 35003KT 10SM SCT018 BKN031 OVC042 M04/M13 A2994 RMK AO2,KVWU,2018-04-02T18:35:00Z,48.15,-94.52,-4.0,-13.0,350,3,,10.0,29.940945,,,TRUE,TRUE,,,,,,,SCT,1800,BKN,3100,OVC,4200,,,VFR,,,,,,,,,,,,METAR,360.0
KY63 021835Z AUTO 13009KT 1/2SM -SN BKN006 OVC014 M02/M03 A2984 RMK AO2 T10201028,KY63,2018-04-02T18:35:00Z,45.98,-96.0,-2.0,-2.8,130,9,,0.5,29.840551,,,TRUE,TRUE,,,,,,-SN,BKN,600,OVC,1400,,,,,LIFR,,,,,,,,,,,,METAR,367.0
KVTI 021835Z AUTO 11011G15KT 10SM CLR 03/M09 A2992 RMK AO2 T00331094,KVTI,2018-04-02T18:35:00Z,42.22,-92.02,3.3,-9.4,110,11,15,10.0,29.920275,,,TRUE,TRUE,,,,,,,CLR,,,,,,,,VFR,,,,,,,,,,,,SPECI,255.0
KPEA 021835Z AUTO 17015G20KT 10SM CLR 04/M05 A2991 RMK AO2 T00361054,KPEA,2018-04-02T18:35:00Z,41.4,-92.95,3.6,-5.4,170,15,20,10.0,29.911417,,,TRUE,TRUE,,,,,,,CLR,,,,,,,,VFR,,,,,,,,,,,,SPECI,270.0
KMNI 021835Z 10SM CLR A2999 RMK AO2,KMNI,2018-04-02T18:35:00Z,33.58,-80.22,,,,,,10.0,29.991142,,,,TRUE,,,,,,,CLR,,,,,,,,VFR,,,,,,,,,,,,SPECI,32.0
KM25 021835Z AUTO 11003KT 10SM OVC007 06/05 A3001 RMK AO2,KM25,2018-04-02T18:35:00Z,36.77,-88.58,6.0,5.0,110,3,,10.0,30.008858,,,TRUE,TRUE,,,,,,,OVC,700,,,,,,,IFR,,,,,,,,,,,,SPECI,160.0
KLKR 021835Z AUTO 25011G20KT 10SM CLR 27/02 A2996 RMK AO2,KLKR,2018-04-02T18:35:00Z,34.72,-80.85,27.0,2.0,250,11,20,10.0,29.958662,,,TRUE,TRUE,,,,,,,CLR,,,,,,,,VFR,,,,,,,,,,,,SPECI,149.0
KDYB 021835Z AUTO 25005KT 10SM CLR 26/11 A3001 RMK AO1,KDYB,2018-04-02T18:35:00Z,33.07,-80.28,26.0,11.0,250,5,,10.0,30.008858,,,TRUE,TRUE,,,,,,,CLR,,,,,,,,VFR,,,,,,,,,,,,SPECI,18.0
KC62 021835Z AUTO 20005KT 10SM CLR 04/M06 A3007 RMK AO2 T00431066,KC62,2018-04-02T18:35:00Z,41.47,-85.25,4.3,-6.6,200,5,,10.0,30.070866,,,TRUE,TRUE,,,,,,,CLR,,,,,,,,VFR,,,,,,,,,,,,SPECI,306.0
KBRY 021835Z AUTO 11004KT 10SM OVC017 08/03 A3003 RMK AO1,KBRY,2018-04-02T18:35:00Z,37.82,-85.5,8.0,3.0,110,4,,10.0,30.029528,,,TRUE,TRUE,,,,,,,OVC,1700,,,,,,,MVFR,,,,,,,,,,,,SPECI,204.0
KJRB 021835Z VRB05KT 10SM 04/00 RMK AO2 PWINO FZRANO RVRNO,KJRB,2018-04-02T18:35:00Z,40.7,-74.02,4.0,0.0,0,5,,10.0,,,,,TRUE,,,,TRUE,TRUE,,,,,,,,,,,,,,,,,,,,,,METAR,7.0
K2V6 021834Z AUTO 27010G16KT 10SM CLR 24/M08 A2944 RMK AO2,K2V6,2018-04-02T18:34:00Z,40.1,-102.72,24.0,-8.0,270,10,16,10.0,29.438976,,,TRUE,TRUE,,,,,,,CLR,,,,,,,,VFR,,,,,,,,,,,,METAR,1261.0
CYPH 021834Z AUTO 00000KT 3SM HZ OVC003 M20/M23 A2980 RMK SLP097,CYPH,2018-04-02T18:34:00Z,58.45,-78.08,-20.0,-23.0,0,0,,3.0,29.799213,1009.7,,TRUE,,,,,,,HZ,OVC,300,,,,,,,LIFR,,,,,,,,,,,,SPECI,3.0
KSET 021834Z AUTO 11011KT 10SM BKN014 BKN041 OVC049 02/M01 A3000 RMK AO2 T00221011,KSET,2018-04-02T18:34:00Z,38.93,-90.43,2.2,-1.1,110,11,,10.0,30.0,,,TRUE,TRUE,,,,,,,BKN,1400,BKN,4100,OVC,4900,,,MVFR,,,,,,,,,,,,SPECI,134.0
KXVG 021833Z AUTO 00000KT 1SM -SN BKN010 OVC015 M04/M07 A2992 RMK AO2,KXVG,2018-04-02T18:33:00Z,46.98,-94.2,-4.0,-7.0,0,0,,1.0,29.920275,,,TRUE,TRUE,,,,,,-SN,BKN,1000,OVC,1500,,,,,IFR,,,,,,,,,,,,SPECI,407.0
KSGH 021833Z AUTO 14007KT 10SM BKN027 05/00 A3009 RMK AO2,KSGH,2018-04-02T18:33:00Z,39.83,-83.83,5.0,0.0,140,7,,10.0,30.088583,,,TRUE,TRUE,,,,,,,BKN,2700,,,,,,,MVFR,,,,,,,,,,,,SPECI,321.0
CYRJ 021833Z 25006KT 200V270 40SM BKN043 M01/M10 A2995 RMK SC7 SLP156,CYRJ,2018-04-02T18:33:00Z,48.52,-72.27,-1.0,-10.0,250,6,,40.0,29.949802,1015.6,,,,,,,,,,BKN,4300,,,,,,,VFR,,,,,,,,,,,,SPECI,179.0
EGVN 021833Z 20008KT 9999 FEW015 BKN046 11/08 Q0992 BLU TEMPO SCT015 WHT,EGVN,2018-04-02T18:33:00Z,51.77,-1.58,11.0,8.0,200,8,,6.21,29.291338,,,,,,,,,,,FEW,1500,BKN,4600,,,,,VFR,,,,,,,,,,,,METAR,88.0
KTAN 021833Z AUTO 01004KT 10SM BKN016 04/00 A3009 RMK AO2 T00390000,KTAN,2018-04-02T18:33:00Z,41.88,-71.02,3.9,0.0,10,4,,10.0,30.088583,,,TRUE,TRUE,,,,,,,BKN,1600,,,,,,,MVFR,,,,,,,,,,,,SPECI,7.0
KPHD 021833Z AUTO 00000KT 10SM BKN018 OVC030 04/M01 A3013 RMK AO2 T00391006,KPHD,2018-04-02T18:33:00Z,40.47,-81.42,3.9,-0.6,0,0,,10.0,30.129921,,,TRUE,TRUE,,,,,,,BKN,1800,OVC,3000,,,,,MVFR,,,,,,,,,,,,SPECI,272.0
KORB 021833Z AUTO 00000KT 10SM CLR M04/M14 A2991 RMK AO2,KORB,2018-04-02T18:33:00Z,48.02,-92.87,-4.0,-14.0,0,0,,10.0,29.911417,,,TRUE,TRUE,,,,,,,CLR,,,,,,,,VFR,,,,,,,,,,,,SPECI,397.0
KFOZ 021833Z AUTO 00000KT 10SM SCT032 M03/M11 A2992 RMK AO2,KFOZ,2018-04-02T18:33:00Z,47.77,-93.65,-3.0,-11.0,0,0,,10.0,29.920275,,,TRUE,TRUE,,,,,,,SCT,3200,,,,,,,VFR,,,,,,,,,,,,SPECI,411.0
KCKV 021833Z AUTO 12005KT 10SM OVC010 08/06 A3001 RMK AO2 T00830056,KCKV,2018-04-02T18:33:00Z,36.62,-87.42,8.3,5.6,120,5,,10.0,30.008858,,,TRUE,TRUE,,,,,,,OVC,1000,,,,,,,MVFR,,,,,,,,,,,,SPECI,165.0
KMLP 021832Z AUTO VRB04KT 4SM -SN BR FEW008 BKN016 OVC025 M07/M09 A2966 RMK AO2 P0001 T10721094 TSNO,KMLP,2018-04-02T18:32:00Z,47.45,-115.67,-7.2,-9.4,0,4,,4.0,29.660433,,,TRUE,TRUE,,,TRUE,,,-SN BR,FEW,800,BKN,1600,OVC,2500,,,MVFR,,,,,,0.01,,,,,,SPECI,1837.0
KHTS 021832Z 01004KT 10SM OVC009 06/02 A3009 RMK AO2 T00560022,KHTS,2018-04-02T18:32:00Z,38.37,-82.55,5.6,2.2,10,4,,10.0,30.088583,,,,TRUE,,,,,,,OVC,900,,,,,,,IFR,,,,,,,,,,,,SPECI,254.0
KETH 021832Z AUTO 10011KT 1 1/4SM -SN OVC007 M02/M03 A2983 RMK AO2,KETH,2018-04-02T18:32:00Z,45.78,-96.55,-2.0,-3.0,100,11,,1.25,29.828741,,,TRUE,TRUE,,,,,,-SN,OVC,700,,,,,,,IFR,,,,,,,,,,,,SPECI,313.0
KILE 021832Z AUTO 35006KT 1 1/4SM -RA BR OVC004 11/10 A2989 RMK AO2 VIS 1V2 1/2 RAB30 P0000,KILE,2018-04-02T18:32:00Z,31.07,-97.67,11.0,10.0,350,6,,1.25,29.890747,,,TRUE,TRUE,,,,,,-RA BR,OVC,400,,,,,,,LIFR,,,,,,0.005,,,,,,SPECI,258.0
CYMO 021831Z AUTO 31012KT 250V350 4SM HZ OVC026 M12/M17 A3001 RMK SLP165,CYMO,2018-04-02T18:31:00Z,51.28,-80.62,-12.0,-17.0,310,12,,4.0,30.008858,1016.5,,TRUE,,,,,,,HZ,OVC,2600,,,,,,,MVFR,,,,,,,,,,,,SPECI,10.0
CYMH 021831Z AUTO 34008G15KT 9SM SCT020 BKN027 BKN036 OVC055 M01/M05 A2967 RMK SLP050,CYMH,2018-04-02T18:31:00Z,52.28,-55.85,-1.0,-5.0,340,8,15,9.0,29.66929,1005.0,,TRUE,,,,,,,,SCT,2000,BKN,2700,BKN,3600,OVC,5500,MVFR,,,,,,,,,,,,SPECI,11.0
CYAH 021831Z AUTO 13006KT 3SM -SN FEW019 BKN027 OVC034 M07/M11 A2968 RMK SLP082,CYAH,2018-04-02T18:31:00Z,53.75,-73.67,-7.0,-11.0,130,6,,3.0,29.681103,1008.2,,TRUE,,,,,,,-SN,FEW,1900,BKN,2700,OVC,3400,,,MVFR,,,,,,,,,,,,SPECI,306.0
EGVA 021831Z AUTO 21012KT M M SCT016 OVC046 M A2932 RMK AO2 SLPNO ALSTG ESTMD RVRNO $,EGVA,2018-04-02T18:31:00Z,51.67,-1.77,,,210,12,,,29.320866,,,TRUE,TRUE,TRUE,,,,,,SCT,1600,OVC,4600,,,,,,,,,,,,,,,,,METAR,87.0
PAGM 021831Z AUTO 1/2SM FZFG OVC002 M04/M04 A3068 RMK AO2 FZRANO $,PAGM,2018-04-02T18:31:00Z,63.77,-171.73,-4.0,-4.0,,,,0.5,30.679134,,,TRUE,TRUE,TRUE,,,TRUE,,FZFG,OVC,200,,,,,,,LIFR,,,,,,,,,,,,SPECI,8.0
KAQP 021831Z AUTO 13010G17KT 5SM -SN SCT004 BKN014 OVC047 M01/M03 A2982 RMK AO2,KAQP,2018-04-02T18:31:00Z,45.22,-96.0,-1.0,-3.0,130,10,17,5.0,29.819881,,,TRUE,TRUE,,,,,,-SN,SCT,400,BKN,1400,OVC,4700,,,MVFR,,,,,,,,,,,,SPECI,311.0
KMKO 021831Z AUTO 16007KT 1 1/4SM BR OVC003 06/06 A2988 RMK AO2 T00610061,KMKO,2018-04-02T18:31:00Z,35.65,-95.37,6.1,6.1,160,7,,1.25,29.878937,,,TRUE,TRUE,,,,,,BR,OVC,300,,,,,,,LIFR,,,,,,,,,,,,SPECI,185.0
KSTC 021831Z 20007KT 1/4SM SN FZFG VV009 M02/M03 A2992 RMK AO2 P0003 T10221028,KSTC,2018-04-02T18:31:00Z,45.55,-94.05,-2.2,-2.8,200,7,,0.25,29.920275,,,,TRUE,,,,,,SN FZFG,OVX,0,,,,,,,LIFR,,,,,,0.03,,,,,900,SPECI,314.0
FMEP 021830Z AUTO 02003KT CAVOK 25/21 Q1014,FMEP,2018-04-02T18:30:00Z,-21.32,55.42,25.0,21.0,20,3,,6.21,29.940945,,,TRUE,,,,,,,,CAVOK,,,,,,,,VFR,,,,,,,,,,,,METAR,18.0
FMEE 021830Z AUTO 12009KT CAVOK 26/22 Q1014 NOSIG,FMEE,2018-04-02T18:30:00Z,-20.87,55.52,26.0,22.0,120,9,,6.21,29.940945,,,TRUE,,,TRUE,,,,,CAVOK,,,,,,,,VFR,,,,,,,,,,,,METAR,25.0
ROAH 021830Z 11004KT 9999 FEW035 BKN050 21/15 Q1015 RMK 1CU035 5SC050 A2999,ROAH,2018-04-02T18:30:00Z,26.17,127.65,21.0,15.0,110,4,,6.21,29.970472,,,,,,,,,,,FEW,3500,BKN,5000,,,,,VFR,,,,,,,,,,,,METAR,8.0
RJTT 021830Z 03007KT 9999 BKN016 BKN025 15/12 Q1018 NOSIG RMK 5SC016 7SC025 A3008,RJTT,2018-04-02T18:30:00Z,35.53,139.77,15.0,12.0,30,7,,6.21,30.059055,,,,,,TRUE,,,,,BKN,1600,BKN,2500,,,,,MVFR,,,,,,,,,,,,METAR,8.0
RJFF 021830Z AUTO 15006KT 9999 NCD 16/12 Q1017 RMK A3006,RJFF,2018-04-02T18:30:00Z,33.57,130.43,16.0,12.0,150,6,,6.21,30.029528,,,TRUE,,,,,,,,CLR,,,,,,,,VFR,,,,,,,,,,,,METAR,12.0
RJCC 021830Z 14012KT 6000 FEW004 SCT005 BKN006 04/04 Q1014 RMK 1ST004 3ST005 6ST006 A2996,RJCC,2018-04-02T18:30:00Z,42.77,141.67,4.0,4.0,140,12,,3.73,29.940945,,,,,,,,,,,FEW,400,SCT,500,BKN,600,,,IFR,,,,,,,,,,,,METAR,30.0
RJAA 021830Z 02005KT 9999 FEW015 BKN040 13/11 Q1018 NOSIG RMK 1CU015 7SC040 A3008,RJAA,2018-04-02T18:30:00Z,35.77,140.37,13.0,11.0,20,5,,6.21,30.059055,,,,,,TRUE,,,,,FEW,1500,BKN,4000,,,,,VFR,,,,,,,,,,,,METAR,44.0
LWSK 021830Z VRB02KT CAVOK 09/03 Q1018 NOSIG,LWSK,2018-04-02T18:30:00Z,41.97,21.63,9.0,3.0,0,2,,6.21,30.059055,,,,,,TRUE,,,,,CAVOK,,,,,,,,VFR,,,,,,,,,,,,METAR,239.0
UKWW 021830Z 30007MPS 9999 OVC020 02/M01 Q1010 R31/0///65 NOSIG,UKWW,2018-04-02T18:30:00Z,49.25,28.6,2.0,-1.0,300,14,,6.21,29.822834,,,,,,TRUE,,,,,OVC,2000,,,,,,,MVFR,,,,,,,,,,,,METAR,293.0
UKOH 021830Z 32002MPS CAVOK 05/01 Q1012 R03/CLRD65 NOSIG,UKOH,2018-04-02T18:30:00Z,46.67,32.5,5.0,1.0,320,4,,6.21,29.88189,,,,,,TRUE,,,,,CAVOK,,,,,,,,VFR,,,,,,,,,,,,METAR,45.0
UKLN 021830Z 23002MPS 190V270 CAVOK 05/00 Q1013 R33/09//70 NOSIG,UKLN,2018-04-02T18:30:00Z,48.27,25.98,5.0,0.0,230,4,,6.21,29.911417,,,,,,TRUE,,,,,CAVOK,,,,,,,,VFR,,,,,,,,,,,,METAR,252.0
UKKM 021830Z AUTO 27005MPS 9999 // ///018/// 03/01 Q1008,UKKM,2018-04-02T18:30:00Z,50.6,30.2,3.0,1.0,270,10,,6.21,29.763779,,,TRUE,,,,,,,,,,,,,,,,,,,,,,,,,,,,METAR,157.0
UKKK 021830Z 29006MPS 9999 -RA OVC019 03/M00 Q1008 R26/190060 NOSIG,UKKK,2018-04-02T18:30:00Z,50.4,30.45,3.0,0.0,290,12,,6.21,29.763779,,,,,,TRUE,,,,-RA,OVC,1900,,,,,,,MVFR,,,,,,,,,,,,METAR,179.0
UKLI 021830Z 25002MPS CAVOK 02/M01 Q1013 R28/090070 NOSIG,UKLI,2018-04-02T18:30:00Z,48.88,24.68,2.0,-1.0,250,4,,6.21,29.911417,,,,,,TRUE,,,,,CAVOK,,,,,,,,VFR,,,,,,,,,,,,METAR,280.0
VTSS 021830Z 00000KT 9999 FEW020 26/25 Q1010 NOSIG,VTSS,2018-04-02T18:30:00Z,6.92,100.38,26.0,25.0,0,0,,6.21,29.822834,,,,,,TRUE,,,,,FEW,2000,,,,,,,VFR,,,,,,,,,,,,METAR,35.0
VTSP 021830Z VRB02KT 8000 FEW020 26/23 Q1011 NOSIG,VTSP,2018-04-02T18:30:00Z,8.12,98.32,26.0,23.0,0,2,,4.97,29.852362,,,,,,TRUE,,,,,FEW,2000,,,,,,,MVFR,,,,,,,,,,,,METAR,10.0
VTCC 021830Z 04004KT 350V090 8000 FEW035 23/19 Q1015 NOSIG,VTCC,2018-04-02T18:30:00Z,18.77,98.97,23.0,19.0,40,4,,4.97,29.970472,,,,,,TRUE,,,,,FEW,3500,,,,,,,MVFR,,,,,,,,,,,,METAR,314.0
VTBU 021830Z 34004KT 5000 BR FEW020 24/20 Q1010,VTBU,2018-04-02T18:30:00Z,12.68,101.0,24.0,20.0,340,4,,3.11,29.822834,,,,,,,,,,BR,FEW,2000,,,,,,,MVFR,,,,,,,,,,,,METAR,5.0
VTBS 021830Z 07003KT 320V130 9999 FEW020 24/21 Q1010 NOSIG,VTBS,2018-04-02T18:30:00Z,13.68,100.75,24.0,21.0,70,3,,6.21,29.822834,,,,,,TRUE,,,,,FEW,2000,,,,,,,VFR,,,,,,,,,,,,METAR,2.0
VTBD 021830Z 11005KT 9000 FEW020 24/24 Q1010 NOSIG,VTBD,2018-04-02T18:30:00Z,13.92,100.6,24.0,24.0,110,5,,5.59,29.822834,,,,,,TRUE,,,,,FEW,2000,,,,,,,VFR,,,,,,,,,,,,METAR,3.0
VVTS 021830Z 16006KT 120V200 9999 FEW015 26/23 Q1010 NOSIG,VVTS,2018-04-02T18:30:00Z,10.82,106.67,26.0,23.0,160,6,,6.21,29.822834,,,,,,TRUE,,,,,FEW,1500,,,,,,,VFR,,,,,,,,,,,,METAR,19.0
VVNB 021830Z 08005KT 5000 BR NSC 22/20 Q1011 NOSIG,VVNB,2018-04-02T18:30:00Z,21.22,105.8,22.0,20.0,80,5,,3.11,29.852362,,,,,,TRUE,,,,BR,CLR,,,,,,,,MVFR,,,,,,,,,,,,METAR,12.0
VVDN 021830Z 22002KT 8000 FEW015 21/20 Q1013 NOSIG,VVDN,2018-04-02T18:30:00Z,16.02,108.2,21.0,20.0,220,2,,4.97,29.911417,,,,,,TRUE,,,,,FEW,1500,,,,,,,MVFR,,,,,,,,,,,,METAR,7.0
VVCR 021830Z 35002KT 9999 FEW015 25/20 Q1012 NOSIG,VVCR,2018-04-02T18:30:00Z,12.0,109.22,25.0,20.0,350,2,,6.21,29.88189,,,,,,TRUE,,,,,FEW,1500,,,,,,,VFR,,,,,,,,,,,,METAR,12.0
VVCI 021830Z 00000KT 9999 FEW009 SCT011 23/20 Q1012 NOSIG,VVCI,2018-04-02T18:30:00Z,20.82,106.73,23.0,20.0,0,0,,6.21,29.88189,,,,,,TRUE,,,,,FEW,900,SCT,1100,,,,,VFR,,,,,,,,,,,,METAR,3.0
VYYY 021830Z 25006KT 7000 FEW110 27/23 Q1010,VYYY,2018-04-02T18:30:00Z,16.9,96.13,27.0,23.0,250,6,,4.35,29.822834,,,,,,,,,,,FEW,11000,,,,,,,MVFR,,,,,,,,,,,,METAR,33.0
VDSR 021830Z 25005KT 9000 NSC 25/25 Q1009,VDSR,2018-04-02T18:30:00Z,13.42,103.83,25.0,25.0,250,5,,5.59,29.793306,,,,,,,,,,,CLR,,,,,,,,VFR,,,,,,,,,,,,METAR,15.0
VDPP 021830Z 18004KT 9000 FEW017 SCT040 27/23 Q1009,VDPP,2018-04-02T18:30:00Z,11.55,104.83,27.0,23.0,180,4,,5.59,29.793306,,,,,,,,,,,FEW,1700,SCT,4000,,,,,VFR,,,,,,,,,,,,METAR,10.0
EIWF 021830Z 21008KT 0350 FG OVC001 09/08 Q0987 R21/2/////,EIWF,2018-04-02T18:30:00Z,52.18,-7.08,9.0,8.0,210,8,,0.22,29.143702,,,,,,,,,,FG,OVC,100,,,,,,,LIFR,,,,,,,,,,,,METAR,36.0
EIDL 021830Z 06022KT 9999 -RA FEW027 04/01 Q0990,EIDL,2018-04-02T18:30:00Z,55.05,-8.33,4.0,1.0,60,22,,6.21,29.232283,,,,,,,,,,-RA,FEW,2700,,,,,,,VFR,,,,,,,,,,,,METAR,9.0
LRBS 021830Z 36002KT CAVOK 10/M03 Q1016 NOSIG,LRBS,2018-04-02T18:30:00Z,44.5,26.08,10.0,-3.0,360,2,,6.21,30.0,,,,,,TRUE,,,,,CAVOK,,,,,,,,VFR,,,,,,,,,,,,METAR,91.0
LPPD 021830Z 28021KT 9999 FEW025 16/09 Q1013,LPPD,2018-04-02T18:30:00Z,37.72,-25.68,16.0,9.0,280,21,,6.21,29.911417,,,,,,,,,,,FEW,2500,,,,,,,VFR,,,,,,,,,,,,METAR,72.0
FOOL 021830Z 20008KT 150V220 9999 FEW012 28/25 Q1007 NOSIG,FOOL,2018-04-02T18:30:00Z,0.45,9.42,28.0,25.0,200,8,,6.21,29.734253,,,,,,TRUE,,,,,FEW,1200,,,,,,,VFR,,,,,,,,,,,,SPECI,15.0
OBBI 021830Z 30006KT CAVOK 24/13 Q1013 NOSIG,OBBI,2018-04-02T18:30:00Z,26.27,50.63,24.0,13.0,300,6,,6.21,29.911417,,,,,,TRUE,,,,,CAVOK,,,,,,,,VFR,,,,,,,,,,,,METAR,2.0
SPZO 021830Z 04009KT 020V120 9999 SCT046 SCT080 20/04 Q1027 NOSIG RMK BIRD HAZARD RWY 28,SPZO,2018-04-02T18:30:00Z,-13.55,-71.97,20.0,4.0,40,9,,6.21,30.324802,,,,,,TRUE,,,,,SCT,4600,SCT,8000,,,,,VFR,,,,,,,,,,,,METAR,3249.0
K5SM 021830Z AUTO 24015G37KT 210V280 10SM SCT110 05/M08 A2982 RMK AO2,K5SM,2018-04-02T18:30:00Z,39.43,-107.38,5.0,-8.0,240,15,37,10.0,29.819881,,,TRUE,TRUE,,,,,,,SCT,11000,,,,,,,VFR,,,,,,,,,,,,METAR,3232.0
K1V6 021830Z AUTO 26016G31KT 10SM CLR 23/M10 A2953 RMK AO2,K1V6,2018-04-02T18:30:00Z,38.43,-105.1,23.0,-10.0,260,16,31,10.0,29.530512,,,TRUE,TRUE,,,,,,,CLR,,,,,,,,VFR,,,,,,,,,,,,METAR,1658.0
K0CO 021830Z AUTO 29040G57KT 10SM CLR 00/M06 A2974 RMK AO2,K0CO,2018-04-02T18:30:00Z,39.8,-105.77,0.0,-6.0,290,40,57,10.0,29.740158,,,TRUE,TRUE,,,,,,,CLR,,,,,,,,VFR,,,,,,,,,,,,METAR,3807.0
LECH 021830Z AUTO 12004KT CAVOK 13/03 Q1008,LECH,2018-04-02T18:30:00Z,40.2,0.07,13.0,3.0,120,4,,6.21,29.763779,,,TRUE,,,,,,,,CAVOK,,,,,,,,VFR,,,,,,,,,,,,METAR,337.0
LEHC 021830Z AUTO 11006KT 070V140 9999 NCD 12/02 Q1007,LEHC,2018-04-02T18:30:00Z,42.08,-0.32,12.0,2.0,110,6,,6.21,29.734253,,,TRUE,,,,,,,,CLR,,,,,,,,VFR,,,,,,,,,,,,METAR,539.0
LEBG 021830Z AUTO 22014KT 9999 FEW038/// BKN049/// BKN060/// 09/07 Q1004,LEBG,2018-04-02T18:30:00Z,42.37,-3.62,9.0,7.0,220,14,,6.21,29.64567,,,TRUE,,,,,,,,FEW,3800,BKN,4900,BKN,6000,,,VFR,,,,,,,,,,,,METAR,891.0
LEBA 021830Z AUTO 25010KT 210V280 9999 FEW041 17/10 Q1008,LEBA,2018-04-02T18:30:00Z,37.85,-4.82,17.0,10.0,250,10,,6.21,29.763779,,,TRUE,,,,,,,,FEW,4100,,,,,,,VFR,,,,,,,,,,,,METAR,92.0
ZYTX 021830Z 01009G14MPS CAVOK 07/M12 Q1020 NOSIG,ZYTX,2018-04-02T18:30:00Z,41.63,123.48,7.0,-12.0,10,17,27,6.21,30.11811,,,,,,TRUE,,,,,CAVOK,,,,,,,,VFR,,,,,,,,,,,,METAR,35.0
ZYTL 021830Z 36004MPS 320V020 7000 NSC 10/M01 Q1015 NOSIG,ZYTL,2018-04-02T18:30:00Z,38.97,121.53,10.0,-1.0,360,8,,4.35,29.970472,,,,,,TRUE,,,,,CLR,,,,,,,,MVFR,,,,,,,,,,,,METAR,97.0
ZWWW 021830Z VRB01MPS CAVOK 03/M04 Q1026 NOSIG,ZWWW,2018-04-02T18:30:00Z,43.88,87.47,3.0,-4.0,0,2,,6.21,30.295275,,,,,,TRUE,,,,,CAVOK,,,,,,,,VFR,,,,,,,,,,,,METAR,654.0
ZSSS 021830Z 14003MPS CAVOK 19/16 Q1011 NOSIG,ZSSS,2018-04-02T18:30:00Z,31.2,121.33,19.0,16.0,140,6,,6.21,29.852362,,,,,,TRUE,,,,,CAVOK,,,,,,,,VFR,,,,,,,,,,,,METAR,7.0
ZSPD 021830Z 14004MPS 100V160 CAVOK 17/15 Q1012 NOSIG,ZSPD,2018-04-02T18:30:00Z,31.15,121.8,17.0,15.0,140,8,,6.21,29.88189,,,,,,TRUE,,,,,CAVOK,,,,,,,,VFR,,,,,,,,,,,,METAR,4.0
ZSHC 021830Z 00000MPS 4000 BR NSC 19/17 Q1011 NOSIG,ZSHC,2018-04-02T18:30:00Z,30.22,120.43,19.0,17.0,0,0,,2.49,29.852362,,,,,,TRUE,,,,BR,CLR,,,,,,,,IFR,,,,,,,,,,,,METAR,43.0
ZGGG 021830Z 13002MPS 7000 NSC 23/19 Q1012 NOSIG,ZGGG,2018-04-02T18:30:00Z,23.4,113.3,23.0,19.0,130,4,,4.35,29.88189,,,,,,TRUE,,,,,CLR,,,,,,,,MVFR,,,,,,,,,,,,METAR,15.0
ZBYN 021830Z 10002MPS 060V120 CAVOK 14/01 Q1010 NOSIG,ZBYN,2018-04-02T18:30:00Z,37.77,112.63,14.0,1.0,100,4,,6.21,29.822834,,,,,,TRUE,,,,,CAVOK,,,,,,,,VFR,,,,,,,,,,,,METAR,779.0
ZBTJ 021830Z 09007MPS CAVOK 13/M02 Q1015 NOSIG,ZBTJ,2018-04-02T18:30:00Z,39.12,117.35,13.0,-2.0,90,14,,6.21,29.970472,,,,,,TRUE,,,,,CAVOK,,,,,,,,VFR,,,,,,,,,,,,METAR,3.0
ZBAA 021830Z 04006MPS 010V070 CAVOK 17/M06 Q1016 NOSIG,ZBAA,2018-04-02T18:30:00Z,40.07,116.58,17.0,-6.0,40,12,,6.21,30.0,,,,,,TRUE,,,,,CAVOK,,,,,,,,VFR,,,,,,,,,,,,METAR,30.0
GEML 021830Z 26006KT 210V300 9999 FEW008 SCT014 16/13 Q1010,GEML,2018-04-02T18:30:00Z,35.27,-2.95,16.0,13.0,260,6,,6.21,29.822834,,,,,,,,,,,FEW,800,SCT,1400,,,,,VFR,,,,,,,,,,,,METAR,55.0
RKSI 021830Z 14006KT 9999 SCT025 14/11 Q1016 NOSIG,RKSI,2018-04-02T18:30:00Z,37.47,126.45,14.0,11.0,140,6,,6.21,30.0,,,,,,TRUE,,,,,SCT,2500,,,,,,,VFR,,,,,,,,,,,,METAR,7.0
LFSD 021830Z AUTO 19018KT CAVOK 13/02 Q1004,LFSD,2018-04-02T18:30:00Z,47.27,5.07,13.0,2.0,190,18,,6.21,29.64567,,,TRUE,,,,,,,,CAVOK,,,,,,,,VFR,,,,,,,,,,,,METAR,227.0
LFRQ 021830Z AUTO 18010KT 150V210 9999 -DZ SCT010/// BKN014/// BKN021/// ///TCU 11/10 Q0995 TEMPO 18015G30KT 4000 RA OVC003,LFRQ,2018-04-02T18:30:00Z,47.97,-4.17,11.0,10.0,180,10,,6.21,29.379921,,,TRUE,,,,,,,-DZ,SCT,1000,BKN,1400,BKN,2100,,,MVFR,,,,,,,,,,,,METAR,94.0
LFAT 021830Z AUTO 16007KT 9999 -RADZ FEW038 BKN047 BKN056 11/10 Q0997,LFAT,2018-04-02T18:30:00Z,50.52,1.62,11.0,10.0,160,7,,6.21,29.438976,,,TRUE,,,,,,,-RA -DZ,FEW,3800,BKN,4700,BKN,5600,,,VFR,,,,,,,,,,,,METAR,14.0
LFRH 021830Z AUTO 17012KT 9999 FEW044 BKN060 OVC072 11/10 Q0996 TEMPO 19015G25KT 4500 SHRA BKN008TCU OVC015,LFRH,2018-04-02T18:30:00Z,47.77,-3.45,11.0,10.0,170,12,,6.21,29.409449,,,TRUE,,,,,,,,FEW,4400,BKN,6000,OVC,7200,,,VFR,,,,,,,,,,,,METAR,44.0
LFPN 021830Z AUTO 15006KT 9999 -RA NSC 12/08 Q1000 TEMPO 20018G30KT 4000 SHRA BKN040CB BKN070,LFPN,2018-04-02T18:30:00Z,48.75,2.12,12.0,8.0,150,6,,6.21,29.52756,,,TRUE,,,,,,,-RA,CLR,,,,,,,,VFR,,,1.8,,,,,,,,,METAR,164.0
LFRT 021830Z AUTO 20009KT 160V240 9999 SCT019 BKN025 BKN032 11/09 Q0995,LFRT,2018-04-02T18:30:00Z,48.52,-2.85,11.0,9.0,200,9,,6.21,29.379921,,,TRUE,,,,,,,,SCT,1900,BKN,2500,BKN,3200,,,MVFR,,,,,,,,,,,,METAR,136.0
LFPM 021830Z AUTO 13003KT CAVOK 12/09 Q1000,LFPM,2018-04-02T18:30:00Z,48.62,2.67,12.0,9.0,130,3,,6.21,29.52756,,,TRUE,,,,,,,,CAVOK,,,,,,,,VFR,,,,,,,,,,,,METAR,92.0
UMMS 021830Z 26004MPS 220V290 9999 OVC013 01/M00 Q1002 R31/290055 NOSIG,UMMS,2018-04-02T18:30:00Z,53.88,28.03,1.0,0.0,260,8,,6.21,29.586615,,,,,,TRUE,,,,,OVC,1300,,,,,,,MVFR,,,,,,,,,,,,METAR,205.0
KC07 021830Z AUTO 26013G28KT 220V310 10SM BKN090 OVC110 05/M07 A2971 RMK AO2,KC07,2018-04-02T18:30:00Z,40.35,-106.7,5.0,-7.0,260,13,28,10.0,29.71063,,,TRUE,TRUE,,,,,,,BKN,9000,OVC,11000,,,,,VFR,,,,,,,,,,,,METAR,3224.0
K7BM 021830Z AUTO 27026G43KT 10SM CLR 11/M15 A2974 RMK AO2,K7BM,2018-04-02T18:30:00Z,38.78,-106.22,11.0,-15.0,270,26,43,10.0,29.740158,,,TRUE,TRUE,,,,,,,CLR,,,,,,,,VFR,,,,,,,,,,,,METAR,2995.0
UCFO 021830Z 21003MPS 180V240 3000 BR SCT050CB BKN120 12/11 Q1017 R12/CLRD70 NOSIG,UCFO,2018-04-02T18:30:00Z,40.6,72.8,12.0,11.0,210,6,,1.86,30.029528,,,,,,TRUE,,,,BR,SCT,5000,BKN,12000,,,,,IFR,,,,,,,,,,,,METAR,884.0
UCFM 021830Z 04002MPS CAVOK 07/03 Q1020 R08/CLRD70 NOSIG,UCFM,2018-04-02T18:30:00Z,43.07,74.48,7.0,3.0,40,4,,6.21,30.11811,,,,,,TRUE,,,,,CAVOK,,,,,,,,VFR,,,,,,,,,,,,METAR,633.0
UTDL 021830Z 25003MPS 6000 FEW066CB BKN086 12/09 Q1016 R26/CLRD70 NOSIG RMK QFE724/0966,UTDL,2018-04-02T18:30:00Z,40.22,69.7,12.0,9.0,250,6,,3.73,30.0,,,,,,TRUE,,,,,FEW,6600,BKN,8600,,,,,MVFR,,,,,,,,,,,,METAR,442.0
UTDT 021830Z 16002MPS 130V210 7000 SCT020 BKN033 OVC110 18/07 Q1015 35CLRD70 RMK QFE722/0963,UTDT,2018-04-02T18:30:00Z,37.87,68.87,18.0,7.0,160,4,,4.35,29.970472,,,,,,,,,,,SCT,2000,BKN,3300,OVC,11000,,,MVFR,,,,,,,,,,,,METAR,449.0
UTDK 021830Z VRB01MPS 9000 NSC 17/11 Q1017 R01/09//70 RMK QFE705/0940,UTDK,2018-04-02T18:30:00Z,37.98,69.8,17.0,11.0,0,2,,5.59,30.029528,,,,,,,,,,,CLR,,,,,,,,VFR,,,,,,,,,,,,METAR,699.0
UTDD 021830Z VRB02MPS 9000 OVC046 15/06 Q1017 R09/CLRD// NOSIG RMK QFE694/0926,UTDD,2018-04-02T18:30:00Z,38.53,68.82,15.0,6.0,0,4,,5.59,30.029528,,,,,,TRUE,,,,,OVC,4600,,,,,,,VFR,,,,,,,,,,,,METAR,803.0
UAUU 021830Z 00000MPS 0200 R33/P2000N FZFG NSC M05/M05 Q1033 R33/810160 NOSIG RMK QFE758/1011,UAUU,2018-04-02T18:30:00Z,53.2,63.55,-5.0,-5.0,0,0,,0.12,30.501968,,,,,,TRUE,,,,FZFG,CLR,,,,,,,,LIFR,,,,,,,,,,,,METAR,182.0
UATT 021830Z 12004MPS CAVOK M01/M07 Q1029 R31/0///60 NOSIG RMK QFE752/1002,UATT,2018-04-02T18:30:00Z,50.25,57.2,-1.0,-7.0,120,8,,6.21,30.383858,,,,,,TRUE,,,,,CAVOK,,,,,,,,VFR,,,,,,,,,,,,METAR,227.0
UATG 021830Z 12009MPS CAVOK 10/M07 Q1020 R14/CLRD70 NOSIG RMK QFE767/1023,UATG,2018-04-02T18:30:00Z,47.12,51.83,10.0,-7.0,120,17,,6.21,30.11811,,,,,,TRUE,,,,,CAVOK,,,,,,,,VFR,,,,,,,,,,,,METAR,-22.0
UATE 021830Z 10006MPS CAVOK 09/M00 Q1016 R12/0///70 NOSIG RMK QFE760/1013,UATE,2018-04-02T18:30:00Z,43.87,51.1,9.0,0.0,100,12,,6.21,30.0,,,,,,TRUE,,,,,CAVOK,,,,,,,,VFR,,,,,,,,,,,,METAR,22.0
UASP 021830Z 27002MPS 6000 -SHSN BKN032CB OVC084 M04/M05 Q1028 R21/0///60 NOSIG RMK QFE760/1013,UASP,2018-04-02T18:30:00Z,52.2,77.07,-4.0,-5.0,270,4,,3.73,30.35433,,,,,,TRUE,,,,-SHSN,BKN,3200,OVC,8400,,,,,MVFR,,,,,,,,,,,,METAR,125.0
VABB 021830Z 31003KT 4000 HZ NSC 29/22 Q1010 NOSIG,VABB,2018-04-02T18:30:00Z,19.1,72.87,29.0,22.0,310,3,,2.49,29.822834,,,,,,TRUE,,,,HZ,CLR,,,,,,,,IFR,,,,,,,,,,,,METAR,8.0
LETU 021830Z AUTO 14017KT 9999 NCD 16/01 Q1004,LETU,2018-04-02T18:30:00Z,,,16.0,1.0,140,17,,6.21,29.64567,,,TRUE,,,,,,,,CLR,,,,,,,,VFR,,,,,,,,,,,,METAR,
LEBR 021830Z AUTO 10016KT 9999 NCD 15/01 Q1004,LEBR,2018-04-02T18:30:00Z,42.2,-1.43,15.0,1.0,100,16,,6.21,29.64567,,,TRUE,,,,,,,,CLR,,,,,,,,VFR,,,,,,,,,,,,METAR,295.0
VEBS 021830Z 16003KT 4000 HZ SCT018 25/23 Q1011 NOSIG,VEBS,2018-04-02T18:30:00Z,20.25,85.82,25.0,23.0,160,3,,2.49,29.852362,,,,,,TRUE,,,,HZ,SCT,1800,,,,,,,IFR,,,,,,,,,,,,METAR,46.0
LPHR 021830Z 30021KT 9999 FEW018 16/09 Q1014,LPHR,2018-04-02T18:30:00Z,38.52,-28.72,16.0,9.0,300,21,,6.21,29.940945,,,,,,,,,,,FEW,1800,,,,,,,VFR,,,,,,,,,,,,METAR,41.0
LPFL 021830Z 32013G28KT 270V360 9999 SCT021 15/07 Q1014,LPFL,2018-04-02T18:30:00Z,39.45,-31.12,15.0,7.0,320,13,28,6.21,29.940945,,,,,,,,,,,SCT,2100,,,,,,,VFR,,,,,,,,,,,,METAR,29.0
LFRC 021830Z AUTO 19012KT 9999 BKN013 BKN021 BKN200 11/09 Q0995,LFRC,2018-04-02T18:30:00Z,49.63,-1.47,11.0,9.0,190,12,,6.21,29.379921,,,TRUE,,,,,,,,BKN,1300,BKN,2100,BKN,20000,,,MVFR,,,,,,,,,,,,METAR,138.0
KHEQ 021830Z AUTO 13008KT 10SM CLR 16/M02 A2948 RMK AO2,KHEQ,2018-04-02T18:30:00Z,40.57,-102.28,16.0,-2.0,130,8,,10.0,29.480314,,,TRUE,TRUE,,,,,,,CLR,,,,,,,,VFR,,,,,,,,,,,,METAR,1137.0
LRSB 021830Z 30004KT CAVOK 04/M03 Q1016,LRSB,2018-04-02T18:30:00Z,45.78,24.08,4.0,-3.0,300,4,,6.21,30.0,,,,,,,,,,,CAVOK,,,,,,,,VFR,,,,,,,,,,,,METAR,444.0
LROP 021830Z 34003KT 320V020 CAVOK 08/M01 Q1016 NOSIG,LROP,2018-04-02T18:30:00Z,44.57,26.1,8.0,-1.0,340,3,,6.21,30.0,,,,,,TRUE,,,,,CAVOK,,,,,,,,VFR,,,,,,,,,,,,METAR,95.0
LRCK 021830Z 35008KT CAVOK 07/04 Q1015 NOSIG,LRCK,2018-04-02T18:30:00Z,44.37,28.48,7.0,4.0,350,8,,6.21,29.970472,,,,,,TRUE,,,,,CAVOK,,,,,,,,VFR,,,,,,,,,,,,METAR,108.0
HLLB 021830Z 02015KT 9999 NSC 15/09 Q1020,HLLB,2018-04-02T18:30:00Z,32.07,20.27,15.0,9.0,20,15,,6.21,30.11811,,,,,,,,,,,CLR,,,,,,,,VFR,,,,,,,,,,,,METAR,132.0
WAAA 021830Z 00000KT 8000 FEW019 24/23 Q1010 NOSIG,WAAA,2018-04-02T18:30:00Z,-5.07,119.53,24.0,23.0,0,0,,4.97,29.822834,,,,,,TRUE,,,,,FEW,1900,,,,,,,MVFR,,,,,,,,,,,,METAR,14.0
LRTM 021830Z AUTO VRB01KT 9999 FEW075/// 04/02 Q1016,LRTM,2018-04-02T18:30:00Z,46.47,24.42,4.0,2.0,0,1,,6.21,30.0,,,TRUE,,,,,,,,FEW,7500,,,,,,,VFR,,,,,,,,,,,,METAR,309.0
LRSM 021830Z AUTO 22006KT 9999 -SHSN NCD 06/02 Q1015,LRSM,2018-04-02T18:30:00Z,47.7,22.88,6.0,2.0,220,6,,6.21,29.970472,,,TRUE,,,,,,,-SHSN,CLR,,,,,,,,VFR,,,,,,,,,,,,METAR,124.0
LROD 021830Z AUTO 19007KT 9999 NCD 05/01 Q1016,LROD,2018-04-02T18:30:00Z,47.03,21.92,5.0,1.0,190,7,,6.21,30.0,,,TRUE,,,,,,,,CLR,,,,,,,,VFR,,,,,,,,,,,,METAR,140.0
LRCL 021830Z VRB02KT CAVOK 05/M02 Q1016,LRCL,2018-04-02T18:30:00Z,46.78,23.68,5.0,-2.0,0,2,,6.21,30.0,,,,,,,,,,,CAVOK,,,,,,,,VFR,,,,,,,,,,,,METAR,413.0
LRAR 021830Z 16003KT CAVOK 07/00 Q1017,LRAR,2018-04-02T18:30:00Z,46.18,21.27,7.0,0.0,160,3,,6.21,30.029528,,,,,,,,,,,CAVOK,,,,,,,,VFR,,,,,,,,,,,,METAR,118.0
LRTC 021830Z AUTO 24007KT 9999 BKN150/// 05/04 Q1014,LRTC,2018-04-02T18:30:00Z,45.07,28.72,5.0,4.0,240,7,,6.21,29.940945,,,TRUE,,,,,,,,BKN,15000,,,,,,,VFR,,,,,,,,,,,,METAR,6.0
LRSV 021830Z 34007KT CAVOK 04/01 Q1013,LRSV,2018-04-02T18:30:00Z,47.68,26.35,4.0,1.0,340,7,,6.21,29.911417,,,,,,,,,,,CAVOK,,,,,,,,VFR,,,,,,,,,,,,METAR,351.0
LRIA 021830Z 34006KT CAVOK 06/01 Q1014 R14/29//95,LRIA,2018-04-02T18:30:00Z,47.17,27.62,6.0,1.0,340,6,,6.21,29.940945,,,,,,,,,,,CAVOK,,,,,,,,VFR,,,,,,,,,,,,METAR,104.0
LRCV 021830Z 26007KT CAVOK 08/M03 Q1016,LRCV,2018-04-02T18:30:00Z,44.32,23.88,8.0,-3.0,260,7,,6.21,30.0,,,,,,,,,,,CAVOK,,,,,,,,VFR,,,,,,,,,,,,METAR,191.0
LRBC 021830Z 35003KT CAVOK 08/02 Q1014,LRBC,2018-04-02T18:30:00Z,46.52,26.92,8.0,2.0,350,3,,6.21,29.940945,,,,,,,,,,,CAVOK,,,,,,,,VFR,,,,,,,,,,,,METAR,185.0
LJCE 021830Z 23005KT CAVOK 13/04 Q1014 RMK BLU,LJCE,2018-04-02T18:30:00Z,45.9,15.52,13.0,4.0,230,5,,6.21,29.940945,,,,,,,,,,,CAVOK,,,,,,,,VFR,,,,,,,,,,,,METAR,155.0
LRTR 021830Z 11003KT CAVOK 07/03 Q1016 NOSIG,LRTR,2018-04-02T18:30:00Z,45.82,21.33,7.0,3.0,110,3,,6.21,30.0,,,,,,TRUE,,,,,CAVOK,,,,,,,,VFR,,,,,,,,,,,,METAR,88.0
FMMI 021830Z 10005KT 9999 FEW020CB 18/16 Q1021 NOSIG,FMMI,2018-04-02T18:30:00Z,-18.8,47.47,18.0,16.0,100,5,,6.21,30.147638,,,,,,TRUE,,,,,FEW,2000,,,,,,,VFR,,,,,,,,,,,,METAR,1276.0
WAMM 021830Z VRB02KT 7000 -RA SCT020 23/23 Q1010 NOSIG,WAMM,2018-04-02T18:30:00Z,1.55,124.92,23.0,23.0,0,2,,4.35,29.822834,,,,,,TRUE,,,,-RA,SCT,2000,,,,,,,MVFR,,,,,,,,,,,,METAR,80.0
TFFF 021830Z AUTO 12010KT 9999 SCT028 SCT033 BKN040 29/21 Q1012 TEMPO 4000 SHRA BKN018TCU,TFFF,2018-04-02T18:30:00Z,14.6,-61.0,29.0,21.0,120,10,,6.21,29.88189,,,TRUE,,,,,,,,SCT,2800,SCT,3300,BKN,4000,,,VFR,,,,,,,,,,,,METAR,5.0
YCOM 021830Z AUTO 19008KT 9999 // OVC010 11/10 Q1022,YCOM,2018-04-02T18:30:00Z,-36.3,148.97,11.0,10.0,190,8,,6.21,30.177166,,,TRUE,,,,,,,,OVC,1000,,,,,,,MVFR,,,,,,,,,,,,SPECI,941.0
YGEL 021830Z AUTO 00000KT 5000 // NCD 20/18 Q1013 RF00.0/000.0,YGEL,2018-04-02T18:30:00Z,-28.8,114.7,20.0,18.0,0,0,,3.11,29.911417,,,TRUE,,,,,,,,CLR,,,,,,,,MVFR,,,,,,,,,,,,SPECI,37.0
YBWP 021830Z AUTO 01010KT //// // SCT006 BKN028 OVC052 25/24 Q1004,YBWP,2018-04-02T18:30:00Z,-12.68,141.92,25.0,24.0,10,10,,,29.64567,,,TRUE,,,,,,,,SCT,600,BKN,2800,OVC,5200,,,,,,,,,,,,,,,SPECI,12.0
YABA 021830Z AUTO 08005KT 6000 // NCD 12/12 Q1018,YABA,2018-04-02T18:30:00Z,-34.93,117.8,12.0,12.0,80,5,,3.73,30.059055,,,TRUE,,,,,,,,CLR,,,,,,,,MVFR,,,,,,,,,,,,SPECI,69.0
YLIS 021830Z AUTO 35005KT 0200 // OVC001 18/17 Q1016,YLIS,2018-04-02T18:30:00Z,-28.83,153.27,18.0,17.0,350,5,,0.12,30.0,,,TRUE,,,,,,,,OVC,100,,,,,,,LIFR,,,,,,,,,,,,SPECI,11.0
VOML 021830Z 26008KT 6000 SCT015 28/24 Q1010 NOSIG,VOML,2018-04-02T18:30:00Z,12.97,74.88,28.0,24.0,260,8,,3.73,29.822834,,,,,,TRUE,,,,,SCT,1500,,,,,,,MVFR,,,,,,,,,,,,METAR,103.0
UBBN 021830Z 02010KT 9999 NSC 11/05 Q1011 R14R/CLRD// NOSIG RMK MT OP QFE683,UBBN,2018-04-02T18:30:00Z,39.18,45.45,11.0,5.0,20,10,,6.21,29.852362,,,,,,TRUE,,,,,CLR,,,,,,,,VFR,,,,,,,,,,,,METAR,873.0
YKRY 021830Z AUTO 13006KT 9999 // OVC003 18/18 Q1016,YKRY,2018-04-02T18:30:00Z,-26.57,151.83,18.0,18.0,130,6,,6.21,30.0,,,TRUE,,,,,,,,OVC,300,,,,,,,LIFR,,,,,,,,,,,,SPECI,434.0
YAMB 021830Z AUTO 00000KT 5000 // SCT057 17/17 Q1015,YAMB,2018-04-02T18:30:00Z,-27.63,152.72,17.0,17.0,0,0,,3.11,29.970472,,,TRUE,,,,,,,,SCT,5700,,,,,,,MVFR,,,,,,,,,,,,SPECI,28.0
LUKK 021830Z 32009KT 9999 SCT048 08/M01 Q1013 R08/D NOSIG,LUKK,2018-04-02T18:30:00Z,46.93,28.93,8.0,-1.0,320,9,,6.21,29.911417,,,,,,TRUE,,,,,SCT,4800,,,,,,,VFR,,,,,,,,,,,,METAR,122.0
SOCA 021830Z AUTO 05017KT 9999 SCT021/// BKN028/// BKN033/// ///CB 28/24 Q1008 TEMPO 1000 TSRA BECMG 09004KT,SOCA,2018-04-02T18:30:00Z,4.82,-52.37,28.0,24.0,50,17,,6.21,29.763779,,,TRUE,,,,,,,,SCT,2100,BKN,2800,BKN,3300,,,MVFR,,,,,,,,,,,,METAR,9.0
LDOS 021830Z 12008KT CAVOK 09/05 Q1015,LDOS,2018-04-02T18:30:00Z,45.47,18.82,9.0,5.0,120,8,,6.21,29.970472,,,,,,,,,,,CAVOK,,,,,,,,VFR,,,,,,,,,,,,METAR,89.0
LDDU 021830Z VRB01KT CAVOK 09/08 Q1020 NOSIG,LDDU,2018-04-02T18:30:00Z,42.57,18.27,9.0,8.0,0,1,,6.21,30.11811,,,,,,TRUE,,,,,CAVOK,,,,,,,,VFR,,,,,,,,,,,,METAR,165.0
NWWW 021830Z AUTO 08003KT 060V120 CAVOK 23/20 Q1010 NOSIG,NWWW,2018-04-02T18:30:00Z,-22.02,166.22,23.0,20.0,80,3,,6.21,29.822834,,,TRUE,,,TRUE,,,,,CAVOK,,,,,,,,VFR,,,,,,,,,,,,METAR,16.0
TFFR 021830Z AUTO 14007KT 040V190 9999 BKN024/// BKN031/// BKN041/// ///TCU 28/22 Q1012 TEMPO 4000 SHRA,TFFR,2018-04-02T18:30:00Z,16.27,-61.53,28.0,22.0,140,7,,6.21,29.88189,,,TRUE,,,,,,,,BKN,2400,BKN,3100,BKN,4100,,,MVFR,,,,,,,,,,,,METAR,11.0
VHHH 021830Z 06003KT 040V160 CAVOK 22/16 Q1012 NOSIG,VHHH,2018-04-02T18:30:00Z,22.32,113.92,22.0,16.0,60,3,,6.21,29.88189,,,,,,TRUE,,,,,CAVOK,,,,,,,,VFR,,,,,,,,,,,,METAR,9.0
LHBP 021830Z VRB02KT CAVOK 06/M00 Q1015 NOSIG,LHBP,2018-04-02T18:30:00Z,47.42,19.27,6.0,0.0,0,2,,6.21,29.970472,,,,,,TRUE,,,,,CAVOK,,,,,,,,VFR,,,,,,,,,,,,METAR,185.0
UGSB 021830Z 24011KT 8000 -SHRA SCT007 OVC016CB 11/10 Q1021 R13/29//55 NOSIG,UGSB,2018-04-02T18:30:00Z,41.62,41.6,11.0,10.0,240,11,,4.97,30.147638,,,,,,TRUE,,,,-SHRA,SCT,700,OVC,1600,,,,,MVFR,,,,,,,,,,,,METAR,32.0
UGKO 021830Z 25013KT 3000 SHRA BKN015CB OVC042 11/09 Q1017 R07/////// NOSIG,UGKO,2018-04-02T18:30:00Z,42.18,42.48,11.0,9.0,250,13,,1.86,30.029528,,,,,,TRUE,,,,SHRA,BKN,1500,OVC,4200,,,,,IFR,,,,,,,,,,,,METAR,68.0
UGTB 021830Z 09006KT CAVOK 10/07 Q1014 R31L/CLRD70 NOSIG,UGTB,2018-04-02T18:30:00Z,41.67,44.95,10.0,7.0,90,6,,6.21,29.940945,,,,,,TRUE,,,,,CAVOK,,,,,,,,VFR,,,,,,,,,,,,METAR,495.0
LZTT 021830Z 23009KT CAVOK 03/M04 Q1012,LZTT,2018-04-02T18:30:00Z,49.07,20.25,3.0,-4.0,230,9,,6.21,29.88189,,,,,,,,,,,CAVOK,,,,,,,,VFR,,,,,,,,,,,,METAR,707.0
LZKZ 021830Z 06004KT CAVOK 07/M02 Q1013,LZKZ,2018-04-02T18:30:00Z,48.67,21.23,7.0,-2.0,60,4,,6.21,29.911417,,,,,,,,,,,CAVOK,,,,,,,,VFR,,,,,,,,,,,,METAR,232.0
LZIB 021830Z 11005KT CAVOK 08/01 Q1013,LZIB,2018-04-02T18:30:00Z,48.17,17.22,8.0,1.0,110,5,,6.21,29.911417,,,,,,,,,,,CAVOK,,,,,,,,VFR,,,,,,,,,,,,METAR,134.0
LBGO 021830Z AUTO 28011KT 9999 NCD 08/00 Q1017,LBGO,2018-04-02T18:30:00Z,43.15,25.72,8.0,0.0,280,11,,6.21,30.029528,,,TRUE,,,,,,,,CLR,,,,,,,,VFR,,,,,,,,,,,,METAR,86.0
LBPD 021830Z AUTO 26007KT 9999 NCD 11/M01 Q1017 NOSIG,LBPD,2018-04-02T18:30:00Z,42.13,24.8,11.0,-1.0,260,7,,6.21,30.029528,,,TRUE,,,TRUE,,,,,CLR,,,,,,,,VFR,,,,,,,,,,,,METAR,185.0
LBBG 021830Z 33019KT CAVOK 12/00 Q1015 NOSIG,LBBG,2018-04-02T18:30:00Z,42.57,27.52,12.0,0.0,330,19,,6.21,29.970472,,,,,,TRUE,,,,,CAVOK,,,,,,,,VFR,,,,,,,,,,,,METAR,28.0
LBWN 021830Z 26007KT CAVOK 09/M01 Q1014 NOSIG,LBWN,2018-04-02T18:30:00Z,43.22,27.82,9.0,-1.0,260,7,,6.21,29.940945,,,,,,TRUE,,,,,CAVOK,,,,,,,,VFR,,,,,,,,,,,,METAR,43.0
LBSF 021830Z 27004KT 250V310 CAVOK 11/M00 Q1018 NOSIG,LBSF,2018-04-02T18:30:00Z,42.7,23.42,11.0,0.0,270,4,,6.21,30.059055,,,,,,TRUE,,,,,CAVOK,,,,,,,,VFR,,,,,,,,,,,,METAR,530.0
LDPL 021830Z VRB02KT CAVOK 10/07 Q1017 NOSIG,LDPL,2018-04-02T18:30:00Z,44.88,13.92,10.0,7.0,0,2,,6.21,30.029528,,,,,,TRUE,,,,,CAVOK,,,,,,,,VFR,,,,,,,,,,,,METAR,63.0
LDRI 021830Z 01004KT CAVOK 11/09 Q1017,LDRI,2018-04-02T18:30:00Z,45.22,14.57,11.0,9.0,10,4,,6.21,30.029528,,,,,,,,,,,CAVOK,,,,,,,,VFR,,,,,,,,,,,,METAR,85.0
LDSP 021830Z 32004KT CAVOK 10/08 Q1019 NOSIG,LDSP,2018-04-02T18:30:00Z,43.52,16.3,10.0,8.0,320,4,,6.21,30.088583,,,,,,TRUE,,,,,CAVOK,,,,,,,,VFR,,,,,,,,,,,,METAR,21.0
LDZA 021830Z 21011KT CAVOK 13/01 Q1014 NOSIG,LDZA,2018-04-02T18:30:00Z,45.72,16.07,13.0,1.0,210,11,,6.21,29.940945,,,,,,TRUE,,,,,CAVOK,,,,,,,,VFR,,,,,,,,,,,,METAR,107.0
LPPT 021830Z 23012KT 9999 SCT008 BKN014 15/13 Q1007,LPPT,2018-04-02T18:30:00Z,38.77,-9.12,15.0,13.0,230,12,,6.21,29.734253,,,,,,,,,,,SCT,800,BKN,1400,,,,,MVFR,,,,,,,,,,,,METAR,123.0
LPPS 021830Z 30012KT 9999 FEW015 18/12 Q1013,LPPS,2018-04-02T18:30:00Z,33.07,-16.35,18.0,12.0,300,12,,6.21,29.911417,,,,,,,,,,,FEW,1500,,,,,,,VFR,,,,,,,,,,,,METAR,82.0
LPPR 021830Z 20015KT 9999 BKN006 OVC013 14/13 Q1004,LPPR,2018-04-02T18:30:00Z,41.22,-8.67,14.0,13.0,200,15,,6.21,29.64567,,,,,,,,,,,BKN,600,OVC,1300,,,,,IFR,,,,,,,,,,,,METAR,73.0
LPMA 021830Z 21003KT 130V290 9999 SCT016 18/13 Q1012,LPMA,2018-04-02T18:30:00Z,32.7,-16.77,18.0,13.0,210,3,,6.21,29.88189,,,,,,,,,,,SCT,1600,,,,,,,VFR,,,,,,,,,,,,METAR,55.0
LPFR 021830Z 25011KT 9999 FEW018 15/14 Q1009,LPFR,2018-04-02T18:30:00Z,37.02,-7.97,15.0,14.0,250,11,,6.21,29.793306,,,,,,,,,,,FEW,1800,,,,,,,VFR,,,,,,,,,,,,METAR,4.0
LJPZ 021830Z 16006KT 120V200 CAVOK 12/08 Q1017,LJPZ,2018-04-02T18:30:00Z,45.47,13.62,12.0,8.0,160,6,,6.21,30.029528,,,,,,,,,,,CAVOK,,,,,,,,VFR,,,,,,,,,,,,METAR,2.0
LJMB 021830Z 22009KT CAVOK 12/M00 Q1012,LJMB,2018-04-02T18:30:00Z,46.47,15.67,12.0,0.0,220,9,,6.21,29.88189,,,,,,,,,,,CAVOK,,,,,,,,VFR,,,,,,,,,,,,METAR,265.0
LJLJ 021830Z 24005KT CAVOK 08/03 Q1015 NOSIG,LJLJ,2018-04-02T18:30:00Z,46.22,14.47,8.0,3.0,240,5,,6.21,29.970472,,,,,,TRUE,,,,,CAVOK,,,,,,,,VFR,,,,,,,,,,,,METAR,385.0
LETL 021830Z AUTO 16010KT CAVOK 14/M00 Q1008,LETL,2018-04-02T18:30:00Z,40.42,-1.22,14.0,0.0,160,10,,6.21,29.763779,,,TRUE,,,,,,,,CAVOK,,,,,,,,VFR,,,,,,,,,,,,METAR,1013.0
LEAG 021830Z AUTO 29008KT 240V340 CAVOK 18/11 Q1010,LEAG,2018-04-02T18:30:00Z,,,18.0,11.0,290,8,,6.21,29.822834,,,TRUE,,,,,,,,CAVOK,,,,,,,,VFR,,,,,,,,,,,,METAR,
LEZL 021830Z 23012KT 200V260 9999 FEW022 SCT049 17/12 Q1009 NOSIG,LEZL,2018-04-02T18:30:00Z,37.42,-5.9,17.0,12.0,230,12,,6.21,29.793306,,,,,,TRUE,,,,,FEW,2200,SCT,4900,,,,,VFR,,,,,,,,,,,,METAR,31.0
LEVX 021830Z 22015KT 7000 BKN015 BKN021 BKN032 13/10 Q1002 TEMPO 2000 RA BKN010,LEVX,2018-04-02T18:30:00Z,42.22,-8.62,13.0,10.0,220,15,,4.35,29.586615,,,,,,,,,,,BKN,1500,BKN,2100,BKN,3200,,,MVFR,,,,,,,,,,,,METAR,256.0
LEVC 021830Z 07005KT 030V160 CAVOK 15/09 Q1008 NOSIG,LEVC,2018-04-02T18:30:00Z,39.5,-0.47,15.0,9.0,70,5,,6.21,29.763779,,,,,,TRUE,,,,,CAVOK,,,,,,,,VFR,,,,,,,,,,,,METAR,62.0
LEPA 021830Z 15004KT 100V180 CAVOK 17/11 Q1008 NOSIG,LEPA,2018-04-02T18:30:00Z,39.53,2.72,17.0,11.0,150,4,,6.21,29.763779,,,,,,TRUE,,,,,CAVOK,,,,,,,,VFR,,,,,,,,,,,,METAR,8.0
LEMG 021830Z 02003KT 340V050 9999 FEW080 16/12 Q1008 NOSIG,LEMG,2018-04-02T18:30:00Z,36.67,-4.5,16.0,12.0,20,3,,6.21,29.763779,,,,,,TRUE,,,,,FEW,8000,,,,,,,VFR,,,,,,,,,,,,METAR,7.0
LEMD 021830Z 21012KT 180V240 CAVOK 18/03 Q1005 NOSIG,LEMD,2018-04-02T18:30:00Z,40.48,-3.57,18.0,3.0,210,12,,6.21,29.675198,,,,,,TRUE,,,,,CAVOK,,,,,,,,VFR,,,,,,,,,,,,METAR,582.0
LEIB 021830Z 05004KT 8000 NSC 15/13 Q1007 NOSIG,LEIB,2018-04-02T18:30:00Z,38.87,1.37,15.0,13.0,50,4,,4.97,29.734253,,,,,,TRUE,,,,,CLR,,,,,,,,MVFR,,,,,,,,,,,,METAR,12.0
LEBL 021830Z 07011KT 9999 SCT016 14/11 Q1008 NOSIG,LEBL,2018-04-02T18:30:00Z,41.27,2.07,14.0,11.0,70,11,,6.21,29.763779,,,,,,TRUE,,,,,SCT,1600,,,,,,,VFR,,,,,,,,,,,,METAR,6.0
LEAL 021830Z 00000KT CAVOK 15/12 Q1007 NOSIG,LEAL,2018-04-02T18:30:00Z,38.27,-0.55,15.0,12.0,0,0,,6.21,29.734253,,,,,,TRUE,,,,,CAVOK,,,,,,,,VFR,,,,,,,,,,,,METAR,31.0
LEVS 021830Z 22008KT 180V250 CAVOK 16/04 Q1006,LEVS,2018-04-02T18:30:00Z,40.37,-3.77,16.0,4.0,220,8,,6.21,29.704725,,,,,,,,,,,CAVOK,,,,,,,,VFR,,,,,,,,,,,,METAR,687.0
LEVD 021830Z 23012KT 9999 SCT025 BKN040 10/08 Q1005,LEVD,2018-04-02T18:30:00Z,41.72,-4.83,10.0,8.0,230,12,,6.21,29.675198,,,,,,,,,,,SCT,2500,BKN,4000,,,,,VFR,,,,,,,,,,,,METAR,854.0
LEXJ 021830Z 20008G18KT 150V260 9999 FEW070 19/08 Q0999 WS ALL RWY,LEXJ,2018-04-02T18:30:00Z,43.42,-3.82,19.0,8.0,200,8,18,6.21,29.498032,,,,,,,,,,,FEW,7000,,,,,,,VFR,,,,,,,,,,,,METAR,6.0
LEPP 021830Z 13014KT 100V160 CAVOK 16/00 Q1003,LEPP,2018-04-02T18:30:00Z,42.77,-1.65,16.0,0.0,130,14,,6.21,29.616142,,,,,,,,,,,CAVOK,,,,,,,,VFR,,,,,,,,,,,,METAR,459.0
LELL 021830Z AUTO 11005KT 070V190 9999 NCD 14/10 Q1009,LELL,2018-04-02T18:30:00Z,41.52,2.1,14.0,10.0,110,5,,6.21,29.793306,,,TRUE,,,,,,,,CLR,,,,,,,,VFR,,,,,,,,,,,,METAR,250.0
LEJR 021830Z 21008KT 9999 BKN020 16/12 Q1010,LEJR,2018-04-02T18:30:00Z,36.75,-6.07,16.0,12.0,210,8,,6.21,29.822834,,,,,,,,,,,BKN,2000,,,,,,,MVFR,,,,,,,,,,,,METAR,30.0
LEZG 021830Z 09007KT 050V110 CAVOK 16/02 Q1005,LEZG,2018-04-02T18:30:00Z,41.67,-1.02,16.0,2.0,90,7,,6.21,29.675198,,,,,,,,,,,CAVOK,,,,,,,,VFR,,,,,,,,,,,,METAR,258.0
LEVT 021830Z 17014G26KT 140V200 9999 FEW045 BKN070 16/04 Q1002,LEVT,2018-04-02T18:30:00Z,42.87,-2.72,16.0,4.0,170,14,26,6.21,29.586615,,,,,,,,,,,FEW,4500,BKN,7000,,,,,VFR,,,,,,,,,,,,METAR,509.0
LEST 021830Z 23014KT 190V280 9999 -SHRA SCT008 BKN014 SCT025TCU 11/10 Q0999 TEMPO 3000 SHRA BKN025TCU,LEST,2018-04-02T18:30:00Z,42.88,-8.42,11.0,10.0,230,14,,6.21,29.498032,,,,,,,,,,-SHRA,SCT,800,BKN,1400,SCT,2500,,,MVFR,,,,,,,,,,,,METAR,367.0
LESO 021830Z 20011KT 170V250 CAVOK 21/03 Q1001,LESO,2018-04-02T18:30:00Z,43.35,-1.8,21.0,3.0,200,11,,6.21,29.557087,,,,,,,,,,,CAVOK,,,,,,,,VFR,,,,,,,,,,,,METAR,8.0
LERS 021830Z VRB02KT CAVOK 13/10 Q1008,LERS,2018-04-02T18:30:00Z,41.13,1.17,13.0,10.0,0,2,,6.21,29.763779,,,,,,,,,,,CAVOK,,,,,,,,VFR,,,,,,,,,,,,METAR,76.0
LEMH 021830Z 13010KT CAVOK 13/12 Q1009,LEMH,2018-04-02T18:30:00Z,39.87,4.22,13.0,12.0,130,10,,6.21,29.793306,,,,,,,,,,,CAVOK,,,,,,,,VFR,,,,,,,,,,,,METAR,82.0
KQES 021830Z AUTO 16004KT 9999 BKN029 15/12 A3004 RMK A02 TSNO,KQES,2018-04-02T18:30:00Z,,,15.0,12.0,160,4,,6.21,30.041338,,,TRUE,TRUE,,,TRUE,,,,BKN,2900,,,,,,,MVFR,,,,,,,,,,,,METAR,
KQEP 021830Z AUTO 18001KT 9999 CLR M01/M10 / RMK A02 TSNO,KQEP,2018-04-02T18:30:00Z,,,-1.0,-10.0,180,1,,6.21,,,,TRUE,TRUE,,,TRUE,,,,CLR,,,,,,,,VFR,,,,,,,,,,,,METAR,
KQEN 021830Z AUTO 26011G24KT 9999 CLR 10/08 A3001 RMK A02 TSNO,KQEN,2018-04-02T18:30:00Z,,,10.0,8.0,260,11,24,6.21,30.008858,,,TRUE,TRUE,,,TRUE,,,,CLR,,,,,,,,VFR,,,,,,,,,,,,METAR,
KQEL 021830Z AUTO 00000KT 9000 HZ BKN027 OVC049 13/11 A3011 RMK A02 TSNO,KQEL,2018-04-02T18:30:00Z,,,13.0,11.0,0,0,,5.59,30.109253,,,TRUE,TRUE,,,TRUE,,,HZ,BKN,2700,OVC,4900,,,,,MVFR,,,,,,,,,,,,METAR,
KQEI 021830Z AUTO 25002KT 9999 BKN029 14/10 A3002 RMK A02 TSNO,KQEI,2018-04-02T18:30:00Z,,,14.0,10.0,250,2,,6.21,30.02067,,,TRUE,TRUE,,,TRUE,,,,BKN,2900,,,,,,,MVFR,,,,,,,,,,,,METAR,
WSSS 021830Z 04005KT 9999 FEW018 BKN300 27/25 Q1010 NOSIG,WSSS,2018-04-02T18:30:00Z,1.37,103.97,27.0,25.0,40,5,,6.21,29.822834,,,,,,TRUE,,,,,FEW,1800,BKN,30000,,,,,VFR,,,,,,,,,,,,METAR,16.0
LDZD 021830Z 14005KT CAVOK 09/06 Q1018 NOSIG,LDZD,2018-04-02T18:30:00Z,44.1,15.37,9.0,6.0,140,5,,6.21,30.059055,,,,,,TRUE,,,,,CAVOK,,,,,,,,VFR,,,,,,,,,,,,METAR,84.0
KQEW 021830Z AUTO 20002KT 9999 CLR 15/11 A3002 RMK A02 TSNO,KQEW,2018-04-02T18:30:00Z,,,15.0,11.0,200,2,,6.21,30.02067,,,TRUE,TRUE,,,TRUE,,,,CLR,,,,,,,,VFR,,,,,,,,,,,,METAR,
KQEV 021830Z AUTO 24001KT 9999 BKN033 11/09 A3000 RMK A02 TSNO,KQEV,2018-04-02T18:30:00Z,,,11.0,9.0,240,1,,6.21,30.0,,,TRUE,TRUE,,,TRUE,,,,BKN,3300,,,,,,,VFR,,,,,,,,,,,,METAR,
KQEX 021830Z AUTO 30001KT 9999 CLR 15/11 A2995 RMK A02 TSNO,KQEX,2018-04-02T18:30:00Z,,,15.0,11.0,300,1,,6.21,29.949802,,,TRUE,TRUE,,,TRUE,,,,CLR,,,,,,,,VFR,,,,,,,,,,,,METAR,
KQEY 021830Z AUTO 23002KT 9999 CLR 11/09 A2975 RMK A02 TSNO,KQEY,2018-04-02T18:30:00Z,,,11.0,9.0,230,2,,6.21,29.749016,,,TRUE,TRUE,,,TRUE,,,,CLR,,,,,,,,VFR,,,,,,,,,,,,METAR,
KQFB 021830Z AUTO 08001KT 9000 CLR 13/11 A3009 RMK A02 TSNO,KQFB,2018-04-02T18:30:00Z,,,13.0,11.0,80,1,,5.59,30.088583,,,TRUE,TRUE,,,TRUE,,,,CLR,,,,,,,,VFR,,,,,,,,,,,,METAR,
KQFU 021830Z AUTO 15002KT 9999 OVC019 17/13 A3006 RMK A02 TSNO,KQFU,2018-04-02T18:30:00Z,,,17.0,13.0,150,2,,6.21,30.059055,,,TRUE,TRUE,,,TRUE,,,,OVC,1900,,,,,,,MVFR,,,,,,,,,,,,METAR,
KQFT 021830Z AUTO 18002KT 9999 OVC025 14/11 A3002 RMK A02 TSNO,KQFT,2018-04-02T18:30:00Z,,,14.0,11.0,180,2,,6.21,30.02067,,,TRUE,TRUE,,,TRUE,,,,OVC,2500,,,,,,,MVFR,,,,,,,,,,,,METAR,
KQFW 021830Z AUTO 04001KT 6000 HZ BKN045 12/10 A3005 RMK A02 TSNO,KQFW,2018-04-02T18:30:00Z,,,12.0,10.0,40,1,,3.73,30.050198,,,TRUE,TRUE,,,TRUE,,,HZ,BKN,4500,,,,,,,MVFR,,,,,,,,,,,,METAR,
KQFV 021830Z AUTO 21001KT 9999 OVC028 13/10 A3005 RMK A02 TSNO,KQFV,2018-04-02T18:30:00Z,,,13.0,10.0,210,1,,6.21,30.050198,,,TRUE,TRUE,,,TRUE,,,,OVC,2800,,,,,,,MVFR,,,,,,,,,,,,METAR,
KQFX 021830Z AUTO 24001KT 9000 FEW035 OVC044 11/10 A3002 RMK A02 TSNO,KQFX,2018-04-02T18:30:00Z,,,11.0,10.0,240,1,,5.59,30.02067,,,TRUE,TRUE,,,TRUE,,,,FEW,3500,OVC,4400,,,,,VFR,,,,,,,,,,,,METAR,
UKDD 021830Z 31006MPS 9999 OVC012 05/04 Q1007 R26/250254 NOSIG,UKDD,2018-04-02T18:30:00Z,48.37,35.1,5.0,4.0,310,12,,6.21,29.734253,,,,,,TRUE,,,,,OVC,1200,,,,,,,MVFR,,,,,,,,,,,,SPECI,149.0
UKDE 021830Z 29005MPS 260V320 9999 -SHRA BKN033 BKN046CB 06/05 Q1007 R02/290452 NOSIG,UKDE,2018-04-02T18:30:00Z,47.87,35.32,6.0,5.0,290,10,,6.21,29.734253,,,,,,TRUE,,,,-SHRA,BKN,3300,BKN,4600,,,,,VFR,,,,,,,,,,,,SPECI,113.0
UKOO 021830Z 32002MPS CAVOK 07/01 Q1013 R16/090060 NOSIG,UKOO,2018-04-02T18:30:00Z,46.42,30.68,7.0,1.0,320,4,,6.21,29.911417,,,,,,TRUE,,,,,CAVOK,,,,,,,,VFR,,,,,,,,,,,,METAR,35.0
UKHH 021830Z 28007MPS 0900 0800E R25/1800U FG VV001 04/04 Q1006 R25/290059 NOSIG,UKHH,2018-04-02T18:30:00Z,49.92,36.28,4.0,4.0,280,14,,0.56,29.704725,,,,,,TRUE,,,,FG,OVX,0,,,,,,,LIFR,,,,,,,,,,,100,SPECI,155.0
UKBB 021830Z 29004MPS 260V320 9999 OVC024 03/00 Q1008 R88/CLRD// NOSIG,UKBB,2018-04-02T18:30:00Z,50.33,30.9,3.0,0.0,290,8,,6.21,29.763779,,,,,,TRUE,,,,,OVC,2400,,,,,,,MVFR,,,,,,,,,,,,METAR,119.0
UBBG 021830Z 11006KT 6000 SCT083 10/08 Q1012 R12/CLRD// NOSIG,UBBG,2018-04-02T18:30:00Z,40.73,46.32,10.0,8.0,110,6,,3.73,29.88189,,,,,,TRUE,,,,,SCT,8300,,,,,,,MVFR,,,,,,,,,,,,METAR,330.0
CYQL 021830Z 32006KT 310V020 3/4SM -SN VV012 M10/M13 A2995 RMK SN8 SLP207,CYQL,2018-04-02T18:30:00Z,49.63,-112.8,-10.0,-13.0,320,6,,0.75,29.949802,1020.7,,,,,,,,,-SN,OVX,0,,,,,,,LIFR,,,,,,,,,,,1200,SPECI,929.0
UKLL 021830Z 20001MPS 7000 NSC 00/M01 Q1013 R31/190070 NOSIG,UKLL,2018-04-02T18:30:00Z,49.82,23.93,0.0,-1.0,200,2,,4.35,29.911417,,,,,,TRUE,,,,,CLR,,,,,,,,MVFR,,,,,,,,,,,,METAR,325.0
UKDR 021830Z 29004MPS 9999 BKN044 05/M01 Q1010 R36/09//70 NOSIG,UKDR,2018-04-02T18:30:00Z,48.05,33.22,5.0,-1.0,290,8,,6.21,29.822834,,,,,,TRUE,,,,,BKN,4400,,,,,,,VFR,,,,,,,,,,,,SPECI,124.0
VOBL 021830Z VRB00KT 6000 SCT012 BKN080 20/20 Q1015 NOSIG,VOBL,2018-04-02T18:30:00Z,13.2,77.7,20.0,20.0,0,0,,3.73,29.970472,,,,,,TRUE,,,,,SCT,1200,BKN,8000,,,,,MVFR,,,,,,,,,,,,METAR,915.0
DIAP 021830Z 24008KT 8000 SCT020 BKN040 29/24 Q1007 NOSIG,DIAP,2018-04-02T18:30:00Z,5.25,-3.92,29.0,24.0,240,8,,4.97,29.734253,,,,,,TRUE,,,,,SCT,2000,BKN,4000,,,,,MVFR,,,,,,,,,,,,METAR,8.0
OIIE 021830Z VRB02KT CAVOK 18/M03 Q1013 NOSIG,OIIE,2018-04-02T18:30:00Z,35.42,51.15,18.0,-3.0,0,2,,6.21,29.911417,,,,,,TRUE,,,,,CAVOK,,,,,,,,VFR,,,,,,,,,,,,METAR,1008.0
CWPF 021830Z AUTO 21012KT 07/M00 RMK AO1 T00701002,CWPF,2018-04-02T18:30:00Z,48.43,-123.43,7.0,-0.2,210,12,,,,,,TRUE,TRUE,,,,,,,,,,,,,,,,,,,,,,,,,,,METAR,12.0
LPAZ 021830Z 29019KT 9999 SCT020 17/11 Q1014,LPAZ,2018-04-02T18:30:00Z,36.97,-25.17,17.0,11.0,290,19,,6.21,29.940945,,,,,,,,,,,SCT,2000,,,,,,,VFR,,,,,,,,,,,,METAR,100.0
UBBB 021830Z 16012KT 9999 FEW008 09/08 Q1014 R88/D NOSIG,UBBB,2018-04-02T18:30:00Z,40.45,50.07,9.0,8.0,160,12,,6.21,29.940945,,,,,,TRUE,,,,,FEW,800,,,,,,,VFR,,,,,,,,,,,,METAR,-6.0
CWVF 021830Z AUTO 31014KT 06/ RMK AO1 PK WND 32017/1823 T0062,CWVF,2018-04-02T18:30:00Z,49.1,-123.3,6.2,,310,14,,,,,,TRUE,TRUE,,,,,,,,,,,,,,,,,,,,,,,,,,,METAR,1.0
EPBY 021830Z 25005KT CAVOK 02/M04 Q1010,EPBY,2018-04-02T18:30:00Z,53.1,18.0,2.0,-4.0,250,5,,6.21,29.822834,,,,,,,,,,,CAVOK,,,,,,,,VFR,,,,,,,,,,,,METAR,71.0
EPKT 021830Z 10001KT CAVOK 03/M04 Q1011,EPKT,2018-04-02T18:30:00Z,50.47,19.08,3.0,-4.0,100,1,,6.21,29.852362,,,,,,,,,,,CAVOK,,,,,,,,VFR,,,,,,,,,,,,METAR,284.0
EPLB 021830Z 27005KT CAVOK 03/M01 Q1011,EPLB,2018-04-02T18:30:00Z,51.23,22.72,3.0,-1.0,270,5,,6.21,29.852362,,,,,,,,,,,CAVOK,,,,,,,,VFR,,,,,,,,,,,,METAR,206.0
EPMO 021830Z 25005KT CAVOK 03/M01 Q1010,EPMO,2018-04-02T18:30:00Z,52.45,20.65,3.0,-1.0,250,5,,6.21,29.822834,,,,,,,,,,,CAVOK,,,,,,,,VFR,,,,,,,,,,,,METAR,104.0
EPSC 021830Z 36002KT CAVOK 02/M02 Q1009,EPSC,2018-04-02T18:30:00Z,53.58,14.9,2.0,-2.0,360,2,,6.21,29.793306,,,,,,,,,,,CAVOK,,,,,,,,VFR,,,,,,,,,,,,METAR,47.0
EPSY 021830Z 23003KT CAVOK 01/M03 Q1009,EPSY,2018-04-02T18:30:00Z,53.47,20.93,1.0,-3.0,230,3,,6.21,29.793306,,,,,,,,,,,CAVOK,,,,,,,,VFR,,,,,,,,,,,,METAR,141.0
EPWR 021830Z 14003KT CAVOK 03/M02 Q1011,EPWR,2018-04-02T18:30:00Z,51.1,16.87,3.0,-2.0,140,3,,6.21,29.852362,,,,,,,,,,,CAVOK,,,,,,,,VFR,,,,,,,,,,,,METAR,121.0
NTAA 021830Z VRB02KT 9999 FEW023 29/22 Q1013 NOSIG,NTAA,2018-04-02T18:30:00Z,-17.55,-149.62,29.0,22.0,0,2,,6.21,29.911417,,,,,,TRUE,,,,,FEW,2300,,,,,,,VFR,,,,,,,,,,,,METAR,2.0
EPKK 021830Z VRB02KT 9999 FEW060 05/M02 Q1012,EPKK,2018-04-02T18:30:00Z,50.07,19.8,5.0,-2.0,0,2,,6.21,29.88189,,,,,,,,,,,FEW,6000,,,,,,,VFR,,,,,,,,,,,,METAR,237.0
EPGD 021830Z 26007KT CAVOK 01/M04 Q1008,EPGD,2018-04-02T18:30:00Z,54.37,18.47,1.0,-4.0,260,7,,6.21,29.763779,,,,,,,,,,,CAVOK,,,,,,,,VFR,,,,,,,,,,,,METAR,138.0
EPLL 021830Z 22002KT 9999 BKN048 04/M01 Q1011,EPLL,2018-04-02T18:30:00Z,51.72,19.4,4.0,-1.0,220,2,,6.21,29.852362,,,,,,,,,,,BKN,4800,,,,,,,VFR,,,,,,,,,,,,METAR,184.0
EPPO 021830Z 15001KT CAVOK 02/M03 Q1010,EPPO,2018-04-02T18:30:00Z,52.42,16.82,2.0,-3.0,150,1,,6.21,29.822834,,,,,,,,,,,CAVOK,,,,,,,,VFR,,,,,,,,,,,,METAR,92.0
EPRZ 021830Z 24004KT CAVOK 03/M02 Q1012,EPRZ,2018-04-02T18:30:00Z,50.1,22.05,3.0,-2.0,240,4,,6.21,29.88189,,,,,,,,,,,CAVOK,,,,,,,,VFR,,,,,,,,,,,,METAR,202.0
EPWA 021830Z 25004KT CAVOK 03/M02 Q1010 NOSIG,EPWA,2018-04-02T18:30:00Z,52.17,20.97,3.0,-2.0,250,4,,6.21,29.822834,,,,,,TRUE,,,,,CAVOK,,,,,,,,VFR,,,,,,,,,,,,METAR,107.0
GMAD 021830Z 26014KT CAVOK 17/12 Q1011 NOSIG,GMAD,2018-04-02T18:30:00Z,30.32,-9.42,17.0,12.0,260,14,,6.21,29.852362,,,,,,TRUE,,,,,CAVOK,,,,,,,,VFR,,,,,,,,,,,,METAR,74.0
GMFF 021830Z 01002KT 9999 BKN026 16/13 Q1012 NOSIG,GMFF,2018-04-02T18:30:00Z,33.92,-4.97,16.0,13.0,10,2,,6.21,29.88189,,,,,,TRUE,,,,,BKN,2600,,,,,,,MVFR,,,,,,,,,,,,METAR,579.0
GMMN 021830Z 31009KT 9999 SCT016 17/13 Q1012 NOSIG,GMMN,2018-04-02T18:30:00Z,33.37,-7.57,17.0,13.0,310,9,,6.21,29.88189,,,,,,TRUE,,,,,SCT,1600,,,,,,,VFR,,,,,,,,,,,,METAR,206.0
GMMX 021830Z 28008KT 250V310 9999 BKN023 20/04 Q1010 NOSIG,GMMX,2018-04-02T18:30:00Z,31.62,-8.02,20.0,4.0,280,8,,6.21,29.822834,,,,,,TRUE,,,,,BKN,2300,,,,,,,MVFR,,,,,,,,,,,,METAR,466.0
GMTT 021830Z 25009KT 9999 SCT016 16/13 Q1011 NOSIG,GMTT,2018-04-02T18:30:00Z,35.72,-5.9,16.0,13.0,250,9,,6.21,29.852362,,,,,,TRUE,,,,,SCT,1600,,,,,,,VFR,,,,,,,,,,,,METAR,21.0
FMCZ 021830Z AUTO 25007KT 9999 FEW026/// 28/25 Q1011 NOSIG,FMCZ,2018-04-02T18:30:00Z,-12.8,45.27,28.0,25.0,250,7,,6.21,29.852362,,,TRUE,,,TRUE,,,,,FEW,2600,,,,,,,VFR,,,,,,,,,,,,METAR,7.0
WADL 021830Z AUTO 00000KT 2700 NCD 25/24 Q1010,WADL,2018-04-02T18:30:00Z,-8.75,116.28,25.0,24.0,0,0,,1.68,29.822834,,,TRUE,,,,,,,,CLR,,,,,,,,IFR,,,,,,,,,,,,METAR,97.0
KAVX 021830Z AUTO 06005KT 10SM BKN006 OVC010 13/10 A2991 RMK AO2 T01330100,KAVX,2018-04-02T18:30:00Z,33.4,-118.42,13.3,10.0,60,5,,10.0,29.911417,,,TRUE,TRUE,,,,,,,BKN,600,OVC,1000,,,,,IFR,,,,,,,,,,,,SPECI,482.0
KBPT 021830Z 16014KT 10SM BKN027 BKN034 26/20 A2992 RMK AO2 T02610200,KBPT,2018-04-02T18:30:00Z,29.95,-94.03,26.1,20.0,160,14,,10.0,29.920275,,,,TRUE,,,,,,,BKN,2700,BKN,3400,,,,,MVFR,,,,,,,,,,,,SPECI,5.0
KBTR 021830Z 24005KT 10SM BKN030 BKN050 BKN065 26/17 A2997 RMK AO2 T02610167,KBTR,2018-04-02T18:30:00Z,30.53,-91.15,26.1,16.7,240,5,,10.0,29.970472,,,,TRUE,,,,,,,BKN,3000,BKN,5000,BKN,6500,,,MVFR,,,,,,,,,,,,SPECI,21.0
KCMH 021830Z 10SM BKN028 07/00 A3010 RMK AO2 T00670000,KCMH,2018-04-02T18:30:00Z,40.0,-82.88,6.7,0.0,,,,10.0,30.100393,,,,TRUE,,,,,,,BKN,2800,,,,,,,MVFR,,,,,,,,,,,,SPECI,247.0
KGON 021830Z 02004KT 10SM BKN021 BKN090 05/M01 A3009 RMK AO2 T00501011,KGON,2018-04-02T18:30:00Z,41.33,-72.05,5.0,-1.1,20,4,,10.0,30.088583,,,,TRUE,,,,,,,BKN,2100,BKN,9000,,,,,MVFR,,,,,,,,,,,,SPECI,3.0
KHEI 021830Z AUTO 04017KT 1SM -SN FEW007 BKN016 OVC029 M06/M08 A2971 RMK AO2 P0000 T10561083,KHEI,2018-04-02T18:30:00Z,46.02,-102.65,-5.6,-8.3,40,17,,1.0,29.71063,,,TRUE,TRUE,,,,,,-SN,FEW,700,BKN,1600,OVC,2900,,,IFR,,,,,,0.005,,,,,,SPECI,828.0
KPYM 021830Z AUTO 00000KT 10SM OVC013 03/00 A3009 RMK AO2 T00330000,KPYM,2018-04-02T18:30:00Z,41.92,-70.73,3.3,0.0,0,0,,10.0,30.088583,,,TRUE,TRUE,,,,,,,OVC,1300,,,,,,,MVFR,,,,,,,,,,,,SPECI,43.0
KOWA 021830Z AUTO 14009G15KT 10SM SCT048 01/M07 A2990 RMK AO2,KOWA,2018-04-02T18:30:00Z,44.12,-93.25,1.0,-7.0,140,9,15,10.0,29.899607,,,TRUE,TRUE,,,,,,,SCT,4800,,,,,,,VFR,,,,,,,,,,,,SPECI,350.0
KSTP 021830Z 16010KT 1/4SM SN FZFG VV009 M02/M03 A2996 RMK AO2 P0000 T10171028 RVRNO,KSTP,2018-04-02T18:30:00Z,44.93,-93.05,-1.7,-2.8,160,10,,0.25,29.958662,,,,TRUE,,,,,,SN FZFG,OVX,0,,,,,,,LIFR,,,,,,0.005,,,,,900,SPECI,219.0
KTZR 021830Z 16004KT 10SM BKN029 07/00 A3010,KTZR,2018-04-02T18:30:00Z,39.9,-83.13,7.0,0.0,160,4,,10.0,30.100393,,,,,,,,,,,BKN,2900,,,,,,,MVFR,,,,,,,,,,,,SPECI,276.0
HSSS 021830Z 33011KT CAVOK 32/M09 Q1007 NOSIG,HSSS,2018-04-02T18:30:00Z,15.58,32.53,32.0,-9.0,330,11,,6.21,29.734253,,,,,,TRUE,,,,,CAVOK,,,,,,,,VFR,,,,,,,,,,,,METAR,380.0
SPJR 021830Z 17009KT 140V210 9999 SCT027 OVC047 18/10 Q1025,SPJR,2018-04-02T18:30:00Z,-7.12,-78.47,18.0,10.0,170,9,,6.21,30.265747,,,,,,,,,,,SCT,2700,OVC,4700,,,,,VFR,,,,,,,,,,,,METAR,2622.0
LCLK 021830Z 31008KT 260V340 CAVOK 18/12 Q1013 NOSIG,LCLK,2018-04-02T18:30:00Z,34.87,33.62,18.0,12.0,310,8,,6.21,29.911417,,,,,,TRUE,,,,,CAVOK,,,,,,,,VFR,,,,,,,,,,,,METAR,2.0
LCPH 021830Z 34005KT 9999 FEW016 15/12 Q1013,LCPH,2018-04-02T18:30:00Z,34.72,32.47,15.0,12.0,340,5,,6.21,29.911417,,,,,,,,,,,FEW,1600,,,,,,,VFR,,,,,,,,,,,,METAR,8.0
WIII 021830Z VRB03KT 9000 FEW018CB SCT020 24/23 Q1010 NOSIG RMK CB TO NE,WIII,2018-04-02T18:30:00Z,-6.13,106.67,24.0,23.0,0,3,,5.59,29.822834,,,,,,TRUE,,,,,FEW,1800,SCT,2000,,,,,VFR,,,,,,,,,,,,SPECI,8.0
BIKF 021830Z 07014KT 4500 VCSH SCT005 BKN015 OVC025 01/01 Q1012,BIKF,2018-04-02T18:30:00Z,63.98,-22.6,1.0,1.0,70,14,,2.8,29.88189,,,,,,,,,,VCSH,SCT,500,BKN,1500,OVC,2500,,,IFR,,,,,,,,,,,,METAR,54.0
LQBK 021830Z 23009KT CAVOK 16/01 Q1015 NOSIG,LQBK,2018-04-02T18:30:00Z,44.93,17.3,16.0,1.0,230,9,,6.21,29.970472,,,,,,TRUE,,,,,CAVOK,,,,,,,,VFR,,,,,,,,,,,,METAR,122.0
LQSA 021830Z 11003KT CAVOK 09/00 Q1017 NOSIG,LQSA,2018-04-02T18:30:00Z,43.82,18.32,9.0,0.0,110,3,,6.21,30.029528,,,,,,TRUE,,,,,CAVOK,,,,,,,,VFR,,,,,,,,,,,,METAR,511.0
LQTZ 021830Z 11005KT 9999 FEW040 12/04 Q1016,LQTZ,2018-04-02T18:30:00Z,44.47,18.73,12.0,4.0,110,5,,6.21,30.0,,,,,,,,,,,FEW,4000,,,,,,,VFR,,,,,,,,,,,,METAR,306.0
LKKV 021830Z VRB02KT CAVOK 06/M00 Q1008,LKKV,2018-04-02T18:30:00Z,50.2,12.92,6.0,0.0,0,2,,6.21,29.763779,,,,,,,,,,,CAVOK,,,,,,,,VFR,,,,,,,,,,,,METAR,604.0
LKMT 021830Z 18005KT CAVOK 07/M02 Q1012 NOSIG,LKMT,2018-04-02T18:30:00Z,49.67,18.12,7.0,-2.0,180,5,,6.21,29.88189,,,,,,TRUE,,,,,CAVOK,,,,,,,,VFR,,,,,,,,,,,,METAR,256.0
LKPR 021830Z 13003KT 070V140 CAVOK 08/M02 Q1009 NOSIG,LKPR,2018-04-02T18:30:00Z,50.1,14.27,8.0,-2.0,130,3,,6.21,29.793306,,,,,,TRUE,,,,,CAVOK,,,,,,,,VFR,,,,,,,,,,,,METAR,365.0
LKTB 021830Z 11005KT CAVOK 08/M00 Q1011 NOSIG,LKTB,2018-04-02T18:30:00Z,49.13,16.68,8.0,0.0,110,5,,6.21,29.852362,,,,,,TRUE,,,,,CAVOK,,,,,,,,VFR,,,,,,,,,,,,METAR,246.0
LZPP 021830Z 11005KT CAVOK 07/M00 Q1013,LZPP,2018-04-02T18:30:00Z,48.62,17.83,7.0,0.0,110,5,,6.21,29.911417,,,,,,,,,,,CAVOK,,,,,,,,VFR,,,,,,,,,,,,METAR,161.0
LZSL 021830Z VRB01KT CAVOK 04/M01 Q1014,LZSL,2018-04-02T18:30:00Z,48.63,19.13,4.0,-1.0,0,1,,6.21,29.940945,,,,,,,,,,,CAVOK,,,,,,,,VFR,,,,,,,,,,,,METAR,313.0
LZZI 021830Z 13003KT CAVOK 05/M01 Q1013,LZZI,2018-04-02T18:30:00Z,49.23,18.62,5.0,-1.0,130,3,,6.21,29.911417,,,,,,,,,,,CAVOK,,,,,,,,VFR,,,,,,,,,,,,METAR,311.0
LYBE 021830Z 09005KT CAVOK 11/02 Q1017 NOSIG,LYBE,2018-04-02T18:30:00Z,44.82,20.28,11.0,2.0,90,5,,6.21,30.029528,,,,,,TRUE,,,,,CAVOK,,,,,,,,VFR,,,,,,,,,,,,METAR,99.0
LYBT 021830Z 08005KT CAVOK 09/02 Q1017 NOSIG,LYBT,2018-04-02T18:30:00Z,44.93,20.25,9.0,2.0,80,5,,6.21,30.029528,,,,,,TRUE,,,,,CAVOK,,,,,,,,VFR,,,,,,,,,,,,METAR,80.0
LYKV 021830Z 03003KT 360V060 CAVOK 12/01 Q1017 NOSIG,LYKV,2018-04-02T18:30:00Z,43.82,20.58,12.0,1.0,30,3,,6.21,30.029528,,,,,,TRUE,,,,,CAVOK,,,,,,,,VFR,,,,,,,,,,,,METAR,209.0
LYNI 021830Z 07004KT CAVOK 10/02 Q1017 NOSIG,LYNI,2018-04-02T18:30:00Z,43.32,21.88,10.0,2.0,70,4,,6.21,30.029528,,,,,,TRUE,,,,,CAVOK,,,,,,,,VFR,,,,,,,,,,,,METAR,202.0
LYPG 021830Z 14006KT CAVOK 12/07 Q1019 NOSIG,LYPG,2018-04-02T18:30:00Z,42.37,19.25,12.0,7.0,140,6,,6.21,30.088583,,,,,,TRUE,,,,,CAVOK,,,,,,,,VFR,,,,,,,,,,,,METAR,43.0
LYTV 021830Z VRB01KT CAVOK 10/07 Q1020 NOSIG,LYTV,2018-04-02T18:30:00Z,42.38,18.72,10.0,7.0,0,1,,6.21,30.11811,,,,,,TRUE,,,,,CAVOK,,,,,,,,VFR,,,,,,,,,,,,METAR,5.0
LYUZ 021830Z AUTO VRB01KT CAVOK 06/00 Q1017,LYUZ,2018-04-02T18:30:00Z,43.9,19.7,6.0,0.0,0,1,,6.21,30.029528,,,TRUE,,,,,,,,CAVOK,,,,,,,,VFR,,,,,,,,,,,,METAR,904.0
LYVR 021830Z 05003KT 010V070 CAVOK 08/03 Q1017 NOSIG,LYVR,2018-04-02T18:30:00Z,45.13,21.32,8.0,3.0,50,3,,6.21,30.029528,,,,,,TRUE,,,,,CAVOK,,,,,,,,VFR,,,,,,,,,,,,METAR,85.0
EIDW 021830Z 36006KT 0500 R16/0600V0800N R28/0750V1200N R10/1200U FG -RA FEW001 BKN002 BKN005 07/07 Q0987 NOSIG,EIDW,2018-04-02T18:30:00Z,53.42,-6.25,7.0,7.0,360,6,,0.31,29.143702,,,,,,TRUE,,,,-RA FG,FEW,100,BKN,200,BKN,500,,,LIFR,,,,,,,,,,,,METAR,85.0
EINN 021830Z 05005KT 9999 -RA SCT006 BKN010 08/08 Q0986 NOSIG,EINN,2018-04-02T18:30:00Z,52.7,-8.92,8.0,8.0,50,5,,6.21,29.114174,,,,,,TRUE,,,,-RA,SCT,600,BKN,1000,,,,,MVFR,,,,,,,,,,,,METAR,20.0
EICK 021830Z 17008KT 9999 BKN003 BKN006 09/09 Q0986 TEMPO 3000,EICK,2018-04-02T18:30:00Z,51.85,-8.47,9.0,9.0,170,8,,6.21,29.114174,,,,,,,,,,,BKN,300,BKN,600,,,,,LIFR,,,,,,,,,,,,METAR,162.0
EIKN 021830Z 08011KT 7000 -DZ FEW005 OVC007 03/02 Q0987 TEMPO 2000 BKN003,EIKN,2018-04-02T18:30:00Z,53.92,-8.82,3.0,2.0,80,11,,4.35,29.143702,,,,,,,,,,-DZ,FEW,500,OVC,700,,,,,IFR,,,,,,,,,,,,METAR,64.0
OPRN 021830Z 09012KT 4000 VCTS FEW040TCU SCT050 BKN250 25/17 Q1013 TEMPO 23015G30KT 3000 TS FEW030CB RMK A2993,OPRN,2018-04-02T18:30:00Z,33.62,73.08,25.0,17.0,90,12,,2.49,29.911417,,,,,,,,,,VCTS,FEW,4000,SCT,5000,BKN,25000,,,IFR,,,,,,,,,,,,SPECI,508.0
OIAW 021830Z 36002KT CAVOK 22/02 Q1011,OIAW,2018-04-02T18:30:00Z,31.32,48.77,22.0,2.0,360,2,,6.21,29.852362,,,,,,,,,,,CAVOK,,,,,,,,VFR,,,,,,,,,,,,METAR,22.0
OIFM 021830Z 29004KT CAVOK 13/M16 Q1015 A2999,OIFM,2018-04-02T18:30:00Z,32.75,51.87,13.0,-16.0,290,4,,6.21,29.970472,,,,,,,,,,,CAVOK,,,,,,,,VFR,,,,,,,,,,,,METAR,1542.0
OIII 021830Z 00000KT CAVOK 17/M03 Q1014 A2994 NOSIG,OIII,2018-04-02T18:30:00Z,35.68,51.3,17.0,-3.0,0,0,,6.21,29.940945,,,,,,TRUE,,,,,CAVOK,,,,,,,,VFR,,,,,,,,,,,,METAR,1191.0
OIKB 021830Z 22010KT 4000 HZ NSC 25/21 Q1009 A2981,OIKB,2018-04-02T18:30:00Z,27.22,56.37,25.0,21.0,220,10,,2.49,29.793306,,,,,,,,,,HZ,CLR,,,,,,,,IFR,,,,,,,,,,,,METAR,10.0
OIMM 021830Z 18004KT CAVOK 08/05 Q1018 A3006,OIMM,2018-04-02T18:30:00Z,36.23,59.62,8.0,5.0,180,4,,6.21,30.059055,,,,,,,,,,,CAVOK,,,,,,,,VFR,,,,,,,,,,,,METAR,980.0
OISS 021830Z 30006KT CAVOK 17/M12 Q1017 A3005,OISS,2018-04-02T18:30:00Z,29.52,52.57,17.0,-12.0,300,6,,6.21,30.029528,,,,,,,,,,,CAVOK,,,,,,,,VFR,,,,,,,,,,,,METAR,1491.0
OITT 021830Z 36004KT CAVOK 10/03 Q1015 A2999,OITT,2018-04-02T18:30:00Z,38.13,46.23,10.0,3.0,360,4,,6.21,29.970472,,,,,,,,,,,CAVOK,,,,,,,,VFR,,,,,,,,,,,,METAR,1361.0
CMGB 021830Z AUTO 27008KT 04/M11 RMK AO1 SLP187 T00351108 58006,CMGB,2018-04-02T18:30:00Z,45.37,-72.77,3.5,-10.8,270,8,,,,1018.7,,TRUE,TRUE,,,,,,,,,,,,,,,,-0.6,,,,,,,,,,,METAR,86.0
OICC 021830Z 27008KT CAVOK 14/M03 Q1017 A3004,OICC,2018-04-02T18:30:00Z,34.35,47.17,14.0,-3.0,270,8,,6.21,30.029528,,,,,,,,,,,CAVOK,,,,,,,,VFR,,,,,,,,,,,,METAR,1322.0
OIYY 021830Z 16002KT 5000 HZ FEW100 22/M04 Q1014,OIYY,2018-04-02T18:30:00Z,31.9,54.28,22.0,-4.0,160,2,,3.11,29.940945,,,,,,,,,,HZ,FEW,10000,,,,,,,MVFR,,,,,,,,,,,,METAR,1236.0
VGHS 021830Z 23004KT 3500 HZ SCT015 BKN100 26/21 Q1011 NOSIG,VGHS,2018-04-02T18:30:00Z,23.85,90.4,26.0,21.0,230,4,,2.17,29.852362,,,,,,TRUE,,,,HZ,SCT,1500,BKN,10000,,,,,IFR,,,,,,,,,,,,METAR,10.0
BKPR 021830Z 24013KT 9999 FEW050 11/01 Q1017 NOSIG,BKPR,2018-04-02T18:30:00Z,42.58,21.03,11.0,1.0,240,13,,6.21,30.029528,,,,,,TRUE,,,,,FEW,5000,,,,,,,VFR,,,,,,,,,,,,METAR,576.0
KIPJ 021830Z AUTO 24005KT 10SM CLR 25/03 A2995 RMK AO2 T02460029,KIPJ,2018-04-02T18:30:00Z,35.48,-81.17,24.6,2.9,240,5,,10.0,29.949802,,,TRUE,TRUE,,,,,,,CLR,,,,,,,,VFR,,,,,,,,,,,,METAR,267.0
GCTS 021830Z 13011KT 9999 FEW043 20/15 Q1013 NOSIG,GCTS,2018-04-02T18:30:00Z,28.05,-16.57,20.0,15.0,130,11,,6.21,29.911417,,,,,,TRUE,,,,,FEW,4300,,,,,,,VFR,,,,,,,,,,,,METAR,72.0
GCRR 021830Z 34010KT 300V020 9999 FEW035 21/13 Q1012,GCRR,2018-04-02T18:30:00Z,28.93,-13.58,21.0,13.0,340,10,,6.21,29.88189,,,,,,,,,,,FEW,3500,,,,,,,VFR,,,,,,,,,,,,METAR,40.0
GCLP 021830Z 01014KT 9999 FEW035 20/13 Q1012 NOSIG,GCLP,2018-04-02T18:30:00Z,27.92,-15.37,20.0,13.0,10,14,,6.21,29.88189,,,,,,TRUE,,,,,FEW,3500,,,,,,,VFR,,,,,,,,,,,,METAR,25.0
GCLA 021830Z 05004KT 340V110 9999 FEW030 20/14 Q1013,GCLA,2018-04-02T18:30:00Z,28.62,-17.75,20.0,14.0,50,4,,6.21,29.911417,,,,,,,,,,,FEW,3000,,,,,,,VFR,,,,,,,,,,,,METAR,31.0
GCFV 021830Z 33010KT 290V350 9999 FEW025 SCT039 21/13 Q1012,GCFV,2018-04-02T18:30:00Z,28.43,-13.87,21.0,13.0,330,10,,6.21,29.88189,,,,,,,,,,,FEW,2500,SCT,3900,,,,,VFR,,,,,,,,,,,,METAR,23.0
VOMM 021830Z 13006KT 6000 SCT020 30/26 Q1011 NOSIG,VOMM,2018-04-02T18:30:00Z,13.0,80.17,30.0,26.0,130,6,,3.73,29.852362,,,,,,TRUE,,,,,SCT,2000,,,,,,,MVFR,,,,,,,,,,,,METAR,16.0
VEBN 021830Z 07004KT 3000 HZ NSC 26/16 Q1009 NOSIG,VEBN,2018-04-02T18:30:00Z,25.45,82.85,26.0,16.0,70,4,,1.86,29.793306,,,,,,TRUE,,,,HZ,CLR,,,,,,,,IFR,,,,,,,,,,,,METAR,83.0
VOCI 021830Z 00000KT 4000 HZ SCT015 SCT090 28/25 Q1011 NOSIG,VOCI,2018-04-02T18:30:00Z,10.15,76.4,28.0,25.0,0,0,,2.49,29.852362,,,,,,TRUE,,,,HZ,SCT,1500,SCT,9000,,,,,IFR,,,,,,,,,,,,METAR,8.0
VOHS 021830Z 15004KT 6000 SCT015 SCT100 26/20 Q1013 NOSIG,VOHS,2018-04-02T18:30:00Z,17.23,78.43,26.0,20.0,150,4,,3.73,29.911417,,,,,,TRUE,,,,,SCT,1500,SCT,10000,,,,,MVFR,,,,,,,,,,,,METAR,1.0
GCXO 021830Z 31013KT 280V340 9999 FEW004 SCT008 BKN014 14/12 Q1014 NOSIG,GCXO,2018-04-02T18:30:00Z,28.48,-16.35,14.0,12.0,310,13,,6.21,29.940945,,,,,,TRUE,,,,,FEW,400,SCT,800,BKN,1400,,,MVFR,,,,,,,,,,,,METAR,632.0
VOTV 021830Z 02003KT 4000 HZ FEW015 29/25 Q1010 NOSIG,VOTV,2018-04-02T18:30:00Z,8.47,76.95,29.0,25.0,20,3,,2.49,29.822834,,,,,,TRUE,,,,HZ,FEW,1500,,,,,,,IFR,,,,,,,,,,,,METAR,8.0
VAAH 021830Z 00000KT 4000 FU NSC 28/11 Q1009 NOSIG,VAAH,2018-04-02T18:30:00Z,23.07,72.62,28.0,11.0,0,0,,2.49,29.793306,,,,,,TRUE,,,,FU,CLR,,,,,,,,IFR,,,,,,,,,,,,METAR,55.0
VEPT 021830Z 11003KT 3500 HZ NSC 26/16 Q1009 NOSIG,VEPT,2018-04-02T18:30:00Z,25.6,85.08,26.0,16.0,110,3,,2.17,29.793306,,,,,,TRUE,,,,HZ,CLR,,,,,,,,IFR,,,,,,,,,,,,METAR,60.0
VIAR 021830Z 00000KT 3000 BR SCT100 23/20 Q1011 NOSIG,VIAR,2018-04-02T18:30:00Z,31.7,74.8,23.0,20.0,0,0,,1.86,29.852362,,,,,,TRUE,,,,BR,SCT,10000,,,,,,,IFR,,,,,,,,,,,,METAR,234.0
VOCL 021830Z 00000KT 6000 SCT012 FEW025CB BKN080 25/20 Q1010 NOSIG,VOCL,2018-04-02T18:30:00Z,11.13,75.95,25.0,20.0,0,0,,3.73,29.822834,,,,,,TRUE,,,,,SCT,1200,FEW,2500,BKN,8000,,,MVFR,,,,,,,,,,,,METAR,104.0
VIDP 021830Z 10004KT 4000 HZ FEW100 28/14 Q1010 NOSIG,VIDP,2018-04-02T18:30:00Z,28.57,77.12,28.0,14.0,100,4,,2.49,29.822834,,,,,,TRUE,,,,HZ,FEW,10000,,,,,,,IFR,,,,,,,,,,,,METAR,233.0
VANP 021830Z 00000KT 4000 HZ NSC 26/10 Q1010 NOSIG,VANP,2018-04-02T18:30:00Z,21.08,79.05,26.0,10.0,0,0,,2.49,29.822834,,,,,,TRUE,,,,HZ,CLR,,,,,,,,IFR,,,,,,,,,,,,METAR,310.0
VOTR 021830Z 10003KT 4000 HZ SCT016 29/22 Q1010 NOSIG,VOTR,2018-04-02T18:30:00Z,10.77,78.72,29.0,22.0,100,3,,2.49,29.822834,,,,,,TRUE,,,,HZ,SCT,1600,,,,,,,IFR,,,,,,,,,,,,METAR,88.0
LFOC 021830Z AUTO 18005KT 9999 ///TCU 11/10 Q1000,LFOC,2018-04-02T18:30:00Z,48.03,1.37,11.0,10.0,180,5,,6.21,29.52756,,,TRUE,,,,,,,,,,,,,,,,,,,,,,,,,,,,METAR,127.0
LFOE 021830Z AUTO 18008KT 9999 ///TCU 11/09 Q0999 TEMPO 18015G25KT 4000 RA BKN012 BKN020,LFOE,2018-04-02T18:30:00Z,49.02,1.22,11.0,9.0,180,8,,6.21,29.498032,,,TRUE,,,,,,,,,,,,,,,,,,,,,,,,,,,,METAR,146.0
LFOJ 021830Z AUTO 19006KT 9999 -RA ///TCU 14/07 Q1000 TEMPO 18015G25KT 3000 SHRA BKN035CB,LFOJ,2018-04-02T18:30:00Z,47.97,1.75,14.0,7.0,190,6,,6.21,29.52756,,,TRUE,,,,,,,-RA,,,,,,,,,,,,,,,,,,,,,METAR,125.0
LFRJ 021830Z AUTO 20017KT 9999 -RA BKN015/// OVC022/// ///TCU 11/09 Q0993,LFRJ,2018-04-02T18:30:00Z,48.52,-4.15,11.0,9.0,200,17,,6.21,29.320866,,,TRUE,,,,,,,-RA,BKN,1500,OVC,2200,,,,,MVFR,,,,,,,,,,,,METAR,115.0
LFRL 021830Z AUTO 19014G25KT 9999 BKN011/// OVC017/// ///TCU 11/10 Q0994,LFRL,2018-04-02T18:30:00Z,48.27,-4.42,11.0,10.0,190,14,25,6.21,29.350393,,,TRUE,,,,,,,,BKN,1100,OVC,1700,,,,,MVFR,,,,,,,,,,,,METAR,82.0
LFSI 021830Z AUTO 16007KT CAVOK 14/04 Q1002,LFSI,2018-04-02T18:30:00Z,48.62,4.9,14.0,4.0,160,7,,6.21,29.586615,,,TRUE,,,,,,,,CAVOK,,,,,,,,VFR,,,,,,,,,,,,METAR,140.0
LFSO 021830Z AUTO 18017KT CAVOK 14/02 Q1002,LFSO,2018-04-02T18:30:00Z,48.57,5.97,14.0,2.0,180,17,,6.21,29.586615,,,TRUE,,,,,,,,CAVOK,,,,,,,,VFR,,,,,,,,,,,,METAR,350.0
LFSX 021830Z AUTO 09002KT CAVOK 12/02 Q1004,LFSX,2018-04-02T18:30:00Z,47.77,6.33,12.0,2.0,90,2,,6.21,29.64567,,,TRUE,,,,,,,,CAVOK,,,,,,,,VFR,,,,,,,,,,,,METAR,273.0
LFYR 021830Z AUTO 21003KT CAVOK 13/07 Q1001,LFYR,2018-04-02T18:30:00Z,47.32,1.67,13.0,7.0,210,3,,6.21,29.557087,,,TRUE,,,,,,,,CAVOK,,,,,,,,VFR,,,,,,,,,,,,METAR,86.0
LFOA 021830Z AUTO 22006KT 9999 -RA NSC 15/08 Q1002,LFOA,2018-04-02T18:30:00Z,47.03,2.63,15.0,8.0,220,6,,6.21,29.586615,,,TRUE,,,,,,,-RA,CLR,,,,,,,,VFR,,,,,,,,,,,,METAR,179.0
LFPV 021830Z AUTO 16006KT 9999 -RA NSC 12/07 Q1000 TEMPO 3000 SHRA SCT020 SCT030TCU,LFPV,2018-04-02T18:30:00Z,48.77,2.2,12.0,7.0,160,6,,6.21,29.52756,,,TRUE,,,,,,,-RA,CLR,,,,,,,,VFR,,,,,,,,,,,,METAR,179.0
LFCR 021830Z AUTO 13022KT CAVOK 10/02 Q1005 BECMG 13020G32KT,LFCR,2018-04-02T18:30:00Z,44.38,2.47,10.0,2.0,130,22,,6.21,29.675198,,,TRUE,,,,,,,,CAVOK,,,,,,,,VFR,,,,,,,,,,,,METAR,580.0
LFJL 021830Z AUTO 14010KT CAVOK 12/03 Q1003 NOSIG,LFJL,2018-04-02T18:30:00Z,48.97,6.25,12.0,3.0,140,10,,6.21,29.616142,,,TRUE,,,TRUE,,,,,CAVOK,,,,,,,,VFR,,,,,,,,,,,,METAR,264.0
LFKC 021830Z AUTO 11003KT CAVOK 13/09 Q1014 NOSIG,LFKC,2018-04-02T18:30:00Z,42.52,8.8,13.0,9.0,110,3,,6.21,29.940945,,,TRUE,,,TRUE,,,,,CAVOK,,,,,,,,VFR,,,,,,,,,,,,METAR,58.0
LFKF 021830Z AUTO 07011KT 9999 SCT024 BKN210 BKN240 13/09 Q1016 BECMG 07015G25KT,LFKF,2018-04-02T18:30:00Z,41.5,9.08,13.0,9.0,70,11,,6.21,30.0,,,TRUE,,,,,,,,SCT,2400,BKN,21000,BKN,24000,,,VFR,,,,,,,,,,,,METAR,23.0
LFKJ 021830Z AUTO VRB02KT CAVOK 13/09 Q1014 NOSIG,LFKJ,2018-04-02T18:30:00Z,41.92,8.8,13.0,9.0,0,2,,6.21,29.940945,,,TRUE,,,TRUE,,,,,CAVOK,,,,,,,,VFR,,,,,,,,,,,,METAR,9.0
LFLC 021830Z AUTO 18017KT 9999 FEW007 BKN120 BKN170 13/03 Q1005 TEMPO 18025G40KT,LFLC,2018-04-02T18:30:00Z,45.77,3.17,13.0,3.0,180,17,,6.21,29.675198,,,TRUE,,,,,,,,FEW,700,BKN,12000,BKN,17000,,,VFR,,,,,,,,,,,,METAR,330.0
LFLS 021830Z AUTO 25009KT 210V290 CAVOK 11/01 Q1009 NOSIG,LFLS,2018-04-02T18:30:00Z,45.37,5.32,11.0,1.0,250,9,,6.21,29.793306,,,TRUE,,,TRUE,,,,,CAVOK,,,,,,,,VFR,,,,,,,,,,,,METAR,386.0
LFMP 021830Z AUTO 16009KT 110V190 CAVOK 15/07 Q1007 NOSIG,LFMP,2018-04-02T18:30:00Z,42.72,2.87,15.0,7.0,160,9,,6.21,29.734253,,,TRUE,,,TRUE,,,,,CAVOK,,,,,,,,VFR,,,,,,,,,,,,METAR,48.0
LFMV 021830Z AUTO 15006KT CAVOK 13/05 Q1011 NOSIG,LFMV,2018-04-02T18:30:00Z,43.9,4.9,13.0,5.0,150,6,,6.21,29.852362,,,TRUE,,,TRUE,,,,,CAVOK,,,,,,,,VFR,,,,,,,,,,,,METAR,38.0
LFSL 021830Z AUTO 15012KT 120V190 CAVOK 14/03 Q1004 NOSIG,LFSL,2018-04-02T18:30:00Z,45.03,1.48,14.0,3.0,150,12,,6.21,29.64567,,,TRUE,,,TRUE,,,,,CAVOK,,,,,,,,VFR,,,,,,,,,,,,METAR,310.0
LFLY 021830Z AUTO 19018KT CAVOK 14/00 Q1006 TEMPO 18020G35KT,LFLY,2018-04-02T18:30:00Z,45.72,4.95,14.0,0.0,190,18,,6.21,29.704725,,,TRUE,,,,,,,,CAVOK,,,,,,,,VFR,,,,,,,,,,,,METAR,201.0
LFMK 021830Z AUTO 09025KT 9999 OVC017 12/08 Q1006,LFMK,2018-04-02T18:30:00Z,43.22,2.32,12.0,8.0,90,25,,6.21,29.704725,,,TRUE,,,,,,,,OVC,1700,,,,,,,MVFR,,,,,,,,,,,,METAR,130.0
LFMT 021830Z AUTO 13016KT CAVOK 13/10 Q1011 BECMG OVC010,LFMT,2018-04-02T18:30:00Z,43.57,3.97,13.0,10.0,130,16,,6.21,29.852362,,,TRUE,,,,,,,,CAVOK,,,,,,,,VFR,,,,,,,,,,,,METAR,6.0
LFMU 021830Z AUTO 09009KT 9999 BKN015 BKN200 BKN250 12/10 Q1011 BECMG OVC010,LFMU,2018-04-02T18:30:00Z,43.32,3.35,12.0,10.0,90,9,,6.21,29.852362,,,TRUE,,,,,,,,BKN,1500,BKN,20000,BKN,25000,,,MVFR,,,,,,,,,,,,METAR,17.0
LFOB 021830Z AUTO 18008KT 8000 -RA BKN048 OVC058 11/09 Q0999 TEMPO RA,LFOB,2018-04-02T18:30:00Z,49.47,2.12,11.0,9.0,180,8,,4.97,29.498032,,,TRUE,,,,,,,-RA,BKN,4800,OVC,5800,,,,,MVFR,,,,,,,,,,,,METAR,111.0
LFOK 021830Z AUTO 15008KT CAVOK 11/07 Q1001 TEMPO RA,LFOK,2018-04-02T18:30:00Z,48.78,4.18,11.0,7.0,150,8,,6.21,29.557087,,,TRUE,,,,,,,,CAVOK,,,,,,,,VFR,,,,,,,,,,,,METAR,162.0
LFPB 021830Z AUTO 19004KT 9999 -RA NSC 13/09 Q1000 TEMPO 4000 SHRA SCT030TCU,LFPB,2018-04-02T18:30:00Z,48.97,2.45,13.0,9.0,190,4,,6.21,29.52756,,,TRUE,,,,,,,-RA,CLR,,,,,,,,VFR,,,,,,,,,,,,METAR,65.0
LFRD 021830Z AUTO 19014KT 9999 FEW022 OVC044 12/09 Q0996 TEMPO 20015G25KT RA BKN010,LFRD,2018-04-02T18:30:00Z,48.58,-2.07,12.0,9.0,190,14,,6.21,29.409449,,,TRUE,,,,,,,,FEW,2200,OVC,4400,,,,,VFR,,,1.5,,,,,,,,,METAR,59.0
LFRN 021830Z AUTO 19009KT 9999 BKN022 OVC029 13/10 Q0998 TEMPO BKN012,LFRN,2018-04-02T18:30:00Z,48.07,-1.72,13.0,10.0,190,9,,6.21,29.468504,,,TRUE,,,,,,,,BKN,2200,OVC,2900,,,,,MVFR,,,,,,,,,,,,METAR,37.0
LFSB 021830Z VRB03KT CAVOK 12/01 Q1005 NOSIG,LFSB,2018-04-02T18:30:00Z,47.6,7.52,12.0,1.0,0,3,,6.21,29.675198,,,,,,TRUE,,,,,CAVOK,,,,,,,,VFR,,,,,,,,,,,,METAR,271.0
LFBC 021830Z AUTO 13011KT 9999 ///TCU 16/10 Q1001,LFBC,2018-04-02T18:30:00Z,44.52,-1.12,16.0,10.0,130,11,,6.21,29.557087,,,TRUE,,,,,,,,,,,,,,,,,,,,,,,,,,,,METAR,33.0
LFBG 021830Z AUTO 17013KT 150V210 9999 FEW046 BKN080 BKN170 17/09 Q1000,LFBG,2018-04-02T18:30:00Z,45.67,-0.32,17.0,9.0,170,13,,6.21,29.52756,,,TRUE,,,,,,,,FEW,4600,BKN,8000,BKN,17000,,,VFR,,,,,,,,,,,,METAR,31.0
LFBM 021830Z AUTO 11007KT CAVOK 15/10 Q1002 TEMPO BKN050TCU,LFBM,2018-04-02T18:30:00Z,43.92,-0.5,15.0,10.0,110,7,,6.21,29.586615,,,TRUE,,,,,,,,CAVOK,,,,,,,,VFR,,,,,,,,,,,,METAR,63.0
LFBY 021830Z AUTO 11006KT 070V150 9999 // NSC 16/10 Q1001,LFBY,2018-04-02T18:30:00Z,43.67,-1.07,16.0,10.0,110,6,,6.21,29.557087,,,TRUE,,,,,,,,CLR,,,,,,,,VFR,,,,,,,,,,,,METAR,32.0
LFKS 021830Z AUTO 17007KT 9999 FEW021 BKN032 BKN230 13/09 Q1017,LFKS,2018-04-02T18:30:00Z,41.92,9.4,13.0,9.0,170,7,,6.21,30.029528,,,TRUE,,,,,,,,FEW,2100,BKN,3200,BKN,23000,,,VFR,,,,,,,,,,,,METAR,22.0
LFMC 021830Z AUTO 09008KT 9999 ////// 12/08 Q1014,LFMC,2018-04-02T18:30:00Z,43.37,6.37,12.0,8.0,90,8,,6.21,29.940945,,,TRUE,,,,,,,,,,,,,,,,,,,,,,,,,,,,METAR,78.0
LFMO 021830Z AUTO 20004KT 170V230 CAVOK 13/03 Q1011 NOSIG,LFMO,2018-04-02T18:30:00Z,44.12,4.87,13.0,3.0,200,4,,6.21,29.852362,,,TRUE,,,TRUE,,,,,CAVOK,,,,,,,,VFR,,,,,,,,,,,,METAR,55.0
LFMY 021830Z AUTO 12006KT CAVOK 14/03 Q1012,LFMY,2018-04-02T18:30:00Z,43.6,5.08,14.0,3.0,120,6,,6.21,29.88189,,,TRUE,,,,,,,,CAVOK,,,,,,,,VFR,,,,,,,,,,,,METAR,60.0
LFBD 021830Z AUTO 30006KT 220V360 9999 ///TCU 17/09 Q1002 TEMPO 21015G25KT 4000 -SHRA,LFBD,2018-04-02T18:30:00Z,44.82,-0.7,17.0,9.0,300,6,,6.21,29.586615,,,TRUE,,,,,,,,,,,,,,,,,,,-1.5,,,,,,,,,METAR,61.0
LFBH 021830Z AUTO 17005KT CAVOK 13/09 Q1000 TEMPO 22015G25KT BKN050TCU,LFBH,2018-04-02T18:30:00Z,46.18,-1.2,13.0,9.0,170,5,,6.21,29.52756,,,TRUE,,,,,,,,CAVOK,,,,,,,,VFR,,,,,,,,,,,,METAR,10.0
LFLL 021830Z 19014KT CAVOK 14/M01 Q1007 TEMPO 18015G25KT,LFLL,2018-04-02T18:30:00Z,45.72,5.07,14.0,-1.0,190,14,,6.21,29.734253,,,,,,,,,,,CAVOK,,,,,,,,VFR,,,,,,,,,,,,METAR,240.0
LFMN 021830Z 08009KT 9999 FEW019 SCT040 BKN150 13/09 Q1016 NOSIG,LFMN,2018-04-02T18:30:00Z,43.63,7.2,13.0,9.0,80,9,,6.21,30.0,,,,,,TRUE,,,,,FEW,1900,SCT,4000,BKN,15000,,,VFR,,,,,,,,,,,,METAR,10.0
LFPG 021830Z VRB05KT 9999 -RA NSC 13/08 Q1000 NOSIG,LFPG,2018-04-02T18:30:00Z,49.02,2.52,13.0,8.0,0,5,,6.21,29.52756,,,,,,TRUE,,,,-RA,CLR,,,,,,,,VFR,,,,,,,,,,,,METAR,109.0
LFPO 021830Z 17004KT 9999 -RA NSC 13/08 Q1000 TEMPO 4000 RA SCT040CB,LFPO,2018-04-02T18:30:00Z,48.72,2.38,13.0,8.0,170,4,,6.21,29.52756,,,,,,,,,,-RA,CLR,,,,,,,,VFR,,,,,,,,,,,,METAR,96.0
LFQQ 021830Z AUTO 17010KT 9999 -RA BKN035 BKN042 OVC062 11/08 Q0998 TEMPO RA,LFQQ,2018-04-02T18:30:00Z,50.57,3.1,11.0,8.0,170,10,,6.21,29.468504,,,TRUE,,,,,,,-RA,BKN,3500,BKN,4200,OVC,6200,,,VFR,,,,,,,,,,,,METAR,52.0
LFRB 021830Z AUTO 19018KT 8000 -RA BKN010/// OVC015/// ///TCU 11/10 Q0993 TEMPO 18018G32KT 4000 RA OVC006,LFRB,2018-04-02T18:30:00Z,48.45,-4.42,11.0,10.0,190,18,,4.97,29.320866,,,TRUE,,,,,,,-RA,BKN,1000,OVC,1500,,,,,MVFR,,,,,,,,,,,,METAR,103.0
LFRS 021830Z AUTO 20005KT 9999 BKN041/// BKN058/// BKN076/// ///TCU 12/10 Q0999 BECMG SCT030 BKN090,LFRS,2018-04-02T18:30:00Z,47.17,-1.6,12.0,10.0,200,5,,6.21,29.498032,,,TRUE,,,,,,,,BKN,4100,BKN,5800,BKN,7600,,,VFR,,,,,,,,,,,,METAR,27.0
LFBI 021830Z AUTO 21009KT 9999 -RA NSC 13/08 Q1001 TEMPO VRB15G30KT 4000 -TSRA BKN030CB,LFBI,2018-04-02T18:30:00Z,46.57,0.32,13.0,8.0,210,9,,6.21,29.557087,,,TRUE,,,,,,,-RA,CLR,,,,,,,,VFR,,,,,,,,,,,,METAR,120.0
LFBL 021830Z AUTO 16014KT CAVOK 14/04 Q1003 TEMPO 17016G28KT 4000 TSRA BKN020 SCT040CB,LFBL,2018-04-02T18:30:00Z,45.87,1.17,14.0,4.0,160,14,,6.21,29.616142,,,TRUE,,,,,,,,CAVOK,,,,,,,,VFR,,,,,,,,,,,,METAR,402.0
LFBO 021830Z AUTO 13012KT CAVOK 13/06 Q1004 TEMPO 14018G28KT,LFBO,2018-04-02T18:30:00Z,43.62,1.37,13.0,6.0,130,12,,6.21,29.64567,,,TRUE,,,,,,,,CAVOK,,,,,,,,VFR,,,,,,,,,,,,METAR,153.0
LFBP 021830Z AUTO 13009KT CAVOK 15/10 Q1002 NOSIG,LFBP,2018-04-02T18:30:00Z,43.37,-0.42,15.0,10.0,130,9,,6.21,29.586615,,,TRUE,,,TRUE,,,,,CAVOK,,,,,,,,VFR,,,,,,,,,,,,METAR,185.0
LFBT 021830Z AUTO 01004KT 340V040 CAVOK 12/10 Q1003 TEMPO 20010KT,LFBT,2018-04-02T18:30:00Z,43.17,0.0,12.0,10.0,10,4,,6.21,29.616142,,,TRUE,,,,,,,,CAVOK,,,,,,,,VFR,,,1.0,,,,,,,,,METAR,363.0
LFBZ 021830Z AUTO 20005KT 160V230 CAVOK 20/03 Q1001 NOSIG,LFBZ,2018-04-02T18:30:00Z,43.47,-1.52,20.0,3.0,200,5,,6.21,29.557087,,,TRUE,,,TRUE,,,,,CAVOK,,,,,,,,VFR,,,,,,,,,,,,METAR,71.0
LFKB 021830Z AUTO 14014KT 9999 FEW034 BKN190 13/09 Q1016 TEMPO 15015G25KT,LFKB,2018-04-02T18:30:00Z,42.53,9.47,13.0,9.0,140,14,,6.21,30.0,,,TRUE,,,,,,,,FEW,3400,BKN,19000,,,,,VFR,,,,,,,,,,,,METAR,12.0
LFLB 021830Z AUTO 00000KT 9999 4900 NSC 10/04 Q1008 NOSIG,LFLB,2018-04-02T18:30:00Z,45.63,5.87,10.0,4.0,0,0,,6.21,29.763779,,,TRUE,,,TRUE,,,,,CLR,,,,,,,,VFR,,,,,,,,,,,,METAR,239.0
LFML 021830Z AUTO 10016KT CAVOK 14/03 Q1012 TEMPO 16015KT,LFML,2018-04-02T18:30:00Z,43.45,5.22,14.0,3.0,100,16,,6.21,29.88189,,,TRUE,,,,,,,,CAVOK,,,,,,,,VFR,,,,,,,,,,,,METAR,36.0
LFBA 021830Z AUTO 14007KT 110V170 CAVOK 15/07 Q1003 NOSIG,LFBA,2018-04-02T18:30:00Z,44.17,0.6,15.0,7.0,140,7,,6.21,29.616142,,,TRUE,,,TRUE,,,,,CAVOK,,,,,,,,VFR,,,,,,,,,,,,METAR,60.0
LFMI 021830Z AUTO 12013KT CAVOK 13/08 Q1011 NOSIG,LFMI,2018-04-02T18:30:00Z,43.52,4.92,13.0,8.0,120,13,,6.21,29.852362,,,TRUE,,,TRUE,,,,,CAVOK,,,,,,,,VFR,,,,,,,,,,,,METAR,24.0
LFOV 021830Z AUTO 18006KT 9999 SCT043 BKN049 BKN100 12/10 Q0999,LFOV,2018-04-02T18:30:00Z,48.03,-0.75,12.0,10.0,180,6,,6.21,29.498032,,,TRUE,,,,,,,,SCT,4300,BKN,4900,BKN,10000,,,VFR,,,,,,,,,,,,METAR,101.0
LFRI 021830Z AUTO 17006KT CAVOK 12/08 Q0999 TEMPO SHRA SCT030TCU,LFRI,2018-04-02T18:30:00Z,46.7,-1.37,12.0,8.0,170,6,,6.21,29.498032,,,TRUE,,,,,,,,CAVOK,,,,,,,,VFR,,,,,,,,,,,,METAR,91.0
LFRM 021830Z AUTO VRB03KT 9999 BKN044/// BKN050/// OVC072/// ///TCU 13/09 Q1000 TEMPO SHRA,LFRM,2018-04-02T18:30:00Z,47.95,0.2,13.0,9.0,0,3,,6.21,29.52756,,,TRUE,,,,,,,,BKN,4400,BKN,5000,OVC,7200,,,VFR,,,,,,,,,,,,METAR,52.0
LFRO 021830Z AUTO 19013KT 9999 SCT021 SCT033 BKN052 12/09 Q0994 TEMPO 19015G25KT BKN006 BKN020TCU,LFRO,2018-04-02T18:30:00Z,48.75,-3.47,12.0,9.0,190,13,,6.21,29.350393,,,TRUE,,,,,,,,SCT,2100,SCT,3300,BKN,5200,,,VFR,,,,,,,,,,,,METAR,89.0
LFRV 021830Z AUTO 18010KT 150V210 9999 FEW009 BKN062 BKN088 11/09 Q0997,LFRV,2018-04-02T18:30:00Z,47.72,-2.72,11.0,9.0,180,10,,6.21,29.438976,,,TRUE,,,,,,,,FEW,900,BKN,6200,BKN,8800,,,VFR,,,,,,,,,,,,METAR,133.0
LFRZ 021830Z AUTO 17010KT 9999 -RADZ ///TCU 12/10 Q0998 BECMG SCT030 BKN090,LFRZ,2018-04-02T18:30:00Z,47.32,-2.17,12.0,10.0,170,10,,6.21,29.468504,,,TRUE,,,,,,,-RA -DZ,,,,,,,,,,,,,,,,,,,,,METAR,4.0
LFSG 021830Z AUTO 20012KT CAVOK 13/02 Q1003,LFSG,2018-04-02T18:30:00Z,48.33,6.07,13.0,2.0,200,12,,6.21,29.616142,,,TRUE,,,,,,,,CAVOK,,,,,,,,VFR,,,,,,,,,,,,METAR,330.0
LFCK 021830Z AUTO 12036G49KT 080V140 CAVOK 12/06 Q1004 NOSIG,LFCK,2018-04-02T18:30:00Z,43.55,2.28,12.0,6.0,120,36,49,6.21,29.64567,,,TRUE,,,TRUE,,,,,CAVOK,,,,,,,,VFR,,,,,,,,,,,,METAR,240.0
LFLP 021830Z AUTO 21010KT CAVOK 11/01 Q1007 NOSIG,LFLP,2018-04-02T18:30:00Z,45.92,6.08,11.0,1.0,210,10,,6.21,29.734253,,,TRUE,,,TRUE,,,,,CAVOK,,,,,,,,VFR,,,,,,,,,,,,METAR,463.0
LFLX 021830Z AUTO 21007KT CAVOK 15/07 Q1001 TEMPO 20020G30KT 3000 -TSRA SCT045CB BKN050,LFLX,2018-04-02T18:30:00Z,46.85,1.72,15.0,7.0,210,7,,6.21,29.557087,,,TRUE,,,,,,,,CAVOK,,,,,,,,VFR,,,2.0,,,,,,,,,METAR,157.0
LFOH 021830Z AUTO 16010KT 9999 FEW013 BKN058 BKN098 11/09 Q0997,LFOH,2018-04-02T18:30:00Z,49.52,0.07,11.0,9.0,160,10,,6.21,29.438976,,,TRUE,,,,,,,,FEW,1300,BKN,5800,BKN,9800,,,VFR,,,,,,,,,,,,METAR,103.0
LFOP 021830Z AUTO 17009KT 9999 ////// 10/09 Q0999,LFOP,2018-04-02T18:30:00Z,49.37,1.17,10.0,9.0,170,9,,6.21,29.498032,,,TRUE,,,,,,,,,,,,,,,,,,,,,,,,,,,,METAR,157.0
LFQA 021830Z AUTO 13004KT CAVOK 12/06 Q1001,LFQA,2018-04-02T18:30:00Z,49.2,4.15,12.0,6.0,130,4,,6.21,29.557087,,,TRUE,,,,,,,,CAVOK,,,,,,,,VFR,,,,,,,,,,,,METAR,95.0
LFQB 021830Z AUTO 18005KT CAVOK 10/07 Q1001,LFQB,2018-04-02T18:30:00Z,48.32,4.02,10.0,7.0,180,5,,6.21,29.557087,,,TRUE,,,,,,,,CAVOK,,,,,,,,VFR,,,,,,,,,,,,METAR,118.0
LFSN 021830Z AUTO 16008KT 120V190 CAVOK 14/03 Q1003,LFSN,2018-04-02T18:30:00Z,48.67,6.22,14.0,3.0,160,8,,6.21,29.616142,,,TRUE,,,,,,,,CAVOK,,,,,,,,VFR,,,,,,,,,,,,METAR,217.0
LFBE 021830Z AUTO 12006KT CAVOK 16/09 Q1002 TEMPO 15015G25KT FEW030CB BKN050TCU,LFBE,2018-04-02T18:30:00Z,44.82,0.52,16.0,9.0,120,6,,6.21,29.586615,,,TRUE,,,,,,,,CAVOK,,,,,,,,VFR,,,,,,,,,,,,METAR,52.0
LFGJ 021830Z AUTO 19015KT CAVOK 13/03 Q1005 TEMPO 20020G36KT,LFGJ,2018-04-02T18:30:00Z,47.05,5.43,13.0,3.0,190,15,,6.21,29.675198,,,TRUE,,,,,,,,CAVOK,,,,,,,,VFR,,,2.0,,,,,,,,,METAR,196.0
LFRK 021830Z AUTO 18009KT 9999 FEW026 BKN130 BKN160 12/10 Q0997 TEMPO BKN010,LFRK,2018-04-02T18:30:00Z,49.17,-0.45,12.0,10.0,180,9,,6.21,29.438976,,,TRUE,,,,,,,,FEW,2600,BKN,13000,BKN,16000,,,VFR,,,,,,,,,,,,METAR,67.0
LFMD 021830Z AUTO 03003KT 340V110 9999 FEW041 BKN160 13/08 Q1016 NOSIG,LFMD,2018-04-02T18:30:00Z,43.53,6.95,13.0,8.0,30,3,,6.21,30.0,,,TRUE,,,TRUE,,,,,FEW,4100,BKN,16000,,,,,VFR,,,,,,,,,,,,METAR,9.0
LFMH 021830Z AUTO 17015KT CAVOK 12/M00 Q1006 TEMPO 18025G40KT,LFMH,2018-04-02T18:30:00Z,45.52,4.28,12.0,0.0,170,15,,6.21,29.704725,,,TRUE,,,,,,,,CAVOK,,,,,,,,VFR,,,,,,,,,,,,METAR,402.0
LFOT 021830Z AUTO 20006KT 9999 -RA NSC 14/07 Q1000 TEMPO 20015G25KT 4000 SHRA SCT045CB BKN050,LFOT,2018-04-02T18:30:00Z,47.43,0.72,14.0,7.0,200,6,,6.21,29.52756,,,TRUE,,,,,,,-RA,CLR,,,,,,,,VFR,,,1.5,,,,,,,,,METAR,108.0
LFRG 021830Z AUTO 20008KT 9999 FEW007 BKN012 BKN036 11/10 Q0998 TEMPO 4000 SHRA,LFRG,2018-04-02T18:30:00Z,49.37,0.15,11.0,10.0,200,8,,6.21,29.468504,,,TRUE,,,,,,,,FEW,700,BKN,1200,BKN,3600,,,MVFR,,,,,,,,,,,,METAR,146.0
LFST 021830Z AUTO 23001KT CAVOK 12/04 Q1004 NOSIG,LFST,2018-04-02T18:30:00Z,48.53,7.62,12.0,4.0,230,1,,6.21,29.64567,,,TRUE,,,TRUE,,,,,CAVOK,,,,,,,,VFR,,,,,,,,,,,,METAR,154.0
LFTH 021830Z AUTO 09014KT 070V130 9999 SCT019 BKN150 13/09 Q1014 NOSIG,LFTH,2018-04-02T18:30:00Z,43.1,6.15,13.0,9.0,90,14,,6.21,29.940945,,,TRUE,,,TRUE,,,,,SCT,1900,BKN,15000,,,,,VFR,,,,,,,,,,,,METAR,4.0
LFTW 021830Z AUTO 15014KT CAVOK 12/08 Q1011 NOSIG,LFTW,2018-04-02T18:30:00Z,43.75,4.42,12.0,8.0,150,14,,6.21,29.852362,,,TRUE,,,TRUE,,,,,CAVOK,,,,,,,,VFR,,,,,,,,,,,,METAR,96.0
VECC 021830Z 25004KT 2500 HZ FEW020 SCT100 25/20 Q1010 NOSIG,VECC,2018-04-02T18:30:00Z,22.65,88.43,25.0,20.0,250,4,,1.55,29.822834,,,,,,TRUE,,,,HZ,FEW,2000,SCT,10000,,,,,IFR,,,,,,,,,,,,METAR,6.0
GCGM 021830Z AUTO 24004KT 200V270 9999 SCT045 20/14 Q1013 RMK R09/23004KT 170V300 ARP/24005KT 200V300,GCGM,2018-04-02T18:30:00Z,28.03,-17.22,20.0,14.0,240,4,,6.21,29.911417,,,TRUE,,,,,,,,SCT,4500,,,,,,,VFR,,,,,,,,,,,,METAR,219.0
GCHI 021830Z AUTO 35014KT 9999 FEW023/// 19/13 Q1013,GCHI,2018-04-02T18:30:00Z,27.82,-17.87,19.0,13.0,350,14,,6.21,29.911417,,,TRUE,,,,,,,,FEW,2300,,,,,,,VFR,,,,,,,,,,,,METAR,30.0
LEAM 021830Z 18007KT 9999 FEW090 15/12 Q1008,LEAM,2018-04-02T18:30:00Z,36.85,-2.37,15.0,12.0,180,7,,6.21,29.763779,,,,,,,,,,,FEW,9000,,,,,,,VFR,,,,,,,,,,,,METAR,21.0
LEAS 021830Z VRB02KT 9999 FEW072 BKN080 16/09 Q0998 NOSIG,LEAS,2018-04-02T18:30:00Z,43.53,-6.02,16.0,9.0,0,2,,6.21,29.468504,,,,,,TRUE,,,,,FEW,7200,BKN,8000,,,,,VFR,,,,,,,,,,,,METAR,134.0
LEBB 021830Z 26009KT 220V300 9999 FEW065 21/08 Q1000 WS R30 NOSIG,LEBB,2018-04-02T18:30:00Z,43.28,-2.92,21.0,8.0,260,9,,6.21,29.52756,,,,,,TRUE,,,,,FEW,6500,,,,,,,VFR,,,,,,,,,,,,METAR,34.0
LECO 021830Z 22017G27KT 190V250 9999 FEW030TCU 14/10 Q0998 TEMPO SHRA,LECO,2018-04-02T18:30:00Z,43.28,-8.37,14.0,10.0,220,17,27,6.21,29.468504,,,,,,,,,,,FEW,3000,,,,,,,VFR,,,,,,,,,,,,METAR,103.0
LEGE 021830Z 20008KT 9999 FEW030 11/10 Q1009,LEGE,2018-04-02T18:30:00Z,41.88,2.77,11.0,10.0,200,8,,6.21,29.793306,,,,,,,,,,,FEW,3000,,,,,,,VFR,,,,,,,,,,,,METAR,129.0
LEGR 021830Z 27006KT 9999 SCT100 17/06 Q1008,LEGR,2018-04-02T18:30:00Z,37.17,-3.77,17.0,6.0,270,6,,6.21,29.763779,,,,,,,,,,,SCT,10000,,,,,,,VFR,,,,,,,,,,,,METAR,559.0
DTTA 021830Z 12012KT 090V150 9999 FEW026 18/10 Q1013 NOSIG,DTTA,2018-04-02T18:30:00Z,36.85,10.22,18.0,10.0,120,12,,6.21,29.911417,,,,,,TRUE,,,,,FEW,2600,,,,,,,VFR,,,,,,,,,,,,METAR,4.0
DTNH 021830Z 15015KT 130V190 CAVOK 17/09 Q1015,DTNH,2018-04-02T18:30:00Z,36.07,10.43,17.0,9.0,150,15,,6.21,29.970472,,,,,,,,,,,CAVOK,,,,,,,,VFR,,,,,,,,,,,,METAR,2.0
DTMB 021830Z 12013KT CAVOK 17/11 Q1016,DTMB,2018-04-02T18:30:00Z,35.77,10.75,17.0,11.0,120,13,,6.21,30.0,,,,,,,,,,,CAVOK,,,,,,,,VFR,,,,,,,,,,,,METAR,2.0
DAOO 021830Z 00000KT 9999 BKN026 16/13 Q1009,DAOO,2018-04-02T18:30:00Z,35.62,-0.6,16.0,13.0,0,0,,6.21,29.793306,,,,,,,,,,,BKN,2600,,,,,,,MVFR,,,,,,,,,,,,METAR,90.0
DAUH 021830Z 01003KT 7000 NSC 28/06 Q1013,DAUH,2018-04-02T18:30:00Z,31.67,6.15,28.0,6.0,10,3,,4.35,29.911417,,,,,,,,,,,CLR,,,,,,,,MVFR,,,,,,,,,,,,METAR,142.0
DAON 021830Z 34004KT 8000 FEW026 BKN233 14/12 Q1010,DAON,2018-04-02T18:30:00Z,35.02,-1.47,14.0,12.0,340,4,,4.97,29.822834,,,,,,,,,,,FEW,2600,BKN,23300,,,,,MVFR,,,,,,,,,,,,METAR,247.0
DABC 021830Z 24013KT CAVOK 18/05 Q1013,DABC,2018-04-02T18:30:00Z,36.27,6.62,18.0,5.0,240,13,,6.21,29.911417,,,,,,,,,,,CAVOK,,,,,,,,VFR,,,,,,,,,,,,METAR,694.0
DABB 021830Z 36006KT CAVOK 17/11 Q1009,DABB,2018-04-02T18:30:00Z,36.82,7.82,17.0,11.0,360,6,,6.21,29.793306,,,,,,,,,,,CAVOK,,,,,,,,VFR,,,,,,,,,,,,METAR,4.0
DAAT 021830Z 29008KT 5000 NSC 27/M08 Q1016,DAAT,2018-04-02T18:30:00Z,22.82,5.47,27.0,-8.0,290,8,,3.11,30.0,,,,,,,,,,,CLR,,,,,,,,MVFR,,,,,,,,,,,,METAR,1377.0
DAAG 021830Z VRB01KT 7000 NSC 26/05 Q1007,DAAG,2018-04-02T18:30:00Z,36.72,3.22,26.0,5.0,0,1,,4.35,29.734253,,,,,,,,,,,CLR,,,,,,,,MVFR,,,,,,,,,,,,METAR,25.0
DTTJ 021830Z 10013KT CAVOK 18/07 Q1015 NOSIG,DTTJ,2018-04-02T18:30:00Z,33.87,10.77,18.0,7.0,100,13,,6.21,29.970472,,,,,,TRUE,,,,,CAVOK,,,,,,,,VFR,,,,,,,,,,,,METAR,4.0
UAAA 021830Z VRB01MPS 3300 BR FU BKN100 OVC200 04/03 Q1022 R88/CLRD65 NOSIG,UAAA,2018-04-02T18:30:00Z,43.35,77.03,4.0,3.0,0,2,,2.05,30.177166,,,,,,TRUE,,,,BR FU,BKN,10000,OVC,20000,,,,,IFR,,,,,,,,,,,,METAR,681.0
UDSG 021830Z 31004KT 9999 NSC 09/M00 Q1012 R02/CLRD70 NOSIG,UDSG,2018-04-02T18:30:00Z,40.75,43.87,9.0,0.0,310,4,,6.21,29.88189,,,,,,TRUE,,,,,CLR,,,,,,,,VFR,,,,,,,,,,,,METAR,1524.0
UDYZ 021830Z 32003KT 9999 NSC 13/01 Q1011 R09/000070 NOSIG,UDYZ,2018-04-02T18:30:00Z,40.15,44.4,13.0,1.0,320,3,,6.21,29.852362,,,,,,TRUE,,,,,CLR,,,,,,,,VFR,,,,,,,,,,,,METAR,865.0
UAKK 021830Z 31002MPS 3500 SN BKN020 M04/M04 Q1028 R23/921055 NOSIG RMK QFE724/0965,UAKK,2018-04-02T18:30:00Z,49.67,73.33,-4.0,-4.0,310,4,,2.17,30.35433,,,,,,TRUE,,,,SN,BKN,2000,,,,,,,IFR,,,,,,,,,,,,METAR,538.0
UAII 021830Z 15002MPS 110V200 CAVOK 09/05 Q1017 R10/0///70 NOSIG RMK QFE728/0970,UAII,2018-04-02T18:30:00Z,42.37,69.48,9.0,5.0,150,4,,6.21,30.029528,,,,,,TRUE,,,,,CAVOK,,,,,,,,VFR,,,,,,,,,,,,METAR,422.0
UACC 021830Z 29003MPS 8000 -SN SCT010 OVC016 M03/M04 Q1030 R22/450155 NOSIG RMK QFE741/0988,UACC,2018-04-02T18:30:00Z,51.02,71.47,-3.0,-4.0,290,6,,4.97,30.413385,,,,,,TRUE,,,,-SN,SCT,1000,OVC,1600,,,,,MVFR,,,,,,,,,,,,METAR,355.0
UAOO 021830Z 04006MPS CAVOK 07/M09 Q1023 R05/CLRD70 NOSIG RMK QFE756/1008,UAOO,2018-04-02T18:30:00Z,44.7,65.6,7.0,-9.0,40,12,,6.21,30.206694,,,,,,TRUE,,,,,CAVOK,,,,,,,,VFR,,,,,,,,,,,,METAR,129.0
K20V 021829Z AUTO 24021G34KT 10SM CLR 17/M13 A2960 RMK AO2,K20V,2018-04-02T18:29:00Z,40.05,-106.37,17.0,-13.0,240,21,34,10.0,29.601377,,,TRUE,TRUE,,,,,,,CLR,,,,,,,,VFR,,,,,,,,,,,,METAR,2259.0
KMNH 021829Z AUTO 21007KT 10SM CLR 17/M11 A2959 RMK AO2,KMNH,2018-04-02T18:29:00Z,39.22,-104.65,17.0,-11.0,210,7,,10.0,29.589567,,,TRUE,TRUE,,,,,,,CLR,,,,,,,,VFR,,,,,,,,,,,,METAR,2152.0
KARG 021829Z AUTO 07006KT 4SM BR OVC005 06/04 A2999 RMK AO2 P0001,KARG,2018-04-02T18:29:00Z,36.12,-90.92,6.0,4.0,70,6,,4.0,29.991142,,,TRUE,TRUE,,,,,,BR,OVC,500,,,,,,,IFR,,,,,,0.01,,,,,,METAR,83.0
CYMT 021829Z AUTO 21017G25KT 9SM -SN BKN055 M04/M14 A2982 RMK SLP134,CYMT,2018-04-02T18:29:00Z,49.77,-74.52,-4.0,-14.0,210,17,25,9.0,29.819881,1013.4,,TRUE,,,,,,,-SN,BKN,5500,,,,,,,VFR,,,,,,,,,,,,SPECI,387.0
KGTU 021829Z VRB03KT 6SM HZ SCT008 18/15 A2986 RMK AO2,KGTU,2018-04-02T18:29:00Z,30.68,-97.68,18.0,15.0,0,3,,6.0,29.861221,,,,TRUE,,,,,,HZ,SCT,800,,,,,,,VFR,,,,,,,,,,,,METAR,240.0
KCVO 021829Z AUTO 00000KT 10SM SCT028 BKN047 08/01 A3019 RMK AO2,KCVO,2018-04-02T18:29:00Z,44.5,-123.27,8.0,1.0,0,0,,10.0,30.188976,,,TRUE,TRUE,,,,,,,SCT,2800,BKN,4700,,,,,VFR,,,,,,,,,,,,METAR,75.0
KAXN 021829Z AUTO 15007KT 1/2SM SN FEW007 OVC011 M01/M04 A2986 RMK AO2 P0001 T10111044,KAXN,2018-04-02T18:29:00Z,45.87,-95.4,-1.1,-4.4,150,7,,0.5,29.861221,,,TRUE,TRUE,,,,,,SN,FEW,700,OVC,1100,,,,,LIFR,,,,,,0.01,,,,,,METAR,433.0
FAGG 021829Z AUTO 24006KT 9999 SCT005/// OVC007/// 20/19 Q1015,FAGG,2018-04-02T18:29:00Z,-34.0,22.37,20.0,19.0,240,6,,6.21,29.970472,,,TRUE,,,,,,,,SCT,500,OVC,700,,,,,IFR,,,,,,,,,,,,SPECI,193.0
PHHI 021829Z AUTO 16007KT 10SM DZ FEW004 FEW010 OVC018 21/21 A2989 RMK AO2 DZB1757E1759RAB1759E23DZB23E28DZB29 SLP113 $,PHHI,2018-04-02T18:29:00Z,21.48,-158.05,21.0,21.0,160,7,,10.0,29.890747,1011.3,,TRUE,TRUE,TRUE,,,,,DZ,FEW,400,FEW,1000,OVC,1800,,,MVFR,,,,,,,,,,,,SPECI,255.0
LTCI 021829Z 19012KT 9999 FEW040 11/00 Q1015 NOSIG RMK RWY21 21007KT 170V250,LTCI,2018-04-02T18:29:00Z,38.45,43.32,11.0,0.0,190,12,,6.21,29.970472,,,,,,TRUE,,,,,FEW,4000,,,,,,,VFR,,,-0.7,,,,,,,,,SPECI,1661.0
CZPC 021828Z AUTO 17004KT 1 1/2SM -SN OVC025 M10/M13 A2990 RMK SLP204,CZPC,2018-04-02T18:28:00Z,49.52,-114.0,-10.0,-13.0,170,4,,1.5,29.899607,1020.4,,TRUE,,,,,,,-SN,OVC,2500,,,,,,,IFR,,,,,,,,,,,,SPECI,1190.0
KCTB 021828Z AUTO 34021KT 4SM HZ BKN034 OVC041 M11/M14 A2984 RMK AO2 SNE23 P0000 T11061139,KCTB,2018-04-02T18:28:00Z,48.6,-112.37,-10.6,-13.9,340,21,,4.0,29.840551,,,TRUE,TRUE,,,,,,HZ,BKN,3400,OVC,4100,,,,,MVFR,,,,,,0.005,,,,,,METAR,1175.0
KFRG 021828Z 36009KT 10SM BKN017 03/M01 A3012 RMK AO2 T00331006,KFRG,2018-04-02T18:28:00Z,40.73,-73.42,3.3,-0.6,360,9,,10.0,30.121063,,,,TRUE,,,,,,,BKN,1700,,,,,,,MVFR,,,,,,,,,,,,METAR,21.0
KELD 021828Z AUTO 12006KT 10SM SCT009 19/15 A2993 RMK AO2 T01890150 TSNO,KELD,2018-04-02T18:28:00Z,33.22,-92.82,18.9,15.0,120,6,,10.0,29.929134,,,TRUE,TRUE,,,TRUE,,,,SCT,900,,,,,,,VFR,,,,,,,,,,,,METAR,81.0
KMEH 021828Z AUTO VRB05KT 3SM -SN BKN024 BKN033 OVC044 M02/M06 A2989 RMK AO2 P0001 T10171061,KMEH,2018-04-02T18:28:00Z,45.52,-118.42,-1.7,-6.1,0,5,,3.0,29.890747,,,TRUE,TRUE,,,,,,-SN,BKN,2400,BKN,3300,OVC,4400,,,MVFR,,,,,,0.01,,,,,,METAR,1136.0
KHIF 021828Z 26022G27KT 10SM -RA FEW040 OVC075 13/M01 A2961 RMK AO2A RAB28 SLP993 MIDFLD WND 23025G32KT,KHIF,2018-04-02T18:28:00Z,41.12,-111.97,13.0,-1.0,260,22,27,10.0,29.610237,999.3,,,TRUE,,,,,,-RA,FEW,4000,OVC,7500,,,,,VFR,,,,,,,,,,,,SPECI,1459.0
KCFV 021827Z AUTO 13006KT 2 1/2SM BR OVC005 03/03 A2985 RMK AO2 T00330028,KCFV,2018-04-02T18:27:00Z,37.08,-95.57,3.3,2.8,130,6,,2.5,29.84941,,,TRUE,TRUE,,,,,,BR,OVC,500,,,,,,,IFR,,,,,,,,,,,,METAR,225.0
CYZS 021827Z 33020KT 3/4SM -SN DRSN OVC025 M17/M20 A2971 RMK SC8 SLP073,CYZS,2018-04-02T18:27:00Z,64.2,-83.37,-17.0,-20.0,330,20,,0.75,29.71063,1007.3,,,,,,,,,-SN DRSN,OVC,2500,,,,,,,LIFR,,,,,,,,,,,,SPECI,64.0
PABA 021827Z 28012KT 1 1/4SM -SN BR CLR M17/M19 A3074 RMK AO2 VIS 1V1 3/4 P0000 FZRANO,PABA,2018-04-02T18:27:00Z,70.13,-143.58,-17.0,-19.0,280,12,,1.25,30.741142,,,,TRUE,,,,TRUE,,-SN BR,CLR,,,,,,,,IFR,,,,,,0.005,,,,,,SPECI,2.0
KLEW 021827Z AUTO 15008KT 10SM FEW026 SCT038 BKN047 02/M03 A3008 RMK AO2 RAE25 P0000 FZRANO,KLEW,2018-04-02T18:27:00Z,44.03,-70.27,2.0,-3.0,150,8,,10.0,30.079725,,,TRUE,TRUE,,,,TRUE,,,FEW,2600,SCT,3800,BKN,4700,,,VFR,,,,,,0.005,,,,,,METAR,88.0
KMSO 021827Z 28005KT 6SM -SN BKN040 OVC055 00/M08 A2976 RMK AO2 SNB16 P0001 T00001078,KMSO,2018-04-02T18:27:00Z,46.92,-114.1,0.0,-7.8,280,5,,6.0,29.760826,,,,TRUE,,,,,,-SN,BKN,4000,OVC,5500,,,,,VFR,,,,,,0.01,,,,,,METAR,975.0
KHVR 021827Z AUTO 06013KT 3/4SM -SN BR VV017 M09/M11 A2987 RMK AO2 P0001 T10891111,KHVR,2018-04-02T18:27:00Z,48.55,-109.77,-8.9,-11.1,60,13,,0.75,29.870079,,,TRUE,TRUE,,,,,,-SN BR,OVX,0,,,,,,,LIFR,,,,,,0.01,,,,,1700,METAR,787.0
KABR 021827Z AUTO 09013KT 2 1/2SM -SN BR SCT011 BKN028 OVC047 M01/M03 A2972 RMK AO2 P0000 T10061028,KABR,2018-04-02T18:27:00Z,45.45,-98.42,-0.6,-2.8,90,13,,2.5,29.719488,,,TRUE,TRUE,,,,,,-SN BR,SCT,1100,BKN,2800,OVC,4700,,,IFR,,,,,,0.005,,,,,,METAR,397.0
KTUL 021827Z VRB03KT 3SM BR OVC004 03/03 A2986 RMK AO2 T00330028,KTUL,2018-04-02T18:27:00Z,36.2,-95.88,3.3,2.8,0,3,,3.0,29.861221,,,,TRUE,,,,,,BR,OVC,400,,,,,,,LIFR,,,,,,,,,,,,METAR,207.0
KPVD 021827Z 34004KT 10SM BKN015 BKN100 04/01 A3010 RMK AO2 T00440006,KPVD,2018-04-02T18:27:00Z,41.72,-71.43,4.4,0.6,340,4,,10.0,30.100393,,,,TRUE,,,,,,,BKN,1500,BKN,10000,,,,,MVFR,,,,,,,,,,,,METAR,16.0
CYZG 021827Z 25018KT 3/8SM -SN FZFG DRSN VV012 M18/M21 A2944 RMK FG8 SLP002,CYZG,2018-04-02T18:27:00Z,62.17,-75.67,-18.0,-21.0,250,18,,0.38,29.438976,1000.2,,,,,,,,,-SN FZFG DRSN,OVX,0,,,,,,,LIFR,,,,,,,,,,,1200,SPECI,226.0
KCDD 021827Z AUTO 01004KT 10SM SCT036 M06/M15 A2997 RMK AO2,KCDD,2018-04-02T18:27:00Z,48.27,-92.48,-6.0,-15.0,10,4,,10.0,29.970472,,,TRUE,TRUE,,,,,,,SCT,3600,,,,,,,VFR,,,,,,,,,,,,SPECI,341.0
KBVX 021826Z AUTO 12006KT 10SM OVC007 06/04 A2998 RMK AO2,KBVX,2018-04-02T18:26:00Z,35.73,-91.65,6.0,4.0,120,6,,10.0,29.97933,,,TRUE,TRUE,,,,,,,OVC,700,,,,,,,IFR,,,,,,,,,,,,SPECI,141.0
CYUY 021826Z 22020G28KT 15SM -SHSN BKN047 M02/M09 A2986 RMK CU7 SLP136,CYUY,2018-04-02T18:26:00Z,48.2,-78.82,-2.0,-9.0,220,20,28,15.0,29.861221,1013.6,,,,,,,,,-SHSN,BKN,4700,,,,,,,VFR,,,,,,,,,,,,SPECI,301.0
KBRD 021826Z AUTO 13003KT 1 3/4SM -SN BKN029 OVC037 M02/M08 A2991 RMK AO2 SNB22 P0000 T10221078,KBRD,2018-04-02T18:26:00Z,46.4,-94.13,-2.2,-7.8,130,3,,1.75,29.911417,,,TRUE,TRUE,,,,,,-SN,BKN,2900,OVC,3700,,,,,IFR,,,,,,0.005,,,,,,METAR,372.0
KBHK 021826Z AUTO 07013KT 2 1/2SM -SN BR BKN010 OVC023 M05/M07 A2971 RMK AO2 P0000 T10501067,KBHK,2018-04-02T18:26:00Z,46.35,-104.25,-5.0,-6.7,70,13,,2.5,29.71063,,,TRUE,TRUE,,,,,,-SN BR,BKN,1000,OVC,2300,,,,,IFR,,,,,,0.005,,,,,,METAR,902.0
KDMO 021826Z AUTO 11009KT 2SM BR OVC004 00/00 A2992 RMK AO2 I1001 T00000000,KDMO,2018-04-02T18:26:00Z,38.72,-93.17,0.0,0.0,110,9,,2.0,29.920275,,,TRUE,TRUE,,,,,,BR,OVC,400,,,,,,,LIFR,,,,,,,,,,,,METAR,274.0
KAFF 021826Z AUTO 26017G30KT 10SM CLR 20/M15 A2956 RMK AO2 WSHFT 24 SLP973,KAFF,2018-04-02T18:26:00Z,38.97,-104.82,20.0,-15.0,260,17,30,10.0,29.56004,997.3,,TRUE,TRUE,,,,,,,CLR,,,,,,,,VFR,,,,,,,,,,,,SPECI,2003.0
KHVN 021826Z 35010KT 10SM FEW021 04/M03 A3012 RMK AO2 T00391028 $,KHVN,2018-04-02T18:26:00Z,41.27,-72.87,3.9,-2.8,350,10,,10.0,30.121063,,,,TRUE,TRUE,,,,,,FEW,2100,,,,,,,VFR,,,,,,,,,,,,METAR,4.0
KQDG 021826Z AUTO 00000KT 1600 M BKN002 05/05 A2998 RMK AO2 SLP154 PWINO $,KQDG,2018-04-02T18:26:00Z,,,5.0,5.0,0,0,,0.99,29.97933,1015.4,,TRUE,TRUE,TRUE,,,,TRUE,,BKN,200,,,,,,,LIFR,,,,,,,,,,,,SPECI,
KCPR 021825Z 36015G22KT 10SM SCT085 07/M01 A2943 RMK AO2 PK WND 26036/1756 WSHFT 1811 RAE14 P0000 T00671006,KCPR,2018-04-02T18:25:00Z,42.9,-106.47,6.7,-0.6,360,15,22,10.0,29.430119,,,,TRUE,,,,,,,SCT,8500,,,,,,,VFR,,,,,,0.005,,,,,,SPECI,1621.0
EHEH 021825Z AUTO 16008KT 130V190 9999 -DZ FEW048 BKN052 OVC058 11/08 Q1000 REDZ BLU 16010KT 9999 BKN040 BKN050,EHEH,2018-04-02T18:25:00Z,51.45,5.38,11.0,8.0,160,8,,6.21,29.52756,,,TRUE,,,,,,,-DZ,FEW,4800,BKN,5200,OVC,5800,BKN,4000,VFR,,,,,,,,,,,,METAR,22.0
EHRD 021825Z AUTO 17013KT 150V210 9999 DZ FEW030 OVC039 11/07 Q0998 NOSIG,EHRD,2018-04-02T18:25:00Z,51.95,4.45,11.0,7.0,170,13,,6.21,29.468504,,,TRUE,,,TRUE,,,,DZ,FEW,3000,OVC,3900,,,,,VFR,,,,,,,,,,,,METAR,-5.0
EHGG 021825Z AUTO 12007KT 080V160 9999 NSC 09/05 Q0999 NOSIG,EHGG,2018-04-02T18:25:00Z,53.12,6.57,9.0,5.0,120,7,,6.21,29.498032,,,TRUE,,,TRUE,,,,,CLR,,,,,,,,VFR,,,,,,,,,,,,METAR,4.0
EHBK 021825Z AUTO 17008KT 140V200 9999 BKN046 12/04 Q1000 REDZ NOSIG,EHBK,2018-04-02T18:25:00Z,50.92,5.77,12.0,4.0,170,8,,6.21,29.52756,,,TRUE,,,TRUE,,,,,BKN,4600,,,,,,,VFR,,,,,,,,,,,,METAR,116.0
EHAM 021825Z 15012KT 9999 -RA FEW045 11/06 Q0998 NOSIG,EHAM,2018-04-02T18:25:00Z,52.32,4.78,11.0,6.0,150,12,,6.21,29.468504,,,,,,TRUE,,,,-RA,FEW,4500,,,,,,,VFR,,,,,,,,,,,,METAR,9.0
KCPS 021825Z 12007KT 10SM OVC010 02/00 A3000 RMK AO2 T00220000,KCPS,2018-04-02T18:25:00Z,38.57,-90.15,2.2,0.0,120,7,,10.0,30.0,,,,TRUE,,,,,,,OVC,1000,,,,,,,MVFR,,,,,,,,,,,,SPECI,126.0
KFTK 021825Z AUTO 08008KT 10SM BKN017 OVC026 08/04 A3003 RMK AO2 SLP176,KFTK,2018-04-02T18:25:00Z,37.88,-85.97,8.0,4.0,80,8,,10.0,30.029528,1017.6,,TRUE,TRUE,,,,,,,BKN,1700,OVC,2600,,,,,MVFR,,,,,,,,,,,,SPECI,230.0
EGUL 021825Z AUTO 19007KT 9999 OVC015 10/10 A2934 RMK AO2 CIG 014 RWY06 SLP939 $,EGUL,2018-04-02T18:25:00Z,52.42,0.57,10.0,10.0,190,7,,6.21,29.338583,993.9,,TRUE,TRUE,TRUE,,,,,,OVC,1500,,,,,,,MVFR,,,,,,,,,,,,SPECI,10.0
EHFZ 021825Z AUTO 14025KT 2000 -RA SCT001 SCT007 BKN044 06/05 Q0996 RERA REDZ W///H///,EHFZ,2018-04-02T18:25:00Z,54.12,4.02,6.0,5.0,140,25,,1.24,29.409449,,,TRUE,,,,,,,-RA,SCT,100,SCT,700,BKN,4400,,,IFR,,,,,,,,,,,,METAR,50.0
EHFD 021825Z AUTO 10030KT 6000 -DZ SCT003/// OVC005/// 03/02 Q0999 REDZ W///H///,EHFD,2018-04-02T18:25:00Z,54.85,4.7,3.0,2.0,100,30,,3.73,29.498032,,,TRUE,,,,,,,-DZ,SCT,300,OVC,500,,,,,IFR,,,,,,,,,,,,METAR,50.0
EHDV 021825Z AUTO 14028KT 2900 DZ SCT002/// BKN003/// BKN006/// 05/05 Q0995 W///H///,EHDV,2018-04-02T18:25:00Z,54.32,2.93,5.0,5.0,140,28,,1.8,29.379921,,,TRUE,,,,,,,DZ,SCT,200,BKN,300,BKN,600,,,LIFR,,,,,,,,,,,,METAR,50.0
EHAK 021825Z AUTO 10035KT 6000 -SHRA SCT003/// BKN004/// OVC006/// 02/00 Q0999 W///H///,EHAK,2018-04-02T18:25:00Z,55.42,3.82,2.0,0.0,100,35,,3.73,29.498032,,,TRUE,,,,,,,-SHRA,SCT,300,BKN,400,OVC,600,,,LIFR,,,,,,,,,,,,METAR,50.0
EHKV 021825Z AUTO 16021KT 9999 -DZ FEW029 BKN048 08/06 Q0996 W///H///,EHKV,2018-04-02T18:25:00Z,53.27,3.63,8.0,6.0,160,21,,6.21,29.409449,,,TRUE,,,,,,,-DZ,FEW,2900,BKN,4800,,,,,VFR,,,,,,,,,,,,METAR,50.0
EHJR 021825Z AUTO 17026KT //// // ///////// 07/06 Q0996 RE// W06/H12,EHJR,2018-04-02T18:25:00Z,53.22,3.22,7.0,6.0,170,26,,,29.409449,,,TRUE,,,,,,,,,,,,,,,,,,,,,,,,,,,,METAR,50.0
EHJA 021825Z AUTO 14026KT 9000 FEW019/// BKN023/// BKN027/// 07/05 Q0995 W///H///,EHJA,2018-04-02T18:25:00Z,53.82,2.95,7.0,5.0,140,26,,5.59,29.379921,,,TRUE,,,,,,,,FEW,1900,BKN,2300,BKN,2700,,,MVFR,,,,,,,,,,,,METAR,50.0
EHHW 021825Z AUTO 12023KT 080V150 6000 -DZ ///////// 04/03 Q0999 REDZ W///H///,EHHW,2018-04-02T18:25:00Z,,,4.0,3.0,120,23,,3.73,29.498032,,,TRUE,,,,,,,-DZ,,,,,,,,,,,,,,,,,,,,,METAR,
EHSC 021825Z AUTO 19018KT 9999 ///////// 09/06 Q0997 W05/H4,EHSC,2018-04-02T18:25:00Z,51.93,3.67,9.0,6.0,190,18,,6.21,29.438976,,,TRUE,,,,,,,,,,,,,,,,,,,,,,,,,,,,METAR,50.0
EHSA 021825Z AUTO 17021KT 9999 -DZ ///////// 09/06 Q0997 W05/H5,EHSA,2018-04-02T18:25:00Z,52.0,3.28,9.0,6.0,170,21,,6.21,29.438976,,,TRUE,,,,,,,-DZ,,,,,,,,,,,,,,,,,,,,,METAR,50.0
EHQE 021825Z AUTO 16024KT 9999 -DZ FEW038 08/05 Q0997 W///H///,EHQE,2018-04-02T18:25:00Z,52.92,4.15,8.0,5.0,160,24,,6.21,29.438976,,,TRUE,,,,,,,-DZ,FEW,3800,,,,,,,VFR,,,,,,,,,,,,METAR,50.0
EHPG 021825Z AUTO 17026KT 9999 DZRA FEW036 09/06 Q0996 REDZ W///H///,EHPG,2018-04-02T18:25:00Z,52.37,3.35,9.0,6.0,170,26,,6.21,29.409449,,,TRUE,,,,,,,DZ RA,FEW,3600,,,,,,,VFR,,,,,,,,,,,,METAR,50.0
EHMG 021825Z AUTO 15019KT 7000 -RA FEW034 07/05 Q0998 RERA REDZ W///H///,EHMG,2018-04-02T18:25:00Z,53.62,4.97,7.0,5.0,150,19,,4.35,29.468504,,,TRUE,,,,,,,-RA,FEW,3400,,,,,,,MVFR,,,,,,,,,,,,METAR,50.0
EHMA 021825Z AUTO 12025KT 6000 FEW045 08/06 Q0999 W///H///,EHMA,2018-04-02T18:25:00Z,53.5,5.95,8.0,6.0,120,25,,3.73,29.498032,,,TRUE,,,,,,,,FEW,4500,,,,,,,MVFR,,,,,,,,,,,,METAR,50.0
OPKC 021825Z 25006KT 6000 NSC 26/23 Q1010 NOSIG,OPKC,2018-04-02T18:25:00Z,24.88,67.17,26.0,23.0,250,6,,3.73,29.822834,,,,,,TRUE,,,,,CLR,,,,,,,,MVFR,,,,,,,,,,,,METAR,22.0
EBBE 021825Z AUTO 16008KT 9999 BKN047/// BKN075/// OVC100/// 12/04 Q1000 BLU,EBBE,2018-04-02T18:25:00Z,50.75,4.77,12.0,4.0,160,8,,6.21,29.52756,,,TRUE,,,,,,,,BKN,4700,BKN,7500,OVC,10000,,,VFR,,,,,,,,,,,,METAR,127.0
EBBL 021825Z AUTO 19003KT 9999 -RA OVC048/// 11/07 Q1000 BLU,EBBL,2018-04-02T18:25:00Z,51.17,5.47,11.0,7.0,190,3,,6.21,29.52756,,,TRUE,,,,,,,-RA,OVC,4800,,,,,,,VFR,,,,,,,,,,,,METAR,64.0
EBFN 021825Z AUTO 19011KT 9999 -RA BKN025/// OVC078/// 11/09 Q0998 BLU,EBFN,2018-04-02T18:25:00Z,51.07,2.63,11.0,9.0,190,11,,6.21,29.468504,,,TRUE,,,,,,,-RA,BKN,2500,OVC,7800,,,,,MVFR,,,,,,,,,,,,METAR,9.0
EBDT 021825Z AUTO 17007KT 9999 -RA FEW044/// OVC060/// 11/06 Q1000 BLU,EBDT,2018-04-02T18:25:00Z,51.02,5.07,11.0,6.0,170,7,,6.21,29.52756,,,TRUE,,,,,,,-RA,FEW,4400,OVC,6000,,,,,VFR,,,,,,,,,,,,METAR,54.0
EBCV 021825Z AUTO 17016KT 9999 BKN062/// OVC087/// 11/05 Q0999 BLU,EBCV,2018-04-02T18:25:00Z,50.57,3.82,11.0,5.0,170,16,,6.21,29.498032,,,TRUE,,,,,,,,BKN,6200,OVC,8700,,,,,VFR,,,,,,,,,,,,METAR,63.0
EBFS 021825Z AUTO 17013KT 9999 -DZ FEW065/// BKN090/// OVC110/// 10/02 Q1000 BLU,EBFS,2018-04-02T18:25:00Z,50.22,4.65,10.0,2.0,170,13,,6.21,29.52756,,,TRUE,,,,,,,-DZ,FEW,6500,BKN,9000,OVC,11000,,,VFR,,,,,,,,,,,,METAR,299.0
EBLB 021825Z AUTO 19008KT 9999 -RA OVC052/// 08/03 Q1002 BLU,EBLB,2018-04-02T18:25:00Z,50.47,6.17,8.0,3.0,190,8,,6.21,29.586615,,,TRUE,,,,,,,-RA,OVC,5200,,,,,,,VFR,,,,,,,,,,,,METAR,570.0
EHVL 021825Z AUTO 14013KT 9000 -RA FEW015CB BKN058 OVC068 08/06 Q0997 BLU,EHVL,2018-04-02T18:25:00Z,53.23,4.92,8.0,6.0,140,13,,5.59,29.438976,,,TRUE,,,,,,,-RA,FEW,1500,BKN,5800,OVC,6800,,,VFR,,,,,,,,,,,,METAR,5.0
EHVK 021825Z AUTO 15010KT 130V230 9999 -SHRA SCT042 BKN046 BKN051 11/07 Q1000 REDZ BLU,EHVK,2018-04-02T18:25:00Z,51.63,5.7,11.0,7.0,150,10,,6.21,29.52756,,,TRUE,,,,,,,-SHRA,SCT,4200,BKN,4600,BKN,5100,,,VFR,,,,,,,,,,,,SPECI,21.0
EHLW 021825Z AUTO 14011KT 100V160 9999 FEW055 BKN065 BKN073 09/05 Q0999 BLU,EHLW,2018-04-02T18:25:00Z,53.22,5.75,9.0,5.0,140,11,,6.21,29.498032,,,TRUE,,,,,,,,FEW,5500,BKN,6500,BKN,7300,,,VFR,,,,,,,,,,,,METAR,2.0
EHGR 021825Z AUTO 17009KT 140V210 9999 DZ FEW038 SCT045 OVC049 11/08 Q0999 BLU,EHGR,2018-04-02T18:25:00Z,51.57,4.92,11.0,8.0,170,9,,6.21,29.498032,,,TRUE,,,,,,,DZ,FEW,3800,SCT,4500,OVC,4900,,,VFR,,,,,,,,,,,,METAR,13.0
EHDL 021825Z AUTO 15010KT 090V190 9999 -DZ OVC059 11/05 Q0999 REDZ BLU,EHDL,2018-04-02T18:25:00Z,52.07,5.87,11.0,5.0,150,10,,6.21,29.498032,,,TRUE,,,,,,,-DZ,OVC,5900,,,,,,,VFR,,,,,,,,,,,,SPECI,52.0
EHWO 021825Z AUTO 17003KT 090V200 9999 DZ SCT044 BKN049 OVC055 10/08 Q0998 BLU,EHWO,2018-04-02T18:25:00Z,51.45,4.32,10.0,8.0,170,3,,6.21,29.468504,,,TRUE,,,,,,,DZ,SCT,4400,BKN,4900,OVC,5500,,,VFR,,,,,,,,,,,,METAR,17.0
CYHU 021825Z AUTO 25021G26KT 9SM SCT060 SCT240 04/M09 A3008 RMK SLP189,CYHU,2018-04-02T18:25:00Z,45.52,-73.42,4.0,-9.0,250,21,26,9.0,30.079725,1018.9,,TRUE,,,,,,,,SCT,6000,SCT,24000,,,,,VFR,,,,,,,,,,,,SPECI,27.0
BIRK 021825Z 07012KT 1500 SN BKN021 OVC031 01/M01 Q1012,BIRK,2018-04-02T18:25:00Z,64.13,-21.93,1.0,-1.0,70,12,,0.93,29.88189,,,,,,,,,,SN,BKN,2100,OVC,3100,,,,,LIFR,,,,,,,,,,,,METAR,61.0
EHFS 021825Z AUTO 17015KT 9999 -RADZ FEW049/// 09/07 Q0998 W///H///,EHFS,2018-04-02T18:25:00Z,51.45,3.6,9.0,7.0,170,15,,6.21,29.468504,,,TRUE,,,,,,,-RA -DZ,FEW,4900,,,,,,,VFR,,,,,,,,,,,,METAR,32.0
EHKD 021825Z AUTO 15008KT 9999 -DZ FEW015CB OVC057 10/06 Q0997 BLU,EHKD,2018-04-02T18:25:00Z,52.92,4.77,10.0,6.0,150,8,,6.21,29.438976,,,TRUE,,,,,,,-DZ,FEW,1500,OVC,5700,,,,,VFR,,,,,,,,,,,,METAR,14.0
KJNX 021825Z AUTO 24005KT 10SM CLR 27/06 A2995 RMK AO2,KJNX,2018-04-02T18:25:00Z,35.53,-78.38,27.0,6.0,240,5,,10.0,29.949802,,,TRUE,TRUE,,,,,,,CLR,,,,,,,,VFR,,,,,,,,,,,,METAR,50.0
KSTK 021825Z AUTO 22005KT 10SM CLR 18/00 A2944 RMK AO2,KSTK,2018-04-02T18:25:00Z,40.62,-103.27,18.0,0.0,220,5,,10.0,29.438976,,,TRUE,TRUE,,,,,,,CLR,,,,,,,,VFR,,,,,,,,,,,,METAR,1231.0
KBIL 021825Z 06013KT 1 1/2SM R10L/4500VP6000FT -SN BLSN BR BKN006 OVC013 M04/M06 A2959 RMK AO2 BLSN ALQDS P0001 T10391056 $,KBIL,2018-04-02T18:25:00Z,45.8,-108.55,-3.9,-5.6,60,13,,1.5,29.589567,,,,TRUE,TRUE,,,,,-SN BLSN BR,BKN,600,OVC,1300,,,,,IFR,,,,,,0.01,,,,,,SPECI,1091.0
KBBG 021825Z 11010KT 1/8SM FG OVC002 04/04 A2989,KBBG,2018-04-02T18:25:00Z,36.53,-93.2,4.0,4.0,110,10,,0.13,29.890747,,,,,,,,,,FG,OVC,200,,,,,,,LIFR,,,,,,,,,,,,SPECI,397.0
KCPW 021824Z AUTO 19024G35KT 10SM CLR 01/M09 A2997 RMK AO2,KCPW,2018-04-02T18:24:00Z,37.45,-106.8,1.0,-9.0,190,24,35,10.0,29.970472,,,TRUE,TRUE,,,,,,,CLR,,,,,,,,VFR,,,,,,,,,,,,METAR,3584.0
KLWT 021824Z AUTO 33008G15KT 1/2SM SN FZFG VV007 M09/M11 A2971 RMK AO2 P0002 T10891106,KLWT,2018-04-02T18:24:00Z,47.03,-109.47,-8.9,-10.6,330,8,15,0.5,29.71063,,,TRUE,TRUE,,,,,,SN FZFG,OVX,0,,,,,,,LIFR,,,,,,0.02,,,,,700,SPECI,1270.0
KUUU 021824Z AUTO 35004KT 10SM BKN010 OVC100 03/01 A3008 RMK AO2 CIG 009V013 T00280006,KUUU,2018-04-02T18:24:00Z,41.53,-71.28,2.8,0.6,350,4,,10.0,30.079725,,,TRUE,TRUE,,,,,,,BKN,1000,OVC,10000,,,,,MVFR,,,,,,,,,,,,SPECI,51.0
LTAR 021824Z 25011KT 8000 -RA SCT010 BKN033 BKN090 01/01 Q1016 RMK RWY19 22011KT,LTAR,2018-04-02T18:24:00Z,39.8,36.9,1.0,1.0,250,11,,4.97,30.0,,,,,,,,,,-RA,SCT,1000,BKN,3300,BKN,9000,,,MVFR,,,,,,,,,,,,SPECI,1271.0
CYEK 021824Z AUTO 34010KT 9SM FEW060 M22/M25 A3003 RMK SLP174,CYEK,2018-04-02T18:24:00Z,61.1,-94.07,-22.0,-25.0,340,10,,9.0,30.029528,1017.4,,TRUE,,,,,,,,FEW,6000,,,,,,,VFR,,,,,,,,,,,,SPECI,10.0
KANE 021824Z 15012G17KT 1 1/2SM -SN BKN008 OVC46 00/M04 A2993,KANE,2018-04-02T18:24:00Z,45.15,-93.22,0.0,-4.0,150,12,17,1.5,29.929134,,,,,,,,,,-SN,BKN,800,,,,,,,IFR,,,,,,,,,,,,SPECI,278.0
KPNC 021824Z AUTO 15008KT 4SM BR OVC006 02/01 A2982 RMK AO2 T00220006,KPNC,2018-04-02T18:24:00Z,36.73,-97.1,2.2,0.6,150,8,,4.0,29.819881,,,TRUE,TRUE,,,,,,BR,OVC,600,,,,,,,IFR,,,,,,,,,,,,SPECI,308.0
KMML 021824Z AUTO 14012G19KT 10SM BKN029 OVC060 00/M06 A2980 RMK AO2 FZRANO,KMML,2018-04-02T18:24:00Z,44.45,-95.82,0.0,-6.0,140,12,19,10.0,29.799213,,,TRUE,TRUE,,,,TRUE,,,BKN,2900,OVC,6000,,,,,MVFR,,,,,,,,,,,,SPECI,359.0
KHNB 021823Z AUTO 08007KT 10SM OVC016 07/03 A3005 RMK AO2,KHNB,2018-04-02T18:23:00Z,38.25,-86.95,7.0,3.0,80,7,,10.0,30.050198,,,TRUE,TRUE,,,,,,,OVC,1600,,,,,,,MVFR,,,,,,,,,,,,SPECI,161.0
SBCR 021823Z 18007KT 5000 -RA SCT025 FEW030TCU 23/22 Q1010 RESH RA,SBCR,2018-04-02T18:23:00Z,-19.0,-57.67,23.0,22.0,180,7,,3.11,29.822834,,,,,,,,,,-RA RA,SCT,2500,FEW,3000,,,,,MVFR,,,,,,,,,,,,SPECI,141.0
PHMK 021823Z 16015G22KT 10SM BKN015 OVC018 25/22 A2990 RMK AO2 T02500217,PHMK,2018-04-02T18:23:00Z,21.15,-157.1,25.0,21.7,160,15,22,10.0,29.899607,,,,TRUE,,,,,,,BKN,1500,OVC,1800,,,,,MVFR,,,,,,,,,,,,METAR,141.0
KFDR 021823Z AUTO 18009KT 10SM BKN017 OVC023 07/02 A2982 RMK AO2 T00720017,KFDR,2018-04-02T18:23:00Z,34.35,-98.98,7.2,1.7,180,9,,10.0,29.819881,,,TRUE,TRUE,,,,,,,BKN,1700,OVC,2300,,,,,MVFR,,,,,,,,,,,,SPECI,386.0
KGWO 021823Z AUTO VRB06KT 10SM SCT026 22/16 A2996 RMK AO2 T02220156,KGWO,2018-04-02T18:23:00Z,33.5,-90.08,22.2,15.6,0,6,,10.0,29.958662,,,TRUE,TRUE,,,,,,,SCT,2600,,,,,,,VFR,,,,,,,,,,,,SPECI,44.0
KLAF 021823Z 11010KT 10SM BKN026 03/M01 A3008 RMK AO2 T00331006,KLAF,2018-04-02T18:23:00Z,40.42,-86.93,3.3,-0.6,110,10,,10.0,30.079725,,,,TRUE,,,,,,,BKN,2600,,,,,,,MVFR,,,,,,,,,,,,SPECI,182.0
KPKD 021823Z AUTO 08005KT 1 1/2SM -SN BKN027 OVC036 M04/M07 A2988 RMK AO2 P0000 T10441072,KPKD,2018-04-02T18:23:00Z,46.9,-95.07,-4.4,-7.2,80,5,,1.5,29.878937,,,TRUE,TRUE,,,,,,-SN,BKN,2700,OVC,3600,,,,,IFR,,,,,,0.005,,,,,,SPECI,442.0
CYXC 021822Z 19003KT 170V270 15SM -SHSN SCT025 BKN060 BKN210 M04/M11 A2985 RMK SC3SC3CI1 CVCTV CLD EMBD SLP145,CYXC,2018-04-02T18:22:00Z,49.6,-115.77,-4.0,-11.0,190,3,,15.0,29.84941,1014.5,,,,,,,,,-SHSN,SCT,2500,BKN,6000,BKN,21000,,,VFR,,,,,,,,,,,,SPECI,939.0
CYYW 021822Z AUTO 31006KT 250V340 9SM CLR M15/M25 A3003 RMK SLP210,CYYW,2018-04-02T18:22:00Z,50.3,-88.9,-15.0,-25.0,310,6,,9.0,30.029528,1021.0,,TRUE,,,,,,,,CLR,,,,,,,,VFR,,,,,,,,,,,,SPECI,351.0
KAXS 021822Z AUTO 19008KT 10SM OVC019 09/00 A2985 RMK AO2,KAXS,2018-04-02T18:22:00Z,34.7,-99.33,9.0,0.0,190,8,,10.0,29.84941,,,TRUE,TRUE,,,,,,,OVC,1900,,,,,,,MVFR,,,,,,,,,,,,METAR,437.0
KQN3 021822Z AUTO 00000KT 4400 HZ CLR 38/M02 A2968 RMK AO2 SLP042 WND DATA ESTMD,KQN3,2018-04-02T18:22:00Z,,,38.0,-2.0,0,0,,2.73,29.681103,1004.2,,TRUE,TRUE,,,,,,HZ,CLR,,,,,,,,IFR,,,,,,,,,,,,SPECI,
KEKO 021822Z AUTO 31015G22KT 6SM -RA BR FEW014 BKN028 OVC035 04/02 A2979 RMK AO2 PK WND 27034/1757 WSHFT 1803 P0002 T00390017,KEKO,2018-04-02T18:22:00Z,40.82,-115.78,3.9,1.7,310,15,22,6.0,29.790354,,,TRUE,TRUE,,,,,,-RA BR,FEW,1400,BKN,2800,OVC,3500,,,MVFR,,,,,,0.02,,,,,,SPECI,1547.0
KHKA 021822Z AUTO 12006KT 10SM OVC010 09/06 A2998 RMK AO2 CIG 008V012 T00890061 $,KHKA,2018-04-02T18:22:00Z,35.93,-89.83,8.9,6.1,120,6,,10.0,29.97933,,,TRUE,TRUE,TRUE,,,,,,OVC,1000,,,,,,,MVFR,,,,,,,,,,,,SPECI,78.0
KMBG 021822Z AUTO 06018G22KT 3SM -SN OVC018 M03/M07 A2967 RMK AO2 P0000 T10331067,KMBG,2018-04-02T18:22:00Z,45.55,-100.42,-3.3,-6.7,60,18,22,3.0,29.66929,,,TRUE,TRUE,,,,,,-SN,OVC,1800,,,,,,,MVFR,,,,,,0.005,,,,,,SPECI,510.0
KJMS 021822Z AUTO 05018KT 10SM SCT024 OVC050 M08/M11 A2983 RMK AO2 T10781111,KJMS,2018-04-02T18:22:00Z,46.93,-98.67,-7.8,-11.1,50,18,,10.0,29.828741,,,TRUE,TRUE,,,,,,,SCT,2400,OVC,5000,,,,,VFR,,,,,,,,,,,,SPECI,455.0
KMIC 021822Z 17010KT 3/4SM -SN BR BKN014 OVC023 M02/M04 A2993 RMK AO2 P0000 T10171039,KMIC,2018-04-02T18:22:00Z,45.07,-93.35,-1.7,-3.9,170,10,,0.75,29.929134,,,,TRUE,,,,,,-SN BR,BKN,1400,OVC,2300,,,,,LIFR,,,,,,0.005,,,,,,SPECI,265.0
KMLF 021822Z AUTO 21011KT 10SM CLR 18/M06 A2972 RMK AO2 WSHFT 1808 T01831056,KMLF,2018-04-02T18:22:00Z,38.42,-113.02,18.3,-5.6,210,11,,10.0,29.719488,,,TRUE,TRUE,,,,,,,CLR,,,,,,,,VFR,,,,,,,,,,,,SPECI,1534.0
KMSP 021822Z 16008KT 1/2SM R30L/2200V3500FT SN VV009 M02/M03 A2995 RMK AO2 P0001 T10171028,KMSP,2018-04-02T18:22:00Z,44.88,-93.23,-1.7,-2.8,160,8,,0.5,29.949802,,,,TRUE,,,,,,SN,OVX,0,,,,,,,LIFR,,,,,,0.01,,,,,900,SPECI,265.0
KTXK 021822Z 03006KT 8SM BKN010 OVC050 14/12 A2992 RMK AO2 T01390117,KTXK,2018-04-02T18:22:00Z,33.45,-93.98,13.9,11.7,30,6,,8.0,29.920275,,,,TRUE,,,,,,,BKN,1000,OVC,5000,,,,,MVFR,,,,,,,,,,,,SPECI,111.0
SBTE 021822Z 15010KT 9999 TS SCT030 FEW040CB SCT100 30/23 Q1006,SBTE,2018-04-02T18:22:00Z,-5.03,-42.82,30.0,23.0,150,10,,6.21,29.704725,,,,,,,,,,TS,SCT,3000,FEW,4000,SCT,10000,,,VFR,,,,,,,,,,,,SPECI,69.0
KTGI 021821Z AUTO 36015G19KT 10SM OVC014 09/05 A3009 RMK AO1,KTGI,2018-04-02T18:21:00Z,37.82,-75.98,9.0,5.0,360,15,19,10.0,30.088583,,,TRUE,TRUE,,,,,,,OVC,1400,,,,,,,MVFR,,,,,,,,,,,,METAR,2.0
LTCS 021820Z 22009KT CAVOK 15/00 Q1013 RMK RWY22 24010KT,LTCS,2018-04-02T18:20:00Z,37.45,38.9,15.0,0.0,220,9,,6.21,29.911417,,,,,,,,,,,CAVOK,,,,,,,,VFR,,,,,,,,,,,,METAR,825.0
LTCJ 021820Z 01003KT 9999 SCT180 14/06 Q1012 RMK RWY20 03004KT,LTCJ,2018-04-02T18:20:00Z,37.93,41.12,14.0,6.0,10,3,,6.21,29.88189,,,,,,,,,,,SCT,18000,,,,,,,VFR,,,,,,,,,,,,SPECI,540.0
KORE 021820Z AUTO 00000KT 10SM SCT029 SCT035 02/M04 A3009 RMK AO2 T00221039,KORE,2018-04-02T18:20:00Z,42.57,-72.28,2.2,-3.9,0,0,,10.0,30.088583,,,TRUE,TRUE,,,,,,,SCT,2900,SCT,3500,,,,,VFR,,,,,,,,,,,,SPECI,164.0
KMVY 021820Z 02007KT 10SM SCT008 OVC013 02/01 A3009 RMK AO2 T00220006,KMVY,2018-04-02T18:20:00Z,41.4,-70.62,2.2,0.6,20,7,,10.0,30.088583,,,,TRUE,,,,,,,SCT,800,OVC,1300,,,,,MVFR,,,,,,,,,,,,SPECI,16.0
LSZA 021820Z 21005KT 9999 SCT045 BKN060 12/07 Q1015 NOSIG,LSZA,2018-04-02T18:20:00Z,46.0,8.92,12.0,7.0,210,5,,6.21,29.970472,,,,,,TRUE,,,,,SCT,4500,BKN,6000,,,,,VFR,,,,,,,,,,,,METAR,276.0
LSZB 021820Z 31003KT 9999 BKN140 09/04 Q1006 NOSIG,LSZB,2018-04-02T18:20:00Z,46.92,7.5,9.0,4.0,310,3,,6.21,29.704725,,,,,,TRUE,,,,,BKN,14000,,,,,,,VFR,,,,,,,,,,,,METAR,505.0
LSGG 021820Z 10003KT 060V200 CAVOK 08/03 Q1007 NOSIG,LSGG,2018-04-02T18:20:00Z,46.25,6.12,8.0,3.0,100,3,,6.21,29.734253,,,,,,TRUE,,,,,CAVOK,,,,,,,,VFR,,,,,,,,,,,,METAR,416.0
LSZH 021820Z VRB03KT CAVOK 11/03 Q1006 NOSIG,LSZH,2018-04-02T18:20:00Z,47.48,8.53,11.0,3.0,0,3,,6.21,29.704725,,,,,,TRUE,,,,,CAVOK,,,,,,,,VFR,,,,,,,,,,,,METAR,432.0
LGMT 021820Z 28004KT CAVOK 14/06 Q1016,LGMT,2018-04-02T18:20:00Z,39.05,26.6,14.0,6.0,280,4,,6.21,30.0,,,,,,,,,,,CAVOK,,,,,,,,VFR,,,,,,,,,,,,METAR,17.0
KPUW 021820Z AUTO 26014G20KT 6SM -SN BR BKN020 OVC030 01/00 A2989 RMK AO2 P0000 T00060000,KPUW,2018-04-02T18:20:00Z,46.75,-117.12,0.6,0.0,260,14,20,6.0,29.890747,,,TRUE,TRUE,,,,,,-SN BR,BKN,2000,OVC,3000,,,,,MVFR,,,,,,0.005,,,,,,SPECI,773.0
KGEV 021820Z AUTO 26006G24KT 10SM OVC027 14/09 A3002 RMK AO2 T01410086,KGEV,2018-04-02T18:20:00Z,36.43,-81.42,14.1,8.6,260,6,24,10.0,30.02067,,,TRUE,TRUE,,,,,,,OVC,2700,,,,,,,MVFR,,,,,,,,,,,,SPECI,969.0
KFWN 021820Z AUTO 00000KT 10SM OVC030 03/M02 A3011 RMK AO2 RAE20 P0000 T00281022,KFWN,2018-04-02T18:20:00Z,41.2,-74.63,2.8,-2.2,0,0,,10.0,30.109253,,,TRUE,TRUE,,,,,,,OVC,3000,,,,,,,MVFR,,,,,,0.005,,,,,,SPECI,133.0
K2G4 021820Z AUTO 00000KT 10SM OVC005 01/00 A3002 RMK AO1,K2G4,2018-04-02T18:20:00Z,39.58,-79.33,1.0,0.0,0,0,,10.0,30.02067,,,TRUE,TRUE,,,,,,,OVC,500,,,,,,,IFR,,,,,,,,,,,,SPECI,894.0
EGNM 021820Z 04005KT 020V090 1700 -RA BR SCT001 BKN002 03/03 Q0990,EGNM,2018-04-02T18:20:00Z,53.87,-1.63,3.0,3.0,40,5,,1.06,29.232283,,,,,,,,,,-RA BR,SCT,100,BKN,200,,,,,LIFR,,,,,,,,,,,,METAR,208.0
EGLC 021820Z AUTO 18006KT 120V270 9999 BKN046 11/08 Q0995,EGLC,2018-04-02T18:20:00Z,51.5,0.05,11.0,8.0,180,6,,6.21,29.379921,,,TRUE,,,,,,,,BKN,4600,,,,,,,VFR,,,,,,,,,,,,METAR,5.0
EGGW 021820Z AUTO 18008KT 140V220 9999 SCT007 BKN011 OVC030 09/08 Q0994,EGGW,2018-04-02T18:20:00Z,51.87,-0.37,9.0,8.0,180,8,,6.21,29.350393,,,TRUE,,,,,,,,SCT,700,BKN,1100,OVC,3000,,,MVFR,,,,,,,,,,,,METAR,160.0
EGFF 021820Z AUTO 22005KT 190V250 9999 SCT026 BKN035 11/08 Q0991,EGFF,2018-04-02T18:20:00Z,51.38,-3.35,11.0,8.0,220,5,,6.21,29.26181,,,TRUE,,,,,,,,SCT,2600,BKN,3500,,,,,VFR,,,,,,,,,,,,METAR,67.0
EGAC 021820Z AUTO 05015KT 5000 -RA OVC009/// 03/03 Q0990 RERA,EGAC,2018-04-02T18:20:00Z,54.62,-5.87,3.0,3.0,50,15,,3.11,29.232283,,,TRUE,,,,,,,-RA,OVC,900,,,,,,,IFR,,,,,,,,,,,,METAR,5.0
EGAA 021820Z 07015KT 9999 SCT006 SCT010 BKN041 02/01 Q0989,EGAA,2018-04-02T18:20:00Z,54.63,-6.22,2.0,1.0,70,15,,6.21,29.202755,,,,,,,,,,,SCT,600,SCT,1000,BKN,4100,,,VFR,,,,,,,,,,,,METAR,81.0
EGLL 021820Z AUTO 19010KT 160V250 9999 BKN009 OVC014 10/09 Q0995 TEMPO SCT009 BKN014,EGLL,2018-04-02T18:20:00Z,51.48,-0.45,10.0,9.0,190,10,,6.21,29.379921,,,TRUE,,,,,,,,BKN,900,OVC,1400,,,,,IFR,,,,,,,,,,,,METAR,24.0
EGSS 021820Z AUTO 18009KT 9999 OVC007 10/09 Q0995,EGSS,2018-04-02T18:20:00Z,51.88,0.22,10.0,9.0,180,9,,6.21,29.379921,,,TRUE,,,,,,,,OVC,700,,,,,,,IFR,,,,,,,,,,,,METAR,106.0
EGPK 021820Z 06011KT 7000 -RASN SCT012 BKN020 02/00 Q0993,EGPK,2018-04-02T18:20:00Z,55.5,-4.57,2.0,0.0,60,11,,4.35,29.320866,,,,,,,,,,-RA -SN,SCT,1200,BKN,2000,,,,,MVFR,,,,,,,,,,,,METAR,20.0
EGPH 021820Z 07018KT 5000 -RASN OVC006 02/01 Q0996,EGPH,2018-04-02T18:20:00Z,55.95,-3.35,2.0,1.0,70,18,,3.11,29.409449,,,,,,,,,,-RA -SN,OVC,600,,,,,,,IFR,,,,,,,,,,,,METAR,41.0
EGPF 021820Z AUTO 06017KT 9999 -RA BKN009 OVC023 02/01 Q0995,EGPF,2018-04-02T18:20:00Z,55.87,-4.42,2.0,1.0,60,17,,6.21,29.379921,,,TRUE,,,,,,,-RA,BKN,900,OVC,2300,,,,,IFR,,,,,,,,,,,,METAR,8.0
EGKK 021820Z 18004KT 140V210 9999 SCT005 BKN029 10/09 Q0995,EGKK,2018-04-02T18:20:00Z,51.13,-0.17,10.0,9.0,180,4,,6.21,29.379921,,,,,,,,,,,SCT,500,BKN,2900,,,,,MVFR,,,,,,,,,,,,METAR,62.0
EGCC 021820Z 18006KT 140V210 9999 -RA FEW012 SCT030 10/09 Q0989,EGCC,2018-04-02T18:20:00Z,53.35,-2.27,10.0,9.0,180,6,,6.21,29.202755,,,,,,,,,,-RA,FEW,1200,SCT,3000,,,,,VFR,,,,,,,,,,,,METAR,78.0
EGBB 021820Z 18009KT 9999 SCT025 11/08 Q0991,EGBB,2018-04-02T18:20:00Z,52.47,-1.75,11.0,8.0,180,9,,6.21,29.26181,,,,,,,,,,,SCT,2500,,,,,,,VFR,,,,,,,,,,,,METAR,99.0
EGPO 021820Z 06018KT 9999 FEW025 04/M01 Q1001,EGPO,2018-04-02T18:20:00Z,58.22,-6.32,4.0,-1.0,60,18,,6.21,29.557087,,,,,,,,,,,FEW,2500,,,,,,,VFR,,,,,,,,,,,,METAR,13.0
EGPM 021820Z AUTO 04010KT 9999 NCD 02/M01 Q1005,EGPM,2018-04-02T18:20:00Z,60.42,-1.3,2.0,-1.0,40,10,,6.21,29.675198,,,TRUE,,,,,,,,CLR,,,,,,,,VFR,,,,,,,,,,,,METAR,22.0
EGPL 021820Z AUTO 07025KT 9999 NCD 04/M01 Q0998,EGPL,2018-04-02T18:20:00Z,57.47,-7.37,4.0,-1.0,70,25,,6.21,29.468504,,,TRUE,,,,,,,,CLR,,,,,,,,VFR,,,,,,,,,,,,METAR,6.0
EGPC 021820Z 09015KT 9999 VCSH FEW011 SCT034 03/M00 Q1002,EGPC,2018-04-02T18:20:00Z,58.45,-3.07,3.0,0.0,90,15,,6.21,29.586615,,,,,,,,,,VCSH,FEW,1100,SCT,3400,,,,,VFR,,,,,,,,,,,,METAR,39.0
EGPA 021820Z 08009KT 9999 FEW038 02/M05 Q1003,EGPA,2018-04-02T18:20:00Z,58.95,-2.88,2.0,-5.0,80,9,,6.21,29.616142,,,,,,,,,,,FEW,3800,,,,,,,VFR,,,,,,,,,,,,METAR,21.0
CWZQ 021820Z AUTO 28010KT M00/M04 RMK AO1 T10041041,CWZQ,2018-04-02T18:20:00Z,46.53,-61.05,-0.4,-4.1,280,10,,,,,,TRUE,TRUE,,,,,,,,,,,,,,,,,,,,,,,,,,,METAR,17.0
CYUT 021820Z 34018G26KT 1/2SM SN BLSN OVC025 M20/M22 A2992 RMK SC8 SLP137,CYUT,2018-04-02T18:20:00Z,66.52,-86.25,-20.0,-22.0,340,18,26,0.5,29.920275,1013.7,,,,,,,,,SN BLSN,OVC,2500,,,,,,,LIFR,,,,,,,,,,,,SPECI,24.0
EKVD 021820Z AUTO 13002KT //// ///////// 05/00 Q1005,EKVD,2018-04-02T18:20:00Z,55.42,9.32,5.0,0.0,130,2,,,29.675198,,,TRUE,,,,,,,,,,,,,,,,,,,,,,,,,,,,METAR,45.0
EKSB 021820Z AUTO 13007KT 9999NDV OVC065/// 04/M00 Q1005,EKSB,2018-04-02T18:20:00Z,54.97,9.8,4.0,0.0,130,7,,,29.675198,,,TRUE,,,,,,,,OVC,6500,,,,,,,,,,,,,,,,,,,METAR,23.0
EKRN 021820Z AUTO 25012KT 9999NDV NCD 02/00 Q1008,EKRN,2018-04-02T18:20:00Z,55.07,14.75,2.0,0.0,250,12,,,29.763779,,,TRUE,,,,,,,,CLR,,,,,,,,,,,,,,,,,,,,METAR,16.0
EKEB 021820Z AUTO 15002KT 9999NDV OVC065/// 03/M00 Q1005,EKEB,2018-04-02T18:20:00Z,55.52,8.55,3.0,0.0,150,2,,,29.675198,,,TRUE,,,,,,,,OVC,6500,,,,,,,,,,,,,,,,,,,METAR,29.0
EKAH 021820Z AUTO 13005KT 9999NDV SCT130/// 02/M02 Q1006,EKAH,2018-04-02T18:20:00Z,56.28,10.62,2.0,-2.0,130,5,,,29.704725,,,TRUE,,,,,,,,SCT,13000,,,,,,,,,,,,,,,,,,,METAR,25.0
EKRK 021820Z AUTO 06003KT 9999NDV NCD 03/M07 Q1007,EKRK,2018-04-02T18:20:00Z,55.57,12.12,3.0,-7.0,60,3,,,29.734253,,,TRUE,,,,,,,,CLR,,,,,,,,,,,,,,,,,,,,METAR,44.0
EKYT 021820Z AUTO 06005KT 9999NDV BKN170/// 03/M01 Q1006,EKYT,2018-04-02T18:20:00Z,57.1,9.87,3.0,-1.0,60,5,,,29.704725,,,TRUE,,,,,,,,BKN,17000,,,,,,,,,,,,,,,,,,,METAR,3.0
EKBI 021820Z 19002KT CAVOK 04/M00 Q1005,EKBI,2018-04-02T18:20:00Z,55.72,9.15,4.0,0.0,190,2,,6.21,29.675198,,,,,,,,,,,CAVOK,,,,,,,,VFR,,,,,,,,,,,,METAR,66.0
EKCH 021820Z 06002KT CAVOK 02/M02 Q1007 NOSIG,EKCH,2018-04-02T18:20:00Z,55.62,12.67,2.0,-2.0,60,2,,6.21,29.734253,,,,,,TRUE,,,,,CAVOK,,,,,,,,VFR,,,,,,,,,,,,METAR,5.0
EFKT 021820Z AUTO 02006KT CAVOK M02/M10 Q1003,EFKT,2018-04-02T18:20:00Z,67.7,24.85,-2.0,-10.0,20,6,,6.21,29.616142,,,TRUE,,,,,,,,CAVOK,,,,,,,,VFR,,,,,,,,,,,,METAR,643.0
EFKS 021820Z 04008KT 340V110 2600 -SN FEW013 OVC022 M03/M06 Q0998,EFKS,2018-04-02T18:20:00Z,66.0,29.23,-3.0,-6.0,40,8,,1.62,29.468504,,,,,,,,,,-SN,FEW,1300,OVC,2200,,,,,IFR,,,,,,,,,,,,METAR,263.0
EFKI 021820Z AUTO 04010KT 010V080 4900 -SN BKN013 OVC047 M02/M04 Q0993,EFKI,2018-04-02T18:20:00Z,64.27,27.67,-2.0,-4.0,40,10,,3.04,29.320866,,,TRUE,,,,,,,-SN,BKN,1300,OVC,4700,,,,,MVFR,,,,,,,,,,,,METAR,136.0
EFKE 021820Z 02008KT CAVOK 00/M08 Q0999,EFKE,2018-04-02T18:20:00Z,65.77,24.57,0.0,-8.0,20,8,,6.21,29.498032,,,,,,,,,,,CAVOK,,,,,,,,VFR,,,,,,,,,,,,METAR,15.0
EFET 021820Z AUTO CAVOK ///// Q////,EFET,2018-04-02T18:20:00Z,68.37,23.43,,,,,,6.21,,,,TRUE,,,,,,,,CAVOK,,,,,,,,VFR,,,,,,,,,,,,SPECI,306.0
EFSI 021820Z AUTO 32007KT 9000 -SN BKN041 OVC060 M03/M06 Q0995,EFSI,2018-04-02T18:20:00Z,62.7,22.83,-3.0,-6.0,320,7,,5.59,29.379921,,,TRUE,,,,,,,-SN,BKN,4100,OVC,6000,,,,,VFR,,,,,,,,,,,,METAR,91.0
EFSA 021820Z AUTO 36002KT 1400 SN OVC004 M00/M00 Q0987,EFSA,2018-04-02T18:20:00Z,61.95,28.93,0.0,0.0,360,2,,0.87,29.143702,,,TRUE,,,,,,,SN,OVC,400,,,,,,,LIFR,,,,,,,,,,,,METAR,95.0
EFMI 021820Z AUTO 31002KT 3700 -SN SCT006 OVC030 M01/M02 Q0988,EFMI,2018-04-02T18:20:00Z,61.68,27.2,-1.0,-2.0,310,2,,2.3,29.17323,,,TRUE,,,,,,,-SN,SCT,600,OVC,3000,,,,,IFR,,,,,,,,,,,,METAR,138.0
EFLP 021820Z AUTO 31003KT 2700 -RASN OVC002 00/M00 Q0987,EFLP,2018-04-02T18:20:00Z,61.07,28.13,0.0,0.0,310,3,,1.68,29.143702,,,TRUE,,,,,,,-RA -SN,OVC,200,,,,,,,LIFR,,,,,,,,,,,,METAR,106.0
EFJO 021820Z AUTO 03008KT 360V060 2200 -SN OVC006 M01/M01 Q0988,EFJO,2018-04-02T18:20:00Z,62.67,29.62,-1.0,-1.0,30,8,,1.37,29.17323,,,TRUE,,,,,,,-SN,OVC,600,,,,,,,IFR,,,,,,,,,,,,METAR,117.0
EFPO 021820Z AUTO 34006KT 310V010 9999 FEW080/// SCT094/// 00/M07 Q0995,EFPO,2018-04-02T18:20:00Z,61.47,21.8,0.0,-7.0,340,6,,6.21,29.379921,,,TRUE,,,,,,,,FEW,8000,SCT,9400,,,,,VFR,,,,,,,,,,,,METAR,17.0
EFKK 021820Z 35011KT CAVOK M02/M06 Q0996,EFKK,2018-04-02T18:20:00Z,63.72,23.13,-2.0,-6.0,350,11,,6.21,29.409449,,,,,,,,,,,CAVOK,,,,,,,,VFR,,,,,,,,,,,,METAR,25.0
EFHA 021820Z AUTO 32009KT 1500 SN OVC006 M01/M02 Q0991,EFHA,2018-04-02T18:20:00Z,61.85,24.8,-1.0,-2.0,320,9,,0.93,29.26181,,,TRUE,,,,,,,SN,OVC,600,,,,,,,LIFR,,,,,,,,,,,,METAR,145.0
EFKU 021820Z AUTO 36008KT 4500 -FZRASN OVC006 M01/M02 Q0989,EFKU,2018-04-02T18:20:00Z,63.02,27.8,-1.0,-2.0,360,8,,2.8,29.202755,,,TRUE,,,,,,,-FZRA SN,OVC,600,,,,,,,IFR,,,,,,,,,,,,METAR,102.0
EFJY 021820Z AUTO 34009KT 4800 -SN OVC008 M02/M03 Q0990,EFJY,2018-04-02T18:20:00Z,62.4,25.68,-2.0,-3.0,340,9,,2.98,29.232283,,,TRUE,,,,,,,-SN,OVC,800,,,,,,,IFR,,,,,,,,,,,,METAR,145.0
EDDV 021820Z 12007KT 080V150 9999 BKN049 09/03 Q1004 NOSIG,EDDV,2018-04-02T18:20:00Z,52.47,9.68,9.0,3.0,120,7,,6.21,29.64567,,,,,,TRUE,,,,,BKN,4900,,,,,,,VFR,,,,,,,,,,,,METAR,54.0
EDDT 021820Z 10003KT CAVOK 08/M01 Q1008 NOSIG,EDDT,2018-04-02T18:20:00Z,52.57,13.32,8.0,-1.0,100,3,,6.21,29.763779,,,,,,TRUE,,,,,CAVOK,,,,,,,,VFR,,,,,,,,,,,,METAR,37.0
EDDS 021820Z 10004KT 080V150 9999 FEW042 BKN130 13/01 Q1005 NOSIG,EDDS,2018-04-02T18:20:00Z,48.67,9.22,13.0,1.0,100,4,,6.21,29.675198,,,,,,TRUE,,,,,FEW,4200,BKN,13000,,,,,VFR,,,,,,,,,,,,METAR,419.0
EDDN 021820Z 11007KT CAVOK 10/01 Q1007 NOSIG,EDDN,2018-04-02T18:20:00Z,49.5,11.08,10.0,1.0,110,7,,6.21,29.734253,,,,,,TRUE,,,,,CAVOK,,,,,,,,VFR,,,,,,,,,,,,METAR,312.0
EDDM 021820Z 10005KT CAVOK 11/00 Q1008 NOSIG,EDDM,2018-04-02T18:20:00Z,48.35,11.82,11.0,0.0,100,5,,6.21,29.763779,,,,,,TRUE,,,,,CAVOK,,,,,,,,VFR,,,,,,,,,,,,METAR,447.0
EDDL 021820Z 16013KT 9999 -RA FEW046 BKN060 12/05 Q1001 NOSIG,EDDL,2018-04-02T18:20:00Z,51.3,6.77,12.0,5.0,160,13,,6.21,29.557087,,,,,,TRUE,,,,-RA,FEW,4600,BKN,6000,,,,,VFR,,,,,,,,,,,,METAR,44.0
EDDK 021820Z 11008KT 080V140 9999 -RA FEW029 SCT047 BKN070 12/03 Q1002 NOSIG,EDDK,2018-04-02T18:20:00Z,50.87,7.15,12.0,3.0,110,8,,6.21,29.586615,,,,,,TRUE,,,,-RA,FEW,2900,SCT,4700,BKN,7000,,,VFR,,,,,,,,,,,,METAR,99.0
EDDH 021820Z 14011KT 120V180 9999 -RA FEW015 OVC037 08/01 Q1005 NOSIG,EDDH,2018-04-02T18:20:00Z,53.63,10.0,8.0,1.0,140,11,,6.21,29.675198,,,,,,TRUE,,,,-RA,FEW,1500,OVC,3700,,,,,VFR,,,,,,,,,,,,METAR,16.0
EDDF 021820Z 11005KT 9999 FEW041 BKN050 BKN070 13/01 Q1004 NOSIG,EDDF,2018-04-02T18:20:00Z,50.05,8.6,13.0,1.0,110,5,,6.21,29.64567,,,,,,TRUE,,,,,FEW,4100,BKN,5000,BKN,7000,,,VFR,,,,,,,,,,,,METAR,113.0
EDDW 021820Z 11009KT 7000 NSC 08/03 Q1003 NOSIG,EDDW,2018-04-02T18:20:00Z,53.03,8.8,8.0,3.0,110,9,,4.35,29.616142,,,,,,TRUE,,,,,CLR,,,,,,,,MVFR,,,,,,,,,,,,METAR,5.0
EDDR 021820Z VRB02KT CAVOK 11/00 Q1004 NOSIG,EDDR,2018-04-02T18:20:00Z,49.22,7.1,11.0,0.0,0,2,,6.21,29.64567,,,,,,TRUE,,,,,CAVOK,,,,,,,,VFR,,,,,,,,,,,,METAR,320.0
EDDP 021820Z 14007KT CAVOK 07/00 Q1007 NOSIG,EDDP,2018-04-02T18:20:00Z,51.43,12.23,7.0,0.0,140,7,,6.21,29.734253,,,,,,TRUE,,,,,CAVOK,,,,,,,,VFR,,,,,,,,,,,,METAR,149.0
EDDG 021820Z 13006KT CAVOK 12/03 Q1001 NOSIG,EDDG,2018-04-02T18:20:00Z,52.13,7.7,12.0,3.0,130,6,,6.21,29.557087,,,,,,TRUE,,,,,CAVOK,,,,,,,,VFR,,,,,,,,,,,,METAR,52.0
EDDE 021820Z 17006KT CAVOK 09/02 Q1005 NOSIG,EDDE,2018-04-02T18:20:00Z,50.98,10.97,9.0,2.0,170,6,,6.21,29.675198,,,,,,TRUE,,,,,CAVOK,,,,,,,,VFR,,,,,,,,,,,,METAR,323.0
EDDC 021820Z 06005KT CAVOK 08/M02 Q1008 NOSIG,EDDC,2018-04-02T18:20:00Z,51.13,13.75,8.0,-2.0,60,5,,6.21,29.763779,,,,,,TRUE,,,,,CAVOK,,,,,,,,VFR,,,,,,,,,,,,METAR,226.0
EDDB 021820Z 11003KT CAVOK 08/M00 Q1008 NOSIG,EDDB,2018-04-02T18:20:00Z,52.38,13.53,8.0,0.0,110,3,,6.21,29.763779,,,,,,TRUE,,,,,CAVOK,,,,,,,,VFR,,,,,,,,,,,,METAR,48.0
ESTA 021820Z 23003KT CAVOK 00/M02 Q1006,ESTA,2018-04-02T18:20:00Z,56.28,12.83,0.0,-2.0,230,3,,6.21,29.704725,,,,,,,,,,,CAVOK,,,,,,,,VFR,,,,,,,,,,,,METAR,47.0
ESMX 021820Z 24006KT CAVOK 02/M08 Q1004,ESMX,2018-04-02T18:20:00Z,56.92,14.72,2.0,-8.0,240,6,,6.21,29.64567,,,,,,,,,,,CAVOK,,,,,,,,VFR,,,,,,,,,,,,METAR,186.0
ESMT 021820Z 25004KT CAVOK M00/M02 Q1006,ESMT,2018-04-02T18:20:00Z,56.67,12.82,0.0,-2.0,250,4,,6.21,29.704725,,,,,,,,,,,CAVOK,,,,,,,,VFR,,,,,,,,,,,,METAR,30.0
ESMS 021820Z 27004KT CAVOK 03/M07 Q1007 R17/19//95,ESMS,2018-04-02T18:20:00Z,55.53,13.37,3.0,-7.0,270,4,,6.21,29.734253,,,,,,,,,,,CAVOK,,,,,,,,VFR,,,,,,,,,,,,METAR,106.0
ESMQ 021820Z 19002KT CAVOK 01/M06 Q1004,ESMQ,2018-04-02T18:20:00Z,56.68,16.3,1.0,-6.0,190,2,,6.21,29.64567,,,,,,,,,,,CAVOK,,,,,,,,VFR,,,,,,,,,,,,METAR,16.0
ESMK 021820Z AUTO 27004KT 9999 NCD 03/M09 Q1006,ESMK,2018-04-02T18:20:00Z,55.92,14.07,3.0,-9.0,270,4,,6.21,29.704725,,,TRUE,,,,,,,,CLR,,,,,,,,VFR,,,,,,,,,,,,METAR,23.0
ESGT 021820Z 26006KT CAVOK 00/M12 Q1005,ESGT,2018-04-02T18:20:00Z,58.32,12.33,0.0,-12.0,260,6,,6.21,29.675198,,,,,,,,,,,CAVOK,,,,,,,,VFR,,,,,,,,,,,,METAR,41.0
ESGJ 021820Z 28005KT CAVOK 01/M11 Q1003 R01/09//70,ESGJ,2018-04-02T18:20:00Z,57.77,14.07,1.0,-11.0,280,5,,6.21,29.616142,,,,,,,,,,,CAVOK,,,,,,,,VFR,,,,,,,,,,,,METAR,232.0
ESGG 021820Z 28002KT CAVOK M00/M12 Q1005 R03/19//95,ESGG,2018-04-02T18:20:00Z,57.67,12.3,0.0,-12.0,280,2,,6.21,29.675198,,,,,,,,,,,CAVOK,,,,,,,,VFR,,,,,,,,,,,,METAR,169.0
EKSP 021820Z 15003KT CAVOK 05/M02 Q1005 RMK BKN070,EKSP,2018-04-02T18:20:00Z,55.22,9.27,5.0,-2.0,150,3,,6.21,29.675198,,,,,,,,,,,CAVOK,,,,,,,,VFR,,,,,,,,,,,,METAR,40.0
EKKA 021820Z AUTO 00000KT 9999NDV OVC110/// 04/M05 Q1005,EKKA,2018-04-02T18:20:00Z,56.3,9.12,4.0,-5.0,0,0,,,29.675198,,,TRUE,,,,,,,,OVC,11000,,,,,,,,,,,,,,,,,,,METAR,52.0
EVLA 021820Z AUTO 26007KT 9999 NCD 02/M00 Q1004,EVLA,2018-04-02T18:20:00Z,56.52,21.1,2.0,0.0,260,7,,6.21,29.64567,,,TRUE,,,,,,,,CLR,,,,,,,,VFR,,,,,,,,,,,,METAR,4.0
EVVA 021820Z AUTO 29010KT CAVOK 02/00 Q1002,EVVA,2018-04-02T18:20:00Z,57.35,21.55,2.0,0.0,290,10,,6.21,29.586615,,,TRUE,,,,,,,,CAVOK,,,,,,,,VFR,,,,,,,,,,,,METAR,6.0
ENOV 021820Z VRB02KT 9999 FEW035 M01/M05 Q1006 RMK WIND 2175FT 31006KT,ENOV,2018-04-02T18:20:00Z,62.17,6.07,-1.0,-5.0,0,2,,6.21,29.704725,,,,,,,,,,,FEW,3500,,,,,,,VFR,,,,,,,,,,,,METAR,74.0
KEHO 021820Z AUTO 17005KT 10SM CLR 24/07 A2995 RMK AO2 T02440066,KEHO,2018-04-02T18:20:00Z,35.25,-81.6,24.4,6.6,170,5,,10.0,29.949802,,,TRUE,TRUE,,,,,,,CLR,,,,,,,,VFR,,,,,,,,,,,,METAR,258.0
EGPU 021820Z AUTO 08019KT 9999 NCD 05/M03 Q0995,EGPU,2018-04-02T18:20:00Z,56.5,-6.87,5.0,-3.0,80,19,,6.21,29.379921,,,TRUE,,,,,,,,CLR,,,,,,,,VFR,,,,,,,,,,,,METAR,12.0
LTAC 021820Z 31005KT 9999 FEW040 04/M02 Q1017 NOSIG RMK RWY21L 00000KT RWY03L 30005KT 270V330 RWY21R 31006KT 280V340,LTAC,2018-04-02T18:20:00Z,40.12,32.97,4.0,-2.0,310,5,,6.21,30.029528,,,,,,TRUE,,,,,FEW,4000,,,,,,,VFR,,,,,,,,,,,,METAR,949.0
EGPN 021820Z 07012KT 5000 SHRASN BKN007 BKN016 02/01 Q0997,EGPN,2018-04-02T18:20:00Z,56.45,-3.02,2.0,1.0,70,12,,3.11,29.438976,,,,,,,,,,SHRA SHSN,BKN,700,BKN,1600,,,,,IFR,,,,,,,,,,,,METAR,4.0
LTAF 021820Z 19002KT 9999 SCT040 15/12 Q1012 NOSIG RMK RWY23 22003KT 180V270,LTAF,2018-04-02T18:20:00Z,36.97,35.28,15.0,12.0,190,2,,6.21,29.88189,,,,,,TRUE,,,,,SCT,4000,,,,,,,VFR,,,,,,,,,,,,SPECI,20.0
LCEN 021820Z 30012KT 9999 FEW025 BKN200 16/12 Q1012 NOSIG RMK RWY11 30009KT,LCEN,2018-04-02T18:20:00Z,35.13,33.5,16.0,12.0,300,12,,6.21,29.88189,,,,,,TRUE,,,,,FEW,2500,BKN,20000,,,,,VFR,,,,,,,,,,,,METAR,91.0
LTCE 021820Z 20007KT 9999 SCT045 BKN100 08/M01 Q1013 TEMPO FM2000 26017G30KT,LTCE,2018-04-02T18:20:00Z,39.95,41.17,8.0,-1.0,200,7,,6.21,29.911417,,,,,,,,,,,SCT,4500,BKN,10000,,,,,VFR,,,,,,,,,,,,SPECI,1758.0
LTCC 021820Z 25004KT CAVOK 14/04 Q1011 NOSIG RMK RWY16 21007KT,LTCC,2018-04-02T18:20:00Z,37.87,40.2,14.0,4.0,250,4,,6.21,29.852362,,,,,,TRUE,,,,,CAVOK,,,,,,,,VFR,,,-0.7,,,,,,,,,SPECI,677.0
LTBU 021820Z 25006KT 9999 FEW035 09/04 Q1017 RMK RWY23 26009KT,LTBU,2018-04-02T18:20:00Z,41.12,27.92,9.0,4.0,250,6,,6.21,30.029528,,,,,,,,,,,FEW,3500,,,,,,,VFR,,,,,,,,,,,,METAR,173.0
LTAU 021820Z 28007KT 9999 BKN035 05/02 Q1017 NOSIG RMK RWY07 28008KT,LTAU,2018-04-02T18:20:00Z,38.77,35.47,5.0,2.0,280,7,,6.21,30.029528,,,,,,TRUE,,,,,BKN,3500,,,,,,,VFR,,,,,,,,,,,,SPECI,1054.0
LTAT 021820Z 08007KT 9999 FEW040 SCT100 11/01 Q1015 NOSIG RMK RWY03 11007KT,LTAT,2018-04-02T18:20:00Z,38.42,38.07,11.0,1.0,80,7,,6.21,29.970472,,,,,,TRUE,,,,,FEW,4000,SCT,10000,,,,,VFR,,-0.7,,,,,,,,,,SPECI,849.0
LTAP 021820Z 29004KT 260V320 9999 SCT040 05/03 Q1015 NOSIG RMK RWY23 35003KT 300V060,LTAP,2018-04-02T18:20:00Z,40.83,35.52,5.0,3.0,290,4,,6.21,29.970472,,,,,,TRUE,,,,,SCT,4000,,,,,,,VFR,,,,,,,,,,,,SPECI,535.0
LTAG 021820Z 13005KT CAVOK 16/12 Q1012 NOSIG,LTAG,2018-04-02T18:20:00Z,37.0,35.42,16.0,12.0,130,5,,6.21,29.88189,,,,,,TRUE,,,,,CAVOK,,,,,,,,VFR,,,,,,,,,,,,METAR,66.0
LTFJ 021820Z 23004KT 9999 FEW035 12/02 Q1017 NOSIG RMK RWY24 19004KT,LTFJ,2018-04-02T18:20:00Z,40.9,29.3,12.0,2.0,230,4,,6.21,30.029528,,,,,,TRUE,,,,,FEW,3500,,,,,,,VFR,,,,,,,,,,,,METAR,98.0
LTFE 021820Z VRB02KT CAVOK 13/07 Q1016 NOSIG RMK RWY10 24003KT 170V290,LTFE,2018-04-02T18:20:00Z,37.25,27.67,13.0,7.0,0,2,,6.21,30.0,,,,,,TRUE,,,,,CAVOK,,,,,,,,VFR,,,,,,,,,,,,SPECI,6.0
LTFC 021820Z VRB03KT 9999 FEW035 08/03 Q1016 RMK RWY23 VRB02KT,LTFC,2018-04-02T18:20:00Z,37.87,30.38,8.0,3.0,0,3,,6.21,30.0,,,,,,,,,,,FEW,3500,,,,,,,VFR,,,,,,,,,,,,METAR,864.0
LTCG 021820Z 30008KT 4800 TSRA FEW008 FEW018CB BKN028 09/06 Q1019 BECMG TL1900 27018G30KT BKN007 SCT018CB BKN028,LTCG,2018-04-02T18:20:00Z,41.0,39.8,9.0,6.0,300,8,,2.98,30.088583,,,,,,,,,,TSRA,FEW,800,FEW,1800,BKN,2800,,,IFR,,,,,,,,,,,,SPECI,30.0
LTBS 021820Z 06004KT 030V100 CAVOK 14/07 Q1014 NOSIG RMK RWY19 01010KT,LTBS,2018-04-02T18:20:00Z,36.7,28.77,14.0,7.0,60,4,,6.21,29.940945,,,,,,TRUE,,,,,CAVOK,,,,,,,,VFR,,,,,,,,,,,,SPECI,2.0
LTBR 021820Z VRB01KT CAVOK 07/03 Q1017 NOSIG RMK RWY07 16002KT,LTBR,2018-04-02T18:20:00Z,40.25,29.57,7.0,3.0,0,1,,6.21,30.029528,,,,,,TRUE,,,,,CAVOK,,,,,,,,VFR,,,,,,,,,,,,METAR,232.0
LTBJ 021820Z 36014KT 9000 NSC 13/08 Q1017 NOSIG RMK RWY16 36007KT,LTBJ,2018-04-02T18:20:00Z,38.28,27.15,13.0,8.0,360,14,,5.59,30.029528,,,,,,TRUE,,,,,CLR,,,,,,,,VFR,,,,,,,,,,,,SPECI,120.0
LTBA 021820Z 25005KT 220V290 9999 FEW032 12/06 Q1017 NOSIG RMK RWY17L 22009G20KT 130V270 RWY05 25005KT 220V290 RWY23 25008KT,LTBA,2018-04-02T18:20:00Z,40.97,28.82,12.0,6.0,250,5,,6.21,30.029528,,,,,,TRUE,,,,,FEW,3200,,,,,,,VFR,,,,,,,,,,,,SPECI,37.0
LTAZ 021820Z 23006KT 9999 SCT040 07/03 Q1017 RMK RWY29 24006KT,LTAZ,2018-04-02T18:20:00Z,38.77,34.55,7.0,3.0,230,6,,6.21,30.029528,,,,,,,,,,,SCT,4000,,,,,,,VFR,,,,,,,,,,,,METAR,945.0
LTAJ 021820Z 28007KT CAVOK 14/02 Q1012 NOSIG RMK RWY10 28008KT,LTAJ,2018-04-02T18:20:00Z,36.95,37.48,14.0,2.0,280,7,,6.21,29.88189,,,,,,TRUE,,,,,CAVOK,,,,,,,,VFR,,,,,,,,,,,,SPECI,855.0
LTAI 021820Z 30004KT 190V340 CAVOK 17/14 Q1013 NOSIG RMK RWY18C 31004KT RWY36R 29005KT RWY18L 31004KT,LTAI,2018-04-02T18:20:00Z,36.9,30.8,17.0,14.0,300,4,,6.21,29.911417,,,,,,TRUE,,,,,CAVOK,,,,,,,,VFR,,,,,,,,,,,,SPECI,54.0
EGGP 021820Z 18016KT 9999 VCSH FEW012 SCT024 BKN036 10/09 Q0988,EGGP,2018-04-02T18:20:00Z,53.32,-2.85,10.0,9.0,180,16,,6.21,29.17323,,,,,,,,,,VCSH,FEW,1200,SCT,2400,BKN,3600,,,VFR,,,,,,,,,,,,METAR,26.0
EGGD 021820Z AUTO 18010KT 9999 BKN009 OVC034 10/08 Q0992,EGGD,2018-04-02T18:20:00Z,51.37,-2.72,10.0,8.0,180,10,,6.21,29.291338,,,TRUE,,,,,,,,BKN,900,OVC,3400,,,,,IFR,,,,,,,,,,,,METAR,189.0
EGPD 021820Z AUTO 10008KT 070V140 9999 -RA SCT016 BKN022 BKN040 03/00 Q1000 RERA,EGPD,2018-04-02T18:20:00Z,57.2,-2.22,3.0,0.0,100,8,,6.21,29.52756,,,TRUE,,,,,,,-RA,SCT,1600,BKN,2200,BKN,4000,,,MVFR,,,,,,,,,,,,METAR,65.0
EGNX 021820Z 17017KT 9999 FEW016 10/08 Q0991,EGNX,2018-04-02T18:20:00Z,52.82,-1.32,10.0,8.0,170,17,,6.21,29.26181,,,,,,,,,,,FEW,1600,,,,,,,VFR,,,,,,,,,,,,METAR,94.0
ENNM 021820Z 23005KT 290V260 9999 BKN049 02/M02 Q1004,ENNM,2018-04-02T18:20:00Z,64.47,11.57,2.0,-2.0,230,5,,6.21,29.64567,,,,,,,,,,,BKN,4900,,,,,,,VFR,,,,,,,,,,,,METAR,2.0
ENLK 021820Z 06003KT 9999 FEW030 M06/M07 Q1005,ENLK,2018-04-02T18:20:00Z,68.15,13.62,-6.0,-7.0,60,3,,6.21,29.675198,,,,,,,,,,,FEW,3000,,,,,,,VFR,,,,,,,,,,,,METAR,26.0
ENHK 021820Z 11016KT CAVOK M01/M06 Q1009,ENHK,2018-04-02T18:20:00Z,70.47,22.13,-1.0,-6.0,110,16,,6.21,29.793306,,,,,,,,,,,CAVOK,,,,,,,,VFR,,,,,,,,,,,,METAR,10.0
ENTO 021820Z 20005KT CAVOK M00/M06 Q1005,ENTO,2018-04-02T18:20:00Z,59.2,10.27,0.0,-6.0,200,5,,6.21,29.675198,,,,,,,,,,,CAVOK,,,,,,,,VFR,,,,,,,,,,,,METAR,88.0
ENTC 021820Z VRB03KT CAVOK M04/M09 Q1007 NOSIG RMK WIND 2600FT 17012KT,ENTC,2018-04-02T18:20:00Z,69.68,18.92,-4.0,-9.0,0,3,,6.21,29.734253,,,,,,TRUE,,,,,CAVOK,,,,,,,,VFR,,,,,,,,,,,,METAR,10.0
ENRY 021820Z 21007KT CAVOK 00/M05 Q1005,ENRY,2018-04-02T18:20:00Z,59.37,10.77,0.0,-5.0,210,7,,6.21,29.675198,,,,,,,,,,,CAVOK,,,,,,,,VFR,,,,,,,,,,,,METAR,53.0
ENRO 021820Z AUTO 34003KT 9999NDV OVC025/// M06/M11 Q1002,ENRO,2018-04-02T18:20:00Z,62.57,11.33,-6.0,-11.0,340,3,,,29.586615,,,TRUE,,,,,,,,OVC,2500,,,,,,,,,,,,,,,,,,,METAR,626.0
ENHD 021820Z 34002KT 9999 FEW012TCU SCT033 02/M01 Q1004,ENHD,2018-04-02T18:20:00Z,59.35,5.22,2.0,-1.0,340,2,,6.21,29.64567,,,,,,,,,,,FEW,1200,SCT,3300,,,,,VFR,,,,,,,,,,,,METAR,24.0
ENCN 021820Z 20005KT CAVOK 02/M02 Q1005,ENCN,2018-04-02T18:20:00Z,58.2,8.07,2.0,-2.0,200,5,,6.21,29.675198,,,,,,,,,,,CAVOK,,,,,,,,VFR,,,,,,,,,,,,METAR,17.0
ENAL 021820Z 03001KT 9999 VCSH SCT039 BKN082 M00/M02 Q1006,ENAL,2018-04-02T18:20:00Z,62.57,6.12,0.0,-2.0,30,1,,6.21,29.704725,,,,,,,,,,VCSH,SCT,3900,BKN,8200,,,,,VFR,,,,,,,,,,,,METAR,22.0
ENST 021820Z ////KT 9999 VCSH FEW005 SCT009TCU BKN020 M00/M02 Q1003 RMK WIND THR20 VRB02KT/ WIND 300FT 14011KT,ENST,2018-04-02T18:20:00Z,65.97,12.47,0.0,-2.0,,,,6.21,29.616142,,,,,,,,,,VCSH,FEW,500,SCT,900,BKN,2000,,,MVFR,,,,,,,,,,,,SPECI,17.0
ENMS 021820Z 18006KT 150V210 9999 VCSH FEW025 SCT047 01/M07 Q1003 RMK WIND 412FT 20006KT 160V240,ENMS,2018-04-02T18:20:00Z,65.78,13.22,1.0,-7.0,180,6,,6.21,29.616142,,,,,,,,,,VCSH,FEW,2500,SCT,4700,,,,,VFR,,,0.6,,,,,,,,,METAR,70.0
LGRP 021820Z 28013KT 9999 FEW018 17/09 Q1015 NOSIG,LGRP,2018-04-02T18:20:00Z,36.4,28.08,17.0,9.0,280,13,,6.21,29.970472,,,,,,TRUE,,,,,FEW,1800,,,,,,,VFR,,,,,,,,,,,,METAR,5.0
LGKR 021820Z 30003KT CAVOK 15/09 Q1018 NOSIG,LGKR,2018-04-02T18:20:00Z,39.62,19.92,15.0,9.0,300,3,,6.21,30.059055,,,,,,TRUE,,,,,CAVOK,,,,,,,,VFR,,,,,,,,,,,,METAR,2.0
LGIR 021820Z VRB03KT 9999 FEW025 15/10 Q1017 NOSIG,LGIR,2018-04-02T18:20:00Z,35.32,25.17,15.0,10.0,0,3,,6.21,30.029528,,,,,,TRUE,,,,,FEW,2500,,,,,,,VFR,,,,,,,,,,,,METAR,39.0
LGAV 021820Z 00000KT CAVOK 14/07 Q1019 NOSIG,LGAV,2018-04-02T18:20:00Z,37.93,23.95,14.0,7.0,0,0,,6.21,30.088583,,,,,,TRUE,,,,,CAVOK,,,,,,,,VFR,,,,,,,,,,,,METAR,94.0
KQKR 021820Z AUTO 30003KT 5000 HZ SCT004 36/01 A2964 RMK AO2 SLPNO WND DATA ESTMD,KQKR,2018-04-02T18:20:00Z,,,36.0,1.0,300,3,,3.11,29.639763,,,TRUE,TRUE,,,,,,HZ,SCT,400,,,,,,,MVFR,,,,,,,,,,,,SPECI,
ENSF 021820Z AUTO 08009KT 9999NDV SCT030/// 08/M04 Q1005 W///S4,ENSF,2018-04-02T18:20:00Z,61.25,1.85,8.0,-4.0,80,9,,,29.675198,,,TRUE,,,,,,,,SCT,3000,,,,,,,,,,,,,,,,,,,METAR,10.0
ENFB 021820Z AUTO 07010KT //// BKN030/// 03/M04 Q1006 W///S4,ENFB,2018-04-02T18:20:00Z,61.2,1.83,3.0,-4.0,70,10,,,29.704725,,,TRUE,,,,,,,,BKN,3000,,,,,,,,,,,,,,,,,,,METAR,10.0
ENSL 021820Z AUTO 11008KT 9999NDV NCD 03/00 Q1003 W02/S3,ENSL,2018-04-02T18:20:00Z,58.37,1.9,3.0,0.0,110,8,,,29.616142,,,TRUE,,,,,,,,CLR,,,,,,,,,,,,,,,,,,,,METAR,50.0
ENLE 021820Z 10024KT 9000 -SN FEW005 BKN015 01/M01 Q1001 W06/S3,ENLE,2018-04-02T18:20:00Z,56.53,3.22,1.0,-1.0,100,24,,5.59,29.557087,,,,,,,,,,-SN,FEW,500,BKN,1500,,,,,MVFR,,,,,,,,,,,,METAR,3.0
ENSD 021820Z 31004KT 9999 FEW055 01/M07 Q1005 RMK WIND 1138FT 30004KT,ENSD,2018-04-02T18:20:00Z,61.82,6.12,1.0,-7.0,310,4,,6.21,29.675198,,,,,,,,,,,FEW,5500,,,,,,,VFR,,,,,,,,,,,,METAR,60.0
ENNA 021820Z 00000KT 9999 SCT030 SCT080 M07/M09 Q1010 RMK WIND 1800FT 12017KT,ENNA,2018-04-02T18:20:00Z,70.07,24.97,-7.0,-9.0,0,0,,6.21,29.822834,,,,,,,,,,,SCT,3000,SCT,8000,,,,,VFR,,,,,,,,,,,,METAR,8.0
ENML 021820Z 30004KT 9999 FEW020 SCT040 00/M03 Q1006,ENML,2018-04-02T18:20:00Z,62.75,7.27,0.0,-3.0,300,4,,6.21,29.704725,,,,,,,,,,,FEW,2000,SCT,4000,,,,,VFR,,,,,,,,,,,,METAR,3.0
ENKR 021820Z 10009KT 9999 FEW012 BKN070 M03/M06 Q1009 RMK WIND 731FT 09012KT,ENKR,2018-04-02T18:20:00Z,69.72,29.88,-3.0,-6.0,100,9,,6.21,29.793306,,,,,,,,,,,FEW,1200,BKN,7000,,,,,VFR,,,,,,,,,,,,METAR,91.0
ENKB 021820Z 30003KT 9999 VCSH FEW027TCU 00/M07 Q1006 RMK WIND 745FT 27003KT,ENKB,2018-04-02T18:20:00Z,63.12,7.82,0.0,-7.0,300,3,,6.21,29.704725,,,,,,,,,,VCSH,FEW,2700,,,,,,,VFR,,,,,,,,,,,,METAR,62.0
ENFL 021820Z 36006KT 340V040 9999 FEW050 03/M04 Q1005,ENFL,2018-04-02T18:20:00Z,61.57,5.02,3.0,-4.0,360,6,,6.21,29.675198,,,,,,,,,,,FEW,5000,,,,,,,VFR,,,,,,,,,,,,METAR,9.0
ENBL 021820Z 36005KT 9999 FEW035 M01/M08 Q1004,ENBL,2018-04-02T18:20:00Z,61.4,5.77,-1.0,-8.0,360,5,,6.21,29.64567,,,,,,,,,,,FEW,3500,,,,,,,VFR,,,,,,,,,,,,METAR,150.0
ETML 021820Z AUTO 12008KT //// // ////// 02/01 Q1006 ///,ETML,2018-04-02T18:20:00Z,,,2.0,1.0,120,8,,,29.704725,,,TRUE,,,,,,,,,,,,,,,,,,,,,,,,,,,,METAR,
ETHS 021820Z 12007KT 8000 FEW040 BKN050 07/01 Q1005 BLU,ETHS,2018-04-02T18:20:00Z,52.92,10.18,7.0,1.0,120,7,,4.97,29.675198,,,,,,,,,,,FEW,4000,BKN,5000,,,,,MVFR,,,,,,,,,,,,METAR,88.0
ETHF 021820Z 16006KT 9999 BKN060 11/03 Q1004 BLU,ETHF,2018-04-02T18:20:00Z,51.12,9.27,11.0,3.0,160,6,,6.21,29.64567,,,,,,,,,,,BKN,6000,,,,,,,VFR,,,,,,,,,,,,METAR,181.0
ETHC 021820Z 10008KT 7000 -RA BKN050 BKN090 09/02 Q1004 WHT,ETHC,2018-04-02T18:20:00Z,52.6,10.02,9.0,2.0,100,8,,4.35,29.64567,,,,,,,,,,-RA,BKN,5000,BKN,9000,,,,,MVFR,,,,,,,,,,,,METAR,52.0
ETHB 021820Z 15009KT 9999 BKN048 BKN090 11/02 Q1002 BLU,ETHB,2018-04-02T18:20:00Z,52.27,9.07,11.0,2.0,150,9,,6.21,29.586615,,,,,,,,,,,BKN,4800,BKN,9000,,,,,VFR,,,,,,,,,,,,METAR,78.0
ETGG 021820Z 15007KT 9999 BKN018 06/M02 Q1005 WHT,ETGG,2018-04-02T18:20:00Z,54.83,9.5,6.0,-2.0,150,7,,6.21,29.675198,,,,,,,,,,,BKN,1800,,,,,,,MVFR,,,,,,,,,,,,METAR,33.0
ETSN 021820Z 10005KT 9999 BKN100 BKN140 12/01 Q1007 BLU,ETSN,2018-04-02T18:20:00Z,48.72,11.22,12.0,1.0,100,5,,6.21,29.734253,,,,,,,,,,,BKN,10000,BKN,14000,,,,,VFR,,,,,,,,,,,,METAR,387.0
ETSL 021820Z 18004KT 9999 BKN090 BKN120 12/M01 Q1008 BLU,ETSL,2018-04-02T18:20:00Z,48.17,10.87,12.0,-1.0,180,4,,6.21,29.763779,,,,,,,,,,,BKN,9000,BKN,12000,,,,,VFR,,,,,,,,,,,,METAR,562.0
ETSI 021820Z AUTO 11002KT //// // ////// 10/01 Q1008 ///,ETSI,2018-04-02T18:20:00Z,48.72,11.52,10.0,1.0,110,2,,,29.763779,,,TRUE,,,,,,,,,,,,,,,,,,,,,,,,,,,,METAR,370.0
ETSB 021820Z AUTO 17007KT 9999 // ////// 10/00 Q1003 ///,ETSB,2018-04-02T18:20:00Z,50.17,7.07,10.0,0.0,170,7,,6.21,29.616142,,,TRUE,,,,,,,,,,,,,,,,,,,,,,,,,,,,METAR,486.0
ETSA 021820Z AUTO 18005KT //// // ////// 11/01 Q1008 ///,ETSA,2018-04-02T18:20:00Z,48.07,10.9,11.0,1.0,180,5,,,29.763779,,,TRUE,,,,,,,,,,,,,,,,,,,,,,,,,,,,METAR,628.0
ETNN 021820Z 17007KT 9999 BKN060 13/01 Q1001 BLU,ETNN,2018-04-02T18:20:00Z,50.82,6.67,13.0,1.0,170,7,,6.21,29.557087,,,,,,,,,,,BKN,6000,,,,,,,VFR,,,,,,,,,,,,METAR,135.0
ETHN 021820Z 15006KT 9999 BKN090 OVC180 11/00 Q1006 BLU,ETHN,2018-04-02T18:20:00Z,49.38,9.97,11.0,0.0,150,6,,6.21,29.704725,,,,,,,,,,,BKN,9000,OVC,18000,,,,,VFR,,,,,,,,,,,,METAR,473.0
ETHL 021820Z 10004KT 9999 BKN060 12/M01 Q1006 BLU,ETHL,2018-04-02T18:20:00Z,48.22,9.92,12.0,-1.0,100,4,,6.21,29.704725,,,,,,,,,,,BKN,6000,,,,,,,VFR,,,,,,,,,,,,METAR,549.0
ETHA 021820Z AUTO 26003KT //// // ////// 10/01 Q1008 ///,ETHA,2018-04-02T18:20:00Z,47.82,10.87,10.0,1.0,260,3,,,29.763779,,,TRUE,,,,,,,,,,,,,,,,,,,,,,,,,,,,METAR,760.0
ETNT 021820Z 12010KT 8000 BKN040 06/03 Q1001 BLU,ETNT,2018-04-02T18:20:00Z,53.53,7.67,6.0,3.0,120,10,,4.97,29.557087,,,,,,,,,,,BKN,4000,,,,,,,MVFR,,,,,,,,,,,,METAR,12.0
ETNS 021820Z AUTO 13008KT 6000 // ////// 06/M00 Q1005 ///,ETNS,2018-04-02T18:20:00Z,54.47,9.52,6.0,0.0,130,8,,3.73,29.675198,,,TRUE,,,,,,,,,,,,,,,,,,,,,,,,,,,,METAR,25.0
ETNL 021820Z 09006KT 9999 BKN080 BKN140 02/M02 Q1007 BLU,ETNL,2018-04-02T18:20:00Z,53.92,12.27,2.0,-2.0,90,6,,6.21,29.734253,,,,,,,,,,,BKN,8000,BKN,14000,,,,,VFR,,,,,,,,,,,,METAR,40.0
ETNH 021820Z 13007KT 9999 -DZ SCT028 OVC070 06/00 Q1005 BLU,ETNH,2018-04-02T18:20:00Z,54.32,9.55,6.0,0.0,130,7,,6.21,29.675198,,,,,,,,,,-DZ,SCT,2800,OVC,7000,,,,,VFR,,,,,,,,,,,,METAR,17.0
ETMN 021820Z 11009KT 9999 -RA FEW035 OVC044 06/02 Q1003 BLU,ETMN,2018-04-02T18:20:00Z,53.77,8.67,6.0,2.0,110,9,,6.21,29.616142,,,,,,,,,,-RA,FEW,3500,OVC,4400,,,,,VFR,,,,,,,,,,,,METAR,31.0
ENOL 021820Z 31006KT 9999 FEW025 SCT040 01/M06 Q1005 NOSIG,ENOL,2018-04-02T18:20:00Z,63.7,9.58,1.0,-6.0,310,6,,6.21,29.675198,,,,,,TRUE,,,,,FEW,2500,SCT,4000,,,,,VFR,,,,,,,,,,,,METAR,7.0
ENGM 021820Z 06004KT 010V080 CAVOK 00/M13 Q1003 NOSIG,ENGM,2018-04-02T18:20:00Z,60.2,11.1,0.0,-13.0,60,4,,6.21,29.616142,,,,,,TRUE,,,,,CAVOK,,,,,,,,VFR,,,,,,,,,,,,METAR,204.0
ETNW 021820Z AUTO 12007KT //// // ////// 10/03 Q1003 ///,ETNW,2018-04-02T18:20:00Z,52.45,9.42,10.0,3.0,120,7,,,29.616142,,,TRUE,,,,,,,,,,,,,,,,,,,,,,,,,,,,METAR,70.0
ENZV 021820Z 14002KT 9999 FEW015 SCT025TCU 03/00 Q1005 NOSIG,ENZV,2018-04-02T18:20:00Z,58.87,5.62,3.0,0.0,140,2,,6.21,29.675198,,,,,,TRUE,,,,,FEW,1500,SCT,2500,,,,,VFR,,,,,,,,,,,,METAR,9.0
ENVA 021820Z 26009KT 9999 SCT017 BKN050 00/M02 Q1005 TEMPO 1200 SHSN VV010 RMK WIND 670FT 27010KT,ENVA,2018-04-02T18:20:00Z,63.47,10.92,0.0,-2.0,260,9,,6.21,29.675198,,,,,,,,,,,SCT,1700,BKN,5000,,,,,VFR,,,,,,,,,,,,METAR,17.0
EGPE 021820Z 07011KT 9999 FEW014 SCT048 03/02 Q1000,EGPE,2018-04-02T18:20:00Z,57.52,-4.03,3.0,2.0,70,11,,6.21,29.52756,,,,,,,,,,,FEW,1400,SCT,4800,,,,,VFR,,,,,,,,,,,,METAR,9.0
EGNJ 021820Z 17014KT 9999 FEW018 SCT025 BKN034 10/09 Q0991,EGNJ,2018-04-02T18:20:00Z,53.57,-0.35,10.0,9.0,170,14,,6.21,29.26181,,,,,,,,,,,FEW,1800,SCT,2500,BKN,3400,,,VFR,,,,,,,,,,,,METAR,31.0
EGAE 021820Z 07016KT 9000 -RA SCT008 OVC014 04/03 Q0991,EGAE,2018-04-02T18:20:00Z,55.03,-7.15,4.0,3.0,70,16,,5.59,29.26181,,,,,,,,,,-RA,SCT,800,OVC,1400,,,,,MVFR,,,,,,,,,,,,METAR,9.0
EGCN 021820Z 23004KT 5000 BR BKN021 BKN049 06/06 Q0991,EGCN,2018-04-02T18:20:00Z,53.48,-1.0,6.0,6.0,230,4,,3.11,29.26181,,,,,,,,,,BR,BKN,2100,BKN,4900,,,,,MVFR,,,,,,,,,,,,METAR,17.0
EGCK 021820Z AUTO 19011KT 9999 OVC003/// 09/08 Q0988,EGCK,2018-04-02T18:20:00Z,53.1,4.33,9.0,8.0,190,11,,6.21,29.17323,,,TRUE,,,,,,,,OVC,300,,,,,,,LIFR,,,,,,,,,,,,METAR,0.0
EGPB 021820Z 10008KT 9999 SCT035 03/M04 Q1004,EGPB,2018-04-02T18:20:00Z,59.87,-1.3,3.0,-4.0,100,8,,6.21,29.64567,,,,,,,,,,,SCT,3500,,,,,,,VFR,,,,,,,,,,,,METAR,5.0
EGNV 021820Z 04008KT 3000 -RA BR SCT004 BKN007 05/04 Q0991,EGNV,2018-04-02T18:20:00Z,54.52,-1.42,5.0,4.0,40,8,,1.86,29.26181,,,,,,,,,,-RA BR,SCT,400,BKN,700,,,,,IFR,,,,,,,,,,,,METAR,37.0
EGNT 021820Z 09010KT 5000 -RA BKN005 02/02 Q0993,EGNT,2018-04-02T18:20:00Z,55.02,-1.7,2.0,2.0,90,10,,3.11,29.320866,,,,,,,,,,-RA,BKN,500,,,,,,,IFR,,,,,,,,,,,,METAR,81.0
EGHI 021820Z 21009KT 9999 VCSH BKN010 10/09 Q0994,EGHI,2018-04-02T18:20:00Z,50.95,-1.35,10.0,9.0,210,9,,6.21,29.350393,,,,,,,,,,VCSH,BKN,1000,,,,,,,MVFR,,,,,,,,,,,,METAR,14.0
ETWM 021820Z AUTO 13004KT 9999 // ////// 10/03 Q1000 ///,ETWM,2018-04-02T18:20:00Z,52.72,7.33,10.0,3.0,130,4,,6.21,29.52756,,,TRUE,,,,,,,,,,,,,,,,,,,,,,,,,,,,METAR,21.0
ETSH 021820Z 09004KT 9999 SCT070 BKN110 07/00 Q1008 BLU,ETSH,2018-04-02T18:20:00Z,51.77,13.17,7.0,0.0,90,4,,6.21,29.763779,,,,,,,,,,,SCT,7000,BKN,11000,,,,,VFR,,,,,,,,,,,,METAR,79.0
EGTK 021820Z 19010KT 9999 SCT015 10/08 Q0993,EGTK,2018-04-02T18:20:00Z,51.83,-1.32,10.0,8.0,190,10,,6.21,29.320866,,,,,,,,,,,SCT,1500,,,,,,,VFR,,,,,,,,,,,,METAR,82.0
EGMD 021820Z AUTO 18014KT 9999 -RA BKN015/// BKN019/// OVC031/// 10/09 Q0996,EGMD,2018-04-02T18:20:00Z,50.95,0.92,10.0,9.0,180,14,,6.21,29.409449,,,TRUE,,,,,,,-RA,BKN,1500,BKN,1900,OVC,3100,,,MVFR,,,,,,,,,,,,METAR,3.0
EGMC 021820Z 18009KT 9999 FEW008 BKN010 10/08 Q0995,EGMC,2018-04-02T18:20:00Z,51.57,0.7,10.0,8.0,180,9,,6.21,29.379921,,,,,,,,,,,FEW,800,BKN,1000,,,,,MVFR,,,,,,,,,,,,METAR,15.0
EGLF 021820Z 18009KT 9999 VCSH SCT010 09/08 Q0994,EGLF,2018-04-02T18:20:00Z,51.28,-0.77,9.0,8.0,180,9,,6.21,29.350393,,,,,,,,,,VCSH,SCT,1000,,,,,,,VFR,,,,,,,,,,,,METAR,65.0
EGKB 021820Z 17012KT 9999 2500S VCSH FEW005 SCT011 09/08 Q0995,EGKB,2018-04-02T18:20:00Z,51.32,0.02,9.0,8.0,170,12,,6.21,29.379921,,,,,,,,,,VCSH,FEW,500,SCT,1100,,,,,VFR,,,,,,,,,,,,METAR,183.0
EGHH 021820Z 19008KT 9999 SCT007 BKN022 10/09 Q0994,EGHH,2018-04-02T18:20:00Z,50.78,-1.83,10.0,9.0,190,8,,6.21,29.350393,,,,,,,,,,,SCT,700,BKN,2200,,,,,MVFR,,,,,,,,,,,,METAR,11.0
EGTE 021820Z 19009KT 9999 SCT015 11/09 Q0992,EGTE,2018-04-02T18:20:00Z,50.72,-3.42,11.0,9.0,190,9,,6.21,29.291338,,,,,,,,,,,SCT,1500,,,,,,,VFR,,,,,,,,,,,,METAR,30.0
EGJJ 021820Z 18012KT 9999 FEW031 11/09 Q0995,EGJJ,2018-04-02T18:20:00Z,49.22,-2.2,11.0,9.0,180,12,,6.21,29.379921,,,,,,,,,,,FEW,3100,,,,,,,VFR,,,,,,,,,,,,METAR,84.0
EGJB 021820Z 19008KT 9999 FEW017 09/09 Q0994,EGJB,2018-04-02T18:20:00Z,49.42,-2.6,9.0,9.0,190,8,,6.21,29.350393,,,,,,,,,,,FEW,1700,,,,,,,VFR,,,,,,,,,,,,METAR,102.0
EGHQ 021820Z 18013KT 7000 BKN006 10/09 Q0990,EGHQ,2018-04-02T18:20:00Z,50.43,-5.0,10.0,9.0,180,13,,4.35,29.232283,,,,,,,,,,,BKN,600,,,,,,,IFR,,,,,,,,,,,,METAR,119.0
EGSH 021820Z 19010KT 9999 FEW025 09/08 Q0994 TEMPO BKN012,EGSH,2018-04-02T18:20:00Z,52.68,1.28,9.0,8.0,190,10,,6.21,29.350393,,,,,,,,,,,FEW,2500,,,,,,,VFR,,,,,,,,,,,,METAR,36.0
OAJL 021820Z 26003KT 9000 -SHRA VCTS FEW070 BKN120CB BKN170 23/15 A2994 RMK AO2A SLP104 T02310147,OAJL,2018-04-02T18:20:00Z,34.42,70.47,23.1,14.7,260,3,,5.59,29.940945,1010.4,,,TRUE,,,,,,-SHRA VCTS,FEW,7000,BKN,12000,BKN,17000,,,VFR,,,,,,,,,,,,SPECI,580.0
EGPI 021820Z AUTO 08029G43KT 050V120 9999 -RA SCT018/// 03/01 Q0991,EGPI,2018-04-02T18:20:00Z,55.68,-6.25,3.0,1.0,80,29,43,6.21,29.26181,,,TRUE,,,,,,,-RA,SCT,1800,,,,,,,VFR,,,,,,,,,,,,METAR,18.0
KDVP 021820Z AUTO 14016KT 10SM OVC022 00/M03 A2976 RMK AO2 T10021031,KDVP,2018-04-02T18:20:00Z,43.98,-95.78,-0.2,-3.1,140,16,,10.0,29.760826,,,TRUE,TRUE,,,,,,,OVC,2200,,,,,,,MVFR,,,,,,,,,,,,SPECI,495.0
KAAO 021820Z AUTO 17015G19KT 10SM OVC015 04/M01 A2976 RMK AO2 T00391006,KAAO,2018-04-02T18:20:00Z,37.75,-97.22,3.9,-0.6,170,15,19,10.0,29.760826,,,TRUE,TRUE,,,,,,,OVC,1500,,,,,,,MVFR,,,,,,,,,,,,SPECI,434.0
EYPA 021820Z 28005KT 240V320 CAVOK 01/M01 Q1005,EYPA,2018-04-02T18:20:00Z,55.97,21.08,1.0,-1.0,280,5,,6.21,29.675198,,,,,,,,,,,CAVOK,,,,,,,,VFR,,,,,,,,,,,,METAR,10.0
EYVI 021820Z 27016KT 9999 OVC009 01/M01 Q1003 NOSIG,EYVI,2018-04-02T18:20:00Z,54.63,25.28,1.0,-1.0,270,16,,6.21,29.616142,,,,,,TRUE,,,,,OVC,900,,,,,,,IFR,,,,,,,,,,,,METAR,197.0
ESNL 021820Z 29001KT CAVOK M07/M14 Q1001,ESNL,2018-04-02T18:20:00Z,64.55,18.72,-7.0,-14.0,290,1,,6.21,29.557087,,,,,,,,,,,CAVOK,,,,,,,,VFR,,,,,,,,,,,,METAR,214.0
PKWA 021820Z AUTO 12007KT 10SM SCT017 28/24 A2979 RMK AO2 T02750242,PKWA,2018-04-02T18:20:00Z,8.72,167.72,27.5,24.2,120,7,,10.0,29.790354,,,TRUE,TRUE,,,,,,,SCT,1700,,,,,,,VFR,,,,,,,,,,,,SPECI,8.0
ESKN 021820Z 29004KT CAVOK 02/M12 Q1002 R26/09//95,ESKN,2018-04-02T18:20:00Z,58.78,16.9,2.0,-12.0,290,4,,6.21,29.586615,,,,,,,,,,,CAVOK,,,,,,,,VFR,,,,,,,,,,,,METAR,43.0
ESOE 021820Z 24006KT CAVOK 02/M08 Q1003,ESOE,2018-04-02T18:20:00Z,59.22,15.05,2.0,-8.0,240,6,,6.21,29.616142,,,,,,,,,,,CAVOK,,,,,,,,VFR,,,,,,,,,,,,METAR,57.0
ESOW 021820Z 32003KT CAVOK 01/M12 Q1003 R01/09//95,ESOW,2018-04-02T18:20:00Z,59.57,16.62,1.0,-12.0,320,3,,6.21,29.616142,,,,,,,,,,,CAVOK,,,,,,,,VFR,,,,,,,,,,,,METAR,31.0
ESOK 021820Z 29004KT CAVOK 01/M14 Q1003,ESOK,2018-04-02T18:20:00Z,59.45,13.33,1.0,-14.0,290,4,,6.21,29.616142,,,,,,,,,,,CAVOK,,,,,,,,VFR,,,,,,,,,,,,METAR,107.0
ESSA 021820Z 32006KT CAVOK M00/M11 Q1002 R01L/09//95 R01R/09//95 R08/09//95 NOSIG,ESSA,2018-04-02T18:20:00Z,59.63,17.93,0.0,-11.0,320,6,,6.21,29.586615,,,,,,TRUE,,,,,CAVOK,,,,,,,,VFR,,,,,,,,,,,,METAR,61.0
ESSB 021820Z 34006KT CAVOK 01/M12 Q1002 R30/0///95,ESSB,2018-04-02T18:20:00Z,59.35,17.93,1.0,-12.0,340,6,,6.21,29.586615,,,,,,,,,,,CAVOK,,,,,,,,VFR,,,,,,,,,,,,METAR,11.0
ESSD 021820Z AUTO 26004KT 9999 NCD M01/M12 Q1002,ESSD,2018-04-02T18:20:00Z,60.42,15.5,-1.0,-12.0,260,4,,6.21,29.586615,,,TRUE,,,,,,,,CLR,,,,,,,,VFR,,,,,,,,,,,,METAR,161.0
ESSP 021820Z 27011KT CAVOK 02/M11 Q1003 R27/090095,ESSP,2018-04-02T18:20:00Z,58.57,16.25,2.0,-11.0,270,11,,6.21,29.616142,,,,,,,,,,,CAVOK,,,,,,,,VFR,,,,,,,,,,,,METAR,8.0
ESGR 021820Z AUTO VRB02KT 9999 NCD M02/M11 Q1004,ESGR,2018-04-02T18:20:00Z,58.45,13.97,-2.0,-11.0,0,2,,6.21,29.64567,,,TRUE,,,,,,,,CLR,,,,,,,,VFR,,,,,,,,,,,,METAR,105.0
ESSV 021820Z 25007KT CAVOK 02/M04 Q1003,ESSV,2018-04-02T18:20:00Z,57.67,18.35,2.0,-4.0,250,7,,6.21,29.616142,,,,,,,,,,,CAVOK,,,,,,,,VFR,,,,,,,,,,,,METAR,47.0
ESKM 021820Z AUTO 29006KT 9999 NCD M01/M12 Q1002,ESKM,2018-04-02T18:20:00Z,60.97,14.52,-1.0,-12.0,290,6,,6.21,29.586615,,,TRUE,,,,,,,,CLR,,,,,,,,VFR,,,,,,,,,,,,METAR,193.0
ESNV 021820Z VRB01KT 9999 NSC M06/M11 Q1001,ESNV,2018-04-02T18:20:00Z,64.58,16.83,-6.0,-11.0,0,1,,6.21,29.557087,,,,,,,,,,,CLR,,,,,,,,VFR,,,,,,,,,,,,METAR,348.0
ESST 021820Z AUTO 28007KT 9999 NCD M01/M09 Q1003,ESST,2018-04-02T18:20:00Z,60.15,12.98,-1.0,-9.0,280,7,,6.21,29.616142,,,TRUE,,,,,,,,CLR,,,,,,,,VFR,,,,,,,,,,,,METAR,120.0
ESUP 021820Z AUTO 01005KT 9999 NCD M03/M12 Q1003,ESUP,2018-04-02T18:20:00Z,67.25,23.07,-3.0,-12.0,10,5,,6.21,29.616142,,,TRUE,,,,,,,,CLR,,,,,,,,VFR,,,,,,,,,,,,METAR,165.0
ESND 021820Z AUTO 28003KT 9999 NCD M05/M12 Q1001,ESND,2018-04-02T18:20:00Z,62.05,14.42,-5.0,-12.0,280,3,,6.21,29.557087,,,TRUE,,,,,,,,CLR,,,,,,,,VFR,,,,,,,,,,,,METAR,359.0
ESDF 021820Z 26005KT CAVOK 03/M08 Q1005,ESDF,2018-04-02T18:20:00Z,56.27,15.27,3.0,-8.0,260,5,,6.21,29.675198,,,,,,,,,,,CAVOK,,,,,,,,VFR,,,,,,,,,,,,METAR,74.0
ESIB 021820Z AUTO 26008KT 9999 NCD 00/M09 Q1004,ESIB,2018-04-02T18:20:00Z,58.42,12.68,0.0,-9.0,260,8,,6.21,29.64567,,,TRUE,,,,,,,,CLR,,,,,,,,VFR,,,,,,,,,,,,METAR,74.0
ESPA 021820Z 35006KT CAVOK M00/M10 Q1001,ESPA,2018-04-02T18:20:00Z,65.53,22.12,0.0,-10.0,350,6,,6.21,29.557087,,,,,,,,,,,CAVOK,,,,,,,,VFR,,,,,,,,,,,,METAR,34.0
ESPE 021820Z AUTO 36004KT 9999 NCD M02/M11 Q1002,ESPE,2018-04-02T18:20:00Z,65.88,20.15,-2.0,-11.0,360,4,,6.21,29.586615,,,TRUE,,,,,,,,CLR,,,,,,,,VFR,,,,,,,,,,,,METAR,182.0
ESSL 021820Z AUTO 27005KT 9999 NCD 02/M09 Q1003,ESSL,2018-04-02T18:20:00Z,58.38,15.67,2.0,-9.0,270,5,,6.21,29.616142,,,TRUE,,,,,,,,CLR,,,,,,,,VFR,,,,,,,,,,,,METAR,52.0
ESNG 021820Z 35005KT CAVOK M03/M12 Q1002,ESNG,2018-04-02T18:20:00Z,67.13,20.82,-3.0,-12.0,350,5,,6.21,29.586615,,,,,,,,,,,CAVOK,,,,,,,,VFR,,,,,,,,,,,,METAR,310.0
ESNK 021820Z AUTO 34005KT 9999 FEW120/// M00/M14 Q1001,ESNK,2018-04-02T18:20:00Z,63.03,17.77,0.0,-14.0,340,5,,6.21,29.557087,,,TRUE,,,,,,,,FEW,12000,,,,,,,VFR,,,,,,,,,,,,METAR,19.0
ESNN 021820Z VRB01KT CAVOK M04/M09 Q1001 R16/09//69,ESNN,2018-04-02T18:20:00Z,62.52,17.43,-4.0,-9.0,0,1,,6.21,29.557087,,,,,,,,,,,CAVOK,,,,,,,,VFR,,,,,,,,,,,,METAR,10.0
ESNO 021820Z AUTO 34004KT 9999 NCD M03/M12 Q1000,ESNO,2018-04-02T18:20:00Z,63.38,18.97,-3.0,-12.0,340,4,,6.21,29.52756,,,TRUE,,,,,,,,CLR,,,,,,,,VFR,,,,,,,,,,,,METAR,103.0
ESNQ 021820Z 34005KT CAVOK M08/M12 Q1003,ESNQ,2018-04-02T18:20:00Z,67.82,20.32,-8.0,-12.0,340,5,,6.21,29.616142,,,,,,,,,,,CAVOK,,,,,,,,VFR,,,,,,,,,,,,METAR,452.0
ESNS 021820Z 33005KT CAVOK M01/M10 Q1000,ESNS,2018-04-02T18:20:00Z,64.62,21.07,-1.0,-10.0,330,5,,6.21,29.52756,,,,,,,,,,,CAVOK,,,,,,,,VFR,,,,,,,,,,,,METAR,49.0
ESNU 021820Z 33007KT CAVOK M00/M10 Q1000 R14/09//95,ESNU,2018-04-02T18:20:00Z,63.78,20.27,0.0,-10.0,330,7,,6.21,29.52756,,,,,,,,,,,CAVOK,,,,,,,,VFR,,,,,,,,,,,,METAR,14.0
ESNZ 021820Z 31008KT CAVOK M02/M12 Q1001,ESNZ,2018-04-02T18:20:00Z,63.17,14.5,-2.0,-12.0,310,8,,6.21,29.557087,,,,,,,,,,,CAVOK,,,,,,,,VFR,,,,,,,,,,,,METAR,370.0
EGNH 021820Z 09013KT 7000 -RA SCT002 OVC009 06/06 Q0988,EGNH,2018-04-02T18:20:00Z,53.77,-3.02,6.0,6.0,90,13,,4.35,29.17323,,,,,,,,,,-RA,SCT,200,OVC,900,,,,,IFR,,,,,,,,,,,,METAR,10.0
LOWW 021820Z 11005KT CAVOK 09/01 Q1012 NOSIG,LOWW,2018-04-02T18:20:00Z,48.12,16.57,9.0,1.0,110,5,,6.21,29.88189,,,,,,TRUE,,,,,CAVOK,,,,,,,,VFR,,,,,,,,,,,,METAR,190.0
LOWL 021820Z AUTO 09006KT 9999 FEW180 10/01 Q1010 NOSIG,LOWL,2018-04-02T18:20:00Z,48.22,14.18,10.0,1.0,90,6,,6.21,29.822834,,,TRUE,,,TRUE,,,,,FEW,18000,,,,,,,VFR,,,,,,,,,,,,METAR,313.0
LOWS 021820Z 14005KT CAVOK 11/01 Q1008 NOSIG,LOWS,2018-04-02T18:20:00Z,47.78,13.02,11.0,1.0,140,5,,6.21,29.763779,,,,,,TRUE,,,,,CAVOK,,,,,,,,VFR,,,,,,,,,,,,METAR,430.0
LOWI 021820Z 15012G30KT 110V190 9999 FEW120 BKN300 14/M05 Q1009 BECMG FM1900 27007KT,LOWI,2018-04-02T18:20:00Z,47.27,11.33,14.0,-5.0,150,12,30,6.21,29.793306,,,,,,,,,,,FEW,12000,BKN,30000,,,,,VFR,,,,,,,,,,,,METAR,581.0
LOWG 021820Z 18005KT 160V220 CAVOK 12/01 Q1011 NOSIG,LOWG,2018-04-02T18:20:00Z,47.0,15.42,12.0,1.0,180,5,,6.21,29.852362,,,,,,TRUE,,,,,CAVOK,,,,,,,,VFR,,,,,,,,,,,,METAR,347.0
LOWK 021820Z AUTO 25004KT 190V300 9999 FEW140 11/00 Q1013 NOSIG,LOWK,2018-04-02T18:20:00Z,46.65,14.32,11.0,0.0,250,4,,6.21,29.911417,,,TRUE,,,TRUE,,,,,FEW,14000,,,,,,,VFR,,,,,,,,,,,,METAR,441.0
LIBR 021820Z 17005KT CAVOK 14/06 Q1019,LIBR,2018-04-02T18:20:00Z,40.65,17.95,14.0,6.0,170,5,,6.21,30.088583,,,,,,,,,,,CAVOK,,,,,,,,VFR,,,,,,,,,,,,METAR,10.0
LICC 021820Z 11005KT CAVOK 13/09 Q1019,LICC,2018-04-02T18:20:00Z,37.47,15.05,13.0,9.0,110,5,,6.21,30.088583,,,,,,,,,,,CAVOK,,,,,,,,VFR,,,,,,,,,,,,METAR,17.0
LICJ 021820Z 22005KT CAVOK 15/09 Q1018,LICJ,2018-04-02T18:20:00Z,38.17,13.08,15.0,9.0,220,5,,6.21,30.059055,,,,,,,,,,,CAVOK,,,,,,,,VFR,,,,,,,,,,,,METAR,34.0
LIPE 021820Z 01004KT CAVOK 15/06 Q1017,LIPE,2018-04-02T18:20:00Z,44.52,11.3,15.0,6.0,10,4,,6.21,30.029528,,,,,,,,,,,CAVOK,,,,,,,,VFR,,,,,,,,,,,,METAR,42.0
LIPH 021820Z 10003KT CAVOK 12/09 Q1015,LIPH,2018-04-02T18:20:00Z,45.63,12.17,12.0,9.0,100,3,,6.21,29.970472,,,,,,,,,,,CAVOK,,,,,,,,VFR,,,,,,,,,,,,METAR,23.0
LIPQ 021820Z 15005KT CAVOK 12/08 Q1016,LIPQ,2018-04-02T18:20:00Z,45.82,13.47,12.0,8.0,150,5,,6.21,30.0,,,,,,,,,,,CAVOK,,,,,,,,VFR,,,,,,,,,,,,METAR,12.0
LIPX 021820Z 28003KT 9999 SCT080 14/02 Q1015,LIPX,2018-04-02T18:20:00Z,45.38,10.87,14.0,2.0,280,3,,6.21,29.970472,,,,,,,,,,,SCT,8000,,,,,,,VFR,,,,,,,,,,,,METAR,68.0
LIPZ 021820Z 15009KT CAVOK 12/10 Q1016 NOSIG,LIPZ,2018-04-02T18:20:00Z,45.5,12.35,12.0,10.0,150,9,,6.21,30.0,,,,,,TRUE,,,,,CAVOK,,,,,,,,VFR,,,,,,,,,,,,METAR,6.0
LIEA 021820Z 36003KT 320V020 CAVOK 15/10 Q1013,LIEA,2018-04-02T18:20:00Z,40.62,8.27,15.0,10.0,360,3,,6.21,29.911417,,,,,,,,,,,CAVOK,,,,,,,,VFR,,,,,,,,,,,,METAR,23.0
LIEE 021820Z 13013KT CAVOK 14/10 Q1014,LIEE,2018-04-02T18:20:00Z,39.25,9.07,14.0,10.0,130,13,,6.21,29.940945,,,,,,,,,,,CAVOK,,,,,,,,VFR,,,,,,,,,,,,METAR,4.0
LIEO 021820Z 11005KT CAVOK 13/07 Q1015,LIEO,2018-04-02T18:20:00Z,40.88,9.52,13.0,7.0,110,5,,6.21,29.970472,,,,,,,,,,,CAVOK,,,,,,,,VFR,,,,,,,,,,,,METAR,13.0
LIMC 021820Z 20007KT CAVOK 12/06 Q1015 NOSIG,LIMC,2018-04-02T18:20:00Z,45.62,8.72,12.0,6.0,200,7,,6.21,29.970472,,,,,,TRUE,,,,,CAVOK,,,,,,,,VFR,,,,,,,,,,,,METAR,211.0
LIME 021820Z 29008KT 9999 FEW050 SCT110 13/06 Q1015 NOSIG,LIME,2018-04-02T18:20:00Z,45.67,9.68,13.0,6.0,290,8,,6.21,29.970472,,,,,,TRUE,,,,,FEW,5000,SCT,11000,,,,,VFR,,,,,,,,,,,,METAR,237.0
LIMF 021820Z VRB01KT CAVOK 12/07 Q1015,LIMF,2018-04-02T18:20:00Z,45.22,7.65,12.0,7.0,0,1,,6.21,29.970472,,,,,,,,,,,CAVOK,,,,,,,,VFR,,,,,,,,,,,,METAR,287.0
LIML 021820Z 28003KT 240V330 9999 FEW030 SCT070 13/06 Q1015 NOSIG,LIML,2018-04-02T18:20:00Z,45.47,9.27,13.0,6.0,280,3,,6.21,29.970472,,,,,,TRUE,,,,,FEW,3000,SCT,7000,,,,,VFR,,,,,,,,,,,,METAR,103.0
LIMJ 021820Z 26003KT 9999 BKN040 13/08 Q1017,LIMJ,2018-04-02T18:20:00Z,44.42,8.83,13.0,8.0,260,3,,6.21,30.029528,,,,,,,,,,,BKN,4000,,,,,,,VFR,,,,,,,,,,,,METAR,3.0
LIRF 021820Z 15005KT 130V190 CAVOK 13/09 Q1019 NOSIG,LIRF,2018-04-02T18:20:00Z,41.78,12.22,13.0,9.0,150,5,,6.21,30.088583,,,,,,TRUE,,,,,CAVOK,,,,,,,,VFR,,,,,,,,,,,,METAR,3.0
LIRA 021820Z 17005KT CAVOK 12/07 Q1018,LIRA,2018-04-02T18:20:00Z,41.8,12.58,12.0,7.0,170,5,,6.21,30.059055,,,,,,,,,,,CAVOK,,,,,,,,VFR,,,,,,,,,,,,METAR,101.0
LIRN 021820Z VRB02KT CAVOK 13/08 Q1019 NOSIG,LIRN,2018-04-02T18:20:00Z,40.88,14.3,13.0,8.0,0,2,,6.21,30.088583,,,,,,TRUE,,,,,CAVOK,,,,,,,,VFR,,,,,,,,,,,,METAR,72.0
LIMW 021820Z AUTO 11014KT 9999 NCD 12/M00 Q1013,LIMW,2018-04-02T18:20:00Z,45.73,7.37,12.0,0.0,110,14,,6.21,29.911417,,,TRUE,,,,,,,,CLR,,,,,,,,VFR,,,,,,,,,,,,METAR,546.0
LGKP 021820Z AUTO 31021KT //// // ////// 16/06 Q1016 RE//,LGKP,2018-04-02T18:20:00Z,35.42,27.15,16.0,6.0,310,21,,,30.0,,,TRUE,,,,,,,,,,,,,,,,,,,,,,,,,,,,METAR,20.0
LGPA 021820Z AUTO VRB02KT //// // ////// 12/04 Q1018 RE//,LGPA,2018-04-02T18:20:00Z,37.0,25.13,12.0,4.0,0,2,,,30.059055,,,TRUE,,,,,,,,,,,,,,,,,,,,,,,,,,,,METAR,36.0
LGMK 021820Z 36005KT CAVOK 14/05 Q1017,LGMK,2018-04-02T18:20:00Z,37.43,25.35,14.0,5.0,360,5,,6.21,30.029528,,,,,,,,,,,CAVOK,,,,,,,,VFR,,,,,,,,,,,,METAR,123.0
EBAW 021820Z 16009KT 9999 -RA NSC 12/06 Q0999 NOSIG,EBAW,2018-04-02T18:20:00Z,51.2,4.47,12.0,6.0,160,9,,6.21,29.498032,,,,,,TRUE,,,,-RA,CLR,,,,,,,,VFR,,,,,,,,,,,,METAR,14.0
LGSO 021820Z AUTO VRB03KT //// // ////// 15/03 Q1018 RE//,LGSO,2018-04-02T18:20:00Z,37.42,24.95,15.0,3.0,0,3,,,30.059055,,,TRUE,,,,,,,,,,,,,,,,,,,,,,,,,,,,METAR,72.0
EBBR 021820Z 17010KT 9999 -RA NSC 11/05 Q0999 NOSIG,EBBR,2018-04-02T18:20:00Z,50.9,4.5,11.0,5.0,170,10,,6.21,29.498032,,,,,,TRUE,,,,-RA,CLR,,,,,,,,VFR,,,,,,,,,,,,METAR,58.0
EBCI 021820Z 17012KT 150V210 9999 -RA NSC 11/04 Q1000 TEMPO 6000 RADZ,EBCI,2018-04-02T18:20:00Z,50.47,4.45,11.0,4.0,170,12,,6.21,29.52756,,,,,,,,,,-RA,CLR,,,,,,,,VFR,,,,,,,,,,,,METAR,192.0
EBLG 021820Z 17009KT 140V200 9999 -RA FEW027 BKN048 12/04 Q1000 NOSIG,EBLG,2018-04-02T18:20:00Z,50.63,5.45,12.0,4.0,170,9,,6.21,29.52756,,,,,,TRUE,,,,-RA,FEW,2700,BKN,4800,,,,,VFR,,,,,,,,,,,,METAR,178.0
EBOS 021820Z 18012KT 9000 -RA BKN035 10/07 Q0998 TEMPO 4500 RA BKN014,EBOS,2018-04-02T18:20:00Z,51.2,2.87,10.0,7.0,180,12,,5.59,29.468504,,,,,,,,,,-RA,BKN,3500,,,,,,,VFR,,,,,,,,,,,,METAR,5.0
ELLX 021820Z 17007KT 9999 FEW035 OVC055 11/03 Q1003 NOSIG,ELLX,2018-04-02T18:20:00Z,49.63,6.2,11.0,3.0,170,7,,6.21,29.616142,,,,,,TRUE,,,,,FEW,3500,OVC,5500,,,,,VFR,,,,,,,,,,,,METAR,379.0
LGKO 021820Z 32008KT 9999 FEW016 15/06 Q1016,LGKO,2018-04-02T18:20:00Z,36.8,27.08,15.0,6.0,320,8,,6.21,30.0,,,,,,,,,,,FEW,1600,,,,,,,VFR,,,,,,,,,,,,METAR,125.0
LGAD 021820Z VRB03KT 9999 FEW030 13/08 Q1019,LGAD,2018-04-02T18:20:00Z,37.92,21.27,13.0,8.0,0,3,,6.21,30.088583,,,,,,,,,,,FEW,3000,,,,,,,VFR,,,,,,,,,,,,METAR,12.0
LGLM 021820Z 00000KT CAVOK 11/08 Q1017,LGLM,2018-04-02T18:20:00Z,39.92,25.23,11.0,8.0,0,0,,6.21,30.029528,,,,,,,,,,,CAVOK,,,,,,,,VFR,,,,,,,,,,,,METAR,5.0
LGSA 021820Z 17005KT 9999 FEW020 13/10 Q1018,LGSA,2018-04-02T18:20:00Z,35.53,24.13,13.0,10.0,170,5,,6.21,30.059055,,,,,,,,,,,FEW,2000,,,,,,,VFR,,,,,,,,,,,,METAR,135.0
LGTS 021820Z VRB03KT 9999 FEW025 13/05 Q1017 NOSIG,LGTS,2018-04-02T18:20:00Z,40.52,22.97,13.0,5.0,0,3,,6.21,30.029528,,,,,,TRUE,,,,,FEW,2500,,,,,,,VFR,,,,,,,,,,,,METAR,7.0
LGAL 021820Z 32004KT 9999 FEW030 10/06 Q1017,LGAL,2018-04-02T18:20:00Z,40.85,25.95,10.0,6.0,320,4,,6.21,30.029528,,,,,,,,,,,FEW,3000,,,,,,,VFR,,,,,,,,,,,,METAR,3.0
LGEL 021820Z VRB03KT 9999 FEW025 14/07 Q1018,LGEL,2018-04-02T18:20:00Z,38.07,23.55,14.0,7.0,0,3,,6.21,30.059055,,,,,,,,,,,FEW,2500,,,,,,,VFR,,,,,,,,,,,,METAR,31.0
LGIO 021820Z /////KT 9999 FEW030 09/06 Q1019,LGIO,2018-04-02T18:20:00Z,39.7,20.82,9.0,6.0,,,,6.21,30.088583,,,,,,,,,,,FEW,3000,,,,,,,VFR,,,,,,,,,,,,METAR,476.0
LGKV 021820Z 36007KT 9999 FEW035 12/08 Q1016,LGKV,2018-04-02T18:20:00Z,40.92,24.62,12.0,8.0,360,7,,6.21,30.0,,,,,,,,,,,FEW,3500,,,,,,,VFR,,,,,,,,,,,,METAR,5.0
LGSR 021820Z 28005KT 9999 FEW025 12/04 Q1018,LGSR,2018-04-02T18:20:00Z,36.4,25.48,12.0,4.0,280,5,,6.21,30.059055,,,,,,,,,,,FEW,2500,,,,,,,VFR,,,,,,,,,,,,METAR,40.0
LGZA 021820Z 35004KT 9999 FEW025 13/07 Q1019,LGZA,2018-04-02T18:20:00Z,37.75,20.87,13.0,7.0,350,4,,6.21,30.088583,,,,,,,,,,,FEW,2500,,,,,,,VFR,,,,,,,,,,,,METAR,3.0
EGNS 021820Z 07018KT 3000 RADZ BKN004 BKN006 OVC010 05/05 Q0988 TEMPO 6000 -RADZ SCT004 BKN006,EGNS,2018-04-02T18:20:00Z,54.08,-4.63,5.0,5.0,70,18,,1.86,29.17323,,,,,,,,,,RA DZ,BKN,400,BKN,600,OVC,1000,,,LIFR,,,,,,,,,,,,METAR,17.0
EDGS 021820Z 16013KT 9999 FEW048 BKN086 08/02 Q1003 RERA,EDGS,2018-04-02T18:20:00Z,50.7,8.08,8.0,2.0,160,13,,6.21,29.616142,,,,,,,,,,,FEW,4800,BKN,8600,,,,,VFR,,,,,,,,,,,,METAR,602.0
EDHL 021820Z 10005KT 9999 SCT033 BKN073 06/M00 Q1006,EDHL,2018-04-02T18:20:00Z,53.8,10.72,6.0,0.0,100,5,,6.21,29.704725,,,,,,,,,,,SCT,3300,BKN,7300,,,,,VFR,,,,,,,,,,,,METAR,16.0
EDLN 021820Z /////KT CAVOK ///// Q1001,EDLN,2018-04-02T18:20:00Z,51.23,6.5,,,,,,6.21,29.557087,,,,,,,,,,,CAVOK,,,,,,,,VFR,,,,,,,,,,,,METAR,38.0
EDLP 021820Z 15012KT CAVOK 11/02 Q1002,EDLP,2018-04-02T18:20:00Z,51.62,8.62,11.0,2.0,150,12,,6.21,29.586615,,,,,,,,,,,CAVOK,,,,,,,,VFR,,,,,,,,,,,,METAR,213.0
EDLW 021820Z 17012KT 140V200 9999 FEW043 OVC066 12/01 Q1001,EDLW,2018-04-02T18:20:00Z,51.52,7.62,12.0,1.0,170,12,,6.21,29.557087,,,,,,,,,,,FEW,4300,OVC,6600,,,,,VFR,,,,,,,,,,,,METAR,127.0
EDMA 021820Z 16003KT CAVOK 12/M01 Q1007,EDMA,2018-04-02T18:20:00Z,48.42,10.92,12.0,-1.0,160,3,,6.21,29.734253,,,,,,,,,,,CAVOK,,,,,,,,VFR,,,,,,,,,,,,METAR,463.0
EDNY 021820Z AUTO 00000KT 9999 // BKN110/// OVC150/// 09/00 Q1006,EDNY,2018-04-02T18:20:00Z,47.67,9.52,9.0,0.0,0,0,,6.21,29.704725,,,TRUE,,,,,,,,BKN,11000,OVC,15000,,,,,VFR,,,,,,,,,,,,METAR,424.0
EDSB 021820Z 32002KT CAVOK 12/05 Q1004,EDSB,2018-04-02T18:20:00Z,48.78,8.08,12.0,5.0,320,2,,6.21,29.64567,,,,,,,,,,,CAVOK,,,,,,,,VFR,,,,,,,,,,,,METAR,124.0
EDFH 021820Z 15013KT CAVOK 10/M01 Q1003,EDFH,2018-04-02T18:20:00Z,49.95,7.27,10.0,-1.0,150,13,,6.21,29.616142,,,,,,,,,,,CAVOK,,,,,,,,VFR,,,,,,,,,,,,METAR,498.0
EDHI 021820Z AUTO 13004KT 080V180 9999 // FEW037/// OVC044/// 07/02 Q1005,EDHI,2018-04-02T18:20:00Z,53.53,9.83,7.0,2.0,130,4,,6.21,29.675198,,,TRUE,,,,,,,,FEW,3700,OVC,4400,,,,,VFR,,,,,,,,,,,,METAR,13.0
EDLV 021820Z 15008KT 9000 -RA NSC 11/06 Q1000,EDLV,2018-04-02T18:20:00Z,51.6,6.15,11.0,6.0,150,8,,5.59,29.52756,,,,,,,,,,-RA,CLR,,,,,,,,VFR,,,,,,,,,,,,METAR,32.0
EDJA 021820Z 14004KT CAVOK 10/06 Q1007,EDJA,2018-04-02T18:20:00Z,47.98,10.23,10.0,6.0,140,4,,6.21,29.734253,,,,,,,,,,,CAVOK,,,,,,,,VFR,,,,,,,,,,,,METAR,633.0
EDVE 021820Z 11008KT CAVOK 08/02 Q1005,EDVE,2018-04-02T18:20:00Z,52.32,10.55,8.0,2.0,110,8,,6.21,29.675198,,,,,,,,,,,CAVOK,,,,,,,,VFR,,,,,,,,,,,,METAR,88.0
EDTY 021820Z 13004KT 100V160 CAVOK 13/M01 Q1006,EDTY,2018-04-02T18:20:00Z,49.12,9.78,13.0,-1.0,130,4,,6.21,29.704725,,,,,,,,,,,CAVOK,,,,,,,,VFR,,,,,,,,,,,,METAR,400.0
EDXW 021820Z 13013KT 8000 -RADZ FEW005 BKN011 03/01 Q1004,EDXW,2018-04-02T18:20:00Z,54.92,8.33,3.0,1.0,130,13,,4.97,29.64567,,,,,,,,,,-RA -DZ,FEW,500,BKN,1100,,,,,MVFR,,,,,,,,,,,,METAR,20.0
EDVK 021820Z 14007KT 9999 -DZ SCT040 BKN070 10/03 Q1004,EDVK,2018-04-02T18:20:00Z,51.38,9.37,10.0,3.0,140,7,,6.21,29.64567,,,,,,,,,,-DZ,SCT,4000,BKN,7000,,,,,VFR,,,,,,,,,,,,METAR,285.0
ENNE 021820Z AUTO 01013KT 9999NDV NCD 01/M09 Q1005 W///S5,ENNE,2018-04-02T18:20:00Z,66.03,8.08,1.0,-9.0,10,13,,,29.675198,,,TRUE,,,,,,,,CLR,,,,,,,,,,,,,,,,,,,,METAR,10.0
ENQR 021820Z AUTO 05011KT 9999NDV BKN027/// 03/M03 Q1006 W///S4,ENQR,2018-04-02T18:20:00Z,61.35,2.22,3.0,-3.0,50,11,,,29.704725,,,TRUE,,,,,,,,BKN,2700,,,,,,,,,,,,,,,,,,,METAR,10.0
ENSE 021820Z AUTO 05013KT 9999NDV FEW023/// BKN047/// 02/M02 Q1006 W///S4,ENSE,2018-04-02T18:20:00Z,61.45,2.15,2.0,-2.0,50,13,,,29.704725,,,TRUE,,,,,,,,FEW,2300,BKN,4700,,,,,,,,,,,,,,,,,METAR,10.0
ENQC 021820Z AUTO 04009KT 9999NDV NCD 02/M03 Q1005 W///S4,ENQC,2018-04-02T18:20:00Z,60.88,3.62,2.0,-3.0,40,9,,,29.675198,,,TRUE,,,,,,,,CLR,,,,,,,,,,,,,,,,,,,,METAR,20.0
ENQA 021820Z AUTO 04011KT 9999NDV NCD 01/M03 Q1005 W03/S4,ENQA,2018-04-02T18:20:00Z,60.65,3.72,1.0,-3.0,40,11,,,29.675198,,,TRUE,,,,,,,,CLR,,,,,,,,,,,,,,,,,,,,METAR,20.0
ENHM 021820Z AUTO 09011KT 9999NDV FEW036/// 03/M05 Q1004 W06/S4,ENHM,2018-04-02T18:20:00Z,59.57,2.23,3.0,-5.0,90,11,,,29.64567,,,TRUE,,,,,,,,FEW,3600,,,,,,,,,,,,,,,,,,,METAR,10.0
ENLA 021820Z AUTO 11020KT 9999NDV SCT021/// BKN100/// 03/M01 Q1001 W///S3,ENLA,2018-04-02T18:20:00Z,57.1,2.83,3.0,-1.0,110,20,,,29.557087,,,TRUE,,,,,,,,SCT,2100,BKN,10000,,,,,,,,,,,,,,,,,METAR,4.0
ENUG 021820Z AUTO VRB12G27KT 9999NDV FEW023/// SCT100/// BKN140/// 00/M06 Q1009 W///S4,ENUG,2018-04-02T18:20:00Z,,,0.0,-6.0,0,12,27,,29.793306,,,TRUE,,,,,,,,FEW,2300,SCT,10000,BKN,14000,,,,,,,,,,,,,,,METAR,
ENWV 021820Z AUTO 10026KT 9999NDV -RASN OVC005/// 01/00 Q1001 W///S4,ENWV,2018-04-02T18:20:00Z,,,1.0,0.0,100,26,,,29.557087,,,TRUE,,,,,,,SN -RA,OVC,500,,,,,,,,,,,,,,,,,,,METAR,
ENBN 021820Z 18007KT 9999 FEW014 SCT025 BKN045 00/00 Q1004,ENBN,2018-04-02T18:20:00Z,65.47,12.22,0.0,0.0,180,7,,6.21,29.64567,,,,,,,,,,,FEW,1400,SCT,2500,BKN,4500,,,VFR,,,,,,,,,,,,METAR,9.0
ENHF 021820Z 04010KT CAVOK M04/M08 Q1009 RMK WIND 1254FT 11017KT,ENHF,2018-04-02T18:20:00Z,70.67,23.67,-4.0,-8.0,40,10,,6.21,29.793306,,,,,,,,,,,CAVOK,,,,,,,,VFR,,-1.7,,,,,,,,,,METAR,81.0
ENRA 021820Z 11003KT 9999 FEW050 SCT080 M02/M09 Q1004,ENRA,2018-04-02T18:20:00Z,66.37,14.3,-2.0,-9.0,110,3,,6.21,29.64567,,,,,,,,,,,FEW,5000,SCT,8000,,,,,VFR,,,,,,,,,,,,METAR,70.0
EETN 021820Z 29013KT 2500 SN BKN006 OVC013 M00/M01 Q0992 R08/590393 NOSIG,EETN,2018-04-02T18:20:00Z,59.4,24.82,0.0,-1.0,290,13,,1.55,29.291338,,,,,,TRUE,,,,SN,BKN,600,OVC,1300,,,,,IFR,,,,,,,,,,,,METAR,40.0
EYKA 021820Z 27012KT 9999 OVC021 01/M02 Q1004,EYKA,2018-04-02T18:20:00Z,54.97,24.08,1.0,-2.0,270,12,,6.21,29.64567,,,,,,,,,,,OVC,2100,,,,,,,MVFR,,,,,,,,,,,,METAR,77.0
EKVG 021820Z AUTO 35016KT 9999NDV -FZDZ FEW027/// BKN058/// M01/M04 Q1009 RMK BKN017/// WIND 850FT 36021G33KT,EKVG,2018-04-02T18:20:00Z,62.07,-7.3,-1.0,-4.0,350,16,,,29.793306,,,TRUE,,,,,,,-FZDZ,FEW,2700,BKN,5800,,,,,,,,,,,,,,,,,METAR,85.0
EVRA 021820Z 29008KT 230V350 9999 BKN015 OVC022 01/M00 Q0999 NOSIG,EVRA,2018-04-02T18:20:00Z,56.92,23.97,1.0,0.0,290,8,,6.21,29.498032,,,,,,TRUE,,,,,BKN,1500,OVC,2200,,,,,MVFR,,,,,,,,,,,,METAR,10.0
KGOO 021820Z AUTO 27007KT 10SM CLR 16/04 A2992 RMK AO1,KGOO,2018-04-02T18:20:00Z,39.22,-121.0,16.0,4.0,270,7,,10.0,29.920275,,,TRUE,TRUE,,,,,,,CLR,,,,,,,,VFR,,,,,,,,,,,,METAR,962.0
KGWW 021820Z AUTO 00000KT 10SM CLR 27/09 A2995 RMK AO2 T02730086,KGWW,2018-04-02T18:20:00Z,35.47,-77.97,27.3,8.6,0,0,,10.0,29.949802,,,TRUE,TRUE,,,,,,,CLR,,,,,,,,VFR,,,,,,,,,,,,METAR,41.0
LSZC 021820Z AUTO 28005KT 240V310 9999 BKN140 10/04 Q1006,LSZC,2018-04-02T18:20:00Z,46.97,8.38,10.0,4.0,280,5,,6.21,29.704725,,,TRUE,,,,,,,,BKN,14000,,,,,,,VFR,,,,,,,,,,,,METAR,450.0
LSZS 021820Z AUTO 23010KT 9999 NCD 02/M04 Q1013,LSZS,2018-04-02T18:20:00Z,46.53,9.88,2.0,-4.0,230,10,,6.21,29.911417,,,TRUE,,,,,,,,CLR,,,,,,,,VFR,,,,,,,,,,,,METAR,1706.0
LSZR 021820Z 11007KT 9999 SCT080 OVC110 09/00 Q1007 NOSIG RMK O,LSZR,2018-04-02T18:20:00Z,47.48,9.57,9.0,0.0,110,7,,6.21,29.734253,,,,,,TRUE,,,,,SCT,8000,OVC,11000,,,,,VFR,,,,,,,,,,,,METAR,398.0
LSZG 021820Z AUTO 27002KT 9999 NSC 09/04 Q1007,LSZG,2018-04-02T18:20:00Z,47.17,7.42,9.0,4.0,270,2,,6.21,29.734253,,,TRUE,,,,,,,,CLR,,,,,,,,VFR,,,,,,,,,,,,METAR,430.0
LSGS 021820Z AUTO 10007KT 060V180 9999 FEW120 14/M04 Q1009,LSGS,2018-04-02T18:20:00Z,46.22,7.32,14.0,-4.0,100,7,,6.21,29.793306,,,TRUE,,,,,,,,FEW,12000,,,,,,,VFR,,,,,,,,,,,,METAR,481.0
LSGC 021820Z AUTO 00000KT CAVOK 08/00 Q1006,LSGC,2018-04-02T18:20:00Z,47.08,6.8,8.0,0.0,0,0,,6.21,29.704725,,,TRUE,,,,,,,,CAVOK,,,,,,,,VFR,,,,,,,,,,,,METAR,1027.0
ESUT 021820Z AUTO 30003KT 9999 NCD M07/M12 Q1002,ESUT,2018-04-02T18:20:00Z,65.8,15.08,-7.0,-12.0,300,3,,6.21,29.586615,,,TRUE,,,,,,,,CLR,,,,,,,,VFR,,,,,,,,,,,,METAR,463.0
LLBG 021820Z VRB03KT CAVOK 19/14 Q1013 NOSIG,LLBG,2018-04-02T18:20:00Z,32.0,34.88,19.0,14.0,0,3,,6.21,29.911417,,,,,,TRUE,,,,,CAVOK,,,,,,,,VFR,,,,,,,,,,,,METAR,49.0
SBPA 021820Z 22007KT 9999 FEW010 BKN015 BKN100 23/20 Q1009,SBPA,2018-04-02T18:20:00Z,-30.0,-51.17,23.0,20.0,220,7,,6.21,29.793306,,,,,,,,,,,FEW,1000,BKN,1500,BKN,10000,,,MVFR,,,,,,,,,,,,SPECI,3.0
PALP 021820Z 00000KT 2SM BR SCT007 M22/M25 A3079,PALP,2018-04-02T18:20:00Z,70.33,-150.93,-22.0,-25.0,0,0,,2.0,30.791338,,,,,,,,,,BR,SCT,700,,,,,,,IFR,,,,,,,,,,,,SPECI,5.0
EYSA 021820Z 27015KT 9999 FEW025 01/M02 Q1002 BLU NOSIG,EYSA,2018-04-02T18:20:00Z,55.9,23.4,1.0,-2.0,270,15,,6.21,29.586615,,,,,,TRUE,,,,,FEW,2500,,,,,,,VFR,,,,,,,,,,,,METAR,135.0
EFIV 021820Z AUTO 03005KT CAVOK M03/M09 Q1006,EFIV,2018-04-02T18:20:00Z,68.62,27.42,-3.0,-9.0,30,5,,6.21,29.704725,,,TRUE,,,,,,,,CAVOK,,,,,,,,VFR,,,,,,,,,,,,METAR,148.0
EFMA 021820Z AUTO 31012KT CAVOK M00/M05 Q0999,EFMA,2018-04-02T18:20:00Z,60.12,19.88,0.0,-5.0,310,12,,6.21,29.498032,,,TRUE,,,,,,,,CAVOK,,,,,,,,VFR,,,,,,,,,,,,METAR,6.0
EFRO 021820Z AUTO 04012KT CAVOK M01/M09 Q1000,EFRO,2018-04-02T18:20:00Z,66.57,25.82,-1.0,-9.0,40,12,,6.21,29.52756,,,TRUE,,,,,,,,CAVOK,,,,,,,,VFR,,,,,,,,,,,,METAR,201.0
EFOU 021820Z AUTO 07010KT 040V100 9000 -SN SCT025/// OVC033/// M00/M03 Q0997,EFOU,2018-04-02T18:20:00Z,64.92,25.37,0.0,-3.0,70,10,,5.59,29.438976,,,TRUE,,,,,,,-SN,SCT,2500,OVC,3300,,,,,VFR,,,,,,,,,,,,METAR,15.0
EFVA 021820Z AUTO 01014KT 9999 BKN100/// M03/M07 Q0997,EFVA,2018-04-02T18:20:00Z,63.03,21.77,-3.0,-7.0,10,14,,6.21,29.438976,,,TRUE,,,,,,,,BKN,10000,,,,,,,VFR,,,,,,,,,,,,METAR,4.0
EFTU 021820Z AUTO 32006KT 9999 -RASN SCT034/// BKN041/// OVC049/// M01/M02 Q0995,EFTU,2018-04-02T18:20:00Z,60.52,22.27,-1.0,-2.0,320,6,,6.21,29.379921,,,TRUE,,,,,,,-RA -SN,SCT,3400,BKN,4100,OVC,4900,,,VFR,,,,,,,,,,,,METAR,59.0
EFTP 021820Z AUTO 32008KT 270V350 5000 -SN FEW006 BKN011 BKN016 M01/M02 Q0993,EFTP,2018-04-02T18:20:00Z,61.42,23.62,-1.0,-2.0,320,8,,3.11,29.320866,,,TRUE,,,,,,,-SN,FEW,600,BKN,1100,BKN,1600,,,MVFR,,,,,,,,,,,,METAR,112.0
EFHK 021820Z 29011KT 6000 -SN FEW007 BKN011 BKN045 M01/M02 Q0991 TEMPO 3000,EFHK,2018-04-02T18:20:00Z,60.32,24.97,-1.0,-2.0,290,11,,3.73,29.26181,,,,,,,,,,-SN,FEW,700,BKN,1100,BKN,4500,,,MVFR,,,,,,,,,,,,METAR,56.0
VNKT 021820Z 20003KT 7000 FEW015 SCT030 BKN100 15/13 Q1020 NOSIG,VNKT,2018-04-02T18:20:00Z,27.68,85.37,15.0,13.0,200,3,,4.35,30.11811,,,,,,TRUE,,,,,FEW,1500,SCT,3000,BKN,10000,,,MVFR,,,,,,,,,,,,METAR,1337.0
KHSD 021820Z AUTO 18009KT 10SM OVC016 07/01 A2981 RMK A01,KHSD,2018-04-02T18:20:00Z,35.6,-97.72,7.0,1.0,180,9,,10.0,29.811024,,,TRUE,TRUE,,,,,,,OVC,1600,,,,,,,MVFR,,,,,,,,,,,,METAR,364.0
KIXA 021820Z AUTO 03006G14KT 10SM CLR 21/11 A2998 RMK AO2,KIXA,2018-04-02T18:20:00Z,36.33,-77.63,21.0,11.0,30,6,14,10.0,29.97933,,,TRUE,TRUE,,,,,,,CLR,,,,,,,,VFR,,,,,,,,,,,,METAR,44.0
KONX 021820Z AUTO 36015G19KT 10SM CLR 15/08 A3003 RMK AO2 T01470079,KONX,2018-04-02T18:20:00Z,36.4,-76.02,14.7,7.9,360,15,19,10.0,30.029528,,,TRUE,TRUE,,,,,,,CLR,,,,,,,,VFR,,,,,,,,,,,,METAR,5.0
KOWI 021820Z AUTO 14010KT 5SM BR OVC005 00/00 A2985 RMK AO2,KOWI,2018-04-02T18:20:00Z,38.53,-95.25,0.0,0.0,140,10,,5.0,29.84941,,,TRUE,TRUE,,,,,,BR,OVC,500,,,,,,,IFR,,,,,,,,,,,,METAR,292.0
KPGV 021820Z AUTO 30006KT 10SM CLR 27/09 A2997 RMK AO2,KPGV,2018-04-02T18:20:00Z,35.62,-77.4,27.0,9.0,300,6,,10.0,29.970472,,,TRUE,TRUE,,,,,,,CLR,,,,,,,,VFR,,,,,,,,,,,,METAR,8.0
LATI 021820Z 04002KT CAVOK 12/08 Q1020 NOSIG,LATI,2018-04-02T18:20:00Z,41.42,19.72,12.0,8.0,40,2,,6.21,30.11811,,,,,,TRUE,,,,,CAVOK,,,,,,,,VFR,,,,,,,,,,,,METAR,90.0
ESNX 021820Z 36004KT CAVOK M03/M11 Q1001,ESNX,2018-04-02T18:20:00Z,65.58,19.28,-3.0,-11.0,360,4,,6.21,29.557087,,,,,,,,,,,CAVOK,,,,,,,,VFR,,,,,,,,,,,,METAR,379.0
ENBO 021820Z 07007KT 9999 FEW030 SCT100 M02/M08 Q1005 NOSIG,ENBO,2018-04-02T18:20:00Z,67.27,14.37,-2.0,-8.0,70,7,,6.21,29.675198,,,,,,TRUE,,,,,FEW,3000,SCT,10000,,,,,VFR,,,,,,,,,,,,METAR,13.0
ENBR 021820Z 34005KT 9999 VCSH FEW025CB SCT045 02/M03 Q1005 NOSIG RMK WIND 1200FT 01004KT,ENBR,2018-04-02T18:20:00Z,60.28,5.22,2.0,-3.0,340,5,,6.21,29.675198,,,,,,TRUE,,,,VCSH,FEW,2500,SCT,4500,,,,,VFR,,,,,,,,,,,,METAR,50.0
ENAN 021820Z 20003KT CAVOK M03/M09 Q1006,ENAN,2018-04-02T18:20:00Z,69.28,16.13,-3.0,-9.0,200,3,,6.21,29.704725,,,,,,,,,,,CAVOK,,,,,,,,VFR,,,,,,,,,,,,METAR,14.0
KDSF 021820Z AUTO 11007KT 7SM SCT015 BKN020 SCT029 23/22 A3003 RMK A01,KDSF,2018-04-02T18:20:00Z,,,23.0,22.0,110,7,,7.0,30.029528,,,TRUE,TRUE,,,,,,,SCT,1500,BKN,2000,SCT,2900,,,MVFR,,,,,,,,,,,,METAR,
LIRQ 021820Z 24006KT 9999 SCT050 15/09 Q1016,LIRQ,2018-04-02T18:20:00Z,43.78,11.18,15.0,9.0,240,6,,6.21,30.0,,,,,,,,,,,SCT,5000,,,,,,,VFR,,,,,,,,,,,,METAR,38.0
ESCF 021820Z AUTO 27004KT 9999 NCD 01/M08 Q1004,ESCF,2018-04-02T18:20:00Z,58.38,15.52,1.0,-8.0,270,4,,6.21,29.64567,,,TRUE,,,,,,,,CLR,,,,,,,,VFR,,,,,,,,,,,,METAR,117.0
KBZN 021819Z 35020KT 4SM -SN BKN030 OVC037 M03/M07 A2964 RMK AO2 PK WND 36027/1800 P0000 T10331067,KBZN,2018-04-02T18:19:00Z,45.78,-111.17,-3.3,-6.7,350,20,,4.0,29.639763,,,,TRUE,,,,,,-SN,BKN,3000,OVC,3700,,,,,MVFR,,,,,,0.005,,,,,,SPECI,1361.0
PHBK 021819Z AUTO 18005KT 5SM RA FEW006 BKN027 OVC045 21/ A2987 RMK AO2 T0206 PNO $,PHBK,2018-04-02T18:19:00Z,22.03,-159.78,20.6,,180,5,,5.0,29.870079,,,TRUE,TRUE,TRUE,,,,,RA,FEW,600,BKN,2700,OVC,4500,,,MVFR,,,,,,,,,,,,SPECI,8.0
KTTF 021819Z AUTO 15007G15KT 10SM CLR 03/M09 A3012 RMK AO2 T00291086,KTTF,2018-04-02T18:19:00Z,41.93,-83.42,2.9,-8.6,150,7,15,10.0,30.121063,,,TRUE,TRUE,,,,,,,CLR,,,,,,,,VFR,,,,,,,,,,,,SPECI,188.0
KCGS 021818Z AUTO 05005KT 10SM OVC018 07/02 A3012 RMK AO1 T00700024,KCGS,2018-04-02T18:18:00Z,38.98,-76.92,7.0,2.4,50,5,,10.0,30.121063,,,TRUE,TRUE,,,,,,,OVC,1800,,,,,,,MVFR,,,,,,,,,,,,SPECI,15.0
KFFX 021818Z AUTO 23010KT 10SM CLR 05/M16 A3005 RMK AO2 T00531156,KFFX,2018-04-02T18:18:00Z,43.43,-86.0,5.3,-15.6,230,10,,10.0,30.050198,,,TRUE,TRUE,,,,,,,CLR,,,,,,,,VFR,,,,,,,,,,,,SPECI,236.0
KATW 021818Z 17010KT 10SM SCT070 BKN120 02/M11 A3000,KATW,2018-04-02T18:18:00Z,44.27,-88.52,2.0,-11.0,170,10,,10.0,30.0,,,,,,,,,,,SCT,7000,BKN,12000,,,,,VFR,,,,,,,,,,,,SPECI,280.0
KRIV 021818Z 00000KT 10SM OVC015 12/10 A2989 RMK AO2A SLP120,KRIV,2018-04-02T18:18:00Z,33.87,-117.27,12.0,10.0,0,0,,10.0,29.890747,1012.0,,,TRUE,,,,,,,OVC,1500,,,,,,,MVFR,,,,,,,,,,,,SPECI,469.0
KLAW 021818Z 19009KT 10SM FEW012 OVC023 06/02 A2985 RMK AO2 T00560022,KLAW,2018-04-02T18:18:00Z,34.55,-98.42,5.6,2.2,190,9,,10.0,29.84941,,,,TRUE,,,,,,,FEW,1200,OVC,2300,,,,,MVFR,,,,,,,,,,,,SPECI,337.0
KFSD 021818Z 16015G30KT 10SM BKN027 BKN044 02/M04 A2970 RMK AO2 PK WND 15030/1805 T00221044,KFSD,2018-04-02T18:18:00Z,43.58,-96.75,2.2,-4.4,160,15,30,10.0,29.698818,,,,TRUE,,,,,,,BKN,2700,BKN,4400,,,,,MVFR,,,,,,,,,,,,SPECI,436.0
KFBR 021818Z AUTO 29029G42KT 10SM BKN060 BKN090 11/M04 A2960 RMK AO2,KFBR,2018-04-02T18:18:00Z,41.4,-110.4,11.0,-4.0,290,29,42,10.0,29.601377,,,TRUE,TRUE,,,,,,,BKN,6000,BKN,9000,,,,,VFR,,,,,,,,,,,,SPECI,2144.0
KBYG 021818Z AUTO 35006KT 3/4SM -SN BR BKN003 OVC009 00/M02 A2952 RMK AO2 P0002 T00001017,KBYG,2018-04-02T18:18:00Z,44.38,-106.72,0.0,-1.7,350,6,,0.75,29.518702,,,TRUE,TRUE,,,,,,-SN BR,BKN,300,OVC,900,,,,,LIFR,,,,,,0.02,,,,,,SPECI,1497.0
FAPE 021818Z 24025G36KT 9999 SCT008 21/19 Q1011 TEMPO BKN008,FAPE,2018-04-02T18:18:00Z,-33.97,25.6,21.0,19.0,240,25,36,6.21,29.852362,,,,,,,,,,,SCT,800,,,,,,,VFR,,,,,,,,,,,,SPECI,60.0
KOTH 021818Z 26006KT 10SM SCT023 SCT036 BKN050 07/03 A3022 RMK AO2 RAE08 P0000,KOTH,2018-04-02T18:18:00Z,43.42,-124.25,7.0,3.0,260,6,,10.0,30.221457,,,,TRUE,,,,,,,SCT,2300,SCT,3600,BKN,5000,,,VFR,,,,,,0.005,,,,,,METAR,4.0
K2W6 021817Z AUTO 34003KT 10SM OVC022 07/02 A3012 RMK AO1,K2W6,2018-04-02T18:17:00Z,38.32,-76.55,7.0,2.0,340,3,,10.0,30.121063,,,TRUE,TRUE,,,,,,,OVC,2200,,,,,,,MVFR,,,,,,,,,,,,SPECI,44.0
KLWA 021817Z AUTO 29008KT 10SM CLR 04/M05 A3008 RMK AO2 T00391046,KLWA,2018-04-02T18:17:00Z,42.35,-86.25,3.9,-4.6,290,8,,10.0,30.079725,,,TRUE,TRUE,,,,,,,CLR,,,,,,,,VFR,,,,,,,,,,,,METAR,203.0
KSJX 021817Z AUTO 25011G17KT 10SM CLR M01/M07 A3003 RMK AO2 T10061072,KSJX,2018-04-02T18:17:00Z,45.7,-85.57,-0.6,-7.2,250,11,17,10.0,30.029528,,,TRUE,TRUE,,,,,,,CLR,,,,,,,,VFR,,,,,,,,,,,,METAR,204.0
KHLN 021817Z 34007KT 4SM -SN FEW020 BKN030 OVC043 M06/M12 A2975 RMK AO2 SNB1757 P0000 T10611117,KHLN,2018-04-02T18:17:00Z,46.6,-111.98,-6.1,-11.7,340,7,,4.0,29.749016,,,,TRUE,,,,,,-SN,FEW,2000,BKN,3000,OVC,4300,,,MVFR,,,,,,0.005,,,,,,METAR,1182.0
YBHM 021817Z AUTO 13036KT 9999 // SCT020 BKN043 BKN055 25/23 Q1005,YBHM,2018-04-02T18:17:00Z,-20.35,148.95,25.0,23.0,130,36,,6.21,29.675198,,,TRUE,,,,,,,,SCT,2000,BKN,4300,BKN,5500,,,VFR,,,,,,,,,,,,SPECI,5.0
CYPX 021817Z AUTO 25012KT 5SM -SN BKN016 BKN240 M20/M22 A2974 RMK SLP075,CYPX,2018-04-02T18:17:00Z,60.03,-77.27,-20.0,-22.0,250,12,,5.0,29.740158,1007.5,,TRUE,,,,,,,-SN,BKN,1600,BKN,24000,,,,,MVFR,,,,,,,,,,,,SPECI,23.0
KHZX 021817Z AUTO 00000KT 10SM SCT050 SCT080 00/M08 A2991 RMK AO2,KHZX,2018-04-02T18:17:00Z,46.62,-93.32,0.0,-8.0,0,0,,10.0,29.911417,,,TRUE,TRUE,,,,,,,SCT,5000,SCT,8000,,,,,VFR,,,,,,,,,,,,METAR,374.0
KUNO 021817Z AUTO 14006KT 2 1/2SM BR OVC003 03/02 A2993 RMK AO2 T00280022,KUNO,2018-04-02T18:17:00Z,36.88,-91.9,2.8,2.2,140,6,,2.5,29.929134,,,TRUE,TRUE,,,,,,BR,OVC,300,,,,,,,LIFR,,,,,,,,,,,,METAR,372.0
KFFO 021816Z VRB03KT 10SM SCT032 06/M02 A3009 RMK AO2A SLP199,KFFO,2018-04-02T18:16:00Z,39.82,-84.03,6.0,-2.0,0,3,,10.0,30.088583,1019.9,,,TRUE,,,,,,,SCT,3200,,,,,,,VFR,,,,,,,,,,,,SPECI,251.0
K21D 021816Z AUTO 17011KT 1 1/2SM -SN BKN009 BKN014 OVC032 00/M03 A2996 RMK AO2,K21D,2018-04-02T18:16:00Z,45.0,-92.85,0.0,-3.0,170,11,,1.5,29.958662,,,TRUE,TRUE,,,,,,-SN,BKN,900,BKN,1400,OVC,3200,,,IFR,,,,,,,,,,,,SPECI,285.0
KMGG 021816Z AUTO 16006KT 1/2SM SN OVC007 M01/M02 A2993 RMK AO2 T10101025,KMGG,2018-04-02T18:16:00Z,45.23,-93.98,-1.0,-2.5,160,6,,0.5,29.929134,,,TRUE,TRUE,,,,,,SN,OVC,700,,,,,,,LIFR,,,,,,,,,,,,METAR,313.0
KTYR 021816Z VRB04KT 10SM FEW014 SCT020 OVC048 20/13 A2989 RMK AO2 T02000133,KTYR,2018-04-02T18:16:00Z,32.37,-95.4,20.0,13.3,0,4,,10.0,29.890747,,,,TRUE,,,,,,,FEW,1400,SCT,2000,OVC,4800,,,VFR,,,,,,,,,,,,METAR,165.0
KJES 021816Z AUTO 22008KT 10SM SCT049 28/13 A3003 RMK AO2,KJES,2018-04-02T18:16:00Z,31.55,-81.88,28.0,13.0,220,8,,10.0,30.029528,,,TRUE,TRUE,,,,,,,SCT,4900,,,,,,,VFR,,,,,,,,,,,,METAR,33.0
K40B 021816Z AUTO VRB04G14KT 01/M16 A2998 RMK AO1 SLP182 T00111156 10016 21065 57013,K40B,2018-04-02T18:16:00Z,46.62,-69.52,1.1,-15.6,0,4,14,,29.97933,1018.2,,TRUE,TRUE,,,,,,,,,,,,,,,,-1.3,1.6,-6.5,,,,,,,,,METAR,314.0
K14Y 021816Z AUTO 05005KT 1 1/4SM -SN SCT013 SCT018 M03/M05 A2989 RMK AO2,K14Y,2018-04-02T18:16:00Z,45.9,-94.87,-3.0,-5.0,50,5,,1.25,29.890747,,,TRUE,TRUE,,,,,,-SN,SCT,1300,SCT,1800,,,,,IFR,,,,,,,,,,,,SPECI,406.0
K4I3 021816Z AUTO 07005KT 10SM BKN020 06/01 A3010 RMK AO2,K4I3,2018-04-02T18:16:00Z,40.33,-82.53,6.0,1.0,70,5,,10.0,30.100393,,,TRUE,TRUE,,,,,,,BKN,2000,,,,,,,MVFR,,,,,,,,,,,,SPECI,363.0
KHAI 021816Z AUTO 21009KT 10SM CLR 05/M07 A3008 RMK AO2 T00511072,KHAI,2018-04-02T18:16:00Z,41.97,-85.6,5.1,-7.2,210,9,,10.0,30.079725,,,TRUE,TRUE,,,,,,,CLR,,,,,,,,VFR,,,,,,,,,,,,SPECI,251.0
KJMR 021816Z AUTO 00000KT 10SM SCT016 00/M07 A2995 RMK AO2,KJMR,2018-04-02T18:16:00Z,45.88,-93.27,0.0,-7.0,0,0,,10.0,29.949802,,,TRUE,TRUE,,,,,,,SCT,1600,,,,,,,VFR,,,,,,,,,,,,SPECI,309.0
KLPC 021816Z AUTO 35004KT 10SM OVC016 16/11 A2993 RMK AO2,KLPC,2018-04-02T18:16:00Z,34.67,-120.47,16.0,11.0,350,4,,10.0,29.929134,,,TRUE,TRUE,,,,,,,OVC,1600,,,,,,,MVFR,,,,,,,,,,,,SPECI,27.0
KMOP 021816Z AUTO 22007G15KT 200V270 10SM CLR 06/M08 A3005 RMK AO2 T00561082,KMOP,2018-04-02T18:16:00Z,43.62,-84.73,5.6,-8.2,220,7,15,10.0,30.050198,,,TRUE,TRUE,,,,,,,CLR,,,,,,,,VFR,,,,,,,,,,,,SPECI,230.0
KMQJ 021816Z AUTO 13005KT 10SM SCT025 05/01 A3008 RMK AO1,KMQJ,2018-04-02T18:16:00Z,39.85,-85.9,5.0,1.0,130,5,,10.0,30.079725,,,TRUE,TRUE,,,,,,,SCT,2500,,,,,,,VFR,,,,,,,,,,,,METAR,263.0
KONA 021816Z AUTO 21007G17KT 7SM -SN SCT016 BKN032 OVC047 01/M07 A2996 RMK AO2,KONA,2018-04-02T18:16:00Z,44.07,-91.7,1.0,-7.0,210,7,17,7.0,29.958662,,,TRUE,TRUE,,,,,,-SN,SCT,1600,BKN,3200,OVC,4700,,,VFR,,,,,,,,,,,,SPECI,200.0
KOWX 021816Z AUTO 17004KT 10SM CLR 02/M07 A3014 RMK AO1,KOWX,2018-04-02T18:16:00Z,41.03,-83.98,2.0,-7.0,170,4,,10.0,30.138779,,,TRUE,TRUE,,,,,,,CLR,,,,,,,,VFR,,,,,,,,,,,,SPECI,233.0
KYKN 021816Z AUTO 14022G28KT 10SM BKN022 01/M05 A2967 RMK AO2 PK WND 15029/1759 FZRANO,KYKN,2018-04-02T18:16:00Z,42.92,-97.37,1.0,-5.0,140,22,28,10.0,29.66929,,,TRUE,TRUE,,,,TRUE,,,BKN,2200,,,,,,,MVFR,,,,,,,,,,,,SPECI,398.0
K5R8 021816Z AUTO 17006KT 10SM SCT034 SCT043 BKN055 26/19 A2994 RMK AO2,K5R8,2018-04-02T18:16:00Z,30.43,-93.47,26.0,19.0,170,6,,10.0,29.940945,,,TRUE,TRUE,,,,,,,SCT,3400,SCT,4300,BKN,5500,,,VFR,,,,,,,,,,,,METAR,24.0
KVIH 021816Z AUTO 12008KT 2SM BR OVC003 00/00 A2993 RMK AO2 T00000000,KVIH,2018-04-02T18:16:00Z,38.13,-91.77,0.0,0.0,120,8,,2.0,29.929134,,,TRUE,TRUE,,,,,,BR,OVC,300,,,,,,,LIFR,,,,,,,,,,,,METAR,333.0
KEWB 021816Z 03004KT 10SM OVC010 03/00 A3009 RMK AO2 T00330000,KEWB,2018-04-02T18:16:00Z,41.68,-70.95,3.3,0.0,30,4,,10.0,30.088583,,,,TRUE,,,,,,,OVC,1000,,,,,,,MVFR,,,,,,,,,,,,METAR,23.0
KGOK 021816Z AUTO 16008KT 10SM OVC016 05/01 A2983 RMK AO2 T00500006,KGOK,2018-04-02T18:16:00Z,35.85,-97.4,5.0,0.6,160,8,,10.0,29.828741,,,TRUE,TRUE,,,,,,,OVC,1600,,,,,,,MVFR,,,,,,,,,,,,METAR,324.0
KPRO 021815Z AUTO 15011G21KT 10SM BKN033 OVC041 03/M04 A2987 RMK AO2 T00341038,KPRO,2018-04-02T18:15:00Z,41.83,-94.17,3.4,-3.8,150,11,21,10.0,29.870079,,,TRUE,TRUE,,,,,,,BKN,3300,OVC,4100,,,,,VFR,,,,,,,,,,,,SPECI,308.0
KHBV 021815Z AUTO 19014G24KT 10SM CLR 30/15 A2976 RMK AO2 T03040149,KHBV,2018-04-02T18:15:00Z,27.35,-98.73,30.4,14.9,190,14,24,10.0,29.760826,,,TRUE,TRUE,,,,,,,CLR,,,,,,,,VFR,,,,,,,,,,,,SPECI,202.0
KHBI 021815Z AUTO 26008KT 230V310 10SM CLR 26/03 A2997 RMK AO2 T02580030,KHBI,2018-04-02T18:15:00Z,35.65,-79.9,25.8,3.0,260,8,,10.0,29.970472,,,TRUE,TRUE,,,,,,,CLR,,,,,,,,VFR,,,,,,,,,,,,SPECI,205.0
KGVT 021815Z AUTO 00000KT 7SM OVC011 11/08 A2991 RMK AO2,KGVT,2018-04-02T18:15:00Z,33.07,-96.07,11.0,8.0,0,0,,7.0,29.911417,,,TRUE,TRUE,,,,,,,OVC,1100,,,,,,,MVFR,,,,,,,,,,,,SPECI,163.0
KDMW 021815Z AUTO 36005KT 10SM OVC014 07/03 A3010 RMK AO2,KDMW,2018-04-02T18:15:00Z,39.6,-77.0,7.0,3.0,360,5,,10.0,30.100393,,,TRUE,TRUE,,,,,,,OVC,1400,,,,,,,MVFR,,,,,,,,,,,,SPECI,241.0
KCTZ 021815Z AUTO 23009KT 10SM CLR 28/09 A2996 RMK AO2 T02840093,KCTZ,2018-04-02T18:15:00Z,34.98,-78.37,28.4,9.3,230,9,,10.0,29.958662,,,TRUE,TRUE,,,,,,,CLR,,,,,,,,VFR,,,,,,,,,,,,SPECI,45.0
KCTJ 021815Z AUTO 21004KT 10SM CLR 25/03 A3003 RMK AO2 T02490028,KCTJ,2018-04-02T18:15:00Z,33.63,-85.15,24.9,2.8,210,4,,10.0,30.029528,,,TRUE,TRUE,,,,,,,CLR,,,,,,,,VFR,,,,,,,,,,,,SPECI,354.0
KCPC 021815Z AUTO 20008G15KT 10SM CLR 27/10 A2997 RMK AO2 T02740095,KCPC,2018-04-02T18:15:00Z,34.28,-78.72,27.4,9.5,200,8,15,10.0,29.970472,,,TRUE,TRUE,,,,,,,CLR,,,,,,,,VFR,,,,,,,,,,,,SPECI,29.0
KCHK 021815Z AUTO 17009KT 10SM OVC013 06/02 A2981 RMK AO2 T00630022,KCHK,2018-04-02T18:15:00Z,35.1,-97.97,6.3,2.2,170,9,,10.0,29.811024,,,TRUE,TRUE,,,,,,,OVC,1300,,,,,,,MVFR,,,,,,,,,,,,SPECI,351.0
KCGE 021815Z AUTO 03009KT 10SM OVC023 08/03 A3011 RMK A01,KCGE,2018-04-02T18:15:00Z,38.53,-76.03,8.0,3.0,30,9,,10.0,30.109253,,,TRUE,TRUE,,,,,,,OVC,2300,,,,,,,MVFR,,,,,,,,,,,,SPECI,6.0
KBYL 021815Z AUTO 00000KT 10SM OVC010 10/08 A3002 RMK AO1,KBYL,2018-04-02T18:15:00Z,36.8,-84.2,10.0,8.0,0,0,,10.0,30.02067,,,TRUE,TRUE,,,,,,,OVC,1000,,,,,,,MVFR,,,,,,,,,,,,SPECI,359.0
KBWP 021815Z AUTO 07011KT 2 1/2SM OVC010 M01/M04 A2984 RMK AO1,KBWP,2018-04-02T18:15:00Z,46.25,-96.62,-1.0,-4.0,70,11,,2.5,29.840551,,,TRUE,TRUE,,,,,,,OVC,1000,,,,,,,IFR,,,,,,,,,,,,SPECI,295.0
KAFP 021815Z AUTO 22008KT 180V250 10SM CLR 28/06 A2995 RMK AO2 T02810055,KAFP,2018-04-02T18:15:00Z,35.02,-80.08,28.1,5.5,220,8,,10.0,29.949802,,,TRUE,TRUE,,,,,,,CLR,,,,,,,,VFR,,,,,,,,,,,,SPECI,92.0
KACJ 021815Z AUTO 23009KT 10SM CLR 25/05 A3004 RMK AO2,KACJ,2018-04-02T18:15:00Z,32.12,-84.18,25.0,5.0,230,9,,10.0,30.041338,,,TRUE,TRUE,,,,,,,CLR,,,,,,,,VFR,,,,,,,,,,,,SPECI,143.0
KW99 021815Z AUTO 00000KT 10SM OVC013 05/03 A3009 RMK AO2 T00530027,KW99,2018-04-02T18:15:00Z,39.0,-79.15,5.3,2.7,0,0,,10.0,30.088583,,,TRUE,TRUE,,,,,,,OVC,1300,,,,,,,MVFR,,,,,,,,,,,,SPECI,293.0
KW29 021815Z AUTO 01007KT 350V060 7SM OVC013 05/02 A3014 RMK AO2,KW29,2018-04-02T18:15:00Z,38.98,-76.33,5.0,2.0,10,7,,7.0,30.138779,,,TRUE,TRUE,,,,,,,OVC,1300,,,,,,,MVFR,,,,,,,,,,,,SPECI,15.0
KSUT 021815Z AUTO 23005KT 10SM CLR 21/15 A3002 RMK AO2 T02100151,KSUT,2018-04-02T18:15:00Z,33.93,-78.08,21.0,15.1,230,5,,10.0,30.02067,,,TRUE,TRUE,,,,,,,CLR,,,,,,,,VFR,,,,,,,,,,,,SPECI,8.0
KFME 021815Z AUTO 05003KT 10SM OVC019 06/02 A3014 RMK AO1,KFME,2018-04-02T18:15:00Z,39.08,-76.77,6.0,2.0,50,3,,10.0,30.138779,,,TRUE,TRUE,,,,,,,OVC,1900,,,,,,,MVFR,,,,,,,,,,,,SPECI,46.0
KLRO 021815Z AUTO 18009KT 10SM CLR 26/16 A3001 RMK AO2,KLRO,2018-04-02T18:15:00Z,32.9,-79.78,26.0,16.0,180,9,,10.0,30.008858,,,TRUE,TRUE,,,,,,,CLR,,,,,,,,VFR,,,,,,,,,,,,SPECI,4.0
KLNP 021815Z AUTO 03003KT 7SM OVC003 09/09 A3002 RMK AO2,KLNP,2018-04-02T18:15:00Z,36.97,-82.52,9.0,9.0,30,3,,7.0,30.02067,,,TRUE,TRUE,,,,,,,OVC,300,,,,,,,LIFR,,,,,,,,,,,,SPECI,817.0
KIYA 021815Z AUTO 16012G16KT 10SM SCT025 BKN044 OVC055 27/20 A2998 RMK AO2 T02680199,KIYA,2018-04-02T18:15:00Z,29.98,-92.08,26.8,19.9,160,12,16,10.0,29.97933,,,TRUE,TRUE,,,,,,,SCT,2500,BKN,4400,OVC,5500,,,VFR,,,,,,,,,,,,SPECI,5.0
KHVS 021815Z AUTO 22007G15KT 147V247 10SM CLR 28/06 A2996 RMK AO2,KHVS,2018-04-02T18:15:00Z,34.4,-80.12,28.0,6.0,220,7,15,10.0,29.958662,,,TRUE,TRUE,,,,,,,CLR,,,,,,,,VFR,,,,,,,,,,,,SPECI,111.0
K11R 021815Z AUTO 19012G19KT 10SM BKN038 28/18 A2986 RMK AO2 T02760183,K11R,2018-04-02T18:15:00Z,30.22,-96.37,27.6,18.3,190,12,19,10.0,29.861221,,,TRUE,TRUE,,,,,,,BKN,3800,,,,,,,VFR,,,,,,,,,,,,METAR,94.0
K0A9 021815Z AUTO 00000KT 10SM OVC036 16/10 A3001 RMK AO2,K0A9,2018-04-02T18:15:00Z,36.37,-82.17,16.0,10.0,0,0,,10.0,30.008858,,,TRUE,TRUE,,,,,,,OVC,3600,,,,,,,VFR,,,,,,,,,,,,METAR,486.0
K05U 021815Z AUTO 26023G30KT 10SM CLR 14/M05 A2979 RMK A01,K05U,2018-04-02T18:15:00Z,39.6,-116.0,14.0,-5.0,260,23,30,10.0,29.790354,,,TRUE,TRUE,,,,,,,CLR,,,,,,,,VFR,,,,,,,,,,,,METAR,1816.0
PAAD 021815Z AUTO 26011KT 10SM SCT003 M21/M23 A3076 RMK AO2 T12111235,PAAD,2018-04-02T18:15:00Z,70.13,-146.28,-21.1,-23.5,260,11,,10.0,30.758858,,,TRUE,TRUE,,,,,,,SCT,300,,,,,,,VFR,,,,,,,,,,,,METAR,8.0
KAXH 021815Z AUTO 18009KT 10SM BKN037 BKN046 27/20 A2990 RMK AO2 T02720198,KAXH,2018-04-02T18:15:00Z,29.52,-95.48,27.2,19.8,180,9,,10.0,29.899607,,,TRUE,TRUE,,,,,,,BKN,3700,BKN,4600,,,,,VFR,,,,,,,,,,,,METAR,21.0
KAVK 021815Z AUTO 19015KT 9SM OVC020 06/M01 A2976 RMK AO2,KAVK,2018-04-02T18:15:00Z,36.77,-98.67,6.0,-1.0,190,15,,9.0,29.760826,,,TRUE,TRUE,,,,,,,OVC,2000,,,,,,,MVFR,,,,,,,,,,,,METAR,449.0
KAUH 021815Z AUTO 16013G18KT 10SM OVC008 M01/M03 A2970 RMK AO2 T10111029,KAUH,2018-04-02T18:15:00Z,40.88,-98.0,-1.1,-2.9,160,13,18,10.0,29.698818,,,TRUE,TRUE,,,,,,,OVC,800,,,,,,,IFR,,,,,,,,,,,,METAR,550.0
KASJ 021815Z AUTO 35007KT 320V030 10SM CLR 22/11 A2998 RMK AO2 T02170107,KASJ,2018-04-02T18:15:00Z,36.28,-77.17,21.7,10.7,350,7,,10.0,29.97933,,,TRUE,TRUE,,,,,,,CLR,,,,,,,,VFR,,,,,,,,,,,,METAR,21.0
KARV 021815Z AUTO 19003KT 10SM SCT044 SCT090 SCT120 00/M11 A2993 RMK AO2 T10011111,KARV,2018-04-02T18:15:00Z,45.92,-89.72,-0.1,-11.1,190,3,,10.0,29.929134,,,TRUE,TRUE,,,,,,,SCT,4400,SCT,9000,SCT,12000,,,VFR,,,,,,,,,,,,SPECI,496.0
KAQR 021815Z AUTO 00000KT 10SM OVC006 07/06 A2990 RMK AO2,KAQR,2018-04-02T18:15:00Z,34.4,-96.15,7.0,6.0,0,0,,10.0,29.899607,,,TRUE,TRUE,,,,,,,OVC,600,,,,,,,IFR,,,,,,,,,,,,METAR,189.0
KAPY 021815Z AUTO 15015G20KT 10SM CLR 32/15 A2972 RMK AO2 T03300150,KAPY,2018-04-02T18:15:00Z,26.97,-99.25,33.0,15.0,150,15,20,10.0,29.719488,,,TRUE,TRUE,,,,,,,CLR,,,,,,,,VFR,,,,,,,,,,,,SPECI,129.0
KAIG 021815Z AUTO 20003KT 10SM CLR M01/M11 A2998 RMK AO2 T10151107 PWINO,KAIG,2018-04-02T18:15:00Z,45.15,-89.12,-1.5,-10.7,200,3,,10.0,29.97933,,,TRUE,TRUE,,,,,TRUE,,CLR,,,,,,,,VFR,,,,,,,,,,,,SPECI,464.0
KAHQ 021815Z AUTO 15014KT 10SM OVC012 00/M05 A2978 RMK AO2 T10011050,KAHQ,2018-04-02T18:15:00Z,41.23,-96.6,-0.1,-5.0,150,14,,10.0,29.778543,,,TRUE,TRUE,,,,,,,OVC,1200,,,,,,,MVFR,,,,,,,,,,,,SPECI,374.0
KADH 021815Z AUTO 00000KT 10SM OVC010 05/03 A2987 RMK AO2,KADH,2018-04-02T18:15:00Z,34.8,-96.67,5.0,3.0,0,0,,10.0,29.870079,,,TRUE,TRUE,,,,,,,OVC,1000,,,,,,,MVFR,,,,,,,,,,,,METAR,308.0
KACP 021815Z AUTO 17006KT 130V190 10SM BKN031 BKN065 26/18 A2995 RMK AO2 T02620181,KACP,2018-04-02T18:15:00Z,30.75,-92.68,26.2,18.1,170,6,,10.0,29.949802,,,TRUE,TRUE,,,,,,,BKN,3100,BKN,6500,,,,,VFR,,,,,,,,,,,,METAR,33.0
KAAA 021815Z AUTO 09008KT 10SM CLR 00/M04 A3005 RMK AO2 T00001042,KAAA,2018-04-02T18:15:00Z,40.17,-89.33,0.0,-4.2,90,8,,10.0,30.050198,,,TRUE,TRUE,,,,,,,CLR,,,,,,,,VFR,,,,,,,,,,,,SPECI,182.0
KA08 021815Z AUTO 10SM SCT029 SCT035 22/15 A3001 RMK AO2 T02190152,KA08,2018-04-02T18:15:00Z,32.52,-87.38,21.9,15.2,,,,10.0,30.008858,,,TRUE,TRUE,,,,,,,SCT,2900,SCT,3500,,,,,VFR,,,,,,,,,,,,METAR,69.0
K9V9 021815Z AUTO 14006G14KT 10SM CLR 08/M03 A2955 RMK AO2 T00781032,K9V9,2018-04-02T18:15:00Z,43.77,-99.32,7.8,-3.2,140,6,14,10.0,29.551182,,,TRUE,TRUE,,,,,,,CLR,,,,,,,,VFR,,,,,,,,,,,,SPECI,519.0
K9A5 021815Z AUTO 22007KT 10SM SCT050 24/10 A2998 RMK AO2 T02440103,K9A5,2018-04-02T18:15:00Z,34.68,-85.28,24.4,10.3,220,7,,10.0,29.97933,,,TRUE,TRUE,,,,,,,SCT,5000,,,,,,,VFR,,,,,,,,,,,,METAR,237.0
K8A3 021815Z AUTO 02005KT 5SM BR OVC003 08/08 A3000 RMK A01,K8A3,2018-04-02T18:15:00Z,36.42,-85.32,8.0,8.0,20,5,,5.0,30.0,,,TRUE,TRUE,,,,,,BR,OVC,300,,,,,,,LIFR,,,,,,,,,,,,METAR,419.0
K8A0 021815Z AUTO 23004KT 10SM CLR 22/15 A2999 RMK AO2,K8A0,2018-04-02T18:15:00Z,34.23,-86.25,22.0,15.0,230,4,,10.0,29.991142,,,TRUE,TRUE,,,,,,,CLR,,,,,,,,VFR,,,,,,,,,,,,METAR,315.0
K82C 021815Z AUTO 14005KT 10SM SCT110 03/M08 A2998 RMK AO2 T00251084,K82C,2018-04-02T18:15:00Z,43.83,-90.13,2.5,-8.4,140,5,,10.0,29.97933,,,TRUE,TRUE,,,,,,,SCT,11000,,,,,,,VFR,,,,,,,,,,,,METAR,276.0
K7W6 021815Z AUTO 19009G14KT 10SM CLR 24/15 A2996 RMK AO2 T02420151,K7W6,2018-04-02T18:15:00Z,35.55,-75.95,24.2,15.1,190,9,14,10.0,29.958662,,,TRUE,TRUE,,,,,,,CLR,,,,,,,,VFR,,,,,,,,,,,,METAR,2.0
K74V 021815Z AUTO 26024G33KT 5SM HZ CLR 19/M08 A2959 RMK AO2,K74V,2018-04-02T18:15:00Z,40.28,-110.05,19.0,-8.0,260,24,33,5.0,29.589567,,,TRUE,TRUE,,,,,,HZ,CLR,,,,,,,,MVFR,,,,,,,,,,,,METAR,1576.0
K6S0 021815Z AUTO 01020KT 1/4SM FZFG BKN003 BKN007 OVC014 M05/M06 A2960 RMK A01,K6S0,2018-04-02T18:15:00Z,45.8,-109.97,-5.0,-6.0,10,20,,0.25,29.601377,,,TRUE,TRUE,,,,,,FZFG,BKN,300,BKN,700,OVC,1400,,,LIFR,,,,,,,,,,,,METAR,1363.0
K6R3 021815Z AUTO 20011G15KT 7SM SCT034 SCT049 29/17 A2990 RMK AO2 T02890165,K6R3,2018-04-02T18:15:00Z,30.35,-95.0,28.9,16.5,200,11,15,7.0,29.899607,,,TRUE,TRUE,,,,,,,SCT,3400,SCT,4900,,,,,VFR,,,,,,,,,,,,METAR,46.0
K6P9 021815Z AUTO 00000KT 1 1/4SM BR OVC002 06/06 A2989 RMK AO2 T00620062,K6P9,2018-04-02T18:15:00Z,32.43,-98.6,6.2,6.2,0,0,,1.25,29.890747,,,TRUE,TRUE,,,,,,BR,OVC,200,,,,,,,LIFR,,,,,,,,,,,,METAR,449.0
K65S 021815Z AUTO 00000KT 7SM M02/M05 A2984 RMK AO2,K65S,2018-04-02T18:15:00Z,48.73,-116.3,-2.0,-5.0,0,0,,7.0,29.840551,,,TRUE,TRUE,,,,,,,,,,,,,,,,,,,,,,,,,,,METAR,713.0
K5T9 021815Z AUTO VRB04KT 10SM BKN026 OVC036 25/18 A2978 RMK A01,K5T9,2018-04-02T18:15:00Z,28.85,-100.52,25.0,18.0,0,4,,10.0,29.778543,,,TRUE,TRUE,,,,,,,BKN,2600,OVC,3600,,,,,MVFR,,,,,,,,,,,,METAR,270.0
K5M9 021815Z AUTO 07006KT 10SM OVC008 06/04 A3001 RMK AO2 T00600044,K5M9,2018-04-02T18:15:00Z,37.33,-88.12,6.0,4.4,70,6,,10.0,30.008858,,,TRUE,TRUE,,,,,,,OVC,800,,,,,,,IFR,,,,,,,,,,,,METAR,199.0
K57C 021815Z AUTO 21004KT 10SM CLR 03/M09 A3004 RMK AO2 T00291095,K57C,2018-04-02T18:15:00Z,42.8,-88.37,2.9,-9.5,210,4,,10.0,30.041338,,,TRUE,TRUE,,,,,,,CLR,,,,,,,,VFR,,,,,,,,,,,,METAR,262.0
K54A 021815Z AUTO 22009KT 10SM CLR 27/26 A3003 RMK AO2,K54A,2018-04-02T18:15:00Z,,,27.0,26.0,220,9,,10.0,30.029528,,,TRUE,TRUE,,,,,,,CLR,,,,,,,,VFR,,,,,,,,,,,,METAR,
K3S8 021815Z AUTO 36005G10KT 10SM FEW044 08/M05 A3017 RMK AO2,K3S8,2018-04-02T18:15:00Z,42.5,-123.4,8.0,-5.0,360,5,10,10.0,30.171259,,,TRUE,TRUE,,,,,,,FEW,4400,,,,,,,VFR,,,,,,,,,,,,METAR,343.0
K3L4 021815Z AUTO 19010KT 160V220 7SM BKN022 BKN029 BKN037 25/20 A2997 RMK A01,K3L4,2018-04-02T18:15:00Z,29.8,-92.8,25.0,20.0,190,10,,7.0,29.970472,,,TRUE,TRUE,,,,,,,BKN,2200,BKN,2900,BKN,3700,,,MVFR,,,,,,,,,,,,METAR,2.0
K3F3 021815Z AUTO 19009KT 10SM BKN028 BKN040 OVC055 25/19 A2995 RMK AO2 T02490191,K3F3,2018-04-02T18:15:00Z,32.07,-93.77,24.9,19.1,190,9,,10.0,29.949802,,,TRUE,TRUE,,,,,,,BKN,2800,BKN,4000,OVC,5500,,,MVFR,,,,,,,,,,,,METAR,96.0
K2LS 021815Z AUTO VRB05G11KT 10SM CLR 26/19 A3002 RMK AO2,K2LS,2018-04-02T18:15:00Z,,,26.0,19.0,0,5,11,10.0,30.02067,,,TRUE,TRUE,,,,,,,CLR,,,,,,,,VFR,,,,,,,,,,,,METAR,
K2J3 021815Z AUTO 20005KT 10SM CLR 26/10 A3001 RMK AO2 T02580100,K2J3,2018-04-02T18:15:00Z,32.98,-82.38,25.8,10.0,200,5,,10.0,30.008858,,,TRUE,TRUE,,,,,,,CLR,,,,,,,,VFR,,,,,,,,,,,,METAR,100.0
K2A0 021815Z AUTO VRB04G11KT 10SM CLR 24/14 A2995 RMK A01,K2A0,2018-04-02T18:15:00Z,35.48,-84.93,24.0,14.0,0,4,11,10.0,29.949802,,,TRUE,TRUE,,,,,,,CLR,,,,,,,,VFR,,,,,,,,,,,,METAR,219.0
K1M5 021815Z AUTO 07005KT 10SM OVC007 08/07 A3001 RMK A01,K1M5,2018-04-02T18:15:00Z,36.6,-86.48,8.0,7.0,70,5,,10.0,30.008858,,,TRUE,TRUE,,,,,,,OVC,700,,,,,,,IFR,,,,,,,,,,,,METAR,250.0
K1A5 021815Z AUTO 27007KT 10SM SCT065 24/08 A2997 RMK AO2 T02390080,K1A5,2018-04-02T18:15:00Z,35.22,-83.42,23.9,8.0,270,7,,10.0,29.970472,,,TRUE,TRUE,,,,,,,SCT,6500,,,,,,,VFR,,,,,,,,,,,,METAR,616.0
KBPG 021815Z AUTO 19006KT 160V220 10SM OVC011 12/07 A2987 RMK AO2 T01210072,KBPG,2018-04-02T18:15:00Z,32.22,-101.52,12.1,7.2,190,6,,10.0,29.870079,,,TRUE,TRUE,,,,,,,OVC,1100,,,,,,,MVFR,,,,,,,,,,,,METAR,784.0
KBKT 021815Z AUTO 02005G16KT 10SM BKN065 16/06 A3004 RMK AO1 T01570064,KBKT,2018-04-02T18:15:00Z,37.07,-77.95,15.7,6.4,20,5,16,10.0,30.041338,,,TRUE,TRUE,,,,,,,BKN,6500,,,,,,,VFR,,,,,,,,,,,,METAR,134.0
KBDG 021815Z AUTO 24015G24KT 10SM 18/M11 A2985 RMK AO1 T01821107,KBDG,2018-04-02T18:15:00Z,37.58,-109.47,18.2,-10.7,240,15,24,10.0,29.84941,,,TRUE,TRUE,,,,,,,,,,,,,,,,,,,,,,,,,,,METAR,1788.0
KBCK 021815Z AUTO 17006KT 10SM BKN055 BKN065 03/M11 A2996 RMK AO2 T00311115,KBCK,2018-04-02T18:15:00Z,44.25,-90.85,3.1,-11.5,170,6,,10.0,29.958662,,,TRUE,TRUE,,,,,,,BKN,5500,BKN,6500,,,,,VFR,,,,,,,,,,,,METAR,255.0
KBBP 021815Z AUTO 22005G16KT 10SM CLR 30/07 A2995 RMK AO2,KBBP,2018-04-02T18:15:00Z,34.62,-79.73,30.0,7.0,220,5,16,10.0,29.949802,,,TRUE,TRUE,,,,,,,CLR,,,,,,,,VFR,,,,,,,,,,,,METAR,45.0
KBBD 021815Z AUTO 02006KT 3SM BR OVC003 09/09 A2988 RMK AO2,KBBD,2018-04-02T18:15:00Z,31.18,-99.32,9.0,9.0,20,6,,3.0,29.878937,,,TRUE,TRUE,,,,,,BR,OVC,300,,,,,,,LIFR,,,,,,,,,,,,METAR,557.0
KAYS 021815Z AUTO 25006KT 10SM CLR 27/10 A3003 RMK AO2 T02740096,KAYS,2018-04-02T18:15:00Z,31.25,-82.4,27.4,9.6,250,6,,10.0,30.029528,,,TRUE,TRUE,,,,,,,CLR,,,,,,,,VFR,,,,,,,,,,,,METAR,46.0
KDKR 021815Z AUTO 16007G15KT 10SM SCT032 BKN038 BKN048 25/19 A2989 RMK AO2,KDKR,2018-04-02T18:15:00Z,31.3,-95.4,25.0,19.0,160,7,15,10.0,29.890747,,,TRUE,TRUE,,,,,,,SCT,3200,BKN,3800,BKN,4800,,,VFR,,,,,,,,,,,,SPECI,106.0
KDED 021815Z AUTO 21006KT 10SM SCT050 29/17 A3003 RMK AO2,KDED,2018-04-02T18:15:00Z,29.07,-81.28,29.0,17.0,210,6,,10.0,30.029528,,,TRUE,TRUE,,,,,,,SCT,5000,,,,,,,VFR,,,,,,,,,,,,METAR,24.0
KDCY 021815Z AUTO 10007KT 10SM OVC014 04/01 A3008 RMK AO2 T00420008,KDCY,2018-04-02T18:15:00Z,38.7,-87.13,4.2,0.8,100,7,,10.0,30.079725,,,TRUE,TRUE,,,,,,,OVC,1400,,,,,,,MVFR,,,,,,,,,,,,SPECI,144.0
KDBN 021815Z AUTO 26005KT 10SM CLR 27/08 A3003 RMK AO2,KDBN,2018-04-02T18:15:00Z,32.57,-82.98,27.0,8.0,260,5,,10.0,30.029528,,,TRUE,TRUE,,,,,,,CLR,,,,,,,,VFR,,,,,,,,,,,,METAR,94.0
KD25 021815Z AUTO 26007KT 10SM CLR M01/M11 A2994 RMK AO2 T10121114,KD25,2018-04-02T18:15:00Z,46.12,-89.88,-1.2,-11.4,260,7,,10.0,29.940945,,,TRUE,TRUE,,,,,,,CLR,,,,,,,,VFR,,,,,,,,,,,,SPECI,491.0
KCZL 021815Z AUTO 18007KT 10SM CLR 25/06 A2999 RMK AO2 T02450062,KCZL,2018-04-02T18:15:00Z,34.47,-84.93,24.5,6.2,180,7,,10.0,29.991142,,,TRUE,TRUE,,,,,,,CLR,,,,,,,,VFR,,,,,,,,,,,,METAR,195.0
KCXP 021815Z AUTO 21004G17KT 10SM BKN065 OVC080 14/M02 A2991 RMK AO2,KCXP,2018-04-02T18:15:00Z,39.18,-119.73,14.0,-2.0,210,4,17,10.0,29.911417,,,TRUE,TRUE,,,,,,,BKN,6500,OVC,8000,,,,,VFR,,,,,,,,,,,,METAR,1435.0
KCXE 021815Z AUTO 06006KT 10SM SCT110 19/08 A3001 RMK AO1 T01880078,KCXE,2018-04-02T18:15:00Z,36.78,-78.5,18.8,7.8,60,6,,10.0,30.008858,,,TRUE,TRUE,,,,,,,SCT,11000,,,,,,,VFR,,,,,,,,,,,,METAR,153.0
KCUH 021815Z AUTO 16004KT 10SM OVC010 04/01 A2984 RMK AO2 T00390005,KCUH,2018-04-02T18:15:00Z,35.95,-96.77,3.9,0.5,160,4,,10.0,29.840551,,,TRUE,TRUE,,,,,,,OVC,1000,,,,,,,MVFR,,,,,,,,,,,,METAR,279.0
KCTY 021815Z AUTO 26008KT 10SM SCT040 BKN050 27/17 A3005 RMK AO2 T02680171,KCTY,2018-04-02T18:15:00Z,29.63,-83.1,26.8,17.1,260,8,,10.0,30.050198,,,TRUE,TRUE,,,,,,,SCT,4000,BKN,5000,,,,,VFR,,,,,,,,,,,,METAR,13.0
KCRX 021815Z AUTO 00000KT 10SM BKN019 BKN055 BKN065 17/11 A2998 RMK AO2,KCRX,2018-04-02T18:15:00Z,34.92,-88.6,17.0,11.0,0,0,,10.0,29.97933,,,TRUE,TRUE,,,,,,,BKN,1900,BKN,5500,BKN,6500,,,MVFR,,,,,,,,,,,,METAR,130.0
KCQM 021815Z AUTO 00000KT 10SM M04/M12 A2993 RMK AO2,KCQM,2018-04-02T18:15:00Z,47.82,-92.68,-4.0,-12.0,0,0,,10.0,29.929134,,,TRUE,TRUE,,,,,,,,,,,,,,,,,,,,,,,,,,,METAR,404.0
KCQB 021815Z AUTO 14005KT 10SM OVC014 05/01 A2986 RMK AO2 T00470011,KCQB,2018-04-02T18:15:00Z,35.72,-96.82,4.7,1.1,140,5,,10.0,29.861221,,,TRUE,TRUE,,,,,,,OVC,1400,,,,,,,MVFR,,,,,,,,,,,,METAR,300.0
KCOM 021815Z AUTO 00000KT 5SM BR BKN004 OVC012 08/07 A2989 RMK AO2 T00780066,KCOM,2018-04-02T18:15:00Z,31.83,-99.4,7.8,6.6,0,0,,5.0,29.890747,,,TRUE,TRUE,,,,,,BR,BKN,400,OVC,1200,,,,,LIFR,,,,,,,,,,,,METAR,517.0
KCNI 021815Z AUTO 00000KT 10SM CLR 26/M01 A3001 RMK AO2,KCNI,2018-04-02T18:15:00Z,34.32,-84.42,26.0,-1.0,0,0,,10.0,30.008858,,,TRUE,TRUE,,,,,,,CLR,,,,,,,,VFR,,,,,,,,,,,,METAR,372.0
KCKZ 021815Z AUTO 00000KT 10SM OVC014 02/00 A3013 RMK AO2,KCKZ,2018-04-02T18:15:00Z,40.38,-75.28,2.0,0.0,0,0,,10.0,30.129921,,,TRUE,TRUE,,,,,,,OVC,1400,,,,,,,MVFR,,,,,,,,,,,,METAR,173.0
KCKP 021815Z AUTO 16015G21KT 10SM OVC023 01/M04 A2980 RMK AO2 T00101036,KCKP,2018-04-02T18:15:00Z,42.73,-95.55,1.0,-3.6,160,15,21,10.0,29.799213,,,TRUE,TRUE,,,,,,,OVC,2300,,,,,,,MVFR,,,,,,,,,,,,METAR,374.0
KCJR 021815Z AUTO 01006KT 10SM BKN024 12/03 A3010 RMK AO2 T01160034,KCJR,2018-04-02T18:15:00Z,38.53,-77.87,11.6,3.4,10,6,,10.0,30.100393,,,TRUE,TRUE,,,,,,,BKN,2400,,,,,,,MVFR,,,,,,,,,,,,METAR,97.0
KCDA 021815Z AUTO 25007G15KT 10SM SCT060 03/M11 A3004 RMK AO2 T00341112,KCDA,2018-04-02T18:15:00Z,44.57,-72.02,3.4,-11.2,250,7,15,10.0,30.041338,,,TRUE,TRUE,,,,,,,SCT,6000,,,,,,,VFR,,,,,,,,,,,,METAR,363.0
KCCO 021815Z AUTO 25007KT 200V280 10SM CLR 26/M03 A3001 RMK AO2 T02581028,KCCO,2018-04-02T18:15:00Z,33.32,-84.77,25.8,-2.8,250,7,,10.0,30.008858,,,TRUE,TRUE,,,,,,,CLR,,,,,,,,VFR,,,,,,,,,,,,METAR,296.0
KCCB 021815Z AUTO VRB03KT 10SM OVC018 13/08 A2990 RMK AO2,KCCB,2018-04-02T18:15:00Z,34.12,-117.68,13.0,8.0,0,3,,10.0,29.899607,,,TRUE,TRUE,,,,,,,OVC,1800,,,,,,,MVFR,,,,,,,,,,,,METAR,440.0
KC83 021815Z AUTO 22013KT 10SM CLR 19/11 A2989 RMK AO2,KC83,2018-04-02T18:15:00Z,37.83,-121.62,19.0,11.0,220,13,,10.0,29.890747,,,TRUE,TRUE,,,,,,,CLR,,,,,,,,VFR,,,,,,,,,,,,METAR,24.0
KC75 021815Z AUTO 16010KT 10SM CLR 04/M09 A3004 RMK AO2 T00351090,KC75,2018-04-02T18:15:00Z,41.02,-89.38,3.5,-9.0,160,10,,10.0,30.041338,,,TRUE,TRUE,,,,,,,CLR,,,,,,,,VFR,,,,,,,,,,,,METAR,173.0
KC65 021815Z AUTO 19006G11KT 10SM CLR 04/M07 A3007 RMK A01,KC65,2018-04-02T18:15:00Z,41.37,-86.3,4.0,-7.0,190,6,11,10.0,30.070866,,,TRUE,TRUE,,,,,,,CLR,,,,,,,,VFR,,,,,,,,,,,,METAR,244.0
KC29 021815Z AUTO 17006G09KT 10SM CLR 03/M09 A3002 RMK AO1 T00311091,KC29,2018-04-02T18:15:00Z,43.12,-89.53,3.1,-9.1,170,6,9,10.0,30.02067,,,TRUE,TRUE,,,,,,,CLR,,,,,,,,VFR,,,,,,,,,,,,METAR,283.0
KC09 021815Z AUTO 16010G14KT 10SM CLR 05/M09 A3006 RMK AO2 T00491093,KC09,2018-04-02T18:15:00Z,41.43,-88.42,4.9,-9.3,160,10,14,10.0,30.059055,,,TRUE,TRUE,,,,,,,CLR,,,,,,,,VFR,,,,,,,,,,,,METAR,178.0
KBVS 021815Z AUTO 27004KT 10SM FEW049 07/M02 A3006 RMK A01,KBVS,2018-04-02T18:15:00Z,48.47,-122.42,7.0,-2.0,270,4,,10.0,30.059055,,,TRUE,TRUE,,,,,,,FEW,4900,,,,,,,VFR,,,,,,,,,,,,METAR,43.0
KBUU 021815Z AUTO 20008KT 150V220 10SM CLR 04/M11 A3005 RMK AO2 T00371110,KBUU,2018-04-02T18:15:00Z,42.68,-88.3,3.7,-11.0,200,8,,10.0,30.050198,,,TRUE,TRUE,,,,,,,CLR,,,,,,,,VFR,,,,,,,,,,,,SPECI,237.0
KBQP 021815Z AUTO 23004KT 10SM BKN010 BKN055 22/21 A2996 RMK AO2 T02170207,KBQP,2018-04-02T18:15:00Z,32.75,-91.88,21.7,20.7,230,4,,10.0,29.958662,,,TRUE,TRUE,,,,,,,BKN,1000,BKN,5500,,,,,MVFR,,,,,,,,,,,,METAR,51.0
KDUB 021815Z AUTO 33014G17KT 7SM -SN SCT006 BKN015 OVC020 01/00 A2942 RMK AO2,KDUB,2018-04-02T18:15:00Z,43.55,-109.68,1.0,0.0,330,14,17,7.0,29.421259,,,TRUE,TRUE,,,,,,-SN,SCT,600,BKN,1500,OVC,2000,,,MVFR,,,,,,,,,,,,METAR,2224.0
KDLL 021815Z AUTO 20007KT 10SM BKN100 BKN120 02/M10 A3000 RMK AO2 T00201104,KDLL,2018-04-02T18:15:00Z,43.52,-89.77,2.0,-10.4,200,7,,10.0,30.0,,,TRUE,TRUE,,,,,,,BKN,10000,BKN,12000,,,,,VFR,,,,,,,,,,,,SPECI,299.0
KDKX 021815Z AUTO 00000KT 10SM OVC046 18/10 A3000 RMK A01,KDKX,2018-04-02T18:15:00Z,35.97,-83.87,18.0,10.0,0,0,,10.0,30.0,,,TRUE,TRUE,,,,,,,OVC,4600,,,,,,,VFR,,,,,,,,,,,,METAR,254.0
KFKN 021815Z AUTO 02006KT 10SM CLR 19/08 A3002 RMK AO2 T01890080,KFKN,2018-04-02T18:15:00Z,36.7,-76.9,18.9,8.0,20,6,,10.0,30.02067,,,TRUE,TRUE,,,,,,,CLR,,,,,,,,VFR,,,,,,,,,,,,METAR,12.0
KFHB 021815Z AUTO 12009KT 10SM CLR 22/17 A3004 RMK AO2 T02190172,KFHB,2018-04-02T18:15:00Z,30.62,-81.47,21.9,17.2,120,9,,10.0,30.041338,,,TRUE,TRUE,,,,,,,CLR,,,,,,,,VFR,,,,,,,,,,,,METAR,5.0
KFGX 021815Z AUTO 12004KT 10SM OVC016 06/03 A3010 RMK AO2 T00580025,KFGX,2018-04-02T18:15:00Z,38.55,-83.75,5.8,2.5,120,4,,10.0,30.100393,,,TRUE,TRUE,,,,,,,OVC,1600,,,,,,,MVFR,,,,,,,,,,,,METAR,278.0
KFFA 021815Z AUTO 01011G23KT 330V040 7SM BKN004 11/07 A3001 RMK AO2 T01120071,KFFA,2018-04-02T18:15:00Z,36.02,-75.67,11.2,7.1,10,11,23,7.0,30.008858,,,TRUE,TRUE,,,,,,,BKN,400,,,,,,,LIFR,,,,,,,,,,,,METAR,4.0
KFCH 021815Z AUTO 31010KT 10SM CLR 20/08 A2988 RMK A01,KFCH,2018-04-02T18:15:00Z,36.72,-119.82,20.0,8.0,310,10,,10.0,29.878937,,,TRUE,TRUE,,,,,,,CLR,,,,,,,,VFR,,,,,,,,,,,,SPECI,85.0
KF44 021815Z AUTO 09005KT 10SM OVC014 16/12 A2987 RMK AO2,KF44,2018-04-02T18:15:00Z,32.17,-95.83,16.0,12.0,90,5,,10.0,29.870079,,,TRUE,TRUE,,,,,,,OVC,1400,,,,,,,MVFR,,,,,,,,,,,,SPECI,135.0
KEZF 021815Z AUTO 05008KT 10SM OVC028 10/05 A3010 RMK AO2 T01010045,KEZF,2018-04-02T18:15:00Z,38.27,-77.45,10.1,4.5,50,8,,10.0,30.100393,,,TRUE,TRUE,,,,,,,OVC,2800,,,,,,,MVFR,,,,,,,,,,,,METAR,26.0
KEYF 021815Z AUTO 24008G16KT 200V270 10SM CLR 28/09 A2997 RMK AO2 T02830094,KEYF,2018-04-02T18:15:00Z,34.6,-78.58,28.3,9.4,240,8,16,10.0,29.970472,,,TRUE,TRUE,,,,,,,CLR,,,,,,,,VFR,,,,,,,,,,,,METAR,41.0
KEXX 021815Z AUTO 29003KT 10SM SCT120 27/07 A2995 RMK AO2 T02650068,KEXX,2018-04-02T18:15:00Z,35.78,-80.3,26.5,6.8,290,3,,10.0,29.949802,,,TRUE,TRUE,,,,,,,SCT,12000,,,,,,,VFR,,,,,,,,,,,,METAR,223.0
KETB 021815Z AUTO 15010G14KT 130V190 10SM CLR 03/M10 A3003 RMK AO2,KETB,2018-04-02T18:15:00Z,43.42,-88.13,3.0,-10.0,150,10,14,10.0,30.029528,,,TRUE,TRUE,,,,,,,CLR,,,,,,,,VFR,,,,,,,,,,,,SPECI,270.0
KEQA 021815Z AUTO 17012KT 10SM OVC012 05/00 A2978 RMK AO2,KEQA,2018-04-02T18:15:00Z,37.78,-96.82,5.0,0.0,170,12,,10.0,29.778543,,,TRUE,TRUE,,,,,,,OVC,1200,,,,,,,MVFR,,,,,,,,,,,,METAR,420.0
KELA 021815Z AUTO 17018G21KT 10SM BKN033 BKN043 28/20 A2986 RMK AO2 T02810203,KELA,2018-04-02T18:15:00Z,29.6,-96.32,28.1,20.3,170,18,21,10.0,29.861221,,,TRUE,TRUE,,,,,,,BKN,3300,BKN,4300,,,,,VFR,,,,,,,,,,,,SPECI,56.0
KEKS 021815Z AUTO 36014KT 1/2SM -SN OVC003 M05/M06 A2961 RMK AO2,KEKS,2018-04-02T18:15:00Z,45.27,-111.65,-5.0,-6.0,360,14,,0.5,29.610237,,,TRUE,TRUE,,,,,,-SN,OVC,300,,,,,,,LIFR,,,,,,,,,,,,SPECI,1641.0
KEHA 021815Z AUTO 20014G18KT 10SM CLR 27/03 A2955 RMK AO2 T02700028,KEHA,2018-04-02T18:15:00Z,37.0,-101.9,27.0,2.8,200,14,18,10.0,29.551182,,,TRUE,TRUE,,,,,,,CLR,,,,,,,,VFR,,,,,,,,,,,,METAR,1099.0
KEFT 021815Z AUTO 15008KT 10SM CLR 01/M09 A3001 RMK AO2,KEFT,2018-04-02T18:15:00Z,42.62,-89.6,1.0,-9.0,150,8,,10.0,30.008858,,,TRUE,TRUE,,,,,,,CLR,,,,,,,,VFR,,,,,,,,,,,,SPECI,331.0
KEDU 021815Z AUTO 36007KT 10SM CLR 18/10 A2990 RMK AO1,KEDU,2018-04-02T18:15:00Z,38.53,-121.78,18.0,10.0,360,7,,10.0,29.899607,,,TRUE,TRUE,,,,,,,CLR,,,,,,,,VFR,,,,,,,,,,,,SPECI,21.0
KEDE 021815Z AUTO 35007KT 10SM CLR 26/12 A2997 RMK AO2 T02570120,KEDE,2018-04-02T18:15:00Z,36.02,-76.57,25.7,12.0,350,7,,10.0,29.970472,,,TRUE,TRUE,,,,,,,CLR,,,,,,,,VFR,,,,,,,,,,,,METAR,6.0
KECS 021815Z AUTO 16004KT 10SM BKN018 05/00 A2947 RMK AO2,KECS,2018-04-02T18:15:00Z,43.88,-104.32,5.0,0.0,160,4,,10.0,29.471457,,,TRUE,TRUE,,,,,,,BKN,1800,,,,,,,MVFR,,,,,,,,,,,,METAR,1273.0
KEBA 021815Z AUTO 27013G16KT 250V320 10SM CLR A2999 RMK AO2,KEBA,2018-04-02T18:15:00Z,34.1,-82.82,,,270,13,16,10.0,29.991142,,,TRUE,TRUE,,,,,,,CLR,,,,,,,,VFR,,,,,,,,,,,,METAR,184.0
KEAN 021815Z AUTO 25020G30KT 10SM SCT055 OVC085 16/M02 A2946 RMK AO2 T01601022,KEAN,2018-04-02T18:15:00Z,42.05,-104.93,16.0,-2.2,250,20,30,10.0,29.459646,,,TRUE,TRUE,,,,,,,SCT,5500,OVC,8500,,,,,VFR,,,,,,,,,,,,METAR,1456.0
KE38 021815Z AUTO 27013G19KT 10SM CLR 27/M09 A2994 RMK AO2 T02741093,KE38,2018-04-02T18:15:00Z,30.38,-103.68,27.4,-9.3,270,13,19,10.0,29.940945,,,TRUE,TRUE,,,,,,,CLR,,,,,,,,VFR,,,,,,,,,,,,SPECI,1376.0
KE16 021815Z AUTO 10003KT 10SM CLR 14/09 A2995 RMK AO2,KE16,2018-04-02T18:15:00Z,37.08,-121.6,14.0,9.0,100,3,,10.0,29.949802,,,TRUE,TRUE,,,,,,,CLR,,,,,,,,VFR,,,,,,,,,,,,SPECI,86.0
KDVO 021815Z AUTO 34010G15KT 10SM CLR 19/09 A2990 RMK AO2,KDVO,2018-04-02T18:15:00Z,38.15,-122.55,19.0,9.0,340,10,15,10.0,29.899607,,,TRUE,TRUE,,,,,,,CLR,,,,,,,,VFR,,,,,,,,,,,,METAR,1.0
KDUC 021815Z AUTO 17008KT 10SM 07/03 A2988 RMK AO2 T00710028,KDUC,2018-04-02T18:15:00Z,34.47,-97.97,7.1,2.8,170,8,,10.0,29.878937,,,TRUE,TRUE,,,,,,,,,,,,,,,,,,,,,,,,,,,METAR,339.0
KTVK 021815Z AUTO 12014KT 10SM 00/M03 A2992 RMK AO2,KTVK,2018-04-02T18:15:00Z,40.68,-92.9,0.0,-3.0,120,14,,10.0,29.920275,,,TRUE,TRUE,,,,,,,,,,,,,,,,,,,,,,,,,,,SPECI,314.0
KFSW 021815Z AUTO 13008KT 10SM CLR M01/M05 A2999 RMK AO2,KFSW,2018-04-02T18:15:00Z,40.67,-91.32,-1.0,-5.0,130,8,,10.0,29.991142,,,TRUE,TRUE,,,,,,,CLR,,,,,,,,VFR,,,,,,,,,,,,SPECI,221.0
KFQD 021815Z AUTO 12005G14KT 10SM CLR 25/07 A2996 RMK AO2 T02460065,KFQD,2018-04-02T18:15:00Z,35.42,-81.93,24.6,6.5,120,5,14,10.0,29.958662,,,TRUE,TRUE,,,,,,,CLR,,,,,,,,VFR,,,,,,,,,,,,METAR,329.0
KFOT 021815Z AUTO 33009KT 10SM FEW022 11/05 A3007 RMK AO1,KFOT,2018-04-02T18:15:00Z,40.55,-124.13,11.0,5.0,330,9,,10.0,30.070866,,,TRUE,TRUE,,,,,,,FEW,2200,,,,,,,VFR,,,,,,,,,,,,SPECI,120.0
KFMM 021815Z AUTO 25005KT 10SM CLR 20/M05 A2948 RMK AO2 T01951052,KFMM,2018-04-02T18:15:00Z,40.33,-103.8,19.5,-5.2,250,5,,10.0,29.480314,,,TRUE,TRUE,,,,,,,CLR,,,,,,,,VFR,,,,,,,,,,,,SPECI,1393.0
KHAE 021815Z AUTO 11007KT 10SM BKN027 OVC048 03/M04 A2997 RMK AO2,KHAE,2018-04-02T18:15:00Z,39.73,-91.45,3.0,-4.0,110,7,,10.0,29.970472,,,TRUE,TRUE,,,,,,,BKN,2700,OVC,4800,,,,,MVFR,,,,,,,,,,,,SPECI,234.0
KFYG 021815Z AUTO 14003KT 7SM OVC008 00/00 A2998 RMK AO2,KFYG,2018-04-02T18:15:00Z,38.58,-91.0,0.0,0.0,140,3,,7.0,29.97933,,,TRUE,TRUE,,,,,,,OVC,800,,,,,,,IFR,,,,,,,,,,,,SPECI,149.0
LHDC 021815Z 24007KT CAVOK 08/02 Q1015 NOSIG,LHDC,2018-04-02T18:15:00Z,47.47,21.62,8.0,2.0,240,7,,6.21,29.970472,,,,,,TRUE,,,,,CAVOK,,,,,,,,VFR,,,,,,,,,,,,METAR,112.0
LHPA 021815Z 15004KT CAVOK 09/01 Q1013 NOSIG RMK BLU,LHPA,2018-04-02T18:15:00Z,47.35,17.5,9.0,1.0,150,4,,6.21,29.911417,,,,,,TRUE,,,,,CAVOK,,,,,,,,VFR,,,,,,,,,,,,METAR,148.0
LHPR 021815Z AUTO 10009KT CAVOK 08/03 Q1013 RMK BLU,LHPR,2018-04-02T18:15:00Z,47.63,17.82,8.0,3.0,100,9,,6.21,29.911417,,,TRUE,,,,,,,,CAVOK,,,,,,,,VFR,,,,,,,,,,,,METAR,129.0
LHUD 021815Z 14004KT CAVOK 10/01 Q1016,LHUD,2018-04-02T18:15:00Z,46.25,20.1,10.0,1.0,140,4,,6.21,30.0,,,,,,,,,,,CAVOK,,,,,,,,VFR,,,,,,,,,,,,METAR,84.0
KRQO 021815Z AUTO 18012KT 10SM OVC011 05/01 A2983 RMK AO2 T00500012,KRQO,2018-04-02T18:15:00Z,35.47,-98.0,5.0,1.2,180,12,,10.0,29.828741,,,TRUE,TRUE,,,,,,,OVC,1100,,,,,,,MVFR,,,,,,,,,,,,SPECI,432.0
KPSK 021815Z AUTO 35003KT 10SM OVC031 14/09 A3002 RMK AO2 T01370087,KPSK,2018-04-02T18:15:00Z,37.12,-80.67,13.7,8.7,350,3,,10.0,30.02067,,,TRUE,TRUE,,,,,,,OVC,3100,,,,,,,VFR,,,,,,,,,,,,SPECI,642.0
KMYZ 021815Z AUTO 16013KT 10SM OVC008 00/M02 A2978 RMK AO2,KMYZ,2018-04-02T18:15:00Z,39.85,-96.63,0.0,-2.0,160,13,,10.0,29.778543,,,TRUE,TRUE,,,,,,,OVC,800,,,,,,,IFR,,,,,,,,,,,,SPECI,319.0
KMPZ 021815Z AUTO 15016G19KT 10SM CLR 03/M07 A2997 RMK AO2,KMPZ,2018-04-02T18:15:00Z,40.95,-91.52,3.0,-7.0,150,16,19,10.0,29.970472,,,TRUE,TRUE,,,,,,,CLR,,,,,,,,VFR,,,,,,,,,,,,SPECI,224.0
KLVN 021815Z AUTO 16006KT 3/4SM -SN OVC005 M03/M03 A2994 RMK AO2,KLVN,2018-04-02T18:15:00Z,44.63,-93.23,-3.0,-3.0,160,6,,0.75,29.940945,,,TRUE,TRUE,,,,,,-SN,OVC,500,,,,,,,LIFR,,,,,,,,,,,,SPECI,293.0
KIDP 021815Z AUTO 14005KT 7SM OVC005 02/01 A2986 RMK AO2 T00240013,KIDP,2018-04-02T18:15:00Z,37.17,-95.78,2.4,1.3,140,5,,7.0,29.861221,,,TRUE,TRUE,,,,,,,OVC,500,,,,,,,IFR,,,,,,,,,,,,SPECI,251.0
KEVU 021815Z AUTO 15014KT M01/M07 A2984 RMK AO2,KEVU,2018-04-02T18:15:00Z,40.35,-94.92,-1.0,-7.0,150,14,,,29.840551,,,TRUE,TRUE,,,,,,,,,,,,,,,,,,,,,,,,,,,SPECI,349.0
KEOE 021815Z AUTO 24011G15KT 10SM CLR 26/08 A3000 RMK AO2,KEOE,2018-04-02T18:15:00Z,34.32,-81.63,26.0,8.0,240,11,15,10.0,30.0,,,TRUE,TRUE,,,,,,,CLR,,,,,,,,VFR,,,,,,,,,,,,SPECI,174.0
KEHY 021815Z AUTO 24023G33KT 10SM TS SCT060 SCT070 SCT090 10/M07 A2952 RMK AO2,KEHY,2018-04-02T18:15:00Z,41.73,-106.47,10.0,-7.0,240,23,33,10.0,29.518702,,,TRUE,TRUE,,,,,,TS,SCT,6000,SCT,7000,SCT,9000,,,VFR,,,,,,,,,,,,SPECI,2225.0
KEBS 021815Z AUTO 16018G24KT 10SM CLR 03/M05 A2986 RMK AO2,KEBS,2018-04-02T18:15:00Z,42.42,-93.87,3.0,-5.0,160,18,24,10.0,29.861221,,,TRUE,TRUE,,,,,,,CLR,,,,,,,,VFR,,,,,,,,,,,,SPECI,342.0
KDVK 021815Z AUTO 10007KT 10SM OVC008 06/04 A3005 RMK AO2,KDVK,2018-04-02T18:15:00Z,37.58,-84.77,6.0,4.0,100,7,,10.0,30.050198,,,TRUE,TRUE,,,,,,,OVC,800,,,,,,,IFR,,,,,,,,,,,,SPECI,312.0
KCBK 021815Z AUTO 16016G20KT 10SM CLR 14/00 A2953 RMK AO2,KCBK,2018-04-02T18:15:00Z,39.43,-101.05,14.0,0.0,160,16,20,10.0,29.530512,,,TRUE,TRUE,,,,,,,CLR,,,,,,,,VFR,,,,,,,,,,,,SPECI,971.0
KBXK 021815Z AUTO 20006KT 10SM CLR 26/M05 A2978 RMK AO1,KBXK,2018-04-02T18:15:00Z,33.42,-112.68,26.0,-5.0,200,6,,10.0,29.778543,,,TRUE,TRUE,,,,,,,CLR,,,,,,,,VFR,,,,,,,,,,,,SPECI,315.0
KBCB 021815Z AUTO 29003KT 10SM OVC095 14/09 A3004 RMK AO2 T01410089,KBCB,2018-04-02T18:15:00Z,37.22,-80.42,14.1,8.9,290,3,,10.0,30.041338,,,TRUE,TRUE,,,,,,,OVC,9500,,,,,,,VFR,,,,,,,,,,,,SPECI,650.0
KAPS 021815Z AUTO 00000KT 10SM OVC042 28/17 A3000 RMK AO2 T02840170,KAPS,2018-04-02T18:15:00Z,30.08,-90.58,28.4,17.0,0,0,,10.0,30.0,,,TRUE,TRUE,,,,,,,OVC,4200,,,,,,,VFR,,,,,,,,,,,,SPECI,2.0
K42J 021815Z AUTO 20003KT 10SM FEW037 FEW048 28/13 A3004 RMK AO1 TSNO,K42J,2018-04-02T18:15:00Z,29.85,-82.05,28.0,13.0,200,3,,10.0,30.041338,,,TRUE,TRUE,,,TRUE,,,,FEW,3700,FEW,4800,,,,,VFR,,,,,,,,,,,,SPECI,60.0
K1K1 021815Z AUTO 18012G16KT 10SM OVC014 03/M01 A2978 RMK AO2 T00281010,K1K1,2018-04-02T18:15:00Z,37.77,-97.12,2.8,-1.0,180,12,16,10.0,29.778543,,,TRUE,TRUE,,,,,,,OVC,1400,,,,,,,MVFR,,,,,,,,,,,,SPECI,416.0
K1F0 021815Z AUTO 00000KT 10SM OVC008 06/03 A2988 RMK AO2,K1F0,2018-04-02T18:15:00Z,34.15,-97.12,6.0,3.0,0,0,,10.0,29.878937,,,TRUE,TRUE,,,,,,,OVC,800,,,,,,,IFR,,,,,,,,,,,,SPECI,257.0
LMML 021815Z 23004KT CAVOK 13/09 Q1020 NOSIG,LMML,2018-04-02T18:15:00Z,35.85,14.47,13.0,9.0,230,4,,6.21,30.11811,,,,,,TRUE,,,,,CAVOK,,,,,,,,VFR,,,,,,,,,,,,METAR,91.0
KY49 021815Z AUTO 08004KT 2SM -SN OVC028 M06/M09 A2991 RMK AO2 T10621094,KY49,2018-04-02T18:15:00Z,47.13,-94.65,-6.2,-9.4,80,4,,2.0,29.911417,,,TRUE,TRUE,,,,,,-SN,OVC,2800,,,,,,,IFR,,,,,,,,,,,,SPECI,416.0
KY23 021815Z AUTO 00000KT 10SM BKN040 OVC049 00/M09 A2994 RMK AO2 T00001090,KY23,2018-04-02T18:15:00Z,45.3,-91.63,0.0,-9.0,0,0,,10.0,29.940945,,,TRUE,TRUE,,,,,,,BKN,4000,OVC,4900,,,,,VFR,,,,,,,,,,,,SPECI,322.0
KWDR 021815Z AUTO 24007KT 10SM CLR 27/04 A3002 RMK AO1,KWDR,2018-04-02T18:15:00Z,33.98,-83.67,27.0,4.0,240,7,,10.0,30.02067,,,TRUE,TRUE,,,,,,,CLR,,,,,,,,VFR,,,,,,,,,,,,SPECI,287.0
KW81 021815Z AUTO 03005KT 10SM BKN060 15/06 A3004 RMK AO1 T01500063,KW81,2018-04-02T18:15:00Z,37.18,-78.1,15.0,6.3,30,5,,10.0,30.041338,,,TRUE,TRUE,,,,,,,BKN,6000,,,,,,,VFR,,,,,,,,,,,,SPECI,129.0
KW43 021815Z AUTO 5SM -SN SCT011 SCT026 OVC039 M02/M04 A2955 RMK AO2,KW43,2018-04-02T18:15:00Z,44.67,-104.57,-2.0,-4.0,,,,5.0,29.551182,,,TRUE,TRUE,,,,,,-SN,SCT,1100,SCT,2600,OVC,3900,,,MVFR,,,,,,,,,,,,SPECI,1300.0
KW13 021815Z AUTO 35006KT 10SM SCT015 OVC030 08/05 A3005 RMK AO1 T00810048,KW13,2018-04-02T18:15:00Z,38.08,-78.95,8.1,4.8,350,6,,10.0,30.050198,,,TRUE,TRUE,,,,,,,SCT,1500,OVC,3000,,,,,MVFR,,,,,,,,,,,,SPECI,443.0
KTVI 021815Z AUTO 33004KT 10SM SCT042 26/14 A3006 RMK AO2,KTVI,2018-04-02T18:15:00Z,30.9,-83.88,26.0,14.0,330,4,,10.0,30.059055,,,TRUE,TRUE,,,,,,,SCT,4200,,,,,,,VFR,,,,,,,,,,,,SPECI,80.0
KTOC 021815Z AUTO 27008G16KT 10SM CLR 29/07 A2997 RMK AO2 T02850072,KTOC,2018-04-02T18:15:00Z,34.6,-83.3,28.5,7.2,270,8,16,10.0,29.970472,,,TRUE,TRUE,,,,,,,CLR,,,,,,,,VFR,,,,,,,,,,,,SPECI,304.0
KT82 021815Z AUTO 18008KT 10SM BKN023 BKN028 OVC034 23/17 A2983 RMK AO2 T02310168,KT82,2018-04-02T18:15:00Z,30.25,-98.92,23.1,16.8,180,8,,10.0,29.828741,,,TRUE,TRUE,,,,,,,BKN,2300,BKN,2800,OVC,3400,,,MVFR,,,,,,,,,,,,SPECI,517.0
KT20 021815Z AUTO 16015G22KT 10SM SCT034 28/20 A2982 RMK AO2 T02820196,KT20,2018-04-02T18:15:00Z,29.52,-97.47,28.2,19.6,160,15,22,10.0,29.819881,,,TRUE,TRUE,,,,,,,SCT,3400,,,,,,,VFR,,,,,,,,,,,,SPECI,108.0
KSTE 021815Z AUTO 00000KT 10SM CLR 00/M09 A3000 RMK AO2 T00001094,KSTE,2018-04-02T18:15:00Z,44.55,-89.53,0.0,-9.4,0,0,,10.0,30.0,,,TRUE,TRUE,,,,,,,CLR,,,,,,,,VFR,,,,,,,,,,,,SPECI,338.0
KSME 021815Z AUTO 03006KT 10SM OVC011 08/06 A3005 RMK AO2,KSME,2018-04-02T18:15:00Z,37.05,-84.62,8.0,6.0,30,6,,10.0,30.050198,,,TRUE,TRUE,,,,,,,OVC,1100,,,,,,,MVFR,,,,,,,,,,,,SPECI,283.0
KSFQ 021815Z AUTO 36011G16KT 10SM CLR 17/08 A3003 RMK AO2 T01680084,KSFQ,2018-04-02T18:15:00Z,36.68,-76.6,16.8,8.4,360,11,16,10.0,30.029528,,,TRUE,TRUE,,,,,,,CLR,,,,,,,,VFR,,,,,,,,,,,,SPECI,22.0
KSEF 021815Z AUTO 15008KT 10SM CLR 30/16 A3003 RMK AO2 T02960158,KSEF,2018-04-02T18:15:00Z,27.45,-81.35,29.6,15.8,150,8,,10.0,30.029528,,,TRUE,TRUE,,,,,,,CLR,,,,,,,,VFR,,,,,,,,,,,,SPECI,19.0
LIPR 021815Z 13002KT CAVOK 12/09 Q1015,LIPR,2018-04-02T18:15:00Z,44.02,12.62,12.0,9.0,130,2,,6.21,29.970472,,,,,,,,,,,CAVOK,,,,,,,,VFR,,,,,,,,,,,,METAR,13.0
KGBG 021815Z AUTO 12010G17KT 10SM CLR 05/M07 A3000 RMK AO2 T00501068,KGBG,2018-04-02T18:15:00Z,40.93,-90.43,5.0,-6.8,120,10,17,10.0,30.0,,,TRUE,TRUE,,,,,,,CLR,,,,,,,,VFR,,,,,,,,,,,,SPECI,233.0
KFZG 021815Z AUTO 23007KT 180V260 10SM 26/15 A3006 RMK AO2 T02570149,KFZG,2018-04-02T18:15:00Z,31.68,-83.27,25.7,14.9,230,7,,10.0,30.059055,,,TRUE,TRUE,,,,,,,,,,,,,,,,,,,,,,,,,,,METAR,111.0
KFYM 021815Z AUTO 23007KT 10SM SCT034 SCT045 20/13 A2999 RMK A01,KFYM,2018-04-02T18:15:00Z,35.07,-86.57,20.0,13.0,230,7,,10.0,29.991142,,,TRUE,TRUE,,,,,,,SCT,3400,SCT,4500,,,,,VFR,,,,,,,,,,,,METAR,300.0
KFYE 021815Z AUTO 00000KT 10SM OVC015 14/09 A2996 RMK A01,KFYE,2018-04-02T18:15:00Z,35.2,-89.38,14.0,9.0,0,0,,10.0,29.958662,,,TRUE,TRUE,,,,,,,OVC,1500,,,,,,,MVFR,,,,,,,,,,,,METAR,133.0
KFWC 021815Z AUTO 08006KT 7SM OVC008 04/02 A3003 RMK AO1 T00360023,KFWC,2018-04-02T18:15:00Z,38.38,-88.42,3.6,2.3,80,6,,7.0,30.029528,,,TRUE,TRUE,,,,,,,OVC,800,,,,,,,IFR,,,,,,,,,,,,SPECI,133.0
KFVX 021815Z AUTO 36006KT 10SM BKN055 OVC120 16/05 A3004 RMK AO2 T01550053,KFVX,2018-04-02T18:15:00Z,37.35,-78.42,15.5,5.3,360,6,,10.0,30.041338,,,TRUE,TRUE,,,,,,,BKN,5500,OVC,12000,,,,,VFR,,,,,,,,,,,,METAR,125.0
KFTN 021815Z AUTO 15009G16KT 10SM BKN040 29/18 A2975 RMK A01,KFTN,2018-04-02T18:15:00Z,28.22,-100.02,29.0,18.0,150,9,16,10.0,29.749016,,,TRUE,TRUE,,,,,,,BKN,4000,,,,,,,VFR,,,,,,,,,,,,SPECI,236.0
KS39 021815Z AUTO 31012G18KT 10SM BKN042 BKN050 03/M08 A3003 RMK AO2,KS39,2018-04-02T18:15:00Z,44.28,-120.9,3.0,-8.0,310,12,18,10.0,30.029528,,,TRUE,TRUE,,,,,,,BKN,4200,BKN,5000,,,,,VFR,,,,,,,,,,,,SPECI,991.0
KRZN 021815Z AUTO 11003KT 10SM SCT049 BKN060 OVC075 02/M10 A2993 RMK AO2 T00171104,KRZN,2018-04-02T18:15:00Z,45.82,-92.37,1.7,-10.4,110,3,,10.0,29.929134,,,TRUE,TRUE,,,,,,,SCT,4900,BKN,6000,OVC,7500,,,VFR,,,,,,,,,,,,SPECI,301.0
KRPH 021815Z AUTO 16003KT 07/06 A2986 RMK AO2 T00660059 PWINO,KRPH,2018-04-02T18:15:00Z,33.12,-98.55,6.6,5.9,160,3,,,29.861221,,,TRUE,TRUE,,,,,TRUE,,,,,,,,,,,,,,,,,,,,,,SPECI,342.0
KPVW 021815Z AUTO 21015G19KT 10SM CLR 19/05 A2975 RMK AO2 T01910051,KPVW,2018-04-02T18:15:00Z,34.17,-101.72,19.1,5.1,210,15,19,10.0,29.749016,,,TRUE,TRUE,,,,,,,CLR,,,,,,,,VFR,,,,,,,,,,,,SPECI,1028.0
KPTT 021815Z AUTO 17016KT 10SM SCT020 06/M03 A2970 RMK AO2 T00621033,KPTT,2018-04-02T18:15:00Z,37.7,-98.75,6.2,-3.3,170,16,,10.0,29.698818,,,TRUE,TRUE,,,,,,,SCT,2000,,,,,,,VFR,,,,,,,,,,,,METAR,595.0
KSBO 021815Z AUTO 26007KT 10SM CLR 27/10 A3002 RMK AO2,KSBO,2018-04-02T18:15:00Z,32.62,-82.37,27.0,10.0,260,7,,10.0,30.02067,,,TRUE,TRUE,,,,,,,CLR,,,,,,,,VFR,,,,,,,,,,,,SPECI,100.0
LIRP 021815Z 20005KT 9999 FEW025 12/09 Q1017 NOSIG,LIRP,2018-04-02T18:15:00Z,43.67,10.37,12.0,9.0,200,5,,6.21,30.029528,,,,,,TRUE,,,,,FEW,2500,,,,,,,VFR,,,,,,,,,,,,METAR,2.0
KNOW 021815Z AUTO 31015KT 10SM CLR 08/01 A3004 RMK AO2 T00820012,KNOW,2018-04-02T18:15:00Z,48.13,-123.4,8.2,1.2,310,15,,10.0,30.041338,,,TRUE,TRUE,,,,,,,CLR,,,,,,,,VFR,,,,,,,,,,,,SPECI,4.0
KMTV 021815Z AUTO 00000KT 10SM SCT100 SCT120 20/09 A3000 RMK AO2 T01950094,KMTV,2018-04-02T18:15:00Z,36.63,-80.02,19.5,9.4,0,0,,10.0,30.0,,,TRUE,TRUE,,,,,,,SCT,10000,SCT,12000,,,,,VFR,,,,,,,,,,,,METAR,287.0
KMNV 021815Z AUTO 22008G13KT 10SM CLR 24/12 A2996 RMK A01,KMNV,2018-04-02T18:15:00Z,35.55,-84.38,24.0,12.0,220,8,13,10.0,29.958662,,,TRUE,TRUE,,,,,,,CLR,,,,,,,,VFR,,,,,,,,,,,,METAR,314.0
KMGR 021815Z AUTO 24009KT 10SM SCT040 25/14 A3006 RMK AO2,KMGR,2018-04-02T18:15:00Z,31.08,-83.8,25.0,14.0,240,9,,10.0,30.059055,,,TRUE,TRUE,,,,,,,SCT,4000,,,,,,,VFR,,,,,,,,,,,,METAR,90.0
KMCC 021815Z AUTO 09003KT 10SM CLR 18/09 A2990 RMK AO2,KMCC,2018-04-02T18:15:00Z,38.67,-121.4,18.0,9.0,90,3,,10.0,29.899607,,,TRUE,TRUE,,,,,,,CLR,,,,,,,,VFR,,,,,,,,,,,,SPECI,23.0
KLCK 021815Z AUTO 13004KT 10SM OVC023 05/00 A3011 RMK AO2 T00490002,KLCK,2018-04-02T18:15:00Z,39.82,-82.92,4.9,0.2,130,4,,10.0,30.109253,,,TRUE,TRUE,,,,,,,OVC,2300,,,,,,,MVFR,,,,,,,,,,,,SPECI,227.0
KHSP 021815Z AUTO 26006KT 10SM BKN006 OVC017 07/07 A3002 RMK AO2 T00720068,KHSP,2018-04-02T18:15:00Z,37.95,-79.82,7.2,6.8,260,6,,10.0,30.02067,,,TRUE,TRUE,,,,,,,BKN,600,OVC,1700,,,,,IFR,,,,,,,,,,,,METAR,1156.0
KHQG 021815Z AUTO 19016G21KT 10SM CLR 23/M01 A2956 RMK AO2 T02301006,KHQG,2018-04-02T18:15:00Z,37.17,-101.37,23.0,-0.6,190,16,21,10.0,29.56004,,,TRUE,TRUE,,,,,,,CLR,,,,,,,,VFR,,,,,,,,,,,,METAR,956.0
KHQG 021815Z AUTO 19016G21KT 10SM CLR 23/M01 A2956 RMK AO2 T02301006,KHQG,2018-04-02T18:15:00Z,37.17,-101.37,23.0,-0.6,190,16,21,10.0,29.56004,,,TRUE,TRUE,,,,,,,CLR,,,,,,,,VFR,,,,,,,,,,,,METAR,956.0
KF45 021815Z AUTO 10011G15KT 10SM BKN038 29/17 A3003 RMK AO2,KF45,2018-04-02T18:15:00Z,,,29.0,17.0,100,11,15,10.0,30.029528,,,TRUE,TRUE,,,,,,,BKN,3800,,,,,,,VFR,,,,,,,,,,,,METAR,
KEMV 021815Z AUTO 01009G16KT 10SM CLR 17/07 A3003 RMK AO2,KEMV,2018-04-02T18:15:00Z,36.68,-77.48,17.0,7.0,10,9,16,10.0,30.029528,,,TRUE,TRUE,,,,,,,CLR,,,,,,,,VFR,,,,,,,,,,,,METAR,39.0
KDWX 021815Z AUTO 24017G31KT 10SM CLR 13/M07 A2961 RMK AO2 T01261071,KDWX,2018-04-02T18:15:00Z,41.03,-107.5,12.6,-7.1,240,17,31,10.0,29.610237,,,TRUE,TRUE,,,,,,,CLR,,,,,,,,VFR,,,,,,,,,,,,SPECI,1996.0
KDTA 021815Z AUTO 23010KT 10SM CLR 16/M06 A2971 RMK AO1,KDTA,2018-04-02T18:15:00Z,39.38,-112.5,16.0,-6.0,230,10,,10.0,29.71063,,,TRUE,TRUE,,,,,,,CLR,,,,,,,,VFR,,,,,,,,,,,,SPECI,1402.0
KCVB 021815Z AUTO 13009G18KT 7SM BKN033 BKN041 27/17 A2981 RMK AO2 T02690171,KCVB,2018-04-02T18:15:00Z,29.35,-98.85,26.9,17.1,130,9,18,7.0,29.811024,,,TRUE,TRUE,,,,,,,BKN,3300,BKN,4100,,,,,VFR,,,,,,,,,,,,SPECI,235.0
KCPK 021815Z AUTO 36010G18KT 10SM CLR 13/05 A3004 RMK AO2 T01300054,KCPK,2018-04-02T18:15:00Z,36.67,-76.32,13.0,5.4,360,10,18,10.0,30.041338,,,TRUE,TRUE,,,,,,,CLR,,,,,,,,VFR,,,,,,,,,,,,METAR,6.0
KBKD 021815Z AUTO 14004KT 10SM OVC010 09/05 A2986 RMK AO2 T00890046,KBKD,2018-04-02T18:15:00Z,32.72,-98.88,8.9,4.6,140,4,,10.0,29.861221,,,TRUE,TRUE,,,,,,,OVC,1000,,,,,,,MVFR,,,,,,,,,,,,SPECI,392.0
K6A2 021815Z AUTO 28005KT 10SM CLR 25/02 A3001 RMK AO2,K6A2,2018-04-02T18:15:00Z,33.23,-84.27,25.0,2.0,280,5,,10.0,30.008858,,,TRUE,TRUE,,,,,,,CLR,,,,,,,,VFR,,,,,,,,,,,,METAR,292.0
K3N8 021815Z AUTO 06008KT 10SM BKN029 OVC035 M03/M09 A2988 RMK AO2 T10351089,K3N8,2018-04-02T18:15:00Z,47.25,-95.88,-3.5,-8.9,60,8,,10.0,29.878937,,,TRUE,TRUE,,,,,,,BKN,2900,OVC,3500,,,,,MVFR,,,,,,,,,,,,SPECI,383.0
K17J 021815Z AUTO 18003KT 10SM SCT021 SCT036 22/17 A3005 RMK AO2 T02220168,K17J,2018-04-02T18:15:00Z,31.07,-84.92,22.2,16.8,180,3,,10.0,30.050198,,,TRUE,TRUE,,,,,,,SCT,2100,SCT,3600,,,,,VFR,,,,,,,,,,,,METAR,45.0
K0V4 021815Z AUTO 02008KT 10SM SCT120 17/08 A3002 RMK AO1 T01690075,K0V4,2018-04-02T18:15:00Z,37.15,-79.02,16.9,7.5,20,8,,10.0,30.02067,,,TRUE,TRUE,,,,,,,SCT,12000,,,,,,,VFR,,,,,,,,,,,,METAR,182.0
KNY0 021815Z AUTO 32008G14KT 10SM CLR 05/M09 A3007 RMK AO2,KNY0,2018-04-02T18:15:00Z,42.98,-74.33,5.0,-9.0,320,8,14,10.0,30.070866,,,TRUE,TRUE,,,,,,,CLR,,,,,,,,VFR,,,,,,,,,,,,SPECI,271.0
KOPL 021815Z AUTO 10SM SCT070 26/17 A2998 RMK AO2 T02610173,KOPL,2018-04-02T18:15:00Z,30.55,-92.1,26.1,17.3,,,,10.0,29.97933,,,TRUE,TRUE,,,,,,,SCT,7000,,,,,,,VFR,,,,,,,,,,,,METAR,23.0
KPNA 021815Z AUTO 27024G34KT 10SM SCT048 BKN050 07/M02 A2951 RMK AO2,KPNA,2018-04-02T18:15:00Z,42.8,-109.8,7.0,-2.0,270,24,34,10.0,29.509842,,,TRUE,TRUE,,,,,,,SCT,4800,BKN,5000,,,,,VFR,,,,,,,,,,,,SPECI,2160.0
KPNT 021815Z AUTO 17011G16KT 10SM CLR 04/M04 A3007 RMK AO2 T00401045,KPNT,2018-04-02T18:15:00Z,40.92,-88.62,4.0,-4.5,170,11,16,10.0,30.070866,,,TRUE,TRUE,,,,,,,CLR,,,,,,,,VFR,,,,,,,,,,,,SPECI,201.0
KPRG 021815Z AUTO 13007KT 10SM OVC014 03/01 A3008 RMK AO2 T00280007,KPRG,2018-04-02T18:15:00Z,39.7,-87.67,2.8,0.7,130,7,,10.0,30.079725,,,TRUE,TRUE,,,,,,,OVC,1400,,,,,,,MVFR,,,,,,,,,,,,SPECI,199.0
KPTD 021815Z AUTO 23018G23KT 10SM OVC060 04/M09 A3008 RMK AO2,KPTD,2018-04-02T18:15:00Z,44.68,-74.95,4.0,-9.0,230,18,23,10.0,30.079725,,,TRUE,TRUE,,,,,,,OVC,6000,,,,,,,VFR,,,,,,,,,,,,SPECI,144.0
KGHG 021815Z AUTO 04006KT 10SM BKN009 OVC016 02/01 A3010 RMK AO2,KGHG,2018-04-02T18:15:00Z,42.1,-70.67,2.0,1.0,40,6,,10.0,30.100393,,,TRUE,TRUE,,,,,,,BKN,900,OVC,1600,,,,,IFR,,,,,,,,,,,,SPECI,4.0
KGGP 021815Z AUTO 13010KT 10SM BKN024 02/M02 A3011 RMK AO2,KGGP,2018-04-02T18:15:00Z,40.72,-86.37,2.0,-2.0,130,10,,10.0,30.109253,,,TRUE,TRUE,,,,,,,BKN,2400,,,,,,,MVFR,,,,,,,,,,,,SPECI,225.0
KGDJ 021815Z AUTO 00000KT 7SM OVC008 08/06 A2991 RMK AO2 T00820060,KGDJ,2018-04-02T18:15:00Z,32.45,-97.82,8.2,6.0,0,0,,7.0,29.911417,,,TRUE,TRUE,,,,,,,OVC,800,,,,,,,IFR,,,,,,,,,,,,METAR,237.0
KGCD 021815Z AUTO 28017G25KT 7SM SCT025 BKN038 OVC044 02/M04 A2996 RMK AO2 T00201045,KGCD,2018-04-02T18:15:00Z,44.38,-118.97,2.0,-4.5,280,17,25,7.0,29.958662,,,TRUE,TRUE,,,,,,,SCT,2500,BKN,3800,OVC,4400,,,VFR,,,,,,,,,,,,METAR,1127.0
KGKT 021815Z AUTO 00000KT 10SM BKN050 OVC065 17/09 A2999 RMK A01,KGKT,2018-04-02T18:15:00Z,35.85,-83.53,17.0,9.0,0,0,,10.0,29.991142,,,TRUE,TRUE,,,,,,,BKN,5000,OVC,6500,,,,,VFR,,,,,,,,,,,,METAR,309.0
KREG 021815Z AUTO 19004KT 10SM SCT042 OVC055 26/17 A2998 RMK AO2 T02560174 TSNO,KREG,2018-04-02T18:15:00Z,30.17,-90.93,25.6,17.4,190,4,,10.0,29.97933,,,TRUE,TRUE,,,TRUE,,,,SCT,4200,OVC,5500,,,,,VFR,,,,,,,,,,,,METAR,4.0
KRDK 021815Z AUTO 16012KT 10SM OVC017 01/M04 A2985 RMK AO2,KRDK,2018-04-02T18:15:00Z,41.02,-95.27,1.0,-4.0,160,12,,10.0,29.84941,,,TRUE,TRUE,,,,,,,OVC,1700,,,,,,,MVFR,,,,,,,,,,,,METAR,318.0
KRCX 021815Z AUTO 16007KT 10SM SCT045 BKN060 OVC090 00/M09 A2997 RMK AO2 T00041089,KRCX,2018-04-02T18:15:00Z,45.5,-91.0,0.4,-8.9,160,7,,10.0,29.970472,,,TRUE,TRUE,,,,,,,SCT,4500,BKN,6000,OVC,9000,,,VFR,,,,,,,,,,,,METAR,377.0
KRCV 021815Z AUTO 23019G23KT 10SM CLR 16/M09 A2975 RMK AO2 T01561092,KRCV,2018-04-02T18:15:00Z,37.72,-106.35,15.6,-9.2,230,19,23,10.0,29.749016,,,TRUE,TRUE,,,,,,,CLR,,,,,,,,VFR,,,,,,,,,,,,METAR,2424.0
KRCR 021815Z AUTO 15005KT 10SM SCT028 05/M03 A3009 RMK AO2,KRCR,2018-04-02T18:15:00Z,41.07,-86.18,5.0,-3.0,150,5,,10.0,30.088583,,,TRUE,TRUE,,,,,,,SCT,2800,,,,,,,VFR,,,,,,,,,,,,METAR,241.0
KRBO 021815Z AUTO 15018G23KT 10SM BKN025 BKN033 28/21 A2980 RMK AO2 T02810211,KRBO,2018-04-02T18:15:00Z,27.78,-97.68,28.1,21.1,150,18,23,10.0,29.799213,,,TRUE,TRUE,,,,,,,BKN,2500,BKN,3300,,,,,MVFR,,,,,,,,,,,,METAR,24.0
KPYX 021815Z AUTO 21019G24KT 10SM CLR 22/03 A2962 RMK AO2 T02180029,KPYX,2018-04-02T18:15:00Z,36.42,-100.75,21.8,2.9,210,19,24,10.0,29.619095,,,TRUE,TRUE,,,,,,,CLR,,,,,,,,VFR,,,,,,,,,,,,METAR,889.0
KPXE 021815Z AUTO 23010KT 10SM CLR 25/10 A3001 RMK AO2 T02510098,KPXE,2018-04-02T18:15:00Z,32.52,-83.77,25.1,9.8,230,10,,10.0,30.008858,,,TRUE,TRUE,,,,,,,CLR,,,,,,,,VFR,,,,,,,,,,,,METAR,127.0
KPUJ 021815Z AUTO 23007KT 10SM CLR 28/05 A3000 RMK AO2,KPUJ,2018-04-02T18:15:00Z,33.92,-84.93,28.0,5.0,230,7,,10.0,30.0,,,TRUE,TRUE,,,,,,,CLR,,,,,,,,VFR,,,,,,,,,,,,METAR,393.0
KPTB 021815Z AUTO 34010G14KT 10SM BKN065 15/05 A3006 RMK AO2 T01490045,KPTB,2018-04-02T18:15:00Z,37.17,-77.52,14.9,4.5,340,10,14,10.0,30.059055,,,TRUE,TRUE,,,,,,,BKN,6500,,,,,,,VFR,,,,,,,,,,,,METAR,59.0
KPSO 021815Z AUTO 22015G19KT 10SM CLR 15/M12 A2983 RMK AO2 T01451121,KPSO,2018-04-02T18:15:00Z,37.28,-107.05,14.5,-12.1,220,15,19,10.0,29.828741,,,TRUE,TRUE,,,,,,,CLR,,,,,,,,VFR,,,,,,,,,,,,METAR,2334.0
KPSN 021815Z AUTO 21005KT 10SM SCT034 SCT042 OVC047 22/18 A2989 RMK AO2 T02260182,KPSN,2018-04-02T18:15:00Z,31.78,-95.7,22.6,18.2,210,5,,10.0,29.890747,,,TRUE,TRUE,,,,,,,SCT,3400,SCT,4200,OVC,4700,,,VFR,,,,,,,,,,,,METAR,129.0
KPRS 021815Z AUTO 27007G17KT 190V300 10SM CLR 29/M04 A2985 RMK AO2 T02921042,KPRS,2018-04-02T18:15:00Z,29.63,-104.35,29.2,-4.2,270,7,17,10.0,29.84941,,,TRUE,TRUE,,,,,,,CLR,,,,,,,,VFR,,,,,,,,,,,,METAR,896.0
KPPQ 021815Z AUTO 11013G18KT 10SM SCT020 BKN031 OVC050 04/00 A2999 RMK AO2 T00371001,KPPQ,2018-04-02T18:15:00Z,39.63,-90.78,3.7,-0.1,110,13,18,10.0,29.991142,,,TRUE,TRUE,,,,,,,SCT,2000,BKN,3100,OVC,5000,,,VFR,,,,,,,,,,,,METAR,216.0
KPPO 021815Z AUTO 19006KT 10SM CLR 04/M05 A3007 RMK AO2 T00441052,KPPO,2018-04-02T18:15:00Z,41.57,-86.73,4.4,-5.2,190,6,,10.0,30.070866,,,TRUE,TRUE,,,,,,,CLR,,,,,,,,VFR,,,,,,,,,,,,METAR,248.0
KPMV 021815Z AUTO 14011KT 10SM OVC011 M02/M05 A2983 RMK AO2 T10161050,KPMV,2018-04-02T18:15:00Z,40.95,-95.92,-1.6,-5.0,140,11,,10.0,29.828741,,,TRUE,TRUE,,,,,,,OVC,1100,,,,,,,MVFR,,,,,,,,,,,,METAR,367.0
KPKV 021815Z AUTO 15015G21KT 10SM SCT023 BKN030 BKN037 27/20 A2986 RMK AO2 T02650199,KPKV,2018-04-02T18:15:00Z,28.65,-96.68,26.5,19.9,150,15,21,10.0,29.861221,,,TRUE,TRUE,,,,,,,SCT,2300,BKN,3000,BKN,3700,,,MVFR,,,,,,,,,,,,METAR,9.0
KPEZ 021815Z AUTO 17011G17KT 10SM SCT038 SCT045 29/18 A2980 RMK AO2 T02860182,KPEZ,2018-04-02T18:15:00Z,28.95,-98.52,28.6,18.2,170,11,17,10.0,29.799213,,,TRUE,TRUE,,,,,,,SCT,3800,SCT,4500,,,,,VFR,,,,,,,,,,,,METAR,132.0
KPEQ 021815Z AUTO 00000KT 10SM CLR 23/04 A2980 RMK AO2 T02280040,KPEQ,2018-04-02T18:15:00Z,31.38,-103.52,22.8,4.0,0,0,,10.0,29.799213,,,TRUE,TRUE,,,,,,,CLR,,,,,,,,VFR,,,,,,,,,,,,METAR,797.0
KPCZ 021815Z AUTO 20005KT 10SM CLR 05/M11 A3001 RMK AO2 T00451106,KPCZ,2018-04-02T18:15:00Z,44.33,-89.02,4.5,-10.6,200,5,,10.0,30.008858,,,TRUE,TRUE,,,,,,,CLR,,,,,,,,VFR,,,,,,,,,,,,METAR,252.0
KPCM 021815Z AUTO 00000KT 10SM BKN042 BKN050 OVC080 29/17 A3005 RMK AO2,KPCM,2018-04-02T18:15:00Z,28.0,-82.17,29.0,17.0,0,0,,10.0,30.050198,,,TRUE,TRUE,,,,,,,BKN,4200,BKN,5000,OVC,8000,,,VFR,,,,,,,,,,,,METAR,47.0
KPBH 021815Z AUTO 25006KT 10SM SCT120 M01/M10 A2994 RMK AO2 T10071100,KPBH,2018-04-02T18:15:00Z,45.7,-90.4,-0.7,-10.0,250,6,,10.0,29.940945,,,TRUE,TRUE,,,,,,,SCT,12000,,,,,,,VFR,,,,,,,,,,,,METAR,449.0
KPAN 021815Z AUTO VRB06G12KT 10SM CLR 17/M11 A2993 RMK AO2,KPAN,2018-04-02T18:15:00Z,34.25,-111.33,17.0,-11.0,0,6,12,10.0,29.929134,,,TRUE,TRUE,,,,,,,CLR,,,,,,,,VFR,,,,,,,,,,,,METAR,1572.0
KOXV 021815Z AUTO 15014G22KT 10SM CLR 03/M06 A2988 RMK AO2,KOXV,2018-04-02T18:15:00Z,41.28,-93.12,3.0,-6.0,150,14,22,10.0,29.878937,,,TRUE,TRUE,,,,,,,CLR,,,,,,,,VFR,,,,,,,,,,,,METAR,283.0
KOXI 021815Z AUTO 18008KT 10SM CLR 04/M05 A3008 RMK AO1,KOXI,2018-04-02T18:15:00Z,41.33,-86.67,4.0,-5.0,180,8,,10.0,30.079725,,,TRUE,TRUE,,,,,,,CLR,,,,,,,,VFR,,,,,,,,,,,,METAR,209.0
KOWP 021815Z AUTO 14003KT 4SM BR OVC005 04/02 A2987 RMK AO2 T00380022,KOWP,2018-04-02T18:15:00Z,36.18,-96.15,3.8,2.2,140,3,,4.0,29.870079,,,TRUE,TRUE,,,,,,BR,OVC,500,,,,,,,IFR,,,,,,,,,,,,METAR,272.0
KOVL 021815Z AUTO 14008KT 4SM BR SCT010 BKN020 OVC042 M01/M02 A2987 RMK AO2,KOVL,2018-04-02T18:15:00Z,44.78,-95.03,-1.0,-2.0,140,8,,4.0,29.870079,,,TRUE,TRUE,,,,,,BR,SCT,1000,BKN,2000,OVC,4200,,,MVFR,,,,,,,,,,,,METAR,328.0
KORS 021815Z AUTO 33006G12KT 10SM SCT038 BKN043 08/00 A3004 RMK AO2,KORS,2018-04-02T18:15:00Z,48.7,-122.92,8.0,0.0,330,6,12,10.0,30.041338,,,TRUE,TRUE,,,,,,,SCT,3800,BKN,4300,,,,,VFR,,,,,,,,,,,,METAR,9.0
KORC 021815Z AUTO 17015G20KT 10SM BKN021 OVC050 01/M03 A2976 RMK AO2,KORC,2018-04-02T18:15:00Z,42.97,-96.07,1.0,-3.0,170,15,20,10.0,29.760826,,,TRUE,TRUE,,,,,,,BKN,2100,OVC,5000,,,,,MVFR,,,,,,,,,,,,METAR,431.0
KOPN 021815Z AUTO 23009KT 10SM CLR 26/02 A3002 RMK AO2,KOPN,2018-04-02T18:15:00Z,32.95,-84.27,26.0,2.0,230,9,,10.0,30.02067,,,TRUE,TRUE,,,,,,,CLR,,,,,,,,VFR,,,,,,,,,,,,METAR,243.0
KONP 021815Z AUTO 31004KT 10SM CLR 08/02 A3021 RMK AO2,KONP,2018-04-02T18:15:00Z,44.57,-124.03,8.0,2.0,310,4,,10.0,30.209646,,,TRUE,TRUE,,,,,,,CLR,,,,,,,,VFR,,,,,,,,,,,,METAR,48.0
KONM 021815Z AUTO 26006KT 10SM CLR 23/M13 A2985 RMK AO2 T02271128,KONM,2018-04-02T18:15:00Z,34.02,-106.9,22.7,-12.8,260,6,,10.0,29.84941,,,TRUE,TRUE,,,,,,,CLR,,,,,,,,VFR,,,,,,,,,,,,METAR,1410.0
KONL 021815Z AUTO 19021G28KT 10SM CLR 07/M03 A2957 RMK AO2 T00671030,KONL,2018-04-02T18:15:00Z,42.47,-98.67,6.7,-3.0,190,21,28,10.0,29.568897,,,TRUE,TRUE,,,,,,,CLR,,,,,,,,VFR,,,,,,,,,,,,METAR,619.0
KOMH 021815Z AUTO 04003KT 10SM BKN024 OVC028 09/03 A3008 RMK AO2,KOMH,2018-04-02T18:15:00Z,38.25,-78.05,9.0,3.0,40,3,,10.0,30.079725,,,TRUE,TRUE,,,,,,,BKN,2400,OVC,2800,,,,,MVFR,,,,,,,,,,,,METAR,142.0
KOLZ 021815Z AUTO 15019KT 10SM CLR 01/M08 A2993 RMK AO2,KOLZ,2018-04-02T18:15:00Z,42.67,-91.97,1.0,-8.0,150,19,,10.0,29.929134,,,TRUE,TRUE,,,,,,,CLR,,,,,,,,VFR,,,,,,,,,,,,METAR,328.0
KOKV 021815Z AUTO 02003KT 10SM OVC022 05/01 A3013 RMK AO2,KOKV,2018-04-02T18:15:00Z,39.13,-78.15,5.0,1.0,20,3,,10.0,30.129921,,,TRUE,TRUE,,,,,,,OVC,2200,,,,,,,MVFR,,,,,,,,,,,,METAR,222.0
KOJA 021815Z AUTO 18011G16KT 10SM BKN012 BKN024 OVC031 06/01 A2980 RMK AO2,KOJA,2018-04-02T18:15:00Z,35.55,-98.67,6.0,1.0,180,11,16,10.0,29.799213,,,TRUE,TRUE,,,,,,,BKN,1200,BKN,2400,OVC,3100,,,MVFR,,,,,,,,,,,,METAR,490.0
KOGS 021815Z AUTO 24007KT 10SM SCT055 06/M07 A3008 RMK AO2 T00551074,KOGS,2018-04-02T18:15:00Z,44.67,-75.47,5.5,-7.4,240,7,,10.0,30.079725,,,TRUE,TRUE,,,,,,,SCT,5500,,,,,,,VFR,,,,,,,,,,,,METAR,91.0
KOBE 021815Z AUTO 19005KT 10SM SCT049 27/17 A3003 RMK AO2,KOBE,2018-04-02T18:15:00Z,27.27,-80.85,27.0,17.0,190,5,,10.0,30.029528,,,TRUE,TRUE,,,,,,,SCT,4900,,,,,,,VFR,,,,,,,,,,,,METAR,11.0
KMZG 021815Z AUTO 21008G15KT 10SM SCT017 SCT023 24/22 A2989 RMK A01,KMZG,2018-04-02T18:15:00Z,27.73,-96.18,24.0,22.0,210,8,15,10.0,29.890747,,,TRUE,TRUE,,,,,,,SCT,1700,SCT,2300,,,,,VFR,,,,,,,,,,,,METAR,29.0
KMXO 021815Z AUTO 12012KT 10SM CLR 02/M08 A2996 RMK AO2,KMXO,2018-04-02T18:15:00Z,42.22,-91.17,2.0,-8.0,120,12,,10.0,29.958662,,,TRUE,TRUE,,,,,,,CLR,,,,,,,,VFR,,,,,,,,,,,,METAR,259.0
KMUT 021815Z AUTO 15013G18KT 10SM CLR 04/M09 A2997 RMK AO2,KMUT,2018-04-02T18:15:00Z,41.37,-91.15,4.0,-9.0,150,13,18,10.0,29.970472,,,TRUE,TRUE,,,,,,,CLR,,,,,,,,VFR,,,,,,,,,,,,METAR,167.0
KMQB 021815Z AUTO 12011KT 10SM CLR M01/M06 A3003 RMK AO2 T10151065,KMQB,2018-04-02T18:15:00Z,40.52,-90.65,-1.5,-6.5,120,11,,10.0,30.029528,,,TRUE,TRUE,,,,,,,CLR,,,,,,,,VFR,,,,,,,,,,,,METAR,215.0
KMOX 021815Z AUTO 13015KT 4SM -SN SCT001 SCT006 M02/M04 A2983 RMK AO2,KMOX,2018-04-02T18:15:00Z,45.57,-95.97,-2.0,-4.0,130,15,,4.0,29.828741,,,TRUE,TRUE,,,,,,-SN,SCT,100,SCT,600,,,,,MVFR,,,,,,,,,,,,METAR,344.0
KMNZ 021815Z AUTO 04003KT 3/4SM BR OVC002 09/09 A2990 RMK AO2 T00900090,KMNZ,2018-04-02T18:15:00Z,31.67,-98.15,9.0,9.0,40,3,,0.75,29.899607,,,TRUE,TRUE,,,,,,BR,OVC,200,,,,,,,LIFR,,,,,,,,,,,,METAR,396.0
KMMH 021815Z AUTO 27016G21KT 10SM CLR 12/M12 A2997 RMK AO2 T01201121,KMMH,2018-04-02T18:15:00Z,37.62,-118.82,12.0,-12.1,270,16,21,10.0,29.970472,,,TRUE,TRUE,,,,,,,CLR,,,,,,,,VFR,,,,,,,,,,,,METAR,2173.0
KMLJ 021815Z AUTO 24003KT 10SM CLR 27/10 A2999 RMK AO2,KMLJ,2018-04-02T18:15:00Z,33.15,-83.23,27.0,10.0,240,3,,10.0,29.991142,,,TRUE,TRUE,,,,,,,CLR,,,,,,,,VFR,,,,,,,,,,,,METAR,117.0
KMKS 021815Z AUTO 30003KT 10SM CLR 26/07 A3000 RMK AO2,KMKS,2018-04-02T18:15:00Z,33.18,-80.03,26.0,7.0,300,3,,10.0,30.0,,,TRUE,TRUE,,,,,,,CLR,,,,,,,,VFR,,,,,,,,,,,,METAR,23.0
KMKN 021815Z AUTO 04003KT 3SM BR OVC004 07/07 A2990 RMK AO2 T00740074,KMKN,2018-04-02T18:15:00Z,31.92,-98.6,7.4,7.4,40,3,,3.0,29.899607,,,TRUE,TRUE,,,,,,BR,OVC,400,,,,,,,LIFR,,,,,,,,,,,,METAR,423.0
KMIS 021815Z AUTO 00000KT 25/21 A3003 RMK A01,KMIS,2018-04-02T18:15:00Z,29.3,-88.85,25.0,21.0,0,0,,,30.029528,,,TRUE,TRUE,,,,,,,,,,,,,,,,,,,,,,,,,,,METAR,32.0
KMEZ 021815Z AUTO 00000KT 1 3/4SM OVC002 A2992 RMK AO2,KMEZ,2018-04-02T18:15:00Z,34.55,-94.2,,,0,0,,1.75,29.920275,,,TRUE,TRUE,,,,,,,OVC,200,,,,,,,LIFR,,,,,,,,,,,,METAR,329.0
KMDJ 021815Z AUTO 15007KT 10SM CLR 24/21 A3002 RMK A01,KMDJ,2018-04-02T18:15:00Z,28.65,-89.8,24.0,21.0,150,7,,10.0,30.02067,,,TRUE,TRUE,,,,,,,CLR,,,,,,,,VFR,,,,,,,,,,,,METAR,31.0
KMCD 021815Z AUTO 25007G18KT 210V280 10SM CLR M01/M08 A3002 RMK AO2 T10131084,KMCD,2018-04-02T18:15:00Z,45.85,-84.63,-1.3,-8.4,250,7,18,10.0,30.02067,,,TRUE,TRUE,,,,,,,CLR,,,,,,,,VFR,,,,,,,,,,,,METAR,226.0
KMBO 021815Z AUTO 24007KT 10SM SCT038 22/15 A2998 RMK AO2 PWINO,KMBO,2018-04-02T18:15:00Z,32.43,-90.1,22.0,15.0,240,7,,10.0,29.97933,,,TRUE,TRUE,,,,,TRUE,,SCT,3800,,,,,,,VFR,,,,,,,,,,,,METAR,99.0
KMAN 021815Z AUTO 31018G27KT 10SM FEW060 05/M11 A2993 RMK A01,KMAN,2018-04-02T18:15:00Z,43.58,-116.52,5.0,-11.0,310,18,27,10.0,29.929134,,,TRUE,TRUE,,,,,,,FEW,6000,,,,,,,VFR,,,,,,,,,,,,METAR,774.0
KM40 021815Z AUTO 21005G10KT 10SM FEW028 24/21 A2999 RMK AO2,KM40,2018-04-02T18:15:00Z,33.87,-88.48,24.0,21.0,210,5,10,10.0,29.991142,,,TRUE,TRUE,,,,,,,FEW,2800,,,,,,,VFR,,,,,,,,,,,,METAR,69.0
KLZZ 021815Z AUTO 05006KT 3/4SM BR OVC002 10/10 A2987 RMK AO2 T01000097,KLZZ,2018-04-02T18:15:00Z,31.1,-98.2,10.0,9.7,50,6,,0.75,29.870079,,,TRUE,TRUE,,,,,,BR,OVC,200,,,,,,,LIFR,,,,,,,,,,,,METAR,371.0
KLXY 021815Z AUTO 31005KT 10SM OVC007 11/09 A2989 RMK AO2 T01120092,KLXY,2018-04-02T18:15:00Z,31.63,-96.52,11.2,9.2,310,5,,10.0,29.890747,,,TRUE,TRUE,,,,,,,OVC,700,,,,,,,IFR,,,,,,,,,,,,METAR,166.0
KLXN 021815Z AUTO 18013KT 10SM CLR 05/00 A2959 RMK AO2 T00461002,KLXN,2018-04-02T18:15:00Z,40.78,-99.77,4.6,-0.2,180,13,,10.0,29.589567,,,TRUE,TRUE,,,,,,,CLR,,,,,,,,VFR,,,,,,,,,,,,METAR,734.0
KLUD 021815Z AUTO 00000KT 10SM OVC006 06/05 A2990 RMK AO2 T00610045,KLUD,2018-04-02T18:15:00Z,33.25,-97.58,6.1,4.5,0,0,,10.0,29.899607,,,TRUE,TRUE,,,,,,,OVC,600,,,,,,,IFR,,,,,,,,,,,,METAR,319.0
KLUA 021815Z AUTO 03008KT 10SM OVC016 08/04 A3009 RMK AO2,KLUA,2018-04-02T18:15:00Z,38.67,-78.5,8.0,4.0,30,8,,10.0,30.088583,,,TRUE,TRUE,,,,,,,OVC,1600,,,,,,,MVFR,,,,,,,,,,,,METAR,275.0
KRLD 021815Z AUTO 27012KT 10SM BKN110 10/M06 A2998 RMK AO2 T00951063,KRLD,2018-04-02T18:15:00Z,46.3,-119.3,9.5,-6.3,270,12,,10.0,29.97933,,,TRUE,TRUE,,,,,,,BKN,11000,,,,,,,VFR,,,,,,,,,,,,METAR,120.0
KRKR 021815Z AUTO 00000KT 10SM OVC007 09/08 A2989 RMK AO2,KRKR,2018-04-02T18:15:00Z,35.02,-94.62,9.0,8.0,0,0,,10.0,29.890747,,,TRUE,TRUE,,,,,,,OVC,700,,,,,,,IFR,,,,,,,,,,,,METAR,138.0
KRGA 021815Z AUTO 09006KT 10SM OVC008 06/05 A3006 RMK AO2,KRGA,2018-04-02T18:15:00Z,37.63,-84.33,6.0,5.0,90,6,,10.0,30.059055,,,TRUE,TRUE,,,,,,,OVC,800,,,,,,,IFR,,,,,,,,,,,,METAR,305.0
KSPR 021815Z AUTO 14009KT 10SM CLR 26/21 A2999 RMK A01,KSPR,2018-04-02T18:15:00Z,28.6,-91.2,26.0,21.0,140,9,,10.0,29.991142,,,TRUE,TRUE,,,,,,,CLR,,,,,,,,VFR,,,,,,,,,,,,METAR,31.0
KSOW 021815Z AUTO 20015G20KT 10SM CLR 15/M12 A2996 RMK AO2,KSOW,2018-04-02T18:15:00Z,34.27,-110.0,15.0,-12.0,200,15,20,10.0,29.958662,,,TRUE,TRUE,,,,,,,CLR,,,,,,,,VFR,,,,,,,,,,,,METAR,1954.0
KSNC 021815Z AUTO VRB04KT 10SM BKN017 OVC022 05/M02 A3009 RMK AO2,KSNC,2018-04-02T18:15:00Z,41.38,-72.5,5.0,-2.0,0,4,,10.0,30.088583,,,TRUE,TRUE,,,,,,,BKN,1700,OVC,2200,,,,,MVFR,,,,,,,,,,,,METAR,127.0
KSMS 021815Z AUTO 22011KT 9SM CLR 28/10 A2998 RMK AO2,KSMS,2018-04-02T18:15:00Z,34.0,-80.37,28.0,10.0,220,11,,9.0,29.97933,,,TRUE,TRUE,,,,,,,CLR,,,,,,,,VFR,,,,,,,,,,,,METAR,56.0
KSLR 021815Z AUTO 00000KT 5SM BR OVC008 11/09 A2994 RMK AO2 T01130092,KSLR,2018-04-02T18:15:00Z,33.17,-95.62,11.3,9.2,0,0,,5.0,29.940945,,,TRUE,TRUE,,,,,,BR,OVC,800,,,,,,,IFR,,,,,,,,,,,,METAR,149.0
KSLO 021815Z AUTO 11006KT 10SM OVC008 03/00 A3004 RMK AO2 T00260002,KSLO,2018-04-02T18:15:00Z,38.65,-88.97,2.6,0.2,110,6,,10.0,30.041338,,,TRUE,TRUE,,,,,,,OVC,800,,,,,,,IFR,,,,,,,,,,,,METAR,175.0
KSHL 021815Z AUTO 15021G28KT 10SM BKN021 OVC046 01/M03 A2976 RMK AO2,KSHL,2018-04-02T18:15:00Z,43.22,-95.82,1.0,-3.0,150,21,28,10.0,29.760826,,,TRUE,TRUE,,,,,,,BKN,2100,OVC,4600,,,,,MVFR,,,,,,,,,,,,METAR,432.0
KSGS 021815Z AUTO 16004KT 3/4SM -SN VV005 M01/M03 A2995 RMK AO2 T10111034,KSGS,2018-04-02T18:15:00Z,44.87,-93.03,-1.1,-3.4,160,4,,0.75,29.949802,,,TRUE,TRUE,,,,,,-SN,OVX,0,,,,,,,LIFR,,,,,,,,,,,500,METAR,250.0
KSEP 021815Z AUTO 00000KT 3SM OVC004 07/06 A2992 RMK AO2 T00730058,KSEP,2018-04-02T18:15:00Z,32.22,-98.17,7.3,5.8,0,0,,3.0,29.920275,,,TRUE,TRUE,,,,,,,OVC,400,,,,,,,LIFR,,,,,,,,,,,,METAR,402.0
KSEM 021815Z AUTO VRB04G14KT 10SM FEW032 FEW040 23/15 A3002 RMK AO2,KSEM,2018-04-02T18:15:00Z,32.35,-86.98,23.0,15.0,0,4,14,10.0,30.02067,,,TRUE,TRUE,,,,,,,FEW,3200,FEW,4000,,,,,VFR,,,,,,,,,,,,METAR,51.0
KSDA 021815Z AUTO 15013KT 10SM OVC014 M01/M04 A2985 RMK AO2,KSDA,2018-04-02T18:15:00Z,40.75,-95.42,-1.0,-4.0,150,13,,10.0,29.84941,,,TRUE,TRUE,,,,,,,OVC,1400,,,,,,,MVFR,,,,,,,,,,,,METAR,296.0
KSCF 021815Z AUTO 12009KT 9SM 23/21 A3001 RMK A01,KSCF,2018-04-02T18:15:00Z,29.12,-91.87,23.0,21.0,120,9,,9.0,30.008858,,,TRUE,TRUE,,,,,,,,,,,,,,,,,,,,,,,,,,,METAR,8.0
KSAR 021815Z AUTO 10008KT 10SM OVC007 02/02 A3003 RMK AO2 T00200017,KSAR,2018-04-02T18:15:00Z,38.15,-89.7,2.0,1.7,100,8,,10.0,30.029528,,,TRUE,TRUE,,,,,,,OVC,700,,,,,,,IFR,,,,,,,,,,,,METAR,164.0
KS52 021815Z AUTO 32016KT 10SM SCT075 SCT085 05/M09 A2987 RMK AO2 T00541092,KS52,2018-04-02T18:15:00Z,48.38,-120.15,5.4,-9.2,320,16,,10.0,29.870079,,,TRUE,TRUE,,,,,,,SCT,7500,SCT,8500,,,,,VFR,,,,,,,,,,,,METAR,520.0
KS33 021815Z AUTO 25008KT 10SM SCT041 SCT047 SCT060 05/M05 A3005 RMK AO2,KS33,2018-04-02T18:15:00Z,44.67,-121.15,5.0,-5.0,250,8,,10.0,30.050198,,,TRUE,TRUE,,,,,,,SCT,4100,SCT,4700,SCT,6000,,,VFR,,,,,,,,,,,,METAR,743.0
KRZL 021815Z AUTO 14008G15KT 10SM SCT026 03/M04 A3009 RMK AO2,KRZL,2018-04-02T18:15:00Z,40.95,-87.18,3.0,-4.0,140,8,15,10.0,30.088583,,,TRUE,TRUE,,,,,,,SCT,2600,,,,,,,VFR,,,,,,,,,,,,METAR,213.0
KRYW 021815Z AUTO 15008KT 120V180 10SM SCT019 23/19 A2985 RMK AO2 T02340189,KRYW,2018-04-02T18:15:00Z,30.5,-97.97,23.4,18.9,150,8,,10.0,29.84941,,,TRUE,TRUE,,,,,,,SCT,1900,,,,,,,VFR,,,,,,,,,,,,METAR,376.0
KRYV 021815Z AUTO 15008KT 10SM CLR 03/M09 A3003 RMK AO2 T00291095,KRYV,2018-04-02T18:15:00Z,43.17,-88.72,2.9,-9.5,150,8,,10.0,30.029528,,,TRUE,TRUE,,,,,,,CLR,,,,,,,,VFR,,,,,,,,,,,,METAR,254.0
KRUQ 021815Z AUTO 00000KT 10SM CLR 25/06 A2995 RMK AO2 T02520061,KRUQ,2018-04-02T18:15:00Z,35.65,-80.52,25.2,6.1,0,0,,10.0,29.949802,,,TRUE,TRUE,,,,,,,CLR,,,,,,,,VFR,,,,,,,,,,,,METAR,236.0
KRSV 021815Z AUTO 10008KT 10SM OVC011 02/01 A3009 RMK AO2 T00230008,KRSV,2018-04-02T18:15:00Z,39.02,-87.65,2.3,0.8,100,8,,10.0,30.088583,,,TRUE,TRUE,,,,,,,OVC,1100,,,,,,,MVFR,,,,,,,,,,,,METAR,141.0
KRRL 021815Z AUTO 25005KT 10SM BKN100 00/M09 A2998 RMK AO2 T00001095,KRRL,2018-04-02T18:15:00Z,45.2,-89.72,0.0,-9.5,250,5,,10.0,29.97933,,,TRUE,TRUE,,,,,,,BKN,10000,,,,,,,VFR,,,,,,,,,,,,METAR,401.0
KRPD 021815Z AUTO 12004KT 10SM SCT030 SCT036 OVC043 00/M09 A2995 RMK AO2 T00021086,KRPD,2018-04-02T18:15:00Z,45.42,-91.77,0.2,-8.6,120,4,,10.0,29.949802,,,TRUE,TRUE,,,,,,,SCT,3000,SCT,3600,OVC,4300,,,VFR,,,,,,,,,,,,METAR,338.0
KRMN 021815Z AUTO 06006KT 10SM OVC023 10/05 A3014 RMK AO2 T00960048,KRMN,2018-04-02T18:15:00Z,38.4,-77.45,9.6,4.8,60,6,,10.0,30.138779,,,TRUE,TRUE,,,,,,,OVC,2300,,,,,,,MVFR,,,,,,,,,,,,METAR,65.0
KGNC 021815Z AUTO 21008KT 170V240 10SM CLR 21/07 A2983 RMK AO2 T02130073,KGNC,2018-04-02T18:15:00Z,32.68,-102.65,21.3,7.3,210,8,,10.0,29.828741,,,TRUE,TRUE,,,,,,,CLR,,,,,,,,VFR,,,,,,,,,,,,METAR,1010.0
KGOP 021815Z AUTO 00000KT 1 1/2SM BR OVC003 09/09 A2991 RMK AO2,KGOP,2018-04-02T18:15:00Z,31.42,-97.8,9.0,9.0,0,0,,1.5,29.911417,,,TRUE,TRUE,,,,,,BR,OVC,300,,,,,,,LIFR,,,,,,,,,,,,METAR,276.0
KGZL 021815Z AUTO 12008KT 10SM OVC003 08/08 A2989 RMK AO2,KGZL,2018-04-02T18:15:00Z,35.28,-95.1,8.0,8.0,120,8,,10.0,29.890747,,,TRUE,TRUE,,,,,,,OVC,300,,,,,,,LIFR,,,,,,,,,,,,METAR,183.0
KHJH 021815Z AUTO 16012G17KT 10SM OVC009 00/M02 A2974 RMK AO2 T10041022,KHJH,2018-04-02T18:15:00Z,40.15,-97.58,-0.4,-2.2,160,12,17,10.0,29.740158,,,TRUE,TRUE,,,,,,,OVC,900,,,,,,,IFR,,,,,,,,,,,,SPECI,447.0
KHII 021815Z AUTO 15011G17KT 10SM CLR 28/M02 A2973 RMK AO2,KHII,2018-04-02T18:15:00Z,34.57,-114.37,28.0,-2.0,150,11,17,10.0,29.731298,,,TRUE,TRUE,,,,,,,CLR,,,,,,,,VFR,,,,,,,,,,,,METAR,238.0
KHHW 021815Z AUTO 14003KT 5SM BR OVC003 10/08 A2990 RMK AO2 T00970082,KHHW,2018-04-02T18:15:00Z,34.03,-95.55,9.7,8.2,140,3,,5.0,29.899607,,,TRUE,TRUE,,,,,,BR,OVC,300,,,,,,,LIFR,,,,,,,,,,,,METAR,144.0
KHHG 021815Z AUTO 15007KT 10SM CLR 03/M07 A3009 RMK AO2 T00301073,KHHG,2018-04-02T18:15:00Z,40.85,-85.45,3.0,-7.3,150,7,,10.0,30.088583,,,TRUE,TRUE,,,,,,,CLR,,,,,,,,VFR,,,,,,,,,,,,METAR,246.0
KHDE 021815Z AUTO 15013KT 10SM CLR 02/M01 A2961 RMK AO2 T00211011,KHDE,2018-04-02T18:15:00Z,40.45,-99.32,2.1,-1.1,150,13,,10.0,29.610237,,,TRUE,TRUE,,,,,,,CLR,,,,,,,,VFR,,,,,,,,,,,,SPECI,705.0
KGZS 021815Z AUTO 06003KT 10SM BKN021 BKN060 BKN090 17/13 A2999 RMK A01,KGZS,2018-04-02T18:15:00Z,35.15,-87.05,17.0,13.0,60,3,,10.0,29.991142,,,TRUE,TRUE,,,,,,,BKN,2100,BKN,6000,BKN,9000,,,MVFR,,,,,,,,,,,,METAR,209.0
KHLB 021815Z AUTO 10SM OVC011 02/02 A3008 RMK A01,KHLB,2018-04-02T18:15:00Z,,,2.0,2.0,,,,10.0,30.079725,,,TRUE,TRUE,,,,,,,OVC,1100,,,,,,,MVFR,,,,,,,,,,,,SPECI,
KHLX 021815Z AUTO 22005KT 10SM SCT036 SCT045 BKN080 17/09 A2998 RMK AO2 T01670087,KHLX,2018-04-02T18:15:00Z,36.77,-80.82,16.7,8.7,220,5,,10.0,29.97933,,,TRUE,TRUE,,,,,,,SCT,3600,SCT,4500,BKN,8000,,,VFR,,,,,,,,,,,,METAR,834.0
KHMZ 021815Z AUTO 00000KT 10SM BKN025 OVC032 05/M01 A3009 RMK AO2 T00451013,KHMZ,2018-04-02T18:15:00Z,40.08,-78.52,4.5,-1.3,0,0,,10.0,30.088583,,,TRUE,TRUE,,,,,,,BKN,2500,OVC,3200,,,,,MVFR,,,,,,,,,,,,SPECI,354.0
KTEX 021815Z AUTO 25006G23KT 10SM CLR 11/M15 A2988 RMK AO2 T01071146,KTEX,2018-04-02T18:15:00Z,37.95,-107.9,10.7,-14.6,250,6,23,10.0,29.878937,,,TRUE,TRUE,,,,,,,CLR,,,,,,,,VFR,,,,,,,,,,,,METAR,2769.0
KT65 021815Z AUTO 18022G32KT 10SM CLR 30/18 A2977 RMK AO2 T03000184,KT65,2018-04-02T18:15:00Z,26.18,-97.97,30.0,18.4,180,22,32,10.0,29.769686,,,TRUE,TRUE,,,,,,,CLR,,,,,,,,VFR,,,,,,,,,,,,METAR,21.0
KSYF 021815Z AUTO 16010G19KT 110V190 10SM CLR 19/M03 A2948 RMK AO2 T01891032,KSYF,2018-04-02T18:15:00Z,39.77,-101.8,18.9,-3.2,160,10,19,10.0,29.480314,,,TRUE,TRUE,,,,,,,CLR,,,,,,,,VFR,,,,,,,,,,,,METAR,1025.0
KSXU 021815Z AUTO 25020G30KT 10SM CLR 23/M11 A2974 RMK AO2 T02321113,KSXU,2018-04-02T18:15:00Z,34.93,-104.65,23.2,-11.3,250,20,30,10.0,29.740158,,,TRUE,TRUE,,,,,,,CLR,,,,,,,,VFR,,,,,,,,,,,,METAR,1460.0
KSVE 021815Z AUTO 29012G17KT 10SM CLR 16/M05 A2989 RMK AO2,KSVE,2018-04-02T18:15:00Z,40.37,-120.57,16.0,-5.0,290,12,17,10.0,29.890747,,,TRUE,TRUE,,,,,,,CLR,,,,,,,,VFR,,,,,,,,,,,,METAR,1263.0
KU42 021815Z AUTO 13010KT 10SM OVC090 14/00 A2963 RMK AO1 T01350001,KU42,2018-04-02T18:15:00Z,40.62,-111.98,13.5,0.1,130,10,,10.0,29.630905,,,TRUE,TRUE,,,,,,,OVC,9000,,,,,,,VFR,,,,,,,,,,,,METAR,1402.0
KTYQ 021815Z AUTO 14007KT 10SM SCT024 04/00 A3008 RMK AO2 T00361003,KTYQ,2018-04-02T18:15:00Z,40.03,-86.25,3.6,-0.3,140,7,,10.0,30.079725,,,TRUE,TRUE,,,,,,,SCT,2400,,,,,,,VFR,,,,,,,,,,,,METAR,281.0
KTQH 021815Z AUTO 17006KT 7SM OVC005 06/06 A2987 RMK AO2,KTQH,2018-04-02T18:15:00Z,35.93,-95.0,6.0,6.0,170,6,,7.0,29.870079,,,TRUE,TRUE,,,,,,,OVC,500,,,,,,,IFR,,,,,,,,,,,,METAR,266.0
KTPF 021815Z AUTO 20007KT 10SM SCT070 SCT080 27/20 A3004 RMK AO2,KTPF,2018-04-02T18:15:00Z,27.92,-82.45,27.0,20.0,200,7,,10.0,30.041338,,,TRUE,TRUE,,,,,,,SCT,7000,SCT,8000,,,,,VFR,,,,,,,,,,,,METAR,3.0
KTNB 021815Z AUTO 29009G15KT 10SM OVC027 14/07 A3003 RMK AO2 T01420072,KTNB,2018-04-02T18:15:00Z,36.2,-81.65,14.2,7.2,290,9,15,10.0,30.029528,,,TRUE,TRUE,,,,,,,OVC,2700,,,,,,,MVFR,,,,,,,,,,,,METAR,911.0
KTKX 021815Z AUTO 07008KT 10SM OVC008 07/06 A2998 RMK AO2,KTKX,2018-04-02T18:15:00Z,36.22,-90.02,7.0,6.0,70,8,,10.0,29.97933,,,TRUE,TRUE,,,,,,,OVC,800,,,,,,,IFR,,,,,,,,,,,,METAR,80.0
KUNI 021815Z AUTO 04005KT 10SM OVC017 05/02 A3011 RMK AO2 T00470017,KUNI,2018-04-02T18:15:00Z,39.22,-82.23,4.7,1.7,40,5,,10.0,30.109253,,,TRUE,TRUE,,,,,,,OVC,1700,,,,,,,MVFR,,,,,,,,,,,,METAR,193.0
LHSN 021815Z 22004KT CAVOK 09/02 Q1015 NOSIG RMK BLU,LHSN,2018-04-02T18:15:00Z,47.12,20.23,9.0,2.0,220,4,,6.21,29.970472,,,,,,TRUE,,,,,CAVOK,,,,,,,,VFR,,,,,,,,,,,,METAR,98.0
LHKE 021815Z 14002KT CAVOK 06/01 Q1015 NOSIG RMK BLU,LHKE,2018-04-02T18:15:00Z,46.92,19.75,6.0,1.0,140,2,,6.21,29.970472,,,,,,TRUE,,,,,CAVOK,,,,,,,,VFR,,,,,,,,,,,,METAR,115.0
KVER 021815Z AUTO 09007KT 3SM BR OVC006 00/ A2995 RMK AO2 T1004,KVER,2018-04-02T18:15:00Z,38.95,-92.68,-0.4,,90,7,,3.0,29.949802,,,TRUE,TRUE,,,,,,BR,OVC,600,,,,,,,IFR,,,,,,,,,,,,SPECI,218.0
KVBW 021815Z AUTO 10SM OVC024 10/04 A3005 RMK AO2 T00950041,KVBW,2018-04-02T18:15:00Z,38.37,-78.97,9.5,4.1,,,,10.0,30.050198,,,TRUE,TRUE,,,,,,,OVC,2400,,,,,,,MVFR,,,,,,,,,,,,SPECI,355.0
KTSP 021815Z AUTO 31016G24KT 10SM CLR 15/05 A2992 RMK AO2,KTSP,2018-04-02T18:15:00Z,35.13,-118.43,15.0,5.0,310,16,24,10.0,29.920275,,,TRUE,TRUE,,,,,,,CLR,,,,,,,,VFR,,,,,,,,,,,,SPECI,1220.0
KTMT 021815Z AUTO 26012G20KT 120V310 10SM BKN075 OVC090 12/M06 A2986 RMK AO2 T01211060,KTMT,2018-04-02T18:15:00Z,39.47,-117.2,12.1,-6.0,260,12,20,10.0,29.861221,,,TRUE,TRUE,,,,,,,BKN,7500,OVC,9000,,,,,VFR,,,,,,,,,,,,METAR,1748.0
KSHD 021815Z AUTO 06003KT 10SM BKN021 OVC042 09/04 A3008 RMK AO2 T00880044,KSHD,2018-04-02T18:15:00Z,38.27,-78.9,8.8,4.4,60,3,,10.0,30.079725,,,TRUE,TRUE,,,,,,,BKN,2100,OVC,4200,,,,,MVFR,,,,,,,,,,,,SPECI,366.0
KHQU 021815Z AUTO 28005KT 10SM CLR 27/08 A3004 RMK AO2 T02680084,KHQU,2018-04-02T18:15:00Z,33.53,-82.52,26.8,8.4,280,5,,10.0,30.041338,,,TRUE,TRUE,,,,,,,CLR,,,,,,,,VFR,,,,,,,,,,,,METAR,152.0
KHOE 021815Z AUTO 29005KT 10SM SCT050 26/13 A3004 RMK AO2,KHOE,2018-04-02T18:15:00Z,31.05,-82.78,26.0,13.0,290,5,,10.0,30.041338,,,TRUE,TRUE,,,,,,,SCT,5000,,,,,,,VFR,,,,,,,,,,,,METAR,57.0
KHNZ 021815Z AUTO 02005KT 10SM CLR 20/08 A2998 RMK AO2 T01950081,KHNZ,2018-04-02T18:15:00Z,36.37,-78.53,19.5,8.1,20,5,,10.0,29.97933,,,TRUE,TRUE,,,,,,,CLR,,,,,,,,VFR,,,,,,,,,,,,METAR,161.0
KHTH 021815Z AUTO 00000KT 10SM CLR 14/M07 A2984 RMK A01,KHTH,2018-04-02T18:15:00Z,,,14.0,-7.0,0,0,,10.0,29.840551,,,TRUE,TRUE,,,,,,,CLR,,,,,,,,VFR,,,,,,,,,,,,SPECI,
KHRJ 021815Z AUTO 25007KT 230V330 10SM CLR 27/M03 A2995 RMK AO2 T02731035,KHRJ,2018-04-02T18:15:00Z,35.38,-78.73,27.3,-3.5,250,7,,10.0,29.949802,,,TRUE,TRUE,,,,,,,CLR,,,,,,,,VFR,,,,,,,,,,,,METAR,60.0
KHWY 021815Z AUTO 02005KT 10SM OVC023 10/02 A3009 RMK AO2 T01020020,KHWY,2018-04-02T18:15:00Z,38.58,-77.72,10.2,2.0,20,5,,10.0,30.088583,,,TRUE,TRUE,,,,,,,OVC,2300,,,,,,,MVFR,,,,,,,,,,,,METAR,103.0
KHTO 021815Z AUTO 36006KT 10SM OVC011 03/00 A3009 RMK AO2 T00260000,KHTO,2018-04-02T18:15:00Z,40.95,-72.25,2.6,0.0,360,6,,10.0,30.088583,,,TRUE,TRUE,,,,,,,OVC,1100,,,,,,,MVFR,,,,,,,,,,,,SPECI,17.0
KHZD 021815Z AUTO VRB03KT 6SM BR OVC009 08/07 A2999 RMK A01,KHZD,2018-04-02T18:15:00Z,36.08,-88.47,8.0,7.0,0,3,,6.0,29.991142,,,TRUE,TRUE,,,,,,BR,OVC,900,,,,,,,IFR,,,,,,,,,,,,METAR,151.0
KHZR 021815Z AUTO 18006KT 10SM BKN037 BKN065 28/18 A2998 RMK AO2 T02800179,KHZR,2018-04-02T18:15:00Z,30.72,-91.48,28.0,17.9,180,6,,10.0,29.97933,,,TRUE,TRUE,,,,,,,BKN,3700,BKN,6500,,,,,VFR,,,,,,,,,,,,METAR,12.0
KI35 021815Z AUTO 00000KT 10SM OVC014 12/08 A3001 RMK AO1,KI35,2018-04-02T18:15:00Z,36.87,-83.37,12.0,8.0,0,0,,10.0,30.008858,,,TRUE,TRUE,,,,,,,OVC,1400,,,,,,,MVFR,,,,,,,,,,,,METAR,473.0
KIJX 021815Z AUTO 11014G17KT 10SM SCT018 03/00 A3000 RMK AO2 T00291004,KIJX,2018-04-02T18:15:00Z,39.77,-90.25,2.9,-0.4,110,14,17,10.0,30.0,,,TRUE,TRUE,,,,,,,SCT,1800,,,,,,,VFR,,,,,,,,,,,,METAR,190.0
KIGQ 021815Z AUTO 20007KT 10SM CLR 05/M05 A3007 RMK AO2 T00541047,KIGQ,2018-04-02T18:15:00Z,41.53,-87.53,5.4,-4.7,200,7,,10.0,30.070866,,,TRUE,TRUE,,,,,,,CLR,,,,,,,,VFR,,,,,,,,,,,,SPECI,188.0
KIFP 021815Z 20012G17KT 10SM CLR 28/M03 A2971 RMK AO2,KIFP,2018-04-02T18:15:00Z,35.15,-114.57,28.0,-3.0,200,12,17,10.0,29.71063,,,,TRUE,,,,,,,CLR,,,,,,,,VFR,,,,,,,,,,,,METAR,212.0
KI75 021815Z AUTO 14013KT 10SM SCT024 BKN031 03/M03 A2988 RMK AO2 T00251031,KI75,2018-04-02T18:15:00Z,41.05,-93.68,2.5,-3.1,140,13,,10.0,29.878937,,,TRUE,TRUE,,,,,,,SCT,2400,BKN,3100,,,,,VFR,,,,,,,,,,,,METAR,339.0
KI67 021815Z AUTO 07003KT 10SM OVC015 03/00 A3011 RMK AO1,KI67,2018-04-02T18:15:00Z,39.25,-84.78,3.0,0.0,70,3,,10.0,30.109253,,,TRUE,TRUE,,,,,,,OVC,1500,,,,,,,MVFR,,,,,,,,,,,,SPECI,178.0
KI63 021815Z AUTO 12011KT 10SM CLR 00/M05 A2999 RMK AO2 T00001049,KI63,2018-04-02T18:15:00Z,39.98,-90.8,0.0,-4.9,120,11,,10.0,29.991142,,,TRUE,TRUE,,,,,,,CLR,,,,,,,,VFR,,,,,,,,,,,,SPECI,223.0
KIKK 021815Z AUTO 14010G15KT 10SM CLR 04/M05 A3008 RMK AO2 T00421055,KIKK,2018-04-02T18:15:00Z,41.07,-87.85,4.2,-5.5,140,10,15,10.0,30.079725,,,TRUE,TRUE,,,,,,,CLR,,,,,,,,VFR,,,,,,,,,,,,SPECI,192.0
KIMM 021815Z AUTO 15004G10KT 10SM FEW050 FEW055 30/16 A3003 RMK AO2,KIMM,2018-04-02T18:15:00Z,26.43,-81.4,30.0,16.0,150,4,10,10.0,30.029528,,,TRUE,TRUE,,,,,,,FEW,5000,FEW,5500,,,,,VFR,,,,,,,,,,,,METAR,12.0
KJAU 021815Z AUTO 00000KT 10SM OVC029 15/10 A3003 RMK A01,KJAU,2018-04-02T18:15:00Z,36.33,-84.17,15.0,10.0,0,0,,10.0,30.029528,,,TRUE,TRUE,,,,,,,OVC,2900,,,,,,,MVFR,,,,,,,,,,,,METAR,360.0
KJCA 021815Z AUTO 30008KT 10SM CLR 26/07 A2998 RMK AO2,KJCA,2018-04-02T18:15:00Z,34.18,-83.57,26.0,7.0,300,8,,10.0,29.97933,,,TRUE,TRUE,,,,,,,CLR,,,,,,,,VFR,,,,,,,,,,,,METAR,290.0
KJDD 021815Z AUTO 09005KT 10SM BKN008 16/12 A2990 RMK AO2,KJDD,2018-04-02T18:15:00Z,32.75,-95.5,16.0,12.0,90,5,,10.0,29.899607,,,TRUE,TRUE,,,,,,,BKN,800,,,,,,,IFR,,,,,,,,,,,,METAR,132.0
KJFZ 021815Z AUTO 06004KT 10SM OVC003 09/M05 A3002 RMK AO2 T00871048,KJFZ,2018-04-02T18:15:00Z,37.07,-81.8,8.7,-4.8,60,4,,10.0,30.02067,,,TRUE,TRUE,,,,,,,OVC,300,,,,,,,LIFR,,,,,,,,,,,,METAR,809.0
KJGG 021815Z AUTO 04006KT 10SM CLR 22/08 A3006 RMK AO1,KJGG,2018-04-02T18:15:00Z,37.23,-76.72,22.0,8.0,40,6,,10.0,30.059055,,,TRUE,TRUE,,,,,,,CLR,,,,,,,,VFR,,,,,,,,,,,,METAR,15.0
KJHN 021815Z AUTO 20006KT 10SM CLR 22/00 A2954 RMK AO2 T02170001,KJHN,2018-04-02T18:15:00Z,37.58,-101.73,21.7,0.1,200,6,,10.0,29.53937,,,TRUE,TRUE,,,,,,,CLR,,,,,,,,VFR,,,,,,,,,,,,METAR,1013.0
KJOT 021815Z AUTO 16006KT 10SM CLR 05/M08 A3006 RMK AO2 T00531085,KJOT,2018-04-02T18:15:00Z,41.52,-88.18,5.3,-8.5,160,6,,10.0,30.059055,,,TRUE,TRUE,,,,,,,CLR,,,,,,,,VFR,,,,,,,,,,,,METAR,177.0
KJWN 021815Z AUTO 08004KT 10SM OVC010 09/07 A3000 RMK A01,KJWN,2018-04-02T18:15:00Z,36.18,-86.88,9.0,7.0,80,4,,10.0,30.0,,,TRUE,TRUE,,,,,,,OVC,1000,,,,,,,MVFR,,,,,,,,,,,,METAR,151.0
KJTC 021815Z AUTO 25025G32KT 10SM CLR 18/M19 A2994 RMK AO2,KJTC,2018-04-02T18:15:00Z,34.13,-109.32,18.0,-19.0,250,25,32,10.0,29.940945,,,TRUE,TRUE,,,,,,,CLR,,,,,,,,VFR,,,,,,,,,,,,METAR,2150.0
KJYO 021815Z AUTO 36004KT 10SM OVC017 07/03 A3012 RMK AO2,KJYO,2018-04-02T18:15:00Z,39.07,-77.57,7.0,3.0,360,4,,10.0,30.121063,,,TRUE,TRUE,,,,,,,OVC,1700,,,,,,,MVFR,,,,,,,,,,,,METAR,119.0
KJZP 021815Z AUTO 00000KT 10SM CLR A3003 RMK AO2 PNO,KJZP,2018-04-02T18:15:00Z,34.45,-84.47,,,0,0,,10.0,30.029528,,,TRUE,TRUE,,,,,,,CLR,,,,,,,,VFR,,,,,,,,,,,,METAR,468.0
KLCQ 021815Z AUTO 29007G14KT 10SM SCT036 SCT043 SCT050 26/17 A3005 RMK AO2,KLCQ,2018-04-02T18:15:00Z,30.18,-82.58,26.0,17.0,290,7,14,10.0,30.050198,,,TRUE,TRUE,,,,,,,SCT,3600,SCT,4300,SCT,5000,,,VFR,,,,,,,,,,,,METAR,61.0
KL35 021815Z AUTO 25007KT 10SM CLR 15/M10 A2994 RMK AO2,KL35,2018-04-02T18:15:00Z,34.27,-116.85,15.0,-10.0,250,7,,10.0,29.940945,,,TRUE,TRUE,,,,,,,CLR,,,,,,,,VFR,,,,,,,,,,,,METAR,2059.0
KLHZ 021815Z AUTO 29005KT 10SM SCT080 25/07 A2999 RMK AO2,KLHZ,2018-04-02T18:15:00Z,36.02,-78.33,25.0,7.0,290,5,,10.0,29.991142,,,TRUE,TRUE,,,,,,,SCT,8000,,,,,,,VFR,,,,,,,,,,,,METAR,113.0
KLKU 021815Z AUTO 05007G14KT TS SCT024 BKN044 OVC060 10/03 A3012 RMK AO2 LTG DSNT NE SW AND W P0010 PWINO T01020031,KLKU,2018-04-02T18:15:00Z,38.02,-77.97,10.2,3.1,50,7,14,,30.121063,,,TRUE,TRUE,,,,,TRUE,TS,SCT,2400,BKN,4400,OVC,6000,,,,,,,,,0.1,,,,,,METAR,150.0
KLMO 021815Z AUTO 23013G20KT 10SM CLR 21/M08 A2946 RMK AO2 T02121079,KLMO,2018-04-02T18:15:00Z,40.17,-105.17,21.2,-7.9,230,13,20,10.0,29.459646,,,TRUE,TRUE,,,,,,,CLR,,,,,,,,VFR,,,,,,,,,,,,METAR,1541.0
KLNC 021815Z AUTO 00000KT 5SM HZ OVC011 09/07 A2991 RMK AO2 T00930067,KLNC,2018-04-02T18:15:00Z,32.58,-96.72,9.3,6.7,0,0,,5.0,29.911417,,,TRUE,TRUE,,,,,,HZ,OVC,1100,,,,,,,MVFR,,,,,,,,,,,,METAR,153.0
KLNN 021815Z AUTO 34006KT 10SM CLR 02/M04 A3014 RMK AO1 T00181045,KLNN,2018-04-02T18:15:00Z,41.67,-81.37,1.8,-4.5,340,6,,10.0,30.138779,,,TRUE,TRUE,,,,,,,CLR,,,,,,,,VFR,,,,,,,,,,,,SPECI,191.0
KLOM 021815Z AUTO 34005KT 10SM OVC016 03/00 A3014 RMK AO1,KLOM,2018-04-02T18:15:00Z,40.13,-75.27,3.0,0.0,340,5,,10.0,30.138779,,,TRUE,TRUE,,,,,,,OVC,1600,,,,,,,MVFR,,,,,,,,,,,,SPECI,92.0
KLOT 021815Z AUTO 18009KT 10SM CLR 05/M08 A3006 RMK AO2 T00461083,KLOT,2018-04-02T18:15:00Z,41.6,-88.1,4.6,-8.3,180,9,,10.0,30.059055,,,TRUE,TRUE,,,,,,,CLR,,,,,,,,VFR,,,,,,,,,,,,METAR,205.0
KLVL 021815Z AUTO 04006KT 10SM SCT120 18/07 A3002 RMK AO1 T01800070,KLVL,2018-04-02T18:15:00Z,36.78,-77.8,18.0,7.0,40,6,,10.0,30.02067,,,TRUE,TRUE,,,,,,,SCT,12000,,,,,,,VFR,,,,,,,,,,,,METAR,100.0
KLWB 021815Z AUTO 24003KT 10SM OVC026 09/05 A3003 RMK AO2 T00930046,KLWB,2018-04-02T18:15:00Z,37.87,-80.4,9.3,4.6,240,3,,10.0,30.029528,,,TRUE,TRUE,,,,,,,OVC,2600,,,,,,,MVFR,,,,,,,,,,,,METAR,702.0
KM04 021815Z AUTO 12005KT 10SM OVC014 10/07 A2999 RMK A01,KM04,2018-04-02T18:15:00Z,35.58,-89.58,10.0,7.0,120,5,,10.0,29.991142,,,TRUE,TRUE,,,,,,,OVC,1400,,,,,,,MVFR,,,,,,,,,,,,METAR,85.0
KM08 021815Z AUTO 12005KT 10SM OVC016 15/10 A2997 RMK A01,KM08,2018-04-02T18:15:00Z,35.22,-89.05,15.0,10.0,120,5,,10.0,29.970472,,,TRUE,TRUE,,,,,,,OVC,1600,,,,,,,MVFR,,,,,,,,,,,,METAR,152.0
KM21 021815Z AUTO 10SM OVC012 08/05 A3003 RMK AO2 T00760051,KM21,2018-04-02T18:15:00Z,37.22,-87.15,7.6,5.1,,,,10.0,30.029528,,,TRUE,TRUE,,,,,,,OVC,1200,,,,,,,MVFR,,,,,,,,,,,,METAR,129.0
KM30 021815Z AUTO 07005KT 10SM OVC010 06/04 A3002 RMK AO2 T00600040,KM30,2018-04-02T18:15:00Z,37.18,-88.75,6.0,4.0,70,5,,10.0,30.02067,,,TRUE,TRUE,,,,,,,OVC,1000,,,,,,,MVFR,,,,,,,,,,,,METAR,117.0
KLHM 021815Z AUTO 28007KT 10SM CLR 18/10 A2988 RMK AO1,KLHM,2018-04-02T18:15:00Z,38.92,-121.35,18.0,10.0,280,7,,10.0,29.878937,,,TRUE,TRUE,,,,,,,CLR,,,,,,,,VFR,,,,,,,,,,,,METAR,37.0
KM33 021815Z AUTO 00000KT 10SM OVC008 09/07 A3004 RMK A01,KM33,2018-04-02T18:15:00Z,36.38,-86.42,9.0,7.0,0,0,,10.0,30.041338,,,TRUE,TRUE,,,,,,,OVC,800,,,,,,,IFR,,,,,,,,,,,,METAR,178.0
KM75 021815Z AUTO 05016KT 10SM FEW032 OVC055 M07/M11 A2983 RMK A01,KM75,2018-04-02T18:15:00Z,48.37,-107.92,-7.0,-11.0,50,16,,10.0,29.828741,,,TRUE,TRUE,,,,,,,FEW,3200,OVC,5500,,,,,VFR,,,,,,,,,,,,METAR,687.0
KM91 021815Z AUTO 07006KT 10SM OVC007 08/07 A2999 RMK A01,KM91,2018-04-02T18:15:00Z,36.53,-86.92,8.0,7.0,70,6,,10.0,29.991142,,,TRUE,TRUE,,,,,,,OVC,700,,,,,,,IFR,,,,,,,,,,,,METAR,215.0
KMDD 021815Z AUTO 18003KT 10SM 17/08 A2985 RMK AO2 T01650083,KMDD,2018-04-02T18:15:00Z,32.03,-102.1,16.5,8.3,180,3,,10.0,29.84941,,,TRUE,TRUE,,,,,,,,,,,,,,,,,,,,,,,,,,,SPECI,854.0
KMDQ 021815Z AUTO 24010KT 10SM BKN038 OVC046 21/14 A2999 RMK A01 T02140140,KMDQ,2018-04-02T18:15:00Z,34.87,-86.55,21.4,14.0,240,10,,10.0,29.991142,,,TRUE,TRUE,,,,,,,BKN,3800,OVC,4600,,,,,VFR,,,,,,,,,,,,METAR,230.0
KMDZ 021815Z AUTO 19005KT 10SM BKN050 OVC065 M01/M10 A2996 RMK AO2 T10131098,KMDZ,2018-04-02T18:15:00Z,45.1,-90.3,-1.3,-9.8,190,5,,10.0,29.958662,,,TRUE,TRUE,,,,,,,BKN,5000,OVC,6500,,,,,VFR,,,,,,,,,,,,SPECI,448.0
KMQI 021815Z AUTO 05018G23KT 10SM CLR 13/08 A3002 RMK AO2 T01270082,KMQI,2018-04-02T18:15:00Z,35.92,-75.7,12.7,8.2,50,18,23,10.0,30.02067,,,TRUE,TRUE,,,,,,,CLR,,,,,,,,VFR,,,,,,,,,,,,METAR,4.0
KMOR 021815Z AUTO 25005KT 10SM FEW030 OVC038 17/09 A3000 RMK A01,KMOR,2018-04-02T18:15:00Z,36.18,-83.37,17.0,9.0,250,5,,10.0,30.0,,,TRUE,TRUE,,,,,,,FEW,3000,OVC,3800,,,,,VFR,,,,,,,,,,,,METAR,400.0
KMLE 021815Z AUTO 15011G17KT 10SM BKN019 OVC026 00/M05 A2981 RMK AO2 T00001047,KMLE,2018-04-02T18:15:00Z,41.2,-96.12,0.0,-4.7,150,11,17,10.0,29.811024,,,TRUE,TRUE,,,,,,,BKN,1900,OVC,2600,,,,,MVFR,,,,,,,,,,,,SPECI,320.0
KMKJ 021815Z AUTO 26010G16KT 10SM OVC018 15/M18 A3002 RMK AO2 T01451183,KMKJ,2018-04-02T18:15:00Z,36.88,-81.33,14.5,-18.3,260,10,16,10.0,30.02067,,,TRUE,TRUE,,,,,,,OVC,1800,,,,,,,MVFR,,,,,,,,,,,,METAR,780.0
KMGC 021815Z AUTO 17010G15KT 10SM CLR 06/M06 A3007 RMK AO2,KMGC,2018-04-02T18:15:00Z,41.7,-86.82,6.0,-6.0,170,10,15,10.0,30.070866,,,TRUE,TRUE,,,,,,,CLR,,,,,,,,VFR,,,,,,,,,,,,SPECI,200.0
KMEV 021815Z AUTO 28009G16KT 10SM FEW075 FEW100 15/M03 A2990 RMK AO2,KMEV,2018-04-02T18:15:00Z,38.98,-119.75,15.0,-3.0,280,9,16,10.0,29.899607,,,TRUE,TRUE,,,,,,,FEW,7500,FEW,10000,,,,,VFR,,,,,,,,,,,,METAR,1439.0
KMQS 021815Z AUTO 01005KT 10SM OVC012 03/01 A3013 RMK AO2,KMQS,2018-04-02T18:15:00Z,39.98,-75.87,3.0,1.0,10,5,,10.0,30.129921,,,TRUE,TRUE,,,,,,,OVC,1200,,,,,,,MVFR,,,,,,,,,,,,SPECI,201.0
KMRC 021815Z AUTO 00000KT 9SM FEW016 OVC020 14/13 A2998 RMK A01,KMRC,2018-04-02T18:15:00Z,35.55,-87.18,14.0,13.0,0,0,,9.0,29.97933,,,TRUE,TRUE,,,,,,,FEW,1600,OVC,2000,,,,,MVFR,,,,,,,,,,,,METAR,208.0
KMRJ 021815Z AUTO 15010G14KT 10SM SCT070 SCT080 02/M07 A2998 RMK AO2,KMRJ,2018-04-02T18:15:00Z,42.88,-90.23,2.0,-7.0,150,10,14,10.0,29.97933,,,TRUE,TRUE,,,,,,,SCT,7000,SCT,8000,,,,,VFR,,,,,,,,,,,,SPECI,359.0
KMRN 021815Z AUTO 32008KT 10SM CLR 27/06 A2997 RMK AO2 T02660062,KMRN,2018-04-02T18:15:00Z,35.82,-81.62,26.6,6.2,320,8,,10.0,29.970472,,,TRUE,TRUE,,,,,,,CLR,,,,,,,,VFR,,,,,,,,,,,,METAR,387.0
KMVH 021815Z AUTO 32013KT 1/4SM SN OVC003 M09/M11 A2966 RMK AO2,KMVH,2018-04-02T18:15:00Z,46.83,-108.93,-9.0,-11.0,320,13,,0.25,29.660433,,,TRUE,TRUE,,,,,,SN,OVC,300,,,,,,,LIFR,,,,,,,,,,,,SPECI,1355.0
KMWK 021815Z AUTO 00000KT 10SM SCT090 19/09 A3000 RMK AO2 T01910092,KMWK,2018-04-02T18:15:00Z,36.47,-80.55,19.1,9.2,0,0,,10.0,30.0,,,TRUE,TRUE,,,,,,,SCT,9000,,,,,,,VFR,,,,,,,,,,,,METAR,380.0
KLCG 021815Z AUTO 16019KT 10SM OVC010 M01/M04 A2972 RMK AO2 T10131038,KLCG,2018-04-02T18:15:00Z,42.25,-96.98,-1.3,-3.8,160,19,,10.0,29.719488,,,TRUE,TRUE,,,,,,,OVC,1000,,,,,,,MVFR,,,,,,,,,,,,METAR,436.0
KLBO 021815Z AUTO 13006KT 1 3/4SM BR OVC003 01/01 A2991 RMK AO2,KLBO,2018-04-02T18:15:00Z,37.65,-92.65,1.0,1.0,130,6,,1.75,29.911417,,,TRUE,TRUE,,,,,,BR,OVC,300,,,,,,,LIFR,,,,,,,,,,,,METAR,403.0
KLAM 021815Z AUTO 25011G19KT 230V310 10SM CLR 16/M11 A2987 RMK AO2 T01641114,KLAM,2018-04-02T18:15:00Z,35.87,-106.27,16.4,-11.4,250,11,19,10.0,29.870079,,,TRUE,TRUE,,,,,,,CLR,,,,,,,,VFR,,,,,,,,,,,,METAR,2179.0
KL18 021815Z AUTO 00000KT 10SM OVC026 15/09 A2990 RMK AO2,KL18,2018-04-02T18:15:00Z,33.35,-117.25,15.0,9.0,0,0,,10.0,29.899607,,,TRUE,TRUE,,,,,,,OVC,2600,,,,,,,MVFR,,,,,,,,,,,,METAR,216.0
KL08 021815Z AUTO 11005KT 10SM CLR 28/M03 A2972 RMK AO2,KL08,2018-04-02T18:15:00Z,,,28.0,-3.0,110,5,,10.0,29.719488,,,TRUE,TRUE,,,,,,,CLR,,,,,,,,VFR,,,,,,,,,,,,METAR,
KKY8 021815Z AUTO 06009KT 10SM OVC018 08/05 A3004 RMK A01,KKY8,2018-04-02T18:15:00Z,37.95,-86.87,8.0,5.0,60,9,,10.0,30.041338,,,TRUE,TRUE,,,,,,,OVC,1800,,,,,,,MVFR,,,,,,,,,,,,METAR,126.0
KK88 021815Z AUTO 12007KT 10SM 02/02 A2986 RMK AO1 T00170017,KK88,2018-04-02T18:15:00Z,37.87,-95.38,1.7,1.7,120,7,,10.0,29.861221,,,TRUE,TRUE,,,,,,,,,,,,,,,,,,,,,,,,,,,METAR,309.0
KJZI 021815Z AUTO 18012KT 10SM FEW039 FEW046 SCT085 25/17 A3002 RMK AO2,KJZI,2018-04-02T18:15:00Z,32.7,-80.0,25.0,17.0,180,12,,10.0,30.02067,,,TRUE,TRUE,,,,,,,FEW,3900,FEW,4600,SCT,8500,,,VFR,,,,,,,,,,,,METAR,6.0
KJYR 021815Z AUTO 16013KT 10SM FEW065 FEW090 M02/M02 A2972 RMK AO2,KJYR,2018-04-02T18:15:00Z,40.9,-97.62,-2.0,-2.0,160,13,,10.0,29.719488,,,TRUE,TRUE,,,,,,,FEW,6500,FEW,9000,,,,,VFR,,,,,,,,,,,,METAR,509.0
KJYL 021815Z AUTO 20007KT 170V230 10SM CLR A3002 RMK AO2,KJYL,2018-04-02T18:15:00Z,32.65,-81.6,,,200,7,,10.0,30.02067,,,TRUE,TRUE,,,,,,,CLR,,,,,,,,VFR,,,,,,,,,,,,METAR,57.0
KJXI 021815Z AUTO 00000KT 10SM BKN019 BKN030 OVC060 21/15 A2990 RMK AO2 T02050150,KJXI,2018-04-02T18:15:00Z,32.7,-94.95,20.5,15.0,0,0,,10.0,29.899607,,,TRUE,TRUE,,,,,,,BKN,1900,BKN,3000,OVC,6000,,,MVFR,,,,,,,,,,,,METAR,127.0
KJWY 021815Z AUTO 00000KT 5SM BR OVC010 10/08 A2991 RMK AO2 T01010076,KJWY,2018-04-02T18:15:00Z,32.45,-96.92,10.1,7.6,0,0,,5.0,29.911417,,,TRUE,TRUE,,,,,,BR,OVC,1000,,,,,,,MVFR,,,,,,,,,,,,METAR,217.0
KJWG 021815Z AUTO 19011KT 10SM BKN013 BKN024 OVC032 07/03 A2979 RMK AO2 T00650026,KJWG,2018-04-02T18:15:00Z,35.87,-98.42,6.5,2.6,190,11,,10.0,29.790354,,,TRUE,TRUE,,,,,,,BKN,1300,BKN,2400,OVC,3200,,,MVFR,,,,,,,,,,,,METAR,472.0
KLRJ 021815Z AUTO 15019G27KT 10SM BKN023 OVC047 01/M04 A2976 RMK AO2,KLRJ,2018-04-02T18:15:00Z,42.77,-96.2,1.0,-4.0,150,19,27,10.0,29.760826,,,TRUE,TRUE,,,,,,,BKN,2300,OVC,4700,,,,,MVFR,,,,,,,,,,,,METAR,365.0
KLNL 021815Z AUTO 26006KT 10SM OVC070 00/M14 A2995 RMK AO2 T00011141,KLNL,2018-04-02T18:15:00Z,46.15,-89.22,0.1,-14.1,260,6,,10.0,29.949802,,,TRUE,TRUE,,,,,,,OVC,7000,,,,,,,VFR,,,,,,,,,,,,METAR,520.0
KLNA 021815Z AUTO 11008KT 10SM CLR 27/19 A3005 RMK AO2 T02680190,KLNA,2018-04-02T18:15:00Z,26.6,-80.02,26.8,19.0,110,8,,10.0,30.050198,,,TRUE,TRUE,,,,,,,CLR,,,,,,,,VFR,,,,,,,,,,,,METAR,11.0
KMWO 021815Z AUTO 00000KT 10SM OVC023 05/M01 A3012 RMK AO2 T00491008,KMWO,2018-04-02T18:15:00Z,39.53,-84.4,4.9,-0.8,0,0,,10.0,30.121063,,,TRUE,TRUE,,,,,,,OVC,2300,,,,,,,MVFR,,,,,,,,,,,,SPECI,198.0
KO54 021815Z AUTO 20005KT 10SM CLR 13/M02 A2996 RMK AO1,KO54,2018-04-02T18:15:00Z,40.75,-122.92,13.0,-2.0,200,5,,10.0,29.958662,,,TRUE,TRUE,,,,,,,CLR,,,,,,,,VFR,,,,,,,,,,,,SPECI,717.0
KN38 021815Z AUTO 00000G11KT 10SM SCT046 05/M06 A3003 RMK AO2,KN38,2018-04-02T18:15:00Z,41.73,-77.4,5.0,-6.0,0,0,11,10.0,30.029528,,,TRUE,TRUE,,,,,,,SCT,4600,,,,,,,VFR,,,,,,,,,,,,SPECI,577.0
KN03 021815Z AUTO 29007KT 10SM CLR 05/M08 A3007 RMK AO2,KN03,2018-04-02T18:15:00Z,42.6,-76.22,5.0,-8.0,290,7,,10.0,30.070866,,,TRUE,TRUE,,,,,,,CLR,,,,,,,,VFR,,,,,,,,,,,,SPECI,366.0
KMZZ 021815Z AUTO 13003KT 7SM CLR 03/M04 A3009 RMK AO2 T00251042,KMZZ,2018-04-02T18:15:00Z,40.48,-85.68,2.5,-4.2,130,3,,7.0,30.088583,,,TRUE,TRUE,,,,,,,CLR,,,,,,,,VFR,,,,,,,,,,,,SPECI,262.0
KOCQ 021815Z AUTO 17006KT 10SM SCT110 00/M09 A3003 RMK AO1 T00011091,KOCQ,2018-04-02T18:15:00Z,44.87,-87.92,0.1,-9.1,170,6,,10.0,30.029528,,,TRUE,TRUE,,,,,,,SCT,11000,,,,,,,VFR,,,,,,,,,,,,SPECI,183.0
KOCW 021815Z AUTO 00000KT 10SM CLR 27/09 A2995 RMK AO2 T02710087,KOCW,2018-04-02T18:15:00Z,35.57,-77.05,27.1,8.7,0,0,,10.0,29.949802,,,TRUE,TRUE,,,,,,,CLR,,,,,,,,VFR,,,,,,,,,,,,METAR,12.0
KOEO 021815Z AUTO 14007KT 7SM SCT025 BKN034 OVC046 01/M07 A2996 RMK AO2 T00061070,KOEO,2018-04-02T18:15:00Z,45.32,-92.7,0.6,-7.0,140,7,,7.0,29.958662,,,TRUE,TRUE,,,,,,,SCT,2500,BKN,3400,OVC,4600,,,VFR,,,,,,,,,,,,SPECI,275.0
KOGA 021815Z AUTO 20006KT 10SM CLR 07/00 A2951 RMK AO2 T00700003,KOGA,2018-04-02T18:15:00Z,41.12,-101.77,7.0,0.3,200,6,,10.0,29.509842,,,TRUE,TRUE,,,,,,,CLR,,,,,,,,VFR,,,,,,,,,,,,SPECI,999.0
KOKM 021815Z AUTO 21005KT 5SM BR OVC004 04/04 A2988 RMK AO2 T00360036,KOKM,2018-04-02T18:15:00Z,35.67,-95.95,3.6,3.6,210,5,,5.0,29.878937,,,TRUE,TRUE,,,,,,BR,OVC,400,,,,,,,LIFR,,,,,,,,,,,,METAR,220.0
KOLG 021815Z AUTO 00000KT 10SM SCT038 BKN050 OVC055 00/M10 A2993 RMK AO1,KOLG,2018-04-02T18:15:00Z,46.3,-91.82,0.0,-10.0,0,0,,10.0,29.929134,,,TRUE,TRUE,,,,,,,SCT,3800,BKN,5000,OVC,5500,,,VFR,,,,,,,,,,,,SPECI,336.0
KOLY 021815Z AUTO 07009KT 7SM OVC008 02/01 A3005 RMK AO2 P0001 T00240013,KOLY,2018-04-02T18:15:00Z,38.72,-88.18,2.4,1.3,70,9,,7.0,30.050198,,,TRUE,TRUE,,,,,,,OVC,800,,,,,,,IFR,,,,,,0.01,,,,,,SPECI,147.0
KOOA 021815Z AUTO 15019KT 10SM CLR 03/M07 A2992 RMK AO2 T00341070,KOOA,2018-04-02T18:15:00Z,41.23,-92.5,3.4,-7.0,150,19,,10.0,29.920275,,,TRUE,TRUE,,,,,,,CLR,,,,,,,,VFR,,,,,,,,,,,,SPECI,256.0
KOSA 021815Z AUTO 00000KT 10SM OVC010 16/13 A2992 RMK AO1 T01630129,KOSA,2018-04-02T18:15:00Z,33.1,-94.97,16.3,12.9,0,0,,10.0,29.920275,,,TRUE,TRUE,,,,,,,OVC,1000,,,,,,,MVFR,,,,,,,,,,,,METAR,111.0
KOYM 021815Z AUTO 00000KT 10SM BKN037 03/M05 A3007 RMK AO2,KOYM,2018-04-02T18:15:00Z,,,3.0,-5.0,0,0,,10.0,30.070866,,,TRUE,TRUE,,,,,,,BKN,3700,,,,,,,VFR,,,,,,,,,,,,SPECI,
KLRU 021815Z AUTO 25016G23KT 10SM CLR 24/M11 A2992 RMK AO2 T02371109,KLRU,2018-04-02T18:15:00Z,32.27,-106.92,23.7,-10.9,250,16,23,10.0,29.920275,,,TRUE,TRUE,,,,,,,CLR,,,,,,,,VFR,,,,,,,,,,,,METAR,1358.0
KOZA 021815Z AUTO 00000KT 7SM OVC006 16/13 A2987 RMK AO2,KOZA,2018-04-02T18:15:00Z,30.73,-101.2,16.0,13.0,0,0,,7.0,29.870079,,,TRUE,TRUE,,,,,,,OVC,600,,,,,,,IFR,,,,,,,,,,,,METAR,726.0
KOZS 021815Z AUTO 10006KT 5SM BR OVC003 01/00 A2992 RMK AO2,KOZS,2018-04-02T18:15:00Z,37.97,-92.68,1.0,0.0,100,6,,5.0,29.920275,,,TRUE,TRUE,,,,,,BR,OVC,300,,,,,,,LIFR,,,,,,,,,,,,METAR,324.0
KPBX 021815Z AUTO 00000KT 10SM OVC004 05/05 A3006 RMK AO2 T00510051,KPBX,2018-04-02T18:15:00Z,37.57,-82.57,5.1,5.1,0,0,,10.0,30.059055,,,TRUE,TRUE,,,,,,,OVC,400,,,,,,,LIFR,,,,,,,,,,,,METAR,449.0
KPCD 021815Z AUTO 11007KT 10SM OVC009 03/01 A3001 RMK AO2 T00250006,KPCD,2018-04-02T18:15:00Z,37.87,-89.87,2.5,0.6,110,7,,10.0,30.008858,,,TRUE,TRUE,,,,,,,OVC,900,,,,,,,IFR,,,,,,,,,,,,METAR,113.0
KPCW 021815Z AUTO 05007KT 10SM CLR 03/M06 A3012 RMK AO2,KPCW,2018-04-02T18:15:00Z,41.52,-82.87,3.0,-6.0,50,7,,10.0,30.121063,,,TRUE,TRUE,,,,,,,CLR,,,,,,,,VFR,,,,,,,,,,,,SPECI,178.0
KPDC 021815Z AUTO 11012G16KT 10SM BKN110 02/M10 A2999 RMK AO2 T00161104,KPDC,2018-04-02T18:15:00Z,43.02,-91.12,1.6,-10.4,110,12,16,10.0,29.991142,,,TRUE,TRUE,,,,,,,BKN,11000,,,,,,,VFR,,,,,,,,,,,,SPECI,201.0
KPHT 021815Z AUTO 09007KT 10SM OVC007 07/06 A2999 RMK A01,KPHT,2018-04-02T18:15:00Z,36.33,-88.38,7.0,6.0,90,7,,10.0,29.991142,,,TRUE,TRUE,,,,,,,OVC,700,,,,,,,IFR,,,,,,,,,,,,METAR,177.0
KPLU 021815Z AUTO VRB04KT 10SM FEW032 SCT041 BKN047 07/00 A3007 RMK AO2,KPLU,2018-04-02T18:15:00Z,47.1,-122.28,7.0,0.0,0,4,,10.0,30.070866,,,TRUE,TRUE,,,,,,,FEW,3200,SCT,4100,BKN,4700,,,VFR,,,,,,,,,,,,METAR,164.0
KPOY 021815Z AUTO 30012KT 5SM -SN OVC003 M02/M03 A2950 RMK AO2,KPOY,2018-04-02T18:15:00Z,44.87,-108.8,-2.0,-3.0,300,12,,5.0,29.500984,,,TRUE,TRUE,,,,,,-SN,OVC,300,,,,,,,LIFR,,,,,,,,,,,,METAR,1552.0
KPPA 021815Z AUTO 23021G26KT 10SM CLR 23/02 A2967 RMK AO2 T02330018,KPPA,2018-04-02T18:15:00Z,35.62,-101.0,23.3,1.8,230,21,26,10.0,29.66929,,,TRUE,TRUE,,,,,,,CLR,,,,,,,,VFR,,,,,,,,,,,,SPECI,989.0
KPVB 021815Z AUTO 14010G16KT 10SM CLR 01/M07 A2999 RMK AO1 T00111074,KPVB,2018-04-02T18:15:00Z,42.68,-90.43,1.1,-7.4,140,10,16,10.0,29.991142,,,TRUE,TRUE,,,,,,,CLR,,,,,,,,VFR,,,,,,,,,,,,SPECI,313.0
KPVE 021815Z AUTO 13005KT 10SM OVC017 13/08 A2999 RMK A01,KPVE,2018-04-02T18:15:00Z,35.65,-88.2,13.0,8.0,130,5,,10.0,29.991142,,,TRUE,TRUE,,,,,,,OVC,1700,,,,,,,MVFR,,,,,,,,,,,,METAR,149.0
KPVF 021815Z AUTO 27007KT 240V300 10SM CLR 17/06 A2992 RMK AO1,KPVF,2018-04-02T18:15:00Z,38.72,-120.75,17.0,6.0,270,7,,10.0,29.920275,,,TRUE,TRUE,,,,,,,CLR,,,,,,,,VFR,,,,,,,,,,,,METAR,789.0
KRCZ 021815Z AUTO 26011G14KT 240V300 10SM CLR 27/07 A2995 RMK AO2 T02740067,KRCZ,2018-04-02T18:15:00Z,34.88,-79.77,27.4,6.7,260,11,14,10.0,29.949802,,,TRUE,TRUE,,,,,,,CLR,,,,,,,,VFR,,,,,,,,,,,,METAR,109.0
KRFI 021815Z AUTO 15007G14KT 10SM SCT026 BKN034 OVC050 24/18 A2989 RMK AO2 T02400184,KRFI,2018-04-02T18:15:00Z,32.15,-94.85,24.0,18.4,150,7,14,10.0,29.890747,,,TRUE,TRUE,,,,,,,SCT,2600,BKN,3400,OVC,5000,,,VFR,,,,,,,,,,,,SPECI,135.0
KLGC 021815Z AUTO 23007KT 7SM SCT026 BKN033 25/08 A3001 RMK AO2 T02480083,KLGC,2018-04-02T18:15:00Z,33.0,-85.07,24.8,8.3,230,7,,7.0,30.008858,,,TRUE,TRUE,,,,,,,SCT,2600,BKN,3300,,,,,VFR,,,,,,,,,,,,METAR,211.0
KRKW 021815Z AUTO 29005KT 10SM OVC026 17/11 A2999 RMK A01,KRKW,2018-04-02T18:15:00Z,35.92,-84.68,17.0,11.0,290,5,,10.0,29.991142,,,TRUE,TRUE,,,,,,,OVC,2600,,,,,,,MVFR,,,,,,,,,,,,METAR,508.0
KRHP 021815Z AUTO 23008KT 10SM SCT060 23/11 A2998 RMK AO2 T02250106,KRHP,2018-04-02T18:15:00Z,35.18,-83.85,22.5,10.6,230,8,,10.0,29.97933,,,TRUE,TRUE,,,,,,,SCT,6000,,,,,,,VFR,,,,,,,,,,,,METAR,518.0
KRNC 021815Z AUTO 00000KT 10SM BKN023 BKN030 BKN045 17/12 A2999 RMK A01,KRNC,2018-04-02T18:15:00Z,35.7,-85.85,17.0,12.0,0,0,,10.0,29.991142,,,TRUE,TRUE,,,,,,,BKN,2300,BKN,3000,BKN,4500,,,MVFR,,,,,,,,,,,,METAR,315.0
KRNH 021815Z AUTO 17004KT 10SM SCT015 SCT022 OVC030 01/M09 A2994 RMK AO2 T00051087,KRNH,2018-04-02T18:15:00Z,45.15,-92.53,0.5,-8.7,170,4,,10.0,29.940945,,,TRUE,TRUE,,,,,,,SCT,1500,SCT,2200,OVC,3000,,,MVFR,,,,,,,,,,,,SPECI,304.0
KRNV 021815Z AUTO 00000KT 7SM OVC007 13/13 A2997 RMK AO2 T01300126,KRNV,2018-04-02T18:15:00Z,33.77,-90.75,13.0,12.6,0,0,,7.0,29.970472,,,TRUE,TRUE,,,,,,,OVC,700,,,,,,,IFR,,,,,,,,,,,,METAR,41.0
KRPJ 021815Z AUTO 17005G09KT 10SM BKN110 03/M06 A3006 RMK AO2 T00281065,KRPJ,2018-04-02T18:15:00Z,41.88,-89.08,2.8,-6.5,170,5,9,10.0,30.059055,,,TRUE,TRUE,,,,,,,BKN,11000,,,,,,,VFR,,,,,,,,,,,,SPECI,238.0
KRWV 021815Z AUTO 17015KT 10SM SCT029 SCT037 25/19 A2985 RMK AO2 T02480192,KRWV,2018-04-02T18:15:00Z,30.52,-96.7,24.8,19.2,170,15,,10.0,29.84941,,,TRUE,TRUE,,,,,,,SCT,2900,SCT,3700,,,,,VFR,,,,,,,,,,,,METAR,119.0
KRZR 021815Z AUTO VRB06KT 10SM CLR 24/12 A2995 RMK A01,KRZR,2018-04-02T18:15:00Z,35.22,-84.8,24.0,12.0,0,6,,10.0,29.949802,,,TRUE,TRUE,,,,,,,CLR,,,,,,,,VFR,,,,,,,,,,,,METAR,263.0
KSAA 021815Z AUTO 24027G34KT 10SM CLR 12/M06 A2956 RMK AO2,KSAA,2018-04-02T18:15:00Z,41.45,-106.83,12.0,-6.0,240,27,34,10.0,29.56004,,,TRUE,TRUE,,,,,,,CLR,,,,,,,,VFR,,,,,,,,,,,,METAR,2138.0
KSBS 021815Z AUTO 26015G26KT 10SM SCT090 12/M06 A2960 RMK AO1 T01201064,KSBS,2018-04-02T18:15:00Z,40.52,-106.87,12.0,-6.4,260,15,26,10.0,29.601377,,,TRUE,TRUE,,,,,,,SCT,9000,,,,,,,VFR,,,,,,,,,,,,METAR,2096.0
KSCR 021815Z AUTO 23006KT 10SM CLR 26/05 A2995 RMK AO2 T02590054,KSCR,2018-04-02T18:15:00Z,35.7,-79.5,25.9,5.4,230,6,,10.0,29.949802,,,TRUE,TRUE,,,,,,,CLR,,,,,,,,VFR,,,,,,,,,,,,METAR,188.0
KSCX 021815Z AUTO 35004KT 10SM OVC006 10/08 A3000 RMK A01,KSCX,2018-04-02T18:15:00Z,36.45,-84.58,10.0,8.0,350,4,,10.0,30.0,,,TRUE,TRUE,,,,,,,OVC,600,,,,,,,IFR,,,,,,,,,,,,METAR,471.0
KSEZ 021815Z AUTO 16015G18KT 10SM CLR 22/M07 A2989 RMK AO2,KSEZ,2018-04-02T18:15:00Z,34.85,-111.78,22.0,-7.0,160,15,18,10.0,29.890747,,,TRUE,TRUE,,,,,,,CLR,,,,,,,,VFR,,,,,,,,,,,,METAR,1473.0
KSFY 021815Z AUTO 14008KT 10SM OVC110 03/M07 A3002 RMK AO2 T00251071,KSFY,2018-04-02T18:15:00Z,42.05,-90.12,2.5,-7.1,140,8,,10.0,30.02067,,,TRUE,TRUE,,,,,,,OVC,11000,,,,,,,VFR,,,,,,,,,,,,SPECI,188.0
KSIF 021815Z AUTO 00000KT 10SM SCT110 21/08 A2997 RMK AO2 T02120078,KSIF,2018-04-02T18:15:00Z,36.43,-79.85,21.2,7.8,0,0,,10.0,29.970472,,,TRUE,TRUE,,,,,,,SCT,11000,,,,,,,VFR,,,,,,,,,,,,METAR,211.0
KSJS 021815Z AUTO 00000KT 10SM OVC003 06/06 A3007 RMK AO2 T00550055,KSJS,2018-04-02T18:15:00Z,37.75,-82.63,5.5,5.5,0,0,,10.0,30.070866,,,TRUE,TRUE,,,,,,,OVC,300,,,,,,,LIFR,,,,,,,,,,,,METAR,372.0
KSNH 021815Z AUTO 21004KT 9SM OVC018 16/11 A2998 RMK A01,KSNH,2018-04-02T18:15:00Z,35.17,-88.22,16.0,11.0,210,4,,9.0,29.97933,,,TRUE,TRUE,,,,,,,OVC,1800,,,,,,,MVFR,,,,,,,,,,,,METAR,144.0
KSNL 021815Z AUTO 17005KT 10SM OVC014 06/02 A2985 RMK AO2 T00580015,KSNL,2018-04-02T18:15:00Z,35.35,-96.95,5.8,1.5,170,5,,10.0,29.84941,,,TRUE,TRUE,,,,,,,OVC,1400,,,,,,,MVFR,,,,,,,,,,,,METAR,327.0
KSOA 021815Z AUTO 00000KT 10SM SCT020 BKN025 BKN033 18/14 A2988 RMK AO2,KSOA,2018-04-02T18:15:00Z,30.58,-100.65,18.0,14.0,0,0,,10.0,29.878937,,,TRUE,TRUE,,,,,,,SCT,2000,BKN,2500,BKN,3300,,,MVFR,,,,,,,,,,,,SPECI,652.0
KSRB 021815Z AUTO 00000KT 10SM OVC022 15/11 A2999 RMK A01,KSRB,2018-04-02T18:15:00Z,36.05,-85.53,15.0,11.0,0,0,,10.0,29.991142,,,TRUE,TRUE,,,,,,,OVC,2200,,,,,,,MVFR,,,,,,,,,,,,METAR,313.0
KSRE 021815Z AUTO VRB03KT 10SM OVC010 06/03 A2986 RMK AO2,KSRE,2018-04-02T18:15:00Z,35.27,-96.68,6.0,3.0,0,3,,10.0,29.861221,,,TRUE,TRUE,,,,,,,OVC,1000,,,,,,,MVFR,,,,,,,,,,,,METAR,312.0
KSRR 021815Z AUTO 22017G24KT 10SM CLR 18/M13 A2994 RMK AO2,KSRR,2018-04-02T18:15:00Z,33.47,-105.52,18.0,-13.0,220,17,24,10.0,29.940945,,,TRUE,TRUE,,,,,,,CLR,,,,,,,,VFR,,,,,,,,,,,,METAR,2076.0
KSVH 021815Z AUTO 27005KT 10SM BKN120 24/03 A2994 RMK AO2 T02350028,KSVH,2018-04-02T18:15:00Z,35.75,-80.95,23.5,2.8,270,5,,10.0,29.940945,,,TRUE,TRUE,,,,,,,BKN,12000,,,,,,,VFR,,,,,,,,,,,,METAR,294.0
K27K 021815Z AUTO 07005KT 10SM OVC009 04/02 A3008 RMK AO1,K27K,2018-04-02T18:15:00Z,38.23,-84.43,4.0,2.0,70,5,,10.0,30.079725,,,TRUE,TRUE,,,,,,,OVC,900,,,,,,,IFR,,,,,,,,,,,,SPECI,289.0
K3T5 021815Z AUTO 17009KT 10SM BKN038 28/20 A2983 RMK AO2 T02770197,K3T5,2018-04-02T18:15:00Z,29.9,-96.95,27.7,19.7,170,9,,10.0,29.828741,,,TRUE,TRUE,,,,,,,BKN,3800,,,,,,,VFR,,,,,,,,,,,,SPECI,99.0
KADC 021815Z AUTO 11008KT 1 1/4SM -SN BKN009 OVC015 M04/M07 A2988 RMK AO2,KADC,2018-04-02T18:15:00Z,46.45,-95.22,-4.0,-7.0,110,8,,1.25,29.878937,,,TRUE,TRUE,,,,,,-SN,BKN,900,OVC,1500,,,,,IFR,,,,,,,,,,,,SPECI,418.0
KAIK 021815Z AUTO 20005G14KT 10SM CLR 26/08 A3002 RMK AO2,KAIK,2018-04-02T18:15:00Z,33.65,-81.68,26.0,8.0,200,5,14,10.0,30.02067,,,TRUE,TRUE,,,,,,,CLR,,,,,,,,VFR,,,,,,,,,,,,SPECI,161.0
KCLS 021815Z AUTO 00000KT 10SM FEW035 SCT043 BKN049 09/01 A3010 RMK AO2,KCLS,2018-04-02T18:15:00Z,46.68,-122.98,9.0,1.0,0,0,,10.0,30.100393,,,TRUE,TRUE,,,,,,,FEW,3500,SCT,4300,BKN,4900,,,VFR,,,,,,,,,,,,SPECI,54.0
KCVX 021815Z AUTO 26012G16KT 10SM CLR 01/M07 A3007 RMK AO2 T00061067,KCVX,2018-04-02T18:15:00Z,45.3,-85.27,0.6,-6.7,260,12,16,10.0,30.070866,,,TRUE,TRUE,,,,,,,CLR,,,,,,,,VFR,,,,,,,,,,,,SPECI,204.0
KD95 021815Z AUTO 26005KT 10SM CLR 05/M10 A3006 RMK AO2 T00461100,KD95,2018-04-02T18:15:00Z,43.07,-83.27,4.6,-10.0,260,5,,10.0,30.059055,,,TRUE,TRUE,,,,,,,CLR,,,,,,,,VFR,,,,,,,,,,,,SPECI,255.0
KEWK 021815Z AUTO 18017KT 10SM BKN015 OVC025 03/M02 A2976 RMK AO2 PRESFR,KEWK,2018-04-02T18:15:00Z,38.03,-97.27,3.0,-2.0,180,17,,10.0,29.760826,,,TRUE,TRUE,,,,,,,BKN,1500,OVC,2500,,,,,MVFR,,,,,,,,,,,,SPECI,467.0
KTFP 021815Z AUTO 17015G23KT 10SM BKN013 OVC019 26/22 A2983 RMK AO2 T02580217 PNO,KTFP,2018-04-02T18:15:00Z,27.92,-97.22,25.8,21.7,170,15,23,10.0,29.828741,,,TRUE,TRUE,,,,,,,BKN,1300,OVC,1900,,,,,MVFR,,,,,,,,,,,,SPECI,6.0
KSVC 021815Z AUTO 25011G25KT 230V290 10SM CLR 20/M16 A2996 RMK AO2 T01991158,KSVC,2018-04-02T18:15:00Z,32.63,-108.15,19.9,-15.8,250,11,25,10.0,29.958662,,,TRUE,TRUE,,,,,,,CLR,,,,,,,,VFR,,,,,,,,,,,,SPECI,1659.0
KTVY 021815Z AUTO 19012G16KT 10SM OVC100 13/00 A2964 RMK AO2,KTVY,2018-04-02T18:15:00Z,40.62,-112.35,13.0,0.0,190,12,16,10.0,29.639763,,,TRUE,TRUE,,,,,,,OVC,10000,,,,,,,VFR,,,,,,,,,,,,SPECI,1317.0
KUYF 021815Z AUTO 06004KT 10SM BKN024 06/01 A3009 RMK AO2,KUYF,2018-04-02T18:15:00Z,39.93,-83.47,6.0,1.0,60,4,,10.0,30.088583,,,TRUE,TRUE,,,,,,,BKN,2400,,,,,,,MVFR,,,,,,,,,,,,SPECI,330.0
KVLL 021815Z AUTO 16007KT 10SM CLR 05/M11 A3011 RMK AO2 T00501112,KVLL,2018-04-02T18:15:00Z,42.55,-83.18,5.0,-11.2,160,7,,10.0,30.109253,,,TRUE,TRUE,,,,,,,CLR,,,,,,,,VFR,,,,,,,,,,,,SPECI,222.0
KY70 021815Z AUTO 19007KT 10SM CLR 04/M10 A3006 RMK AO2 T00401096,KY70,2018-04-02T18:15:00Z,42.93,-85.07,4.0,-9.6,190,7,,10.0,30.059055,,,TRUE,TRUE,,,,,,,CLR,,,,,,,,VFR,,,,,,,,,,,,SPECI,250.0
KFSE 021815Z AUTO 05007KT 10SM BKN044 M04/M11 A2991 RMK AO2,KFSE,2018-04-02T18:15:00Z,47.58,-95.77,-4.0,-11.0,50,7,,10.0,29.911417,,,TRUE,TRUE,,,,,,,BKN,4400,,,,,,,VFR,,,,,,,,,,,,SPECI,389.0
KGGE 021815Z AUTO 26008KT 10SM CLR 26/08 A3001 RMK AO2,KGGE,2018-04-02T18:15:00Z,33.32,-79.32,26.0,8.0,260,8,,10.0,30.008858,,,TRUE,TRUE,,,,,,,CLR,,,,,,,,VFR,,,,,,,,,,,,SPECI,12.0
KGHW 021815Z AUTO 14010KT 1/2SM SN OVC001 M02/M03 A2987 RMK AO2 P0001,KGHW,2018-04-02T18:15:00Z,45.63,-95.32,-2.0,-3.0,140,10,,0.5,29.870079,,,TRUE,TRUE,,,,,,SN,OVC,100,,,,,,,LIFR,,,,,,0.01,,,,,,SPECI,425.0
KIDI 021815Z AUTO 00000KT 10SM OVC031 04/M02 A3013 RMK A01,KIDI,2018-04-02T18:15:00Z,40.62,-79.08,4.0,-2.0,0,0,,10.0,30.129921,,,TRUE,TRUE,,,,,,,OVC,3100,,,,,,,VFR,,,,,,,,,,,,SPECI,429.0
KHCO 021815Z AUTO 02008KT 10SM CLR M07/M17 A3002 RMK AO2,KHCO,2018-04-02T18:15:00Z,48.75,-96.93,-7.0,-17.0,20,8,,10.0,30.02067,,,TRUE,TRUE,,,,,,,CLR,,,,,,,,VFR,,,,,,,,,,,,SPECI,250.0
KHCD 021815Z AUTO 15006KT 3/4SM -SN OVC007 M01/M03 A2991 RMK AO2 T10141026,KHCD,2018-04-02T18:15:00Z,44.87,-94.38,-1.4,-2.6,150,6,,0.75,29.911417,,,TRUE,TRUE,,,,,,-SN,OVC,700,,,,,,,LIFR,,,,,,,,,,,,SPECI,323.0
KGPC 021815Z AUTO 11006KT 10SM OVC020 05/00 A3006 RMK AO2,KGPC,2018-04-02T18:15:00Z,39.63,-86.82,5.0,0.0,110,6,,10.0,30.059055,,,TRUE,TRUE,,,,,,,OVC,2000,,,,,,,MVFR,,,,,,,,,,,,SPECI,257.0
KIIB 021815Z AUTO 15018KT 10SM SCT120 02/M08 A2992 RMK AO2 T00201077,KIIB,2018-04-02T18:15:00Z,42.45,-91.95,2.0,-7.7,150,18,,10.0,29.920275,,,TRUE,TRUE,,,,,,,SCT,12000,,,,,,,VFR,,,,,,,,,,,,SPECI,298.0
KLDM 021815Z AUTO 25009KT 10SM CLR 02/M08 A3006 RMK AO2 T00171081,KLDM,2018-04-02T18:15:00Z,43.97,-86.4,1.7,-8.1,250,9,,10.0,30.059055,,,TRUE,TRUE,,,,,,,CLR,,,,,,,,VFR,,,,,,,,,,,,SPECI,197.0
KMAW 021815Z AUTO 06005KT 10SM OVC008 07/04 A3002 RMK AO2,KMAW,2018-04-02T18:15:00Z,36.6,-90.0,7.0,4.0,60,5,,10.0,30.02067,,,TRUE,TRUE,,,,,,,OVC,800,,,,,,,IFR,,,,,,,,,,,,SPECI,90.0
KMRT 021815Z AUTO 00000KT 10SM CLR 05/M01 A3011 RMK AO2 T00451014,KMRT,2018-04-02T18:15:00Z,40.22,-83.35,4.5,-1.4,0,0,,10.0,30.109253,,,TRUE,TRUE,,,,,,,CLR,,,,,,,,VFR,,,,,,,,,,,,SPECI,312.0
KMVE 021815Z AUTO 16011KT 3SM -SN BKN009 BKN013 OVC017 M02/M03 A2984 RMK AO2,KMVE,2018-04-02T18:15:00Z,44.97,-95.72,-2.0,-3.0,160,11,,3.0,29.840551,,,TRUE,TRUE,,,,,,-SN,BKN,900,BKN,1300,OVC,1700,,,IFR,,,,,,,,,,,,SPECI,315.0
KPZQ 021815Z AUTO 21005KT 10SM CLR 04/M11 A3002 RMK AO2 T00351110,KPZQ,2018-04-02T18:15:00Z,45.4,-83.82,3.5,-11.0,210,5,,10.0,30.02067,,,TRUE,TRUE,,,,,,,CLR,,,,,,,,VFR,,,,,,,,,,,,SPECI,204.0
CYCO 021815Z 24010KT 2 1/2SM IC FEW120 M27/M30 A3043 RMK IC1AC1 VIS W-N 11/4 SLP311,CYCO,2018-04-02T18:15:00Z,67.82,-115.15,-27.0,-30.0,240,10,,2.5,30.431103,1031.1,,,,,,,,,IC,FEW,12000,,,,,,,IFR,,,,,,,,,,,,SPECI,22.0
K1A9 021815Z AUTO 19003KT 10SM CLR 23/13 A3002 RMK AO2 T02250134,K1A9,2018-04-02T18:15:00Z,32.43,-86.52,22.5,13.4,190,3,,10.0,30.02067,,,TRUE,TRUE,,,,,,,CLR,,,,,,,,VFR,,,,,,,,,,,,SPECI,69.0
K3R7 021815Z AUTO 19009G14KT 10SM SCT031 SCT065 26/18 A2997 RMK AO2 T02610182,K3R7,2018-04-02T18:15:00Z,30.25,-92.67,26.1,18.2,190,9,14,10.0,29.970472,,,TRUE,TRUE,,,,,,,SCT,3100,SCT,6500,,,,,VFR,,,,,,,,,,,,SPECI,7.0
K4A9 021815Z AUTO 22009KT 10SM SCT045 23/10 A2998 RMK AO2,K4A9,2018-04-02T18:15:00Z,34.47,-85.72,23.0,10.0,220,9,,10.0,29.97933,,,TRUE,TRUE,,,,,,,SCT,4500,,,,,,,VFR,,,,,,,,,,,,SPECI,267.0
K82V 021815Z AUTO 16005G09KT 10SM BKN110 18/M02 A2948 RMK AO2 PWINO,K82V,2018-04-02T18:15:00Z,41.15,-104.13,18.0,-2.0,160,5,9,10.0,29.480314,,,TRUE,TRUE,,,,,TRUE,,BKN,11000,,,,,,,VFR,,,,,,,,,,,,METAR,1570.0
KAEL 021815Z AUTO 17018G22KT 10SM CLR 01/M08 A2988 RMK AO2,KAEL,2018-04-02T18:15:00Z,43.68,-93.37,1.0,-8.0,170,18,22,10.0,29.878937,,,TRUE,TRUE,,,,,,,CLR,,,,,,,,VFR,,,,,,,,,,,,SPECI,383.0
KAIT 021815Z AUTO 00000KT 10SM CLR M02/M09 A2990 RMK AO2,KAIT,2018-04-02T18:15:00Z,46.53,-93.67,-2.0,-9.0,0,0,,10.0,29.899607,,,TRUE,TRUE,,,,,,,CLR,,,,,,,,VFR,,,,,,,,,,,,SPECI,367.0
KASN 021815Z AUTO 22006KT 10SM CLR 25/12 A3000 RMK AO2 T02470124,KASN,2018-04-02T18:15:00Z,33.57,-86.05,24.7,12.4,220,6,,10.0,30.0,,,TRUE,TRUE,,,,,,,CLR,,,,,,,,VFR,,,,,,,,,,,,SPECI,162.0
KAUN 021815Z AUTO 26006KT 10SM CLR 19/09 A2990 RMK AO1,KAUN,2018-04-02T18:15:00Z,38.95,-121.08,19.0,9.0,260,6,,10.0,29.899607,,,TRUE,TRUE,,,,,,,CLR,,,,,,,,VFR,,,,,,,,,,,,METAR,467.0
KAXV 021815Z AUTO 07003KT 7SM CLR 04/M03 A3010 RMK AO2,KAXV,2018-04-02T18:15:00Z,40.5,-84.3,4.0,-3.0,70,3,,7.0,30.100393,,,TRUE,TRUE,,,,,,,CLR,,,,,,,,VFR,,,,,,,,,,,,SPECI,279.0
KBAM 021815Z AUTO 34021G24KT 10SM SCT038 BKN048 OVC110 09/03 A2983 RMK AO1,KBAM,2018-04-02T18:15:00Z,,,9.0,3.0,340,21,24,10.0,29.828741,,,TRUE,TRUE,,,,,,,SCT,3800,BKN,4800,OVC,11000,,,VFR,,,,,,,,,,,,METAR,
KCXU 021815Z AUTO 28003KT 10SM BKN023 22/17 A3007 RMK AO1 T02240172,KCXU,2018-04-02T18:15:00Z,31.22,-84.23,22.4,17.2,280,3,,10.0,30.070866,,,TRUE,TRUE,,,,,,,BKN,2300,,,,,,,MVFR,,,,,,,,,,,,SPECI,53.0
KCWC 021815Z AUTO 15003KT 10SM BKN014 OVC021 06/02 A2991 RMK AO2 T00620024,KCWC,2018-04-02T18:15:00Z,33.85,-98.48,6.2,2.4,150,3,,10.0,29.911417,,,TRUE,TRUE,,,,,,,BKN,1400,OVC,2100,,,,,MVFR,,,,,,,,,,,,METAR,305.0
KCNB 021815Z AUTO 14010KT 10SM OVC065 00/M03 A2980 RMK AO2 T10041027,KCNB,2018-04-02T18:15:00Z,44.73,-96.27,-0.4,-2.7,140,10,,10.0,29.799213,,,TRUE,TRUE,,,,,,,OVC,6500,,,,,,,VFR,,,,,,,,,,,,SPECI,364.0
KCMD 021815Z AUTO 00000KT 10SM SCT037 22/13 A3001 RMK AO2 T02240129,KCMD,2018-04-02T18:15:00Z,34.27,-86.85,22.4,12.9,0,0,,10.0,30.008858,,,TRUE,TRUE,,,,,,,SCT,3700,,,,,,,VFR,,,,,,,,,,,,SPECI,294.0
KCKN 021815Z AUTO 06008KT 10SM CLR M06/M12 A2997 RMK AO2,KCKN,2018-04-02T18:15:00Z,47.85,-96.62,-6.0,-12.0,60,8,,10.0,29.970472,,,TRUE,TRUE,,,,,,,CLR,,,,,,,,VFR,,,,,,,,,,,,METAR,273.0
KCKF 021815Z AUTO 24009KT 10SM CLR 27/09 A3005 RMK AO2 T02650091,KCKF,2018-04-02T18:15:00Z,31.98,-83.77,26.5,9.1,240,9,,10.0,30.050198,,,TRUE,TRUE,,,,,,,CLR,,,,,,,,VFR,,,,,,,,,,,,SPECI,91.0
KCKC 021815Z AUTO 20004KT 10SM BKN036 BKN043 M05/M13 A2991 RMK AO2,KCKC,2018-04-02T18:15:00Z,47.83,-90.37,-5.0,-13.0,200,4,,10.0,29.911417,,,TRUE,TRUE,,,,,,,BKN,3600,BKN,4300,,,,,VFR,,,,,,,,,,,,SPECI,548.0
KCFE 021815Z AUTO 16007KT 3/4SM -SN OVC006 M01/M04 A2994 RMK AO2 T10151038,KCFE,2018-04-02T18:15:00Z,45.17,-93.85,-1.5,-3.8,160,7,,0.75,29.940945,,,TRUE,TRUE,,,,,,-SN,OVC,600,,,,,,,LIFR,,,,,,,,,,,,SPECI,295.0
KCDI 021815Z AUTO 00000KT 10SM OVC022 05/00 A3012 RMK AO2 T00480002,KCDI,2018-04-02T18:15:00Z,39.97,-81.58,4.8,0.2,0,0,,10.0,30.121063,,,TRUE,TRUE,,,,,,,OVC,2200,,,,,,,MVFR,,,,,,,,,,,,METAR,244.0
KBXA 021815Z AUTO 00000KT 10SM SCT060 26/16 A3002 RMK AO2 T02600157,KBXA,2018-04-02T18:15:00Z,30.82,-89.87,26.0,15.7,0,0,,10.0,30.02067,,,TRUE,TRUE,,,,,,,SCT,6000,,,,,,,VFR,,,,,,,,,,,,SPECI,36.0
KCZT 021815Z AUTO 17007KT 10SM SCT034 BKN042 28/19 A2976 RMK AO2,KCZT,2018-04-02T18:15:00Z,28.52,-99.82,28.0,19.0,170,7,,10.0,29.760826,,,TRUE,TRUE,,,,,,,SCT,3400,BKN,4200,,,,,VFR,,,,,,,,,,,,METAR,183.0
KDNN 021815Z AUTO 18008KT 136V226 10SM CLR 23/11 A3000 RMK AO2,KDNN,2018-04-02T18:15:00Z,34.72,-84.87,23.0,11.0,180,8,,10.0,30.0,,,TRUE,TRUE,,,,,,,CLR,,,,,,,,VFR,,,,,,,,,,,,SPECI,216.0
KDRI 021815Z AUTO 16008KT 110V180 10SM CLR 26/18 A2996 RMK AO2 T02640175,KDRI,2018-04-02T18:15:00Z,30.83,-93.33,26.4,17.5,160,8,,10.0,29.958662,,,TRUE,TRUE,,,,,,,CLR,,,,,,,,VFR,,,,,,,,,,,,SPECI,63.0
KDUH 021815Z AUTO 20004KT 10SM CLR 04/M08 A3011 RMK AO2 T00401076,KDUH,2018-04-02T18:15:00Z,41.73,-83.65,4.0,-7.6,200,4,,10.0,30.109253,,,TRUE,TRUE,,,,,,,CLR,,,,,,,,VFR,,,,,,,,,,,,SPECI,204.0
KELO 021815Z AUTO 04004KT 10SM SCT036 M04/M13 A2992 RMK AO2,KELO,2018-04-02T18:15:00Z,47.82,-91.82,-4.0,-13.0,40,4,,10.0,29.920275,,,TRUE,TRUE,,,,,,,SCT,3600,,,,,,,VFR,,,,,,,,,,,,SPECI,443.0
KEVM 021815Z AUTO 00000KT 10SM CLR M03/M11 A2993 RMK AO2 T10341109,KEVM,2018-04-02T18:15:00Z,47.42,-92.5,-3.4,-10.9,0,0,,10.0,29.929134,,,TRUE,TRUE,,,,,,,CLR,,,,,,,,VFR,,,,,,,,,,,,METAR,421.0
KFPK 021815Z AUTO 19009KT 10SM CLR 04/M08 A3006 RMK AO2 T00421084,KFPK,2018-04-02T18:15:00Z,42.57,-84.82,4.2,-8.4,190,9,,10.0,30.059055,,,TRUE,TRUE,,,,,,,CLR,,,,,,,,VFR,,,,,,,,,,,,SPECI,272.0
KFWZ 021815Z AUTO 23016G23KT 10SM SCT040 BKN049 OVC060 03/M05 A2946 RMK AO2 TSNO,KFWZ,2018-04-02T18:15:00Z,42.52,-108.78,3.0,-5.0,230,16,23,10.0,29.459646,,,TRUE,TRUE,,,TRUE,,,,SCT,4000,BKN,4900,OVC,6000,,,VFR,,,,,,,,,,,,METAR,2588.0
KGAO 021815Z AUTO 15007KT 10SM SCT022 BKN026 OVC034 26/19 A3001 RMK AO2 T02580191,KGAO,2018-04-02T18:15:00Z,29.45,-90.27,25.8,19.1,150,7,,10.0,30.008858,,,TRUE,TRUE,,,,,,,SCT,2200,BKN,2600,OVC,3400,,,MVFR,,,,,,,,,,,,SPECI,1.0
KGCM 021815Z AUTO 18004KT 1 3/4SM BR OVC004 03/02 A2990 RMK AO2,KGCM,2018-04-02T18:15:00Z,36.3,-95.48,3.0,2.0,180,4,,1.75,29.899607,,,TRUE,TRUE,,,,,,BR,OVC,400,,,,,,,LIFR,,,,,,,,,,,,SPECI,221.0
KGIC 021815Z AUTO 25012KT 10SM OVC045 01/M06 A2984 RMK AO1,KGIC,2018-04-02T18:15:00Z,45.95,-116.12,1.0,-6.0,250,12,,10.0,29.840551,,,TRUE,TRUE,,,,,,,OVC,4500,,,,,,,VFR,,,,,,,,,,,,METAR,1009.0
KHCR 021815Z AUTO 21022G29KT 10SM CLR 13/M06 A2963 RMK AO2,KHCR,2018-04-02T18:15:00Z,40.48,-111.43,13.0,-6.0,210,22,29,10.0,29.630905,,,TRUE,TRUE,,,,,,,CLR,,,,,,,,VFR,,,,,,,,,,,,METAR,1706.0
KHFY 021815Z AUTO 10009KT 10SM OVC022 04/M01 A3009 RMK AO2 T00411006,KHFY,2018-04-02T18:15:00Z,39.63,-86.08,4.1,-0.6,100,9,,10.0,30.088583,,,TRUE,TRUE,,,,,,,OVC,2200,,,,,,,MVFR,,,,,,,,,,,,SPECI,251.0
KHMP 021815Z AUTO 25009KT 10SM CLR 27/06 A3001 RMK AO2 T02660057,KHMP,2018-04-02T18:15:00Z,33.38,-84.33,26.6,5.7,250,9,,10.0,30.008858,,,TRUE,TRUE,,,,,,,CLR,,,,,,,,VFR,,,,,,,,,,,,SPECI,269.0
KHON 021815Z AUTO 13016G23KT 10SM SCT025 OVC032 02/M04 A2967 RMK AO2 T00171044,KHON,2018-04-02T18:15:00Z,44.38,-98.23,1.7,-4.4,130,16,23,10.0,29.66929,,,TRUE,TRUE,,,,,,,SCT,2500,OVC,3200,,,,,VFR,,,,,,,,,,,,SPECI,390.0
KI19 021815Z AUTO 09003KT 10SM OVC026 05/M01 A3011 RMK AO2 T00491007,KI19,2018-04-02T18:15:00Z,39.7,-83.98,4.9,-0.7,90,3,,10.0,30.109253,,,TRUE,TRUE,,,,,,,OVC,2600,,,,,,,MVFR,,,,,,,,,,,,SPECI,289.0
KI69 021815Z AUTO 09003KT 10SM OVC013 04/01 A3011 RMK AO2 T00400006,KI69,2018-04-02T18:15:00Z,39.08,-84.22,4.0,0.6,90,3,,10.0,30.109253,,,TRUE,TRUE,,,,,,,OVC,1300,,,,,,,MVFR,,,,,,,,,,,,METAR,255.0
KIER 021815Z AUTO 17007G14KT 10SM SCT033 SCT040 BKN055 25/19 A2993 RMK AO2 T02530186,KIER,2018-04-02T18:15:00Z,31.73,-93.1,25.3,18.6,170,7,14,10.0,29.929134,,,TRUE,TRUE,,,,,,,SCT,3300,SCT,4000,BKN,5500,,,VFR,,,,,,,,,,,,SPECI,37.0
KJSV 021815Z AUTO 09008KT 4SM BR OVC004 07/06 A2991 RMK AO2,KJSV,2018-04-02T18:15:00Z,35.43,-94.8,7.0,6.0,90,8,,4.0,29.911417,,,TRUE,TRUE,,,,,,BR,OVC,400,,,,,,,LIFR,,,,,,,,,,,,SPECI,161.0
KJYM 021815Z AUTO 15005KT 10SM CLR 03/M08 A3007 RMK AO2,KJYM,2018-04-02T18:15:00Z,41.92,-84.58,3.0,-8.0,150,5,,10.0,30.070866,,,TRUE,TRUE,,,,,,,CLR,,,,,,,,VFR,,,,,,,,,,,,SPECI,360.0
KLHB 021815Z AUTO 15008G14KT 10SM BKN023 OVC033 24/20 A2986 RMK AO2 T02440200,KLHB,2018-04-02T18:15:00Z,30.87,-96.62,24.4,20.0,150,8,14,10.0,29.861221,,,TRUE,TRUE,,,,,,,BKN,2300,OVC,3300,,,,,MVFR,,,,,,,,,,,,METAR,87.0
KLUM 021815Z AUTO 12007KT 10SM SCT038 BKN050 OVC060 02/M08 A2994 RMK AO2 T00191079,KLUM,2018-04-02T18:15:00Z,44.9,-91.87,1.9,-7.9,120,7,,10.0,29.940945,,,TRUE,TRUE,,,,,,,SCT,3800,BKN,5000,OVC,6000,,,VFR,,,,,,,,,,,,METAR,273.0
KLYV 021815Z AUTO 15017G24KT 10SM BKN023 OVC050 00/M04 A2974 RMK AO2,KLYV,2018-04-02T18:15:00Z,43.62,-96.22,0.0,-4.0,150,17,24,10.0,29.740158,,,TRUE,TRUE,,,,,,,BKN,2300,OVC,5000,,,,,MVFR,,,,,,,,,,,,METAR,436.0
KMFV 021815Z AUTO 33013G17KT 10SM OVC018 11/06 A3007 RMK AO2 T01080057,KMFV,2018-04-02T18:15:00Z,37.63,-75.77,10.8,5.7,330,13,17,10.0,30.070866,,,TRUE,TRUE,,,,,,,OVC,1800,,,,,,,MVFR,,,,,,,,,,,,SPECI,15.0
KMNE 021815Z AUTO 18005KT 10SM SCT044 OVC050 24/17 A2993 RMK AO2 T02400172,KMNE,2018-04-02T18:15:00Z,32.65,-93.3,24.0,17.2,180,5,,10.0,29.929134,,,TRUE,TRUE,,,,,,,SCT,4400,OVC,5000,,,,,VFR,,,,,,,,,,,,SPECI,85.0
KOEB 021815Z AUTO 16005KT 10SM CLR 05/M08 A3007 RMK AO2 T00451085,KOEB,2018-04-02T18:15:00Z,41.92,-85.03,4.5,-8.5,160,5,,10.0,30.070866,,,TRUE,TRUE,,,,,,,CLR,,,,,,,,VFR,,,,,,,,,,,,SPECI,292.0
KONZ 021815Z AUTO 17009KT 10SM CLR 02/M06 A3013 RMK AO2 T00201063,KONZ,2018-04-02T18:15:00Z,42.1,-83.15,2.0,-6.3,170,9,,10.0,30.129921,,,TRUE,TRUE,,,,,,,CLR,,,,,,,,VFR,,,,,,,,,,,,SPECI,180.0
KORG 021815Z AUTO 18011G16KT 10SM CLR 26/21 A2996 RMK AO2 T02600212,KORG,2018-04-02T18:15:00Z,30.07,-93.8,26.0,21.2,180,11,16,10.0,29.958662,,,TRUE,TRUE,,,,,,,CLR,,,,,,,,VFR,,,,,,,,,,,,METAR,4.0
KPEX 021815Z AUTO 15005KT 1/2SM SN OVC005 M02/M03 A2990 RMK AO2 T10201026,KPEX,2018-04-02T18:15:00Z,45.37,-94.73,-2.0,-2.6,150,5,,0.5,29.899607,,,TRUE,TRUE,,,,,,SN,OVC,500,,,,,,,LIFR,,,,,,,,,,,,METAR,360.0
KPVJ 021815Z AUTO 15004KT 10SM OVC012 05/04 A2987 RMK AO2 T00530035,KPVJ,2018-04-02T18:15:00Z,34.72,-97.22,5.3,3.5,150,4,,10.0,29.870079,,,TRUE,TRUE,,,,,,,OVC,1200,,,,,,,MVFR,,,,,,,,,,,,SPECI,295.0
KPWC 021815Z AUTO 00000KT 10SM BKN044 OVC050 M03/M09 A2993 RMK AO2,KPWC,2018-04-02T18:15:00Z,46.72,-94.37,-3.0,-9.0,0,0,,10.0,29.929134,,,TRUE,TRUE,,,,,,,BKN,4400,OVC,5000,,,,,VFR,,,,,,,,,,,,SPECI,395.0
KRMY 021815Z AUTO 19009KT 10SM CLR 04/M09 A3007 RMK AO2 T00411094,KRMY,2018-04-02T18:15:00Z,42.23,-84.95,4.1,-9.4,190,9,,10.0,30.070866,,,TRUE,TRUE,,,,,,,CLR,,,,,,,,VFR,,,,,,,,,,,,SPECI,287.0
KRQB 021815Z AUTO 23005KT 10SM CLR 04/M13 A3002 RMK AO2 T00441126,KRQB,2018-04-02T18:15:00Z,43.72,-85.5,4.4,-12.6,230,5,,10.0,30.02067,,,TRUE,TRUE,,,,,,,CLR,,,,,,,,VFR,,,,,,,,,,,,SPECI,302.0
KRSN 021815Z AUTO 20007KT 10SM BKN019 BKN025 OVC030 24/17 A2998 RMK AO2 T02350171,KRSN,2018-04-02T18:15:00Z,32.52,-92.58,23.5,17.1,200,7,,10.0,29.97933,,,TRUE,TRUE,,,,,,,BKN,1900,BKN,2500,OVC,3000,,,MVFR,,,,,,,,,,,,SPECI,95.0
KSAZ 021815Z AUTO 14004KT 2 1/2SM -SN OVC020 M03/M07 A2990 RMK AO2,KSAZ,2018-04-02T18:15:00Z,46.37,-94.8,-3.0,-7.0,140,4,,2.5,29.899607,,,TRUE,TRUE,,,,,,-SN,OVC,2000,,,,,,,IFR,,,,,,,,,,,,METAR,392.0
KTOB 021815Z AUTO 13013KT 10SM SCT045 M01/M05 A2990 RMK AO2,KTOB,2018-04-02T18:15:00Z,44.02,-92.82,-1.0,-5.0,130,13,,10.0,29.899607,,,TRUE,TRUE,,,,,,,SCT,4500,,,,,,,VFR,,,,,,,,,,,,SPECI,398.0
KTEW 021815Z AUTO 18005KT 10SM CLR 05/M10 A3007 RMK AO2 T00481103,KTEW,2018-04-02T18:15:00Z,42.57,-84.42,4.8,-10.3,180,5,,10.0,30.070866,,,TRUE,TRUE,,,,,,,CLR,,,,,,,,VFR,,,,,,,,,,,,SPECI,280.0
KSZT 021815Z AUTO 23007KT 10SM OVC028 01/M04 A2981 RMK AO2,KSZT,2018-04-02T18:15:00Z,48.3,-116.57,1.0,-4.0,230,7,,10.0,29.811024,,,TRUE,TRUE,,,,,,,OVC,2800,,,,,,,MVFR,,,,,,,,,,,,METAR,648.0
KSYN 021815Z AUTO 16008G16KT 1SM -SN OVC006 M01/M04 A2993 RMK AO2 T10071036,KSYN,2018-04-02T18:15:00Z,44.47,-93.02,-0.7,-3.6,160,8,16,1.0,29.929134,,,TRUE,TRUE,,,,,,-SN,OVC,600,,,,,,,IFR,,,,,,,,,,,,SPECI,280.0
KSUW 021815Z AUTO 00000KT 10SM SCT044 SCT050 SCT055 00/M13 A2996 RMK AO2 T10031133,KSUW,2018-04-02T18:15:00Z,46.68,-92.1,-0.3,-13.3,0,0,,10.0,29.958662,,,TRUE,TRUE,,,,,,,SCT,4400,SCT,5000,SCT,5500,,,VFR,,,,,,,,,,,,SPECI,206.0
KSLH 021815Z AUTO 25011G16KT 10SM CLR 01/M10 A3001 RMK AO2 T00121104,KSLH,2018-04-02T18:15:00Z,45.65,-84.52,1.2,-10.4,250,11,16,10.0,30.008858,,,TRUE,TRUE,,,,,,,CLR,,,,,,,,VFR,,,,,,,,,,,,SPECI,195.0
KSCD 021815Z AUTO 23006KT 5SM HZ BKN029 BKN035 23/15 A3002 RMK AO2 T02340152,KSCD,2018-04-02T18:15:00Z,33.17,-86.3,23.4,15.2,230,6,,5.0,30.02067,,,TRUE,TRUE,,,,,,HZ,BKN,2900,BKN,3500,,,,,MVFR,,,,,,,,,,,,SPECI,173.0
KW31 021815Z AUTO 01004KT 10SM SCT060 BKN120 16/07 A3003 RMK AO1 T01630070,KW31,2018-04-02T18:15:00Z,36.95,-78.18,16.3,7.0,10,4,,10.0,30.029528,,,TRUE,TRUE,,,,,,,SCT,6000,BKN,12000,,,,,VFR,,,,,,,,,,,,SPECI,162.0
KWVI 021815Z AUTO 08003KT 8SM BKN015 14/10 A2995 RMK AO2 T01390100 TSNO,KWVI,2018-04-02T18:15:00Z,36.93,-121.78,13.9,10.0,80,3,,8.0,29.949802,,,TRUE,TRUE,,,TRUE,,,,BKN,1500,,,,,,,MVFR,,,,,,,,,,,,SPECI,43.0
CZMT 021815Z 18004KT 140V270 15SM FEW004 FEW008 SCT015 SCT020 BKN200 03/00 A2991 RMK CF1CU1SC1SC1CI2 SLP131,CZMT,2018-04-02T18:15:00Z,54.03,-132.13,3.0,0.0,180,4,,15.0,29.911417,1013.1,,,,,,,,,,FEW,400,FEW,800,SCT,1500,SCT,2000,VFR,,,,,,,,,,,,SPECI,8.0
PHLI 021815Z 27009KT 3/4SM +RA BR BKN007 BKN015 OVC028 23/22 A2987 RMK AO2 P0038 T02280222,PHLI,2018-04-02T18:15:00Z,21.97,-159.33,22.8,22.2,270,9,,0.75,29.870079,,,,TRUE,,,,,,+RA BR,BKN,700,BKN,1500,OVC,2800,,,LIFR,,,,,,0.38,,,,,,SPECI,45.0
KSWW 021815Z AUTO 16003KT 10SM OVC011 13/09 A2986 RMK AO2 T01340087,KSWW,2018-04-02T18:15:00Z,32.47,-100.47,13.4,8.7,160,3,,10.0,29.861221,,,TRUE,TRUE,,,,,,,OVC,1100,,,,,,,MVFR,,,,,,,,,,,,METAR,727.0
KSYI 021815Z AUTO 00000KT 10SM BKN023 BKN042 17/11 A3000 RMK A01,KSYI,2018-04-02T18:15:00Z,35.57,-86.45,17.0,11.0,0,0,,10.0,30.0,,,TRUE,TRUE,,,,,,,BKN,2300,BKN,4200,,,,,MVFR,,,,,,,,,,,,METAR,245.0
KTDF 021815Z AUTO 22004KT 10SM CLR 23/06 A2997 RMK AO2,KTDF,2018-04-02T18:15:00Z,36.28,-78.98,23.0,6.0,220,4,,10.0,29.970472,,,TRUE,TRUE,,,,,,,CLR,,,,,,,,VFR,,,,,,,,,,,,METAR,186.0
KTAZ 021815Z AUTO 11009KT 10SM BKN016 OVC055 04/00 A3003 RMK AO2 T00360001,KTAZ,2018-04-02T18:15:00Z,39.53,-89.33,3.6,0.1,110,9,,10.0,30.029528,,,TRUE,TRUE,,,,,,,BKN,1600,OVC,5500,,,,,MVFR,,,,,,,,,,,,SPECI,190.0
KT35 021815Z AUTO 35009KT 5SM BR OVC007 17/14 A2987 RMK AO2 T01690141,KT35,2018-04-02T18:15:00Z,30.88,-96.97,16.9,14.1,350,9,,5.0,29.870079,,,TRUE,TRUE,,,,,,BR,OVC,700,,,,,,,IFR,,,,,,,,,,,,METAR,123.0
KTHA 021815Z AUTO 24008KT 10SM OVC024 19/13 A2999 RMK A01,KTHA,2018-04-02T18:15:00Z,35.38,-86.25,19.0,13.0,240,8,,10.0,29.991142,,,TRUE,TRUE,,,,,,,OVC,2400,,,,,,,MVFR,,,,,,,,,,,,METAR,331.0
KTIF 021815Z AUTO 18012G15KT 10SM CLR 06/M02 A2951 RMK AO2 T00601025,KTIF,2018-04-02T18:15:00Z,41.97,-100.57,6.0,-2.5,180,12,15,10.0,29.509842,,,TRUE,TRUE,,,,,,,CLR,,,,,,,,VFR,,,,,,,,,,,,SPECI,892.0
KTIP 021815Z AUTO 08005KT 10SM CLR 02/M02 A3007 RMK AO2 T00211018,KTIP,2018-04-02T18:15:00Z,40.28,-88.15,2.1,-1.8,80,5,,10.0,30.070866,,,TRUE,TRUE,,,,,,,CLR,,,,,,,,VFR,,,,,,,,,,,,SPECI,225.0
KTKV 021815Z AUTO 21004KT 10SM SCT070 BKN110 00/M11 A2996 RMK AO2 T00001110,KTKV,2018-04-02T18:15:00Z,45.47,-89.82,0.0,-11.0,210,4,,10.0,29.958662,,,TRUE,TRUE,,,,,,,SCT,7000,BKN,11000,,,,,VFR,,,,,,,,,,,,SPECI,453.0
KTMK 021815Z AUTO 30008G15KT 10SM SCT033 SCT040 SCT047 08/02 A3018 RMK AO2,KTMK,2018-04-02T18:15:00Z,45.42,-123.82,8.0,2.0,300,8,15,10.0,30.180119,,,TRUE,TRUE,,,,,,,SCT,3300,SCT,4000,SCT,4700,,,VFR,,,,,,,,,,,,METAR,11.0
KTTA 021815Z AUTO 19008KT 10SM CLR 27/06 A2994 RMK AO2 T02650062,KTTA,2018-04-02T18:15:00Z,35.58,-79.1,26.5,6.2,190,8,,10.0,29.940945,,,TRUE,TRUE,,,,,,,CLR,,,,,,,,VFR,,,,,,,,,,,,METAR,75.0
KU68 021815Z AUTO 30010KT 3SM -SN BKN017 OVC023 00/00 A2950 RMK AO2,KU68,2018-04-02T18:15:00Z,44.92,-108.45,0.0,0.0,300,10,,3.0,29.500984,,,TRUE,TRUE,,,,,,-SN,BKN,1700,OVC,2300,,,,,MVFR,,,,,,,,,,,,METAR,1247.0
KUBE 021815Z AUTO 13004KT 10SM SCT035 BKN040 OVC047 00/M10 A2993 RMK AO2,KUBE,2018-04-02T18:15:00Z,45.5,-91.98,0.0,-10.0,130,4,,10.0,29.929134,,,TRUE,TRUE,,,,,,,SCT,3500,BKN,4000,OVC,4700,,,VFR,,,,,,,,,,,,SPECI,379.0
PAUT 021815Z AUTO 08021G28KT 7SM OVC005 03/03 A3006 RMK AO2 T00330030,PAUT,2018-04-02T18:15:00Z,54.15,-165.6,3.3,3.0,80,21,28,7.0,30.059055,,,TRUE,TRUE,,,,,,,OVC,500,,,,,,,IFR,,,,,,,,,,,,METAR,25.0
KBEC 021815Z AUTO 15014KT 10SM OVC015 03/M01 A2977 RMK AO2 T00341010,KBEC,2018-04-02T18:15:00Z,37.7,-97.22,3.4,-1.0,150,14,,10.0,29.769686,,,TRUE,TRUE,,,,,,,OVC,1500,,,,,,,MVFR,,,,,,,,,,,,METAR,429.0
KBFW 021815Z AUTO 17009KT 10SM CLR M03/M08 A2993 RMK AO2,KBFW,2018-04-02T18:15:00Z,47.25,-91.4,-3.0,-8.0,170,9,,10.0,29.929134,,,TRUE,TRUE,,,,,,,CLR,,,,,,,,VFR,,,,,,,,,,,,METAR,331.0
KBGE 021815Z AUTO 00000KT 10SM 25/19 A3005 RMK AO2,KBGE,2018-04-02T18:15:00Z,30.97,-84.63,25.0,19.0,0,0,,10.0,30.050198,,,TRUE,TRUE,,,,,,,,,,,,,,,,,,,,,,,,,,,METAR,43.0
KBHC 021815Z AUTO 20008G14KT 10SM CLR 26/08 A3002 RMK AO2,KBHC,2018-04-02T18:15:00Z,31.72,-82.4,26.0,8.0,200,8,14,10.0,30.02067,,,TRUE,TRUE,,,,,,,CLR,,,,,,,,VFR,,,,,,,,,,,,METAR,61.0
KBIE 021815Z AUTO 15010G17KT 7SM OVC007 M01/M03 A2978 RMK AO2 T10061026,KBIE,2018-04-02T18:15:00Z,40.28,-96.75,-0.6,-2.6,150,10,17,7.0,29.778543,,,TRUE,TRUE,,,,,,,OVC,700,,,,,,,IFR,,,,,,,,,,,,METAR,403.0
KBIJ 021815Z AUTO 17006KT 10SM BKN031 OVC038 25/16 A3004 RMK AO2,KBIJ,2018-04-02T18:15:00Z,31.4,-84.9,25.0,16.0,170,6,,10.0,30.041338,,,TRUE,TRUE,,,,,,,BKN,3100,OVC,3800,,,,,VFR,,,,,,,,,,,,METAR,65.0
KBJI 021815Z AUTO 06005KT 10SM BKN044 BKN055 M04/M11 A2991 RMK AO2 T10381110,KBJI,2018-04-02T18:15:00Z,47.5,-94.92,-3.8,-11.0,60,5,,10.0,29.911417,,,TRUE,TRUE,,,,,,,BKN,4400,BKN,5500,,,,,VFR,,,,,,,,,,,,METAR,420.0
KBKS 021815Z AUTO 16019G25KT 10SM CLR 33/17 A2976 RMK AO1 T03250168,KBKS,2018-04-02T18:15:00Z,27.2,-98.12,32.5,16.8,160,19,25,10.0,29.760826,,,TRUE,TRUE,,,,,,,CLR,,,,,,,,VFR,,,,,,,,,,,,METAR,34.0
KBMC 021815Z AUTO 33022G27KT 10SM SCT045 BKN060 OVC070 09/01 A2967 RMK AO1 T00850008,KBMC,2018-04-02T18:15:00Z,41.55,-112.07,8.5,0.8,330,22,27,10.0,29.66929,,,TRUE,TRUE,,,,,,,SCT,4500,BKN,6000,OVC,7000,,,VFR,,,,,,,,,,,,METAR,1288.0
KBMT 021815Z AUTO 16010G16KT 10SM SCT029 SCT036 SCT050 28/19 A2993 RMK AO2 T02770191,KBMT,2018-04-02T18:15:00Z,30.07,-94.22,27.7,19.1,160,10,16,10.0,29.929134,,,TRUE,TRUE,,,,,,,SCT,2900,SCT,3600,SCT,5000,,,VFR,,,,,,,,,,,,METAR,10.0
KCIR 021815Z AUTO 06005KT 10SM OVC008 05/04 A3002 RMK AO2 T00510037,KCIR,2018-04-02T18:15:00Z,37.07,-89.22,5.1,3.7,60,5,,10.0,30.02067,,,TRUE,TRUE,,,,,,,OVC,800,,,,,,,IFR,,,,,,,,,,,,METAR,98.0
KCIN 021815Z AUTO 15017G24KT 10SM OVC027 03/M03 A2982 RMK AO2,KCIN,2018-04-02T18:15:00Z,42.03,-94.77,3.0,-3.0,150,17,24,10.0,29.819881,,,TRUE,TRUE,,,,,,,OVC,2700,,,,,,,MVFR,,,,,,,,,,,,METAR,375.0
KCGC 021815Z AUTO 30007KT 10SM CLR 26/20 A3005 RMK AO2,KCGC,2018-04-02T18:15:00Z,28.87,-82.57,26.0,20.0,300,7,,10.0,30.050198,,,TRUE,TRUE,,,,,,,CLR,,,,,,,,VFR,,,,,,,,,,,,METAR,3.0
KCFJ 021815Z AUTO 10006KT 10SM OVC019 03/00 A3006 RMK AO2 T00300002,KCFJ,2018-04-02T18:15:00Z,39.98,-86.92,3.0,0.2,100,6,,10.0,30.059055,,,TRUE,TRUE,,,,,,,OVC,1900,,,,,,,MVFR,,,,,,,,,,,,METAR,244.0
KCDN 021815Z AUTO 22009G15KT 190V270 10SM CLR 28/06 A2997 RMK AO2,KCDN,2018-04-02T18:15:00Z,34.28,-80.57,28.0,6.0,220,9,15,10.0,29.970472,,,TRUE,TRUE,,,,,,,CLR,,,,,,,,VFR,,,,,,,,,,,,METAR,92.0
KCDH 021815Z AUTO 00000KT 8SM OVC011 16/09 A2995 RMK AO2,KCDH,2018-04-02T18:15:00Z,33.62,-92.77,16.0,9.0,0,0,,8.0,29.949802,,,TRUE,TRUE,,,,,,,OVC,1100,,,,,,,MVFR,,,,,,,,,,,,METAR,35.0
KCCY 021815Z AUTO 15017KT 10SM OVC110 01/M07 A2991 RMK AO2,KCCY,2018-04-02T18:15:00Z,43.07,-92.62,1.0,-7.0,150,17,,10.0,29.911417,,,TRUE,TRUE,,,,,,,OVC,11000,,,,,,,VFR,,,,,,,,,,,,METAR,343.0
KCAV 021815Z AUTO 16020KT 10SM CLR 02/ A2987 RMK AO2 PWINO,KCAV,2018-04-02T18:15:00Z,42.75,-93.77,2.0,,160,20,,10.0,29.870079,,,TRUE,TRUE,,,,,TRUE,,CLR,,,,,,,,VFR,,,,,,,,,,,,METAR,354.0
KC35 021815Z AUTO 13005KT 10SM SCT100 SCT120 02/M10 A3000 RMK AO2 T00201097,KC35,2018-04-02T18:15:00Z,43.53,-89.98,2.0,-9.7,130,5,,10.0,30.0,,,TRUE,TRUE,,,,,,,SCT,10000,SCT,12000,,,,,VFR,,,,,,,,,,,,METAR,276.0
KBYY 021815Z AUTO 16012KT 10SM SCT022 BKN029 BKN035 26/21 A2990 RMK AO2 T02670209,KBYY,2018-04-02T18:15:00Z,28.97,-95.87,26.7,20.9,160,12,,10.0,29.899607,,,TRUE,TRUE,,,,,,,SCT,2200,BKN,2900,BKN,3500,,,MVFR,,,,,,,,,,,,METAR,14.0
KBVU 021815Z AUTO VRB05KT 10SM CLR 25/M04 A2973 RMK AO2,KBVU,2018-04-02T18:15:00Z,35.95,-114.87,25.0,-4.0,0,5,,10.0,29.731298,,,TRUE,TRUE,,,,,,,CLR,,,,,,,,VFR,,,,,,,,,,,,METAR,671.0
KBVN 021815Z AUTO 18020G25KT 10SM OVC017 01/M04 A2967 RMK AO2 T00081040,KBVN,2018-04-02T18:15:00Z,41.73,-98.05,0.8,-4.0,180,20,25,10.0,29.66929,,,TRUE,TRUE,,,,,,,OVC,1700,,,,,,,MVFR,,,,,,,,,,,,METAR,551.0
KBTA 021815Z AUTO 14015G20KT 10SM BKN023 OVC031 00/M05 A2978 RMK AO2 T00041047,KBTA,2018-04-02T18:15:00Z,41.42,-96.12,0.4,-4.7,140,15,20,10.0,29.778543,,,TRUE,TRUE,,,,,,,BKN,2300,OVC,3100,,,,,MVFR,,,,,,,,,,,,METAR,396.0
KBQX 021815Z AUTO 13010KT 10SM CLR 25/22 A2992 RMK A01,KBQX,2018-04-02T18:15:00Z,28.5,-95.72,25.0,22.0,130,10,,10.0,29.920275,,,TRUE,TRUE,,,,,,,CLR,,,,,,,,VFR,,,,,,,,,,,,METAR,34.0
KBQK 021815Z AUTO 21005KT 10SM BKN036 26/16 A3004 RMK AO2,KBQK,2018-04-02T18:15:00Z,31.25,-81.47,26.0,16.0,210,5,,10.0,30.041338,,,TRUE,TRUE,,,,,,,BKN,3600,,,,,,,VFR,,,,,,,,,,,,METAR,8.0
KBPC 021815Z AUTO 23019G25KT 10SM CLR 23/00 A2963 RMK AO2,KBPC,2018-04-02T18:15:00Z,35.88,-101.03,23.0,0.0,230,19,25,10.0,29.630905,,,TRUE,TRUE,,,,,,,CLR,,,,,,,,VFR,,,,,,,,,,,,METAR,845.0
KBNW 021815Z AUTO 15016G21KT 10SM SCT031 02/M04 A2987 RMK AO2,KBNW,2018-04-02T18:15:00Z,42.03,-93.83,2.0,-4.0,150,16,21,10.0,29.870079,,,TRUE,TRUE,,,,,,,SCT,3100,,,,,,,VFR,,,,,,,,,,,,METAR,354.0
KBNL 021815Z AUTO 24007KT 10SM 27/10 A3000 RMK AO2,KBNL,2018-04-02T18:15:00Z,33.25,-81.38,27.0,10.0,240,7,,10.0,30.0,,,TRUE,TRUE,,,,,,,,,,,,,,,,,,,,,,,,,,,METAR,75.0
KCLI 021815Z AUTO 20007KT 10SM CLR 02/M09 A3002 RMK AO2 T00221091,KCLI,2018-04-02T18:15:00Z,44.62,-88.73,2.2,-9.1,200,7,,10.0,30.02067,,,TRUE,TRUE,,,,,,,CLR,,,,,,,,VFR,,,,,,,,,,,,METAR,250.0
KCMR 021815Z AUTO 20017G22KT 10SM CLR 15/M10 A2993 RMK AO2,KCMR,2018-04-02T18:15:00Z,35.3,-112.2,15.0,-10.0,200,17,22,10.0,29.929134,,,TRUE,TRUE,,,,,,,CLR,,,,,,,,VFR,,,,,,,,,,,,METAR,2036.0
KCNC 021815Z AUTO 16018G24KT 10SM SCT034 SCT040 03/M04 A2987 RMK AO2,KCNC,2018-04-02T18:15:00Z,41.02,-93.37,3.0,-4.0,160,18,24,10.0,29.870079,,,TRUE,TRUE,,,,,,,SCT,3400,SCT,4000,,,,,VFR,,,,,,,,,,,,METAR,320.0
KCPT 021815Z AUTO 00000KT 5SM BR BKN009 SCT013 08/07 A2991 RMK AO2,KCPT,2018-04-02T18:15:00Z,32.35,-97.43,8.0,7.0,0,0,,5.0,29.911417,,,TRUE,TRUE,,,,,,BR,BKN,900,SCT,1300,,,,,IFR,,,,,,,,,,,,METAR,260.0
KCSQ 021815Z AUTO 15017G23KT 10SM OVC018 00/M05 A2985 RMK AO2,KCSQ,2018-04-02T18:15:00Z,41.02,-94.37,0.0,-5.0,150,17,23,10.0,29.84941,,,TRUE,TRUE,,,,,,,OVC,1800,,,,,,,MVFR,,,,,,,,,,,,METAR,394.0
KCUL 021815Z AUTO 07009KT 7SM OVC013 06/03 A3003 RMK AO2 T00550033,KCUL,2018-04-02T18:15:00Z,38.08,-88.12,5.5,3.3,70,9,,7.0,30.029528,,,TRUE,TRUE,,,,,,,OVC,1300,,,,,,,MVFR,,,,,,,,,,,,METAR,118.0
KCVC 021815Z AUTO 23005KT 10SM CLR 26/08 A2999 RMK AO2 PNO,KCVC,2018-04-02T18:15:00Z,33.63,-83.85,26.0,8.0,230,5,,10.0,29.991142,,,TRUE,TRUE,,,,,,,CLR,,,,,,,,VFR,,,,,,,,,,,,METAR,247.0
KCVH 021815Z AUTO 00000KT 10SM SCT022 16/10 A2995 RMK A01,KCVH,2018-04-02T18:15:00Z,36.9,-121.42,16.0,10.0,0,0,,10.0,29.949802,,,TRUE,TRUE,,,,,,,SCT,2200,,,,,,,VFR,,,,,,,,,,,,METAR,70.0
K6B0 021815Z AUTO 14003KT 10SM SCT060 04/M09 A3007 RMK AO2 T00391094,K6B0,2018-04-02T18:15:00Z,43.98,-73.1,3.9,-9.4,140,3,,10.0,30.070866,,,TRUE,TRUE,,,,,,,SCT,6000,,,,,,,VFR,,,,,,,,,,,,METAR,149.0
K7L2 021815Z AUTO 06016KT 6SM BR M06/M06 A2979 RMK AO2,K7L2,2018-04-02T18:15:00Z,46.22,-100.25,-6.0,-6.0,60,16,,6.0,29.790354,,,TRUE,TRUE,,,,,,BR,,,,,,,,,,,,,,,,,,,,,METAR,543.0
K7W4 021815Z AUTO 03006KT 10SM SCT025 BKN043 OVC065 10/03 A3008 RMK AO1 T01030031,K7W4,2018-04-02T18:15:00Z,37.97,-77.75,10.3,3.1,30,6,,10.0,30.079725,,,TRUE,TRUE,,,,,,,SCT,2500,BKN,4300,OVC,6500,,,VFR,,,,,,,,,,,,METAR,106.0
K8B0 021815Z AUTO 28009KT 10SM OVC050 00/M11 A2998 RMK AO2,K8B0,2018-04-02T18:15:00Z,,,0.0,-11.0,280,9,,10.0,29.97933,,,TRUE,TRUE,,,,,,,OVC,5000,,,,,,,VFR,,,,,,,,,,,,METAR,
K8W2 021815Z AUTO 03008KT 10SM BKN024 BKN047 09/04 A3006 RMK AO1 T00900036,K8W2,2018-04-02T18:15:00Z,38.65,-78.7,9.0,3.6,30,8,,10.0,30.059055,,,TRUE,TRUE,,,,,,,BKN,2400,BKN,4700,,,,,MVFR,,,,,,,,,,,,METAR,297.0
K9D7 021815Z AUTO 06013KT 10SM CLR M08/M16 A2997 RMK AO2,K9D7,2018-04-02T18:15:00Z,48.48,-99.23,-8.0,-16.0,60,13,,10.0,29.970472,,,TRUE,TRUE,,,,,,,CLR,,,,,,,,VFR,,,,,,,,,,,,METAR,452.0
KA39 021815Z AUTO 16007KT 120V190 10SM CLR 27/M08 A2983 RMK AO2,KA39,2018-04-02T18:15:00Z,32.98,-111.92,27.0,-8.0,160,7,,10.0,29.828741,,,TRUE,TRUE,,,,,,,CLR,,,,,,,,VFR,,,,,,,,,,,,METAR,396.0
KAFO 021815Z AUTO 30011G21KT 1 3/4SM -SN BKN012 BKN017 OVC024 00/00 A2962 RMK AO2,KAFO,2018-04-02T18:15:00Z,42.72,-110.95,0.0,0.0,300,11,21,1.75,29.619095,,,TRUE,TRUE,,,,,,-SN,BKN,1200,BKN,1700,OVC,2400,,,IFR,,,,,,,,,,,,METAR,1897.0
KAFK 021815Z AUTO 16008KT 7SM OVC006 M03/M03 A2984 RMK AO2 T10311035,KAFK,2018-04-02T18:15:00Z,40.6,-95.85,-3.1,-3.5,160,8,,7.0,29.840551,,,TRUE,TRUE,,,,,,,OVC,600,,,,,,,IFR,,,,,,,,,,,,METAR,354.0
KAEJ 021815Z AUTO 27018G33KT 10SM CLR 15/M15 A2969 RMK AO2 T01541149,KAEJ,2018-04-02T18:15:00Z,38.82,-106.12,15.4,-14.9,270,18,33,10.0,29.68996,,,TRUE,TRUE,,,,,,,CLR,,,,,,,,VFR,,,,,,,,,,,,METAR,2422.0
KADU 021815Z AUTO 17014G20KT 10SM OVC025 03/M03 A2984 RMK AO2,KADU,2018-04-02T18:15:00Z,41.7,-94.92,3.0,-3.0,170,14,20,10.0,29.840551,,,TRUE,TRUE,,,,,,,OVC,2500,,,,,,,MVFR,,,,,,,,,,,,METAR,392.0
KAIB 021815Z AUTO 21013G23KT 10SM CLR 19/M11 A2976 RMK AO2,KAIB,2018-04-02T18:15:00Z,38.23,-108.57,19.0,-11.0,210,13,23,10.0,29.760826,,,TRUE,TRUE,,,,,,,CLR,,,,,,,,VFR,,,,,,,,,,,,METAR,1811.0
KAIO 021815Z AUTO 16010G16KT 10SM 02/M04 A2983 RMK AO2,KAIO,2018-04-02T18:15:00Z,41.38,-95.03,2.0,-4.0,160,10,16,10.0,29.828741,,,TRUE,TRUE,,,,,,,,,,,,,,,,,,,,,,,,,,,METAR,360.0
KAJL 021815Z AUTO OVC002 A2943 RMK AO2 LTG DSNT NW PWINO,KAJL,2018-04-02T18:15:00Z,43.67,-110.03,,,,,,,29.430119,,,TRUE,TRUE,,,,,TRUE,,OVC,200,,,,,,,,,,,,,,,,,,,METAR,3161.0
KAJR 021815Z AUTO 25009KT 10SM CLR 24/13 A2999 RMK AO2 T02360126,KAJR,2018-04-02T18:15:00Z,34.5,-83.55,23.6,12.6,250,9,,10.0,29.991142,,,TRUE,TRUE,,,,,,,CLR,,,,,,,,VFR,,,,,,,,,,,,METAR,441.0
KAJZ 021815Z AUTO 22018G22KT 10SM CLR 23/M11 A2965 RMK AO2 T02281107,KAJZ,2018-04-02T18:15:00Z,38.78,-108.07,22.8,-10.7,220,18,22,10.0,29.648623,,,TRUE,TRUE,,,,,,,CLR,,,,,,,,VFR,,,,,,,,,,,,METAR,1583.0
KALM 021815Z AUTO 29009G20KT 10SM CLR 25/M13 A2988 RMK AO2,KALM,2018-04-02T18:15:00Z,32.82,-105.97,25.0,-13.0,290,9,20,10.0,29.878937,,,TRUE,TRUE,,,,,,,CLR,,,,,,,,VFR,,,,,,,,,,,,METAR,1279.0
KALX 021815Z AUTO 19007KT 10SM CLR 21/15 A3002 RMK AO2 T02140149,KALX,2018-04-02T18:15:00Z,32.92,-85.97,21.4,14.9,190,7,,10.0,30.02067,,,TRUE,TRUE,,,,,,,CLR,,,,,,,,VFR,,,,,,,,,,,,METAR,209.0
KANW 021815Z AUTO 19016KT 10SM CLR 07/M03 A2950 RMK AO2 T00711033,KANW,2018-04-02T18:15:00Z,42.57,-100.0,7.1,-3.3,190,16,,10.0,29.500984,,,TRUE,TRUE,,,,,,,CLR,,,,,,,,VFR,,,,,,,,,,,,METAR,789.0
KAQX 021815Z AUTO 00000G10KT 10SM CLR 26/10 A3000 RMK AO2,KAQX,2018-04-02T18:15:00Z,32.98,-81.27,26.0,10.0,0,0,10,10.0,30.0,,,TRUE,TRUE,,,,,,,CLR,,,,,,,,VFR,,,,,,,,,,,,METAR,49.0
KARM 021815Z AUTO 15011KT 10SM SCT033 SCT040 28/18 A2988 RMK AO2 T02750178,KARM,2018-04-02T18:15:00Z,29.25,-96.15,27.5,17.8,150,11,,10.0,29.878937,,,TRUE,TRUE,,,,,,,SCT,3300,SCT,4000,,,,,VFR,,,,,,,,,,,,METAR,31.0
KASL 021815Z AUTO 20009KT 10SM SCT024 SCT029 BKN060 24/17 A2992 RMK AO1 T02410172,KASL,2018-04-02T18:15:00Z,32.52,-94.3,24.1,17.2,200,9,,10.0,29.920275,,,TRUE,TRUE,,,,,,,SCT,2400,SCT,2900,BKN,6000,,,VFR,,,,,,,,,,,,METAR,109.0
KAXA 021815Z AUTO 16014G23KT 10SM SCT030 BKN050 01/M05 A2987 RMK AO2 PWINO,KAXA,2018-04-02T18:15:00Z,43.07,-94.27,1.0,-5.0,160,14,23,10.0,29.870079,,,TRUE,TRUE,,,,,TRUE,,SCT,3000,BKN,5000,,,,,VFR,,,,,,,,,,,,METAR,372.0
KAWG 021815Z AUTO 13017G23KT 10SM CLR 04/M08 A2995 RMK AO2,KAWG,2018-04-02T18:15:00Z,41.27,-91.67,4.0,-8.0,130,17,23,10.0,29.949802,,,TRUE,TRUE,,,,,,,CLR,,,,,,,,VFR,,,,,,,,,,,,METAR,230.0
KAVQ 021815Z AUTO 19009G16KT 10SM CLR 28/M08 A2982 RMK AO2 T02761082,KAVQ,2018-04-02T18:15:00Z,32.4,-111.22,27.6,-8.2,190,9,16,10.0,29.819881,,,TRUE,TRUE,,,,,,,CLR,,,,,,,,VFR,,,,,,,,,,,,METAR,619.0
KAVC 021815Z AUTO 02004KT 10SM SCT110 19/09 A3007 RMK AO2 T01880089,KAVC,2018-04-02T18:15:00Z,36.68,-78.03,18.8,8.9,20,4,,10.0,30.070866,,,TRUE,TRUE,,,,,,,SCT,11000,,,,,,,VFR,,,,,,,,,,,,METAR,135.0
KATS 021815Z AUTO 11007KT 10SM CLR 24/M00 A2977 RMK AO2,KATS,2018-04-02T18:15:00Z,32.85,-104.47,24.0,0.0,110,7,,10.0,29.769686,,,TRUE,TRUE,,,,,,,CLR,,,,,,,,VFR,,,,,,,,,,,,METAR,1081.0
KATP 021815Z AUTO 15009KT 10SM CLR 25/21 A3001 RMK A01,KATP,2018-04-02T18:15:00Z,27.2,-90.03,25.0,21.0,150,9,,10.0,30.008858,,,TRUE,TRUE,,,,,,,CLR,,,,,,,,VFR,,,,,,,,,,,,METAR,62.0
KASW 021815Z AUTO 17008KT 137V207 10SM CLR 04/M06 A3007 RMK AO2,KASW,2018-04-02T18:15:00Z,41.27,-85.83,4.0,-6.0,170,8,,10.0,30.070866,,,TRUE,TRUE,,,,,,,CLR,,,,,,,,VFR,,,,,,,,,,,,METAR,259.0
KAXX 021815Z AUTO 28019G30KT 230V290 10SM CLR 12/M08 A2986 RMK AO2 T01201076,KAXX,2018-04-02T18:15:00Z,36.42,-105.28,12.0,-7.6,280,19,30,10.0,29.861221,,,TRUE,TRUE,,,,,,,CLR,,,,,,,,VFR,,,,,,,,,,,,METAR,2548.0
K0R4 021815Z AUTO 14010KT 10SM SCT041 SCT048 SCT060 25/19 A2996 RMK AO2 T02450187,K0R4,2018-04-02T18:15:00Z,31.57,-91.5,24.5,18.7,140,10,,10.0,29.958662,,,TRUE,TRUE,,,,,,,SCT,4100,SCT,4800,SCT,6000,,,VFR,,,,,,,,,,,,METAR,17.0
K0F2 021815Z AUTO 16003KT 10SM OVC007 06/05 A2989 RMK AO2 T00570046,K0F2,2018-04-02T18:15:00Z,33.6,-97.78,5.7,4.6,160,3,,10.0,29.890747,,,TRUE,TRUE,,,,,,,OVC,700,,,,,,,IFR,,,,,,,,,,,,METAR,336.0
K0E0 021815Z AUTO 25024G34KT 10SM CLR 20/M13 A2988 RMK AO2 T02001129,K0E0,2018-04-02T18:15:00Z,34.98,-106.0,20.0,-12.9,250,24,34,10.0,29.878937,,,TRUE,TRUE,,,,,,,CLR,,,,,,,,VFR,,,,,,,,,,,,METAR,1890.0
K06D 021815Z AUTO 05011KT 10SM CLR M12/M18 A2995 RMK AO2,K06D,2018-04-02T18:15:00Z,48.88,-99.62,-12.0,-18.0,50,11,,10.0,29.949802,,,TRUE,TRUE,,,,,,,CLR,,,,,,,,VFR,,,,,,,,,,,,METAR,556.0
K06C 021815Z AUTO 16006KT 10SM CLR 04/M10 A3005 RMK AO2 T00351101,K06C,2018-04-02T18:15:00Z,41.98,-88.1,3.5,-10.1,160,6,,10.0,30.050198,,,TRUE,TRUE,,,,,,,CLR,,,,,,,,VFR,,,,,,,,,,,,METAR,244.0
KBEA 021815Z AUTO 14013G22KT 10SM BKN028 OVC035 27/20 A2980 RMK AO2 T02700204,KBEA,2018-04-02T18:15:00Z,28.37,-97.78,27.0,20.4,140,13,22,10.0,29.799213,,,TRUE,TRUE,,,,,,,BKN,2800,OVC,3500,,,,,MVFR,,,,,,,,,,,,METAR,82.0
KBDN 021815Z AUTO 32006G12KT 10SM FEW043 03/M08 A3004 RMK AO2,KBDN,2018-04-02T18:15:00Z,44.1,-121.2,3.0,-8.0,320,6,12,10.0,30.041338,,,TRUE,TRUE,,,,,,,FEW,4300,,,,,,,VFR,,,,,,,,,,,,METAR,1055.0
KBDH 021815Z AUTO 15008KT 1 1/4SM OVC005 M02/M04 A2990 RMK AO2,KBDH,2018-04-02T18:15:00Z,45.12,-95.13,-2.0,-4.0,150,8,,1.25,29.899607,,,TRUE,TRUE,,,,,,,OVC,500,,,,,,,IFR,,,,,,,,,,,,METAR,247.0
KBBF 021815Z AUTO 16012KT 5SM HZ SCT025 BKN031 23/21 A2990 RMK A01,KBBF,2018-04-02T18:15:00Z,27.83,-96.02,23.0,21.0,160,12,,5.0,29.899607,,,TRUE,TRUE,,,,,,HZ,SCT,2500,BKN,3100,,,,,MVFR,,,,,,,,,,,,METAR,36.0
KAZC 021815Z AUTO 25015G21KT 10SM CLR 21/M06 A2985 RMK AO2,KAZC,2018-04-02T18:15:00Z,36.97,-113.02,21.0,-6.0,250,15,21,10.0,29.84941,,,TRUE,TRUE,,,,,,,CLR,,,,,,,,VFR,,,,,,,,,,,,METAR,1486.0
K5H4 021815Z AUTO 06017KT 10SM CLR M10/M13 A2992 RMK AO2,K5H4,2018-04-02T18:15:00Z,47.78,-99.93,-10.0,-13.0,60,17,,10.0,29.920275,,,TRUE,TRUE,,,,,,,CLR,,,,,,,,VFR,,,,,,,,,,,,METAR,490.0
K5C1 021815Z AUTO 16010G16KT 10SM BKN028 BKN035 BKN042 23/17 A2984 RMK AO1,K5C1,2018-04-02T18:15:00Z,29.72,-98.7,23.0,17.0,160,10,16,10.0,29.840551,,,TRUE,TRUE,,,,,,,BKN,2800,BKN,3500,BKN,4200,,,MVFR,,,,,,,,,,,,METAR,423.0
K5A6 021815Z AUTO 17006KT 10SM OVC040 22/16 A2996 RMK AO2 T02190159,K5A6,2018-04-02T18:15:00Z,33.47,-89.73,21.9,15.9,170,6,,10.0,29.958662,,,TRUE,TRUE,,,,,,,OVC,4000,,,,,,,VFR,,,,,,,,,,,,METAR,111.0
K54J 021815Z AUTO 17009KT 10SM SCT036 SCT043 SCT060 26/16 A3003 RMK AO2 T02620163,K54J,2018-04-02T18:15:00Z,30.73,-86.15,26.2,16.3,170,9,,10.0,30.029528,,,TRUE,TRUE,,,,,,,SCT,3600,SCT,4300,SCT,6000,,,VFR,,,,,,,,,,,,METAR,88.0
K4V0 021815Z AUTO 27019G29KT 10SM CLR 18/M06 A2958 RMK AO2 T01801064,K4V0,2018-04-02T18:15:00Z,40.1,-108.77,18.0,-6.4,270,19,29,10.0,29.58071,,,TRUE,TRUE,,,,,,,CLR,,,,,,,,VFR,,,,,,,,,,,,METAR,1608.0
K4S2 021815Z AUTO 29009KT 10SM BKN043 OVC049 07/M01 A3008 RMK AO2,K4S2,2018-04-02T18:15:00Z,45.68,-121.55,7.0,-1.0,290,9,,10.0,30.079725,,,TRUE,TRUE,,,,,,,BKN,4300,OVC,4900,,,,,VFR,,,,,,,,,,,,METAR,192.0
K4R5 021815Z AUTO 19003KT 10SM BKN080 OVC085 M01/M14 A2998 RMK AO2 T10121139,K4R5,2018-04-02T18:15:00Z,46.78,-90.77,-1.2,-13.9,190,3,,10.0,29.97933,,,TRUE,TRUE,,,,,,,BKN,8000,OVC,8500,,,,,VFR,,,,,,,,,,,,METAR,198.0
K4O4 021815Z AUTO 10005KT 3/4SM OVC003 11/10 A2991 RMK AO2,K4O4,2018-04-02T18:15:00Z,33.92,-94.87,11.0,10.0,100,5,,0.75,29.911417,,,TRUE,TRUE,,,,,,,OVC,300,,,,,,,LIFR,,,,,,,,,,,,METAR,144.0
K4M9 021815Z AUTO VRB06G11KT 10SM OVC010 06/05 A3000 RMK AO2 PWINO,K4M9,2018-04-02T18:15:00Z,36.4,-90.65,6.0,5.0,0,6,11,10.0,30.0,,,TRUE,TRUE,,,,,TRUE,,OVC,1000,,,,,,,MVFR,,,,,,,,,,,,METAR,90.0
K4A6 021815Z AUTO 26009KT 10SM CLR 23/13 A2998 RMK AO2,K4A6,2018-04-02T18:15:00Z,34.68,-86.0,23.0,13.0,260,9,,10.0,29.97933,,,TRUE,TRUE,,,,,,,CLR,,,,,,,,VFR,,,,,,,,,,,,METAR,198.0
K49A 021815Z AUTO 25004KT 10SM CLR 23/08 A3003 RMK AO2 T02310075,K49A,2018-04-02T18:15:00Z,34.63,-84.53,23.1,7.5,250,4,,10.0,30.029528,,,TRUE,TRUE,,,,,,,CLR,,,,,,,,VFR,,,,,,,,,,,,METAR,453.0
K46D 021815Z AUTO 06015KT 10SM BKN031 OVC041 M08/M11 A2990 RMK AO2,K46D,2018-04-02T18:15:00Z,47.45,-99.15,-8.0,-11.0,60,15,,10.0,29.899607,,,TRUE,TRUE,,,,,,,BKN,3100,OVC,4100,,,,,VFR,,,,,,,,,,,,METAR,490.0
K40J 021815Z AUTO 22007G14KT 10SM SCT048 28/15 A3005 RMK AO2 T02770149,K40J,2018-04-02T18:15:00Z,30.07,-83.57,27.7,14.9,220,7,14,10.0,30.050198,,,TRUE,TRUE,,,,,,,SCT,4800,,,,,,,VFR,,,,,,,,,,,,METAR,13.0
K3LF 021815Z AUTO 14007KT 10SM BKN016 OVC055 02/M01 A3001 RMK AO2 T00191007,K3LF,2018-04-02T18:15:00Z,39.17,-89.67,1.9,-0.7,140,7,,10.0,30.008858,,,TRUE,TRUE,,,,,,,BKN,1600,OVC,5500,,,,,MVFR,,,,,,,,,,,,METAR,210.0
K3K3 021815Z AUTO 16005KT 10SM CLR 17/M02 A2955 RMK AO2,K3K3,2018-04-02T18:15:00Z,38.0,-101.75,17.0,-2.0,160,5,,10.0,29.551182,,,TRUE,TRUE,,,,,,,CLR,,,,,,,,VFR,,,,,,,,,,,,METAR,1013.0
K3J7 021815Z AUTO 26004KT 10SM CLR 26/09 A2997 RMK AO2,K3J7,2018-04-02T18:15:00Z,33.6,-83.13,26.0,9.0,260,4,,10.0,29.970472,,,TRUE,TRUE,,,,,,,CLR,,,,,,,,VFR,,,,,,,,,,,,METAR,206.0
K3I2 021815Z AUTO 03004KT 10SM OVC015 07/03 A3012 RMK AO2 T00660027,K3I2,2018-04-02T18:15:00Z,38.92,-82.1,6.6,2.7,30,4,,10.0,30.121063,,,TRUE,TRUE,,,,,,,OVC,1500,,,,,,,MVFR,,,,,,,,,,,,METAR,196.0
K3D2 021815Z AUTO 24006KT 10SM SCT120 00/M11 A3002 RMK AO2 T00001106,K3D2,2018-04-02T18:15:00Z,45.13,-87.18,0.0,-10.6,240,6,,10.0,30.02067,,,TRUE,TRUE,,,,,,,SCT,12000,,,,,,,VFR,,,,,,,,,,,,METAR,234.0
K3AU 021815Z AUTO 18012G16KT 10SM BKN015 OVC021 03/00 A2979 RMK AO2,K3AU,2018-04-02T18:15:00Z,37.67,-97.08,3.0,0.0,180,12,16,10.0,29.790354,,,TRUE,TRUE,,,,,,,BKN,1500,OVC,2100,,,,,MVFR,,,,,,,,,,,,METAR,405.0
K2P2 021815Z AUTO 23008KT 10SM SCT120 M01/M09 A3003 RMK AO2 T10071092,K2P2,2018-04-02T18:15:00Z,45.38,-86.92,-0.7,-9.2,230,8,,10.0,30.029528,,,TRUE,TRUE,,,,,,,SCT,12000,,,,,,,VFR,,,,,,,,,,,,METAR,199.0
K2G9 021815Z AUTO 24004KT 10SM OVC022 01/M02 A3005 RMK AO2,K2G9,2018-04-02T18:15:00Z,40.03,-79.02,1.0,-2.0,240,4,,10.0,30.050198,,,TRUE,TRUE,,,,,,,OVC,2200,,,,,,,MVFR,,,,,,,,,,,,METAR,693.0
K2F5 021815Z AUTO 19011G18KT 150V210 10SM BKN011 BKN120 14/08 A2984 RMK AO2,K2F5,2018-04-02T18:15:00Z,32.75,-101.92,14.0,8.0,190,11,18,10.0,29.840551,,,TRUE,TRUE,,,,,,,BKN,1100,BKN,12000,,,,,MVFR,,,,,,,,,,,,METAR,912.0
K2D5 021815Z AUTO 05021KT 6SM BR M06/M07 A2978 RMK AO2 PWINO,K2D5,2018-04-02T18:15:00Z,46.17,-98.08,-6.0,-7.0,50,21,,6.0,29.778543,,,TRUE,TRUE,,,,,TRUE,BR,,,,,,,,,,,,,,,,,,,,,METAR,407.0
K24J 021815Z AUTO VRB05KT 10SM SCT042 27/17 A3005 RMK A01,K24J,2018-04-02T18:15:00Z,30.3,-83.03,27.0,17.0,0,5,,10.0,30.050198,,,TRUE,TRUE,,,,,,,SCT,4200,,,,,,,VFR,,,,,,,,,,,,METAR,32.0
K22N 021815Z AUTO 00000KT 10SM OVC021 04/00 A3013 RMK AO2,K22N,2018-04-02T18:15:00Z,40.8,-75.77,4.0,0.0,0,0,,10.0,30.129921,,,TRUE,TRUE,,,,,,,OVC,2100,,,,,,,MVFR,,,,,,,,,,,,METAR,163.0
K1H2 021815Z AUTO 09009KT 10SM OVC009 02/01 A3006 RMK AO2 T00150006,K1H2,2018-04-02T18:15:00Z,39.07,-88.53,1.5,0.6,90,9,,10.0,30.059055,,,TRUE,TRUE,,,,,,,OVC,900,,,,,,,IFR,,,,,,,,,,,,METAR,179.0
K1A6 021815Z AUTO 01003KT 10SM OVC011 12/11 A3001 RMK AO2 T01230107,K1A6,2018-04-02T18:15:00Z,36.62,-83.73,12.3,10.7,10,3,,10.0,30.008858,,,TRUE,TRUE,,,,,,,OVC,1100,,,,,,,MVFR,,,,,,,,,,,,METAR,352.0
K19S 021815Z AUTO 19018KT 10SM CLR 19/01 A2958 RMK AO2 T01880006,K19S,2018-04-02T18:15:00Z,37.48,-100.83,18.8,0.6,190,18,,10.0,29.58071,,,TRUE,TRUE,,,,,,,CLR,,,,,,,,VFR,,,,,,,,,,,,METAR,886.0
K18H 021815Z AUTO 14014G21KT 2 1/2SM HZ CLR 25/20 A2995 RMK A01,K18H,2018-04-02T18:15:00Z,,,25.0,20.0,140,14,21,2.5,29.949802,,,TRUE,TRUE,,,,,,HZ,CLR,,,,,,,,IFR,,,,,,,,,,,,METAR,
K0S9 021815Z AUTO 28005G10KT 10SM BKN033 OVC041 07/01 A3007 RMK AO2,K0S9,2018-04-02T18:15:00Z,48.05,-122.82,7.0,1.0,280,5,10,10.0,30.070866,,,TRUE,TRUE,,,,,,,BKN,3300,OVC,4100,,,,,VFR,,,,,,,,,,,,METAR,33.0
K6A1 021815Z AUTO 24010KT 10SM 26/02 A3002 RMK AO2 T02630019,K6A1,2018-04-02T18:15:00Z,32.57,-84.25,26.3,1.9,240,10,,10.0,30.02067,,,TRUE,TRUE,,,,,,,,,,,,,,,,,,,,,,,,,,,METAR,203.0
KUTA 021815Z AUTO 00000KT 10SM 11/08 A2998 RMK AO2 TSNO,KUTA,2018-04-02T18:15:00Z,34.68,-90.35,11.0,8.0,0,0,,10.0,29.97933,,,TRUE,TRUE,,,TRUE,,,,,,,,,,,,,,,,,,,,,,,,METAR,59.0
KUVA 021815Z AUTO 14009KT 10SM SCT027 BKN037 26/18 A2980 RMK AO2 T02550183,KUVA,2018-04-02T18:15:00Z,29.22,-99.75,25.5,18.3,140,9,,10.0,29.799213,,,TRUE,TRUE,,,,,,,SCT,2700,BKN,3700,,,,,VFR,,,,,,,,,,,,METAR,287.0
KVAF 021815Z AUTO 20015KT BKN020 BKN024 24/21 RMK A01,KVAF,2018-04-02T18:15:00Z,27.35,-94.63,24.0,21.0,200,15,,,,,,TRUE,TRUE,,,,,,,BKN,2000,BKN,2400,,,,,,,,,,,,,,,,,METAR,46.0
KVJI 021815Z AUTO 27007KT 10SM OVC032 15/10 A3002 RMK AO2 T01510101,KVJI,2018-04-02T18:15:00Z,36.67,-82.02,15.1,10.1,270,7,,10.0,30.02067,,,TRUE,TRUE,,,,,,,OVC,3200,,,,,,,VFR,,,,,,,,,,,,METAR,631.0
KVKY 021815Z AUTO 00000KT 10SM SCT018 25/21 A3005 RMK A01,KVKY,2018-04-02T18:15:00Z,29.25,-88.43,25.0,21.0,0,0,,10.0,30.050198,,,TRUE,TRUE,,,,,,,SCT,1800,,,,,,,VFR,,,,,,,,,,,,METAR,32.0
KVOA 021815Z AUTO 16006KT 8SM SCT025 26/21 A3003 RMK A01,KVOA,2018-04-02T18:15:00Z,29.23,-87.78,26.0,21.0,160,6,,8.0,30.029528,,,TRUE,TRUE,,,,,,,SCT,2500,,,,,,,VFR,,,,,,,,,,,,METAR,53.0
KVQT 021815Z AUTO 16011G16KT 10SM CLR A2999 RMK A01,KVQT,2018-04-02T18:15:00Z,28.27,-92.27,,,160,11,16,10.0,29.991142,,,TRUE,TRUE,,,,,,,CLR,,,,,,,,VFR,,,,,,,,,,,,METAR,25.0
KW63 021815Z AUTO 07005KT 10SM SCT120 19/08 A2999 RMK AO1,KW63,2018-04-02T18:15:00Z,36.6,-78.55,19.0,8.0,70,5,,10.0,29.991142,,,TRUE,TRUE,,,,,,,SCT,12000,,,,,,,VFR,,,,,,,,,,,,METAR,129.0
KW75 021815Z AUTO 33009KT 10SM OVC021 09/05 A3009 RMK AO1 T00900052,KW75,2018-04-02T18:15:00Z,37.6,-76.45,9.0,5.2,330,9,,10.0,30.088583,,,TRUE,TRUE,,,,,,,OVC,2100,,,,,,,MVFR,,,,,,,,,,,,METAR,9.0
KW96 021815Z AUTO 35008KT 10SM OVC038 12/05 A3007 RMK AO1 T01170048,KW96,2018-04-02T18:15:00Z,37.5,-77.12,11.7,4.8,350,8,,10.0,30.070866,,,TRUE,TRUE,,,,,,,OVC,3800,,,,,,,VFR,,,,,,,,,,,,METAR,37.0
KWBF 021815Z AUTO 14006G15KT 10SM CLR 24/20 A3000 RMK A01,KWBF,2018-04-02T18:15:00Z,,,24.0,20.0,140,6,15,10.0,30.0,,,TRUE,TRUE,,,,,,,CLR,,,,,,,,VFR,,,,,,,,,,,,METAR,
KWWR 021815Z AUTO 19016G20KT 10SM CLR 10/M02 A2973 RMK AO2,KWWR,2018-04-02T18:15:00Z,36.45,-99.52,10.0,-2.0,190,16,20,10.0,29.731298,,,TRUE,TRUE,,,,,,,CLR,,,,,,,,VFR,,,,,,,,,,,,METAR,667.0
KX60 021815Z AUTO 22010KT 9SM FEW043 FEW065 30/18 A3004 RMK A01,KX60,2018-04-02T18:15:00Z,29.35,-82.47,30.0,18.0,220,10,,9.0,30.041338,,,TRUE,TRUE,,,,,,,FEW,4300,FEW,6500,,,,,VFR,,,,,,,,,,,,METAR,23.0
KXBP 021815Z AUTO 18003KT 10SM OVC010 06/05 A2992 RMK AO2 T00620048,KXBP,2018-04-02T18:15:00Z,33.18,-97.83,6.2,4.8,180,3,,10.0,29.920275,,,TRUE,TRUE,,,,,,,OVC,1000,,,,,,,MVFR,,,,,,,,,,,,METAR,260.0
KXIH 021815Z AUTO 7SM SCT016 23/ A2994 RMK A01,KXIH,2018-04-02T18:15:00Z,29.18,-94.52,23.0,,,,,7.0,29.940945,,,TRUE,TRUE,,,,,,,SCT,1600,,,,,,,VFR,,,,,,,,,,,,METAR,75.0
KXPY 021815Z AUTO 14008KT 10SM CLR 25/21 A3001 RMK A01,KXPY,2018-04-02T18:15:00Z,29.12,-90.2,25.0,21.0,140,8,,10.0,30.008858,,,TRUE,TRUE,,,,,,,CLR,,,,,,,,VFR,,,,,,,,,,,,METAR,2.0
KXSA 021815Z AUTO 36008KT 10SM OVC021 09/04 A3011 RMK AO2 T00920039,KXSA,2018-04-02T18:15:00Z,37.87,-76.9,9.2,3.9,360,8,,10.0,30.109253,,,TRUE,TRUE,,,,,,,OVC,2100,,,,,,,MVFR,,,,,,,,,,,,METAR,42.0
KCVW 021815Z AUTO 15009KT 9SM CLR 24/22 A2997 RMK A01,KCVW,2018-04-02T18:15:00Z,29.78,-93.3,24.0,22.0,150,9,,9.0,29.970472,,,TRUE,TRUE,,,,,,,CLR,,,,,,,,VFR,,,,,,,,,,,,METAR,1.0
KY51 021815Z 10SM BKN040 OVC047 00/M07 A2995 RMK AO1 T00011069,KY51,2018-04-02T18:15:00Z,43.58,-90.9,0.1,-6.9,,,,10.0,29.949802,,,,TRUE,,,,,,,BKN,4000,OVC,4700,,,,,VFR,,,,,,,,,,,,METAR,394.0
KCWV 021815Z AUTO 20003KT 10SM CLR 28/11 A3002 RMK AO2 T02770105,KCWV,2018-04-02T18:15:00Z,32.2,-81.87,27.7,10.5,200,3,,10.0,30.02067,,,TRUE,TRUE,,,,,,,CLR,,,,,,,,VFR,,,,,,,,,,,,METAR,33.0
KD39 021815Z AUTO 16007KT 3/4SM -SN OVC007 M02/M03 A2989 RMK AO2 T10221035,KD39,2018-04-02T18:15:00Z,45.7,-94.93,-2.2,-3.5,160,7,,0.75,29.890747,,,TRUE,TRUE,,,,,,-SN,OVC,700,,,,,,,LIFR,,,,,,,,,,,,METAR,380.0
KD50 021815Z AUTO 07012KT 10SM FEW005 OVC010 M10/M13 A2993 RMK AO2,KD50,2018-04-02T18:15:00Z,48.93,-103.3,-10.0,-13.0,70,12,,10.0,29.929134,,,TRUE,TRUE,,,,,,,FEW,500,OVC,1000,,,,,MVFR,,,,,,,,,,,,METAR,595.0
KD60 021815Z AUTO 08013KT 10SM FEW004 M11/M12 A2989 RMK AO2,KD60,2018-04-02T18:15:00Z,48.38,-102.9,-11.0,-12.0,80,13,,10.0,29.890747,,,TRUE,TRUE,,,,,,,FEW,400,,,,,,,VFR,,,,,,,,,,,,METAR,693.0
KDKB 021815Z AUTO 16009KT 10SM BKN110 03/M08 A3006 RMK AO2 T00311080 TSNO,KDKB,2018-04-02T18:15:00Z,41.93,-88.7,3.1,-8.0,160,9,,10.0,30.059055,,,TRUE,TRUE,,,TRUE,,,,BKN,11000,,,,,,,VFR,,,,,,,,,,,,METAR,279.0
KDLO 021815Z AUTO 29004KT 10SM CLR 18/06 A2988 RMK AO2 T01830058,KDLO,2018-04-02T18:15:00Z,35.75,-119.23,18.3,5.8,290,4,,10.0,29.878937,,,TRUE,TRUE,,,,,,,CLR,,,,,,,,VFR,,,,,,,,,,,,METAR,96.0
KDLP 021815Z AUTO 00000KT 7SM CLR 23/23 A3002 RMK A01,KDLP,2018-04-02T18:15:00Z,29.12,-89.55,23.0,23.0,0,0,,7.0,30.02067,,,TRUE,TRUE,,,,,,,CLR,,,,,,,,VFR,,,,,,,,,,,,METAR,36.0
KDNA 021815Z AUTO 26015G21KT 10SM CLR 24/M11 A2991 RMK AO2 PWINO,KDNA,2018-04-02T18:15:00Z,31.88,-106.7,24.0,-11.0,260,15,21,10.0,29.911417,,,TRUE,TRUE,,,,,TRUE,,CLR,,,,,,,,VFR,,,,,,,,,,,,METAR,1253.0
KDNV 021815Z AUTO 13004KT 10SM SCT023 03/00 A3005 RMK AO2 T00311002,KDNV,2018-04-02T18:15:00Z,40.2,-87.6,3.1,-0.2,130,4,,10.0,30.050198,,,TRUE,TRUE,,,,,,,SCT,2300,,,,,,,VFR,,,,,,,,,,,,METAR,212.0
KDQH 021815Z AUTO 21006KT 10SM CLR 25/12 A3005 RMK AO2,KDQH,2018-04-02T18:15:00Z,31.48,-82.87,25.0,12.0,210,6,,10.0,30.050198,,,TRUE,TRUE,,,,,,,CLR,,,,,,,,VFR,,,,,,,,,,,,METAR,78.0
KUCY 021815Z AUTO 08005KT 10SM OVC007 08/06 A2999 RMK A01,KUCY,2018-04-02T18:15:00Z,36.38,-88.98,8.0,6.0,80,5,,10.0,29.991142,,,TRUE,TRUE,,,,,,,OVC,700,,,,,,,IFR,,,,,,,,,,,,METAR,104.0
KUKF 021815Z AUTO 27008KT 250V330 10SM SCT070 BKN090 22/10 A3001 RMK AO2,KUKF,2018-04-02T18:15:00Z,36.22,-81.1,22.0,10.0,270,8,,10.0,30.008858,,,TRUE,TRUE,,,,,,,SCT,7000,BKN,9000,,,,,VFR,,,,,,,,,,,,METAR,396.0
KDTL 021815Z AUTO 11006KT 1 1/4SM -SN OVC007 M03/M05 A2988 RMK AO2,KDTL,2018-04-02T18:15:00Z,46.82,-95.87,-3.0,-5.0,110,6,,1.25,29.878937,,,TRUE,TRUE,,,,,,-SN,OVC,700,,,,,,,IFR,,,,,,,,,,,,METAR,426.0
KDUA 021815Z AUTO 19003KT 10SM OVC005 07/06 A2989 RMK AO2,KDUA,2018-04-02T18:15:00Z,33.95,-96.4,7.0,6.0,190,3,,10.0,29.890747,,,TRUE,TRUE,,,,,,,OVC,500,,,,,,,IFR,,,,,,,,,,,,METAR,213.0
KDUX 021815Z AUTO 22020G28KT 10SM CLR 21/M03 A2965 RMK AO2 T02121027,KDUX,2018-04-02T18:15:00Z,35.85,-102.02,21.2,-2.7,220,20,28,10.0,29.648623,,,TRUE,TRUE,,,,,,,CLR,,,,,,,,VFR,,,,,,,,,,,,METAR,1129.0
KDZB 021815Z AUTO 00000KT 10SM BKN014 OVC021 22/18 A2984 RMK AO2 T02220180,KDZB,2018-04-02T18:15:00Z,30.53,-98.37,22.2,18.0,0,0,,10.0,29.840551,,,TRUE,TRUE,,,,,,,BKN,1400,OVC,2100,,,,,MVFR,,,,,,,,,,,,METAR,334.0
KDZJ 021815Z AUTO 24007G14KT 10SM CLR 22/06 A3000 RMK AO2 T02250061,KDZJ,2018-04-02T18:15:00Z,34.85,-84.0,22.5,6.1,240,7,14,10.0,30.0,,,TRUE,TRUE,,,,,,,CLR,,,,,,,,VFR,,,,,,,,,,,,METAR,582.0
KE11 021815Z AUTO 22006KT 10SM CLR 20/08 A2983 RMK AO2 T02010081,KE11,2018-04-02T18:15:00Z,32.33,-102.53,20.1,8.1,220,6,,10.0,29.828741,,,TRUE,TRUE,,,,,,,CLR,,,,,,,,VFR,,,,,,,,,,,,METAR,967.0
KE80 021815Z AUTO 25015G24KT 10SM CLR 23/M14 A2986 RMK AO2 T02261137,KE80,2018-04-02T18:15:00Z,34.65,-106.83,22.6,-13.7,250,15,24,10.0,29.861221,,,TRUE,TRUE,,,,,,,CLR,,,,,,,,VFR,,,,,,,,,,,,METAR,1582.0
KEBG 021815Z AUTO 15022G27KT 10SM CLR 33/18 A2977 RMK AO2 T03260182,KEBG,2018-04-02T18:15:00Z,26.45,-98.13,32.6,18.2,150,22,27,10.0,29.769686,,,TRUE,TRUE,,,,,,,CLR,,,,,,,,VFR,,,,,,,,,,,,METAR,24.0
KECU 021815Z AUTO 17011KT 10SM BKN018 BKN024 OVC031 22/17 A2988 RMK AO2,KECU,2018-04-02T18:15:00Z,29.95,-100.17,22.0,17.0,170,11,,10.0,29.878937,,,TRUE,TRUE,,,,,,,BKN,1800,BKN,2400,OVC,3100,,,MVFR,,,,,,,,,,,,METAR,725.0
KEDC 021815Z AUTO 00000KT 8SM BKN027 BKN034 24/19 A2984 RMK AO2,KEDC,2018-04-02T18:15:00Z,30.4,-97.57,24.0,19.0,0,0,,8.0,29.840551,,,TRUE,TRUE,,,,,,,BKN,2700,BKN,3400,,,,,MVFR,,,,,,,,,,,,METAR,189.0
KEDN 021815Z AUTO 25004KT 10SM SCT037 SCT044 24/16 A3003 RMK AO2 T02420155,KEDN,2018-04-02T18:15:00Z,31.3,-85.9,24.2,15.5,250,4,,10.0,30.029528,,,TRUE,TRUE,,,,,,,SCT,3700,SCT,4400,,,,,VFR,,,,,,,,,,,,METAR,110.0
KEFK 021815Z AUTO 26009KT 10SM SCT060 02/M09 A3005 RMK AO2 T00181089,KEFK,2018-04-02T18:15:00Z,44.88,-72.23,1.8,-8.9,260,9,,10.0,30.050198,,,TRUE,TRUE,,,,,,,SCT,6000,,,,,,,VFR,,,,,,,,,,,,METAR,284.0
KEGV 021815Z AUTO 25009KT 10SM CLR M01/M12 A2994 RMK AO2 T10111121,KEGV,2018-04-02T18:15:00Z,45.93,-89.27,-1.1,-12.1,250,9,,10.0,29.940945,,,TRUE,TRUE,,,,,,,CLR,,,,,,,,VFR,,,,,,,,,,,,METAR,500.0
KEHC 021815Z AUTO 14011KT 9SM CLR A2996 RMK A01,KEHC,2018-04-02T18:15:00Z,28.43,-92.88,,,140,11,,9.0,29.958662,,,TRUE,TRUE,,,,,,,CLR,,,,,,,,VFR,,,,,,,,,,,,METAR,31.0
KEIR 021815Z AUTO 16006KT 10SM CLR 25/22 A3000 RMK A01,KEIR,2018-04-02T18:15:00Z,28.63,-91.48,25.0,22.0,160,6,,10.0,30.0,,,TRUE,TRUE,,,,,,,CLR,,,,,,,,VFR,,,,,,,,,,,,METAR,28.0
KELK 021815Z AUTO 19013G19KT 10SM OVC019 07/00 A2977 RMK AO2 T00741004,KELK,2018-04-02T18:15:00Z,35.43,-99.4,7.4,-0.4,190,13,19,10.0,29.769686,,,TRUE,TRUE,,,,,,,OVC,1900,,,,,,,MVFR,,,,,,,,,,,,METAR,610.0
KENL 021815Z AUTO 09005KT 10SM OVC008 03/01 A3003 RMK AO2 T00270013,KENL,2018-04-02T18:15:00Z,38.52,-89.1,2.7,1.3,90,5,,10.0,30.029528,,,TRUE,TRUE,,,,,,,OVC,800,,,,,,,IFR,,,,,,,,,,,,METAR,163.0
KEOK 021815Z AUTO 12009G17KT 10SM CLR M01/M05 A2998 RMK AO2,KEOK,2018-04-02T18:15:00Z,40.47,-91.42,-1.0,-5.0,120,9,17,10.0,29.97933,,,TRUE,TRUE,,,,,,,CLR,,,,,,,,VFR,,,,,,,,,,,,METAR,205.0
KERV 021815Z AUTO 16014KT 10SM SCT027 OVC035 25/18 A2983 RMK AO2 T02470183,KERV,2018-04-02T18:15:00Z,29.98,-99.08,24.7,18.3,160,14,,10.0,29.828741,,,TRUE,TRUE,,,,,,,SCT,2700,OVC,3500,,,,,VFR,,,,,,,,,,,,METAR,510.0
KETN 021815Z AUTO 14005KT 5SM BR OVC007 08/06 A2987 RMK AO2 T00760060,KETN,2018-04-02T18:15:00Z,32.42,-98.82,7.6,6.0,140,5,,5.0,29.870079,,,TRUE,TRUE,,,,,,BR,OVC,700,,,,,,,IFR,,,,,,,,,,,,METAR,446.0
KEZM 021815Z AUTO 20007KT 10SM CLR 27/02 A3005 RMK AO2 T02740021,KEZM,2018-04-02T18:15:00Z,32.22,-83.13,27.4,2.1,200,7,,10.0,30.050198,,,TRUE,TRUE,,,,,,,CLR,,,,,,,,VFR,,,,,,,,,,,,METAR,93.0
KEZS 021815Z AUTO 24008KT 10SM CLR 03/M09 A3003 RMK AO2 T00251090,KEZS,2018-04-02T18:15:00Z,44.78,-88.57,2.5,-9.0,240,8,,10.0,30.029528,,,TRUE,TRUE,,,,,,,CLR,,,,,,,,VFR,,,,,,,,,,,,METAR,248.0
KF00 021815Z AUTO 17003KT 10SM OVC005 07/06 A2991 RMK AO2 T00680057,KF00,2018-04-02T18:15:00Z,33.62,-96.18,6.8,5.7,170,3,,10.0,29.911417,,,TRUE,TRUE,,,,,,,OVC,500,,,,,,,IFR,,,,,,,,,,,,METAR,188.0
KF05 021815Z AUTO 19006KT 10SM OVC020 08/M01 A2985 RMK AO1 T00761009,KF05,2018-04-02T18:15:00Z,34.23,-99.28,7.6,-0.9,190,6,,10.0,29.84941,,,TRUE,TRUE,,,,,,,OVC,2000,,,,,,,MVFR,,,,,,,,,,,,METAR,386.0
KF17 021815Z AUTO 15006KT 130V190 10SM SCT033 BKN039 OVC050 24/17 A2992 RMK AO2 T02350172,KF17,2018-04-02T18:15:00Z,31.83,-94.15,23.5,17.2,150,6,,10.0,29.920275,,,TRUE,TRUE,,,,,,,SCT,3300,BKN,3900,OVC,5000,,,VFR,,,,,,,,,,,,METAR,97.0
KF46 021815Z AUTO 07004KT 7SM OVC011 09/07 A2990 RMK AO2 T00890068,KF46,2018-04-02T18:15:00Z,32.93,-96.43,8.9,6.8,70,4,,7.0,29.899607,,,TRUE,TRUE,,,,,,,OVC,1100,,,,,,,MVFR,,,,,,,,,,,,METAR,176.0
KF70 021815Z AUTO 15006KT 10SM OVC019 13/08 A2991 RMK AO1,KF70,2018-04-02T18:15:00Z,33.57,-117.13,13.0,8.0,150,6,,10.0,29.911417,,,TRUE,TRUE,,,,,,,OVC,1900,,,,,,,MVFR,,,,,,,,,,,,METAR,412.0
KFEP 021815Z AUTO 16009KT 10SM SCT095 02/M08 A3006 RMK AO2 T00151085,KFEP,2018-04-02T18:15:00Z,42.25,-89.58,1.5,-8.5,160,9,,10.0,30.059055,,,TRUE,TRUE,,,,,,,SCT,9500,,,,,,,VFR,,,,,,,,,,,,METAR,262.0
KFET 021815Z AUTO 15012G20KT 10SM OVC017 01/M04 A2977 RMK AO2 T00061039,KFET,2018-04-02T18:15:00Z,41.45,-96.52,0.6,-3.9,150,12,20,10.0,29.769686,,,TRUE,TRUE,,,,,,,OVC,1700,,,,,,,MVFR,,,,,,,,,,,,METAR,367.0
KFKR 021815Z AUTO 14009KT 10SM OVC020 04/00 A3009 RMK AO2 T00430002,KFKR,2018-04-02T18:15:00Z,40.27,-86.57,4.3,0.2,140,9,,10.0,30.088583,,,TRUE,TRUE,,,,,,,OVC,2000,,,,,,,MVFR,,,,,,,,,,,,METAR,262.0
KFLY 021815Z AUTO 22014KT 10SM CLR 18/M12 A2960 RMK AO2 T01771119,KFLY,2018-04-02T18:15:00Z,38.95,-104.57,17.7,-11.9,220,14,,10.0,29.601377,,,TRUE,TRUE,,,,,,,CLR,,,,,,,,VFR,,,,,,,,,,,,METAR,2096.0
KFOA 021815Z AUTO 09009KT 10SM OVC009 03/01 A3004 RMK AO2 T00320010,KFOA,2018-04-02T18:15:00Z,38.67,-88.45,3.2,1.0,90,9,,10.0,30.041338,,,TRUE,TRUE,,,,,,,OVC,900,,,,,,,IFR,,,,,,,,,,,,METAR,144.0
KFRH 021815Z AUTO 08004KT 10SM OVC012 04/02 A3006 RMK AO1,KFRH,2018-04-02T18:15:00Z,38.5,-86.63,4.0,2.0,80,4,,10.0,30.059055,,,TRUE,TRUE,,,,,,,OVC,1200,,,,,,,MVFR,,,,,,,,,,,,METAR,241.0
KFRR 021815Z AUTO 09003KT 10SM OVC015 06/03 A3010 RMK AO1,KFRR,2018-04-02T18:15:00Z,38.92,-78.25,6.0,3.0,90,3,,10.0,30.100393,,,TRUE,TRUE,,,,,,,OVC,1500,,,,,,,MVFR,,,,,,,,,,,,METAR,216.0
KFSO 021815Z AUTO 21003KT 10SM CLR 05/M11 A3008 RMK AO2 T00451115,KFSO,2018-04-02T18:15:00Z,44.93,-73.1,4.5,-11.5,210,3,,10.0,30.079725,,,TRUE,TRUE,,,,,,,CLR,,,,,,,,VFR,,,,,,,,,,,,METAR,70.0
KFWB 021815Z AUTO 10007KT 050V120 M1/4SM FG OVC002 04/04 A2988 RMK AO2,KFWB,2018-04-02T18:15:00Z,36.7,-93.4,4.0,4.0,100,7,,0.25,29.878937,,,TRUE,TRUE,,,,,,FG,OVC,200,,,,,,,LIFR,,,,,,,,,,,,METAR,406.0
KFXY 021815Z AUTO 15016G20KT 10SM CLR 01/M05 A2988 RMK AO2,KFXY,2018-04-02T18:15:00Z,43.23,-93.62,1.0,-5.0,150,16,20,10.0,29.878937,,,TRUE,TRUE,,,,,,,CLR,,,,,,,,VFR,,,,,,,,,,,,METAR,375.0
KFYJ 021815Z AUTO 35007KT 10SM CLR 12/04 A3010 RMK AO2 T01160040,KFYJ,2018-04-02T18:15:00Z,37.52,-76.77,11.6,4.0,350,7,,10.0,30.100393,,,TRUE,TRUE,,,,,,,CLR,,,,,,,,VFR,,,,,,,,,,,,METAR,7.0
KGBK 021815Z AUTO 12013KT 10SM BKN018 24/21 A2998 RMK A01,KGBK,2018-04-02T18:15:00Z,27.2,-92.2,24.0,21.0,120,13,,10.0,29.97933,,,TRUE,TRUE,,,,,,,BKN,1800,,,,,,,MVFR,,,,,,,,,,,,METAR,59.0
KGHB 021815Z AUTO 00000G12KT 10SM SCT014 25/21 A2999 RMK A01,KGHB,2018-04-02T18:15:00Z,27.83,-91.98,25.0,21.0,0,0,12,10.0,29.991142,,,TRUE,TRUE,,,,,,,SCT,1400,,,,,,,VFR,,,,,,,,,,,,METAR,30.0
KGLE 021815Z AUTO 00000KT 10SM OVC006 06/05 A2991 RMK AO2 T00610047,KGLE,2018-04-02T18:15:00Z,33.65,-97.2,6.1,4.7,0,0,,10.0,29.911417,,,TRUE,TRUE,,,,,,,OVC,600,,,,,,,IFR,,,,,,,,,,,,METAR,256.0
KGLY 021815Z AUTO 12003KT 3SM -RA OVC005 00/00 A2991 RMK AO2,KGLY,2018-04-02T18:15:00Z,38.35,-93.68,0.0,0.0,120,3,,3.0,29.911417,,,TRUE,TRUE,,,,,,-RA,OVC,500,,,,,,,IFR,,,,,,,,,,,,METAR,251.0
KGMJ 021815Z AUTO 00000KT 1 3/4SM BR OVC004 06/06 A2989 RMK AO2,KGMJ,2018-04-02T18:15:00Z,36.6,-94.73,6.0,6.0,0,0,,1.75,29.890747,,,TRUE,TRUE,,,,,,BR,OVC,400,,,,,,,LIFR,,,,,,,,,,,,METAR,254.0
KGNT 021815Z AUTO 28019G25KT 10SM CLR 17/M14 A2991 RMK AO2 T01681137,KGNT,2018-04-02T18:15:00Z,35.17,-107.9,16.8,-13.7,280,19,25,10.0,29.911417,,,TRUE,TRUE,,,,,,,CLR,,,,,,,,VFR,,,,,,,,,,,,METAR,1987.0
KGUL 021815Z AUTO 19019KT 6SM HZ FEW015 24/21 A2996 RMK A01,KGUL,2018-04-02T18:15:00Z,27.3,-93.53,24.0,21.0,190,19,,6.0,29.958662,,,TRUE,TRUE,,,,,,HZ,FEW,1500,,,,,,,VFR,,,,,,,,,,,,METAR,30.0
KGWB 021815Z AUTO 14005KT 10SM CLR 03/M07 A3010 RMK AO2,KGWB,2018-04-02T18:15:00Z,41.3,-85.07,3.0,-7.0,140,5,,10.0,30.100393,,,TRUE,TRUE,,,,,,,CLR,,,,,,,,VFR,,,,,,,,,,,,METAR,269.0
KGWR 021815Z AUTO 05018KT 3/4SM BR M05/M06 A2979 RMK A01,KGWR,2018-04-02T18:15:00Z,46.22,-97.65,-5.0,-6.0,50,18,,0.75,29.790354,,,TRUE,TRUE,,,,,,BR,,,,,,,,,,,,,,,,,,,,,METAR,386.0
KGYB 021815Z AUTO 16008G16KT 10SM SCT033 SCT038 26/18 A2986 RMK AO2 T02580180,KGYB,2018-04-02T18:15:00Z,30.17,-96.98,25.8,18.0,160,8,16,10.0,29.861221,,,TRUE,TRUE,,,,,,,SCT,3300,SCT,3800,,,,,VFR,,,,,,,,,,,,METAR,148.0
KGYI 021815Z AUTO 12005KT 10SM BKN005 BKN010 OVC040 08/07 A2989 RMK AO2 T00790069,KGYI,2018-04-02T18:15:00Z,33.72,-96.67,7.9,6.9,120,5,,10.0,29.890747,,,TRUE,TRUE,,,,,,,BKN,500,BKN,1000,OVC,4000,,,IFR,,,,,,,,,,,,METAR,228.0
KHEG 021815Z AUTO 26007KT 27/16 A3005 RMK AO2 PWINO,KHEG,2018-04-02T18:15:00Z,,,27.0,16.0,260,7,,,30.050198,,,TRUE,TRUE,,,,,TRUE,,,,,,,,,,,,,,,,,,,,,,METAR,
KHHF 021815Z AUTO 19015G22KT 10SM CLR 17/02 A2968 RMK AO2 T01670020,KHHF,2018-04-02T18:15:00Z,35.9,-100.4,16.7,2.0,190,15,22,10.0,29.681103,,,TRUE,TRUE,,,,,,,CLR,,,,,,,,VFR,,,,,,,,,,,,METAR,712.0
KHNR 021815Z AUTO 16015KT 10SM OVC024 02/M04 A2985 RMK AO2,KHNR,2018-04-02T18:15:00Z,41.58,-95.33,2.0,-4.0,160,15,,10.0,29.84941,,,TRUE,TRUE,,,,,,,OVC,2400,,,,,,,MVFR,,,,,,,,,,,,METAR,375.0
KHQI 021815Z AUTO 15012G17KT 9SM CLR A2994 RMK A01,KHQI,2018-04-02T18:15:00Z,27.93,-93.67,,,150,12,17,9.0,29.940945,,,TRUE,TRUE,,,,,,,CLR,,,,,,,,VFR,,,,,,,,,,,,METAR,26.0
KHRX 021815Z AUTO 27019G30KT 10SM CLR 26/M06 A2972 RMK AO2 T02641060,KHRX,2018-04-02T18:15:00Z,34.87,-102.33,26.4,-6.0,270,19,30,10.0,29.719488,,,TRUE,TRUE,,,,,,,CLR,,,,,,,,VFR,,,,,,,,,,,,METAR,1154.0
KHSB 021815Z AUTO 09007KT 10SM OVC009 05/04 A3004 RMK AO2 T00470035,KHSB,2018-04-02T18:15:00Z,37.82,-88.55,4.7,3.5,90,7,,10.0,30.041338,,,TRUE,TRUE,,,,,,,OVC,900,,,,,,,IFR,,,,,,,,,,,,METAR,121.0
KHVE 021815Z AUTO 21012G20KT 10SM CLR 24/M08 A2966 RMK AO2,KHVE,2018-04-02T18:15:00Z,38.42,-110.7,24.0,-8.0,210,12,20,10.0,29.660433,,,TRUE,TRUE,,,,,,,CLR,,,,,,,,VFR,,,,,,,,,,,,METAR,1350.0
KHYW 021815Z AUTO 20010KT 5SM HZ CLR 27/10 A2999 RMK AO2,KHYW,2018-04-02T18:15:00Z,33.83,-79.12,27.0,10.0,200,10,,5.0,29.991142,,,TRUE,TRUE,,,,,,HZ,CLR,,,,,,,,MVFR,,,,,,,,,,,,METAR,11.0
KHZL 021815Z AUTO 32003KT 10SM OVC020 07/M01 A3010 RMK AO2 PNO,KHZL,2018-04-02T18:15:00Z,40.98,-76.0,7.0,-1.0,320,3,,10.0,30.100393,,,TRUE,TRUE,,,,,,,OVC,2000,,,,,,,MVFR,,,,,,,,,,,,METAR,489.0
KI23 021815Z AUTO 14005KT 10SM OVC017 04/01 A3011 RMK AO1,KI23,2018-04-02T18:15:00Z,39.57,-83.42,4.0,1.0,140,5,,10.0,30.109253,,,TRUE,TRUE,,,,,,,OVC,1700,,,,,,,MVFR,,,,,,,,,,,,METAR,299.0
KIBM 021815Z AUTO 17003KT 10SM SCT110 19/M01 A2948 RMK AO2 T01891013,KIBM,2018-04-02T18:15:00Z,41.18,-103.68,18.9,-1.3,170,3,,10.0,29.480314,,,TRUE,TRUE,,,,,,,SCT,11000,,,,,,,VFR,,,,,,,,,,,,METAR,1501.0
KICL 021815Z AUTO 15011G18KT 10SM OVC017 M00/M02 A2987 RMK AO2,KICL,2018-04-02T18:15:00Z,40.72,-95.02,0.0,-2.0,150,11,18,10.0,29.870079,,,TRUE,TRUE,,,,,,,OVC,1700,,,,,,,MVFR,,,,,,,,,,,,METAR,303.0
KIKG 021815Z AUTO 16013G21KT 1 3/4SM VV007 32/19 A2977 RMK AO2 T03230188,KIKG,2018-04-02T18:15:00Z,27.55,-98.03,32.3,18.8,160,13,21,1.75,29.769686,,,TRUE,TRUE,,,,,,,OVX,0,,,,,,,LIFR,,,,,,,,,,,700,METAR,40.0
KIKT 021815Z AUTO VRB06KT 10SM FEW016 26/21 A3004 RMK A01,KIKT,2018-04-02T18:15:00Z,28.52,-88.28,26.0,21.0,0,6,,10.0,30.041338,,,TRUE,TRUE,,,,,,,FEW,1600,,,,,,,VFR,,,,,,,,,,,,METAR,25.0
KIMS 021815Z AUTO 09006KT 10SM OVC011 04/01 A3008 RMK AO1,KIMS,2018-04-02T18:15:00Z,38.75,-85.47,4.0,1.0,90,6,,10.0,30.079725,,,TRUE,TRUE,,,,,,,OVC,1100,,,,,,,MVFR,,,,,,,,,,,,METAR,250.0
KINF 021815Z AUTO 00000KT 10SM SCT055 28/18 A3003 RMK AO2,KINF,2018-04-02T18:15:00Z,28.8,-82.32,28.0,18.0,0,0,,10.0,30.029528,,,TRUE,TRUE,,,,,,,SCT,5500,,,,,,,VFR,,,,,,,,,,,,METAR,15.0
KINJ 021815Z AUTO 02003KT 7SM OVC008 10/09 A2990 RMK AO2 T01020090,KINJ,2018-04-02T18:15:00Z,32.08,-97.1,10.2,9.0,20,3,,7.0,29.899607,,,TRUE,TRUE,,,,,,,OVC,800,,,,,,,IFR,,,,,,,,,,,,METAR,209.0
KIOB 021815Z AUTO 09007KT 10SM OVC011 06/03 A3008 RMK AO2,KIOB,2018-04-02T18:15:00Z,38.05,-83.98,6.0,3.0,90,7,,10.0,30.079725,,,TRUE,TRUE,,,,,,,OVC,1100,,,,,,,MVFR,,,,,,,,,,,,METAR,311.0
KIRS 021815Z AUTO 19005KT 10SM CLR 05/M08 A3007 RMK AO2 T00481081,KIRS,2018-04-02T18:15:00Z,41.8,-85.43,4.8,-8.1,190,5,,10.0,30.070866,,,TRUE,TRUE,,,,,,,CLR,,,,,,,,VFR,,,,,,,,,,,,METAR,282.0
KIZA 021815Z AUTO 24003KT 10SM BKN015 13/10 A2992 RMK AO2,KIZA,2018-04-02T18:15:00Z,34.6,-120.07,13.0,10.0,240,3,,10.0,29.920275,,,TRUE,TRUE,,,,,,,BKN,1500,,,,,,,MVFR,,,,,,,,,,,,METAR,205.0
KJAQ 021815Z AUTO 26005KT 10SM CLR 17/09 A2990 RMK AO1 T01660092,KJAQ,2018-04-02T18:15:00Z,38.37,-120.8,16.6,9.2,260,5,,10.0,29.899607,,,TRUE,TRUE,,,,,,,CLR,,,,,,,,VFR,,,,,,,,,,,,METAR,512.0
KJAS 021815Z AUTO 18010G14KT 10SM BKN036 BKN043 BKN050 28/19 A2993 RMK AO2 T02750186,KJAS,2018-04-02T18:15:00Z,30.88,-94.03,27.5,18.6,180,10,14,10.0,29.929134,,,TRUE,TRUE,,,,,,,BKN,3600,BKN,4300,BKN,5000,,,VFR,,,,,,,,,,,,METAR,65.0
KUNU 021815Z AUTO 17007KT 10SM CLR 02/M09 A3004 RMK AO2 T00241094,KUNU,2018-04-02T18:15:00Z,43.42,-88.7,2.4,-9.4,170,7,,10.0,30.041338,,,TRUE,TRUE,,,,,,,CLR,,,,,,,,VFR,,,,,,,,,,,,SPECI,285.0
KXLL 021815Z AUTO 00000KT 10SM OVC023 04/00 A3014 RMK AO2,KXLL,2018-04-02T18:15:00Z,40.57,-75.48,4.0,0.0,0,0,,10.0,30.138779,,,TRUE,TRUE,,,,,,,OVC,2300,,,,,,,MVFR,,,,,,,,,,,,SPECI,122.0
KW22 021815Z AUTO 06003KT 10SM OVC013 05/03 A3006 RMK AO2,KW22,2018-04-02T18:15:00Z,39.0,-80.27,5.0,3.0,60,3,,10.0,30.059055,,,TRUE,TRUE,,,,,,,OVC,1300,,,,,,,MVFR,,,,,,,,,,,,SPECI,499.0
KVYS 021815Z AUTO 17009G14KT 10SM CLR 05/M09 A3005 RMK AO2 T00481087,KVYS,2018-04-02T18:15:00Z,41.35,-89.15,4.8,-8.7,170,9,14,10.0,30.050198,,,TRUE,TRUE,,,,,,,CLR,,,,,,,,VFR,,,,,,,,,,,,SPECI,199.0
KVUJ 021815Z AUTO 24004KT 10SM SCT120 26/07 A3000 RMK AO2 T02550072,KVUJ,2018-04-02T18:15:00Z,35.42,-80.15,25.5,7.2,240,4,,10.0,30.0,,,TRUE,TRUE,,,,,,,SCT,12000,,,,,,,VFR,,,,,,,,,,,,METAR,186.0
KVKS 021815Z AUTO 23009KT 10SM FEW050 24/18 A2998 RMK A01,KVKS,2018-04-02T18:15:00Z,32.23,-90.93,24.0,18.0,230,9,,10.0,29.97933,,,TRUE,TRUE,,,,,,,FEW,5000,,,,,,,VFR,,,,,,,,,,,,METAR,32.0
KVDI 021815Z AUTO 20007KT 10SM CLR 28/12 A3002 RMK AO2,KVDI,2018-04-02T18:15:00Z,32.2,-82.37,28.0,12.0,200,7,,10.0,30.02067,,,TRUE,TRUE,,,,,,,CLR,,,,,,,,VFR,,,,,,,,,,,,METAR,84.0
KUXL 021815Z AUTO 17011G17KT 10SM SCT024 SCT030 BKN038 27/20 A2996 RMK AO2 T02700201,KUXL,2018-04-02T18:15:00Z,30.13,-93.38,27.0,20.1,170,11,17,10.0,29.958662,,,TRUE,TRUE,,,,,,,SCT,2400,SCT,3000,BKN,3800,,,VFR,,,,,,,,,,,,METAR,4.0
KJFX 021815Z AUTO 00000KT 10SM 26/15 A2997 RMK AO2 PWINO,KJFX,2018-04-02T18:15:00Z,33.9,-87.32,26.0,15.0,0,0,,10.0,29.970472,,,TRUE,TRUE,,,,,TRUE,,,,,,,,,,,,,,,,,,,,,,METAR,148.0
KJKA 021815Z AUTO 18014G18KT 10SM BKN015 BKN022 OVC029 25/20 A3003 RMK AO2 T02450199,KJKA,2018-04-02T18:15:00Z,30.28,-87.67,24.5,19.9,180,14,18,10.0,30.029528,,,TRUE,TRUE,,,,,,,BKN,1500,BKN,2200,OVC,2900,,,MVFR,,,,,,,,,,,,METAR,5.0
KJSO 021815Z AUTO 17008KT 140V200 10SM SCT025 SCT031 BKN046 23/18 A2990 RMK AO2 T02380185,KJSO,2018-04-02T18:15:00Z,31.87,-95.22,23.8,18.5,170,8,,10.0,29.899607,,,TRUE,TRUE,,,,,,,SCT,2500,SCT,3100,BKN,4600,,,VFR,,,,,,,,,,,,METAR,206.0
KJVW 021815Z AUTO VRB04KT 9SM SCT038 BKN048 25/17 A2997 RMK AO2,KJVW,2018-04-02T18:15:00Z,32.3,-90.42,25.0,17.0,0,4,,9.0,29.970472,,,TRUE,TRUE,,,,,,,SCT,3800,BKN,4800,,,,,VFR,,,,,,,,,,,,METAR,76.0
KI68 021815Z AUTO 13005KT 10SM OVC019 04/01 A3010 RMK AO2,KI68,2018-04-02T18:15:00Z,39.47,-84.25,4.0,1.0,130,5,,10.0,30.100393,,,TRUE,TRUE,,,,,,,OVC,1900,,,,,,,MVFR,,,,,,,,,,,,METAR,274.0
KSLB 021815Z AUTO 16017G24KT 10SM 00/M04 A2980 RMK AO2,KSLB,2018-04-02T18:15:00Z,42.6,-95.22,0.0,-4.0,160,17,24,10.0,29.799213,,,TRUE,TRUE,,,,,,,,,,,,,,,,,,,,,,,,,,,METAR,454.0
KHDC 021815Z AUTO 17005KT 10SM SCT032 BKN040 BKN060 25/17 A3000 RMK AO2,KHDC,2018-04-02T18:15:00Z,30.52,-90.42,25.0,17.0,170,5,,10.0,30.0,,,TRUE,TRUE,,,,,,,SCT,3200,BKN,4000,BKN,6000,,,VFR,,,,,,,,,,,,METAR,13.0
KLJF 021815Z AUTO 14007KT 3/4SM -SN OVC004 M02/M02 A2990 RMK AO2,KLJF,2018-04-02T18:15:00Z,45.1,-94.52,-2.0,-2.0,140,7,,0.75,29.899607,,,TRUE,TRUE,,,,,,-SN,OVC,400,,,,,,,LIFR,,,,,,,,,,,,METAR,348.0
KSNK 021815Z AUTO 21005KT 10SM OVC011 07/04 A2986 RMK AO2 T00740040,KSNK,2018-04-02T18:15:00Z,32.7,-100.95,7.4,4.0,210,5,,10.0,29.861221,,,TRUE,TRUE,,,,,,,OVC,1100,,,,,,,MVFR,,,,,,,,,,,,METAR,741.0
UTO8 M M M 298/-27/-30/2410/M/ SOG 30 2003 80MM,UTO8,2018-04-02T18:14:06Z,,,,,,,,,,,,,,,,,,,,,,,,,,,,,,,,,,,,,,,,METAR,
KGVE 021814Z AUTO 05008KT 10SM SCT023 BKN046 OVC065 11/04 A3008 RMK AO1,KGVE,2018-04-02T18:14:00Z,38.15,-78.17,11.0,4.0,50,8,,10.0,30.079725,,,TRUE,TRUE,,,,,,,SCT,2300,BKN,4600,OVC,6500,,,VFR,,,,,,,,,,,,SPECI,138.0
KFHU 021814Z AUTO 22017G23KT 10SM SCT170 23/M12 A2995 RMK AO2 PRESFR SLP074,KFHU,2018-04-02T18:14:00Z,31.58,-110.35,23.0,-12.0,220,17,23,10.0,29.949802,1007.4,,TRUE,TRUE,,,,,,,SCT,17000,,,,,,,VFR,,,,,,,,,,,,SPECI,1438.0
KAOO 021814Z AUTO 21003KT 10SM OVC029 03/M02 A3008 RMK AO2 T00281017,KAOO,2018-04-02T18:14:00Z,40.3,-78.32,2.8,-1.7,210,3,,10.0,30.079725,,,TRUE,TRUE,,,,,,,OVC,2900,,,,,,,MVFR,,,,,,,,,,,,SPECI,455.0
KAVP 021814Z 23003KT 10SM SCT029 BKN040 04/M02 A3009 RMK AO2 T00391022,KAVP,2018-04-02T18:14:00Z,41.33,-75.72,3.9,-2.2,230,3,,10.0,30.088583,,,,TRUE,,,,,,,SCT,2900,BKN,4000,,,,,VFR,,,,,,,,,,,,SPECI,291.0
KSMX 021814Z 31007KT 9SM BKN011 14/11 A2994 RMK AO2 T01390106,KSMX,2018-04-02T18:14:00Z,34.9,-120.45,13.9,10.6,310,7,,9.0,29.940945,,,,TRUE,,,,,,,BKN,1100,,,,,,,MVFR,,,,,,,,,,,,SPECI,74.0
KGEZ 021814Z AUTO 15009KT 10SM BKN025 06/00 A3007 RMK AO2 T00560000,KGEZ,2018-04-02T18:14:00Z,39.58,-85.8,5.6,0.0,150,9,,10.0,30.070866,,,TRUE,TRUE,,,,,,,BKN,2500,,,,,,,MVFR,,,,,,,,,,,,SPECI,245.0
PAEG 021814Z AUTO 33003KT 6SM HZ BKN029 OVC036 M07/M13 A3051 RMK AO2 T10721128 TSNO,PAEG,2018-04-02T18:14:00Z,64.78,-141.15,-7.2,-12.8,330,3,,6.0,30.510826,,,TRUE,TRUE,,,TRUE,,,HZ,BKN,2900,OVC,3600,,,,,MVFR,,,,,,,,,,,,SPECI,268.0
KDRT 021813Z AUTO 14011KT 10SM FEW017 SCT029 OVC038 23/19 A2978 RMK AO2 T02330189,KDRT,2018-04-02T18:13:00Z,29.37,-100.92,23.3,18.9,140,11,,10.0,29.778543,,,TRUE,TRUE,,,,,,,FEW,1700,SCT,2900,OVC,3800,,,VFR,,,,,,,,,,,,SPECI,313.0
KMCB 021813Z AUTO 24003KT 10SM SCT028 BKN040 OVC060 24/16 A3001 RMK AO2 T02390161,KMCB,2018-04-02T18:13:00Z,31.18,-90.47,23.9,16.1,240,3,,10.0,30.008858,,,TRUE,TRUE,,,,,,,SCT,2800,BKN,4000,OVC,6000,,,VFR,,,,,,,,,,,,SPECI,124.0
KSNA 021813Z 23004KT 10SM OVC030 17/10 A2989 RMK AO2 T01720100,KSNA,2018-04-02T18:13:00Z,33.67,-117.87,17.2,10.0,230,4,,10.0,29.890747,,,,TRUE,,,,,,,OVC,3000,,,,,,,MVFR,,,,,,,,,,,,SPECI,16.0
KGFA 021813Z AUTO 31008KT 4SM -SN OVC013 M10/M12 A2982 RMK AO2 SLP171 $,KGFA,2018-04-02T18:13:00Z,47.5,-111.17,-10.0,-12.0,310,8,,4.0,29.819881,1017.1,,TRUE,TRUE,TRUE,,,,,-SN,OVC,1300,,,,,,,MVFR,,,,,,,,,,,,SPECI,1075.0
KSBY 021812Z 06008KT 10SM OVC015 07/03 A3010 RMK AO2 T00670028,KSBY,2018-04-02T18:12:00Z,38.33,-75.5,6.7,2.8,60,8,,10.0,30.100393,,,,TRUE,,,,,,,OVC,1500,,,,,,,MVFR,,,,,,,,,,,,SPECI,19.0
KGTB 021812Z AUTO 24012G17KT 10SM CLR 04/M10 A3008 RMK AO2 WSHFT 07 SLP194,KGTB,2018-04-02T18:12:00Z,44.07,-75.72,4.0,-10.0,240,12,17,10.0,30.079725,1019.4,,TRUE,TRUE,,,,,,,CLR,,,,,,,,VFR,,,,,,,,,,,,SPECI,207.0
SEMC 021812Z 01015G26KT 340V060 9999 4000N VCSH BKN023TCU OVC080 22/20 Q1015,SEMC,2018-04-02T18:12:00Z,-2.3,-78.12,22.0,20.0,10,15,26,6.21,29.970472,,,,,,,,,,VCSH,BKN,2300,OVC,8000,,,,,MVFR,,,,,,,,,,,,SPECI,1052.0
FABL 021811Z AUTO 03010KT 340V060 5000 +RA ///////// 14/14 Q1023,FABL,2018-04-02T18:11:00Z,-29.1,26.3,14.0,14.0,30,10,,3.11,30.206694,,,TRUE,,,,,,,+RA,,,,,,,,,,,,,,,,,,,,,SPECI,1348.0
KFAR 021811Z 05009KT 1SM -SN BR FEW009 OVC016 M04/M06 A2989 RMK AO2 P0000 T10441061,KFAR,2018-04-02T18:11:00Z,46.93,-96.82,-4.4,-6.1,50,9,,1.0,29.890747,,,,TRUE,,,,,,-SN BR,FEW,900,OVC,1600,,,,,IFR,,,,,,0.005,,,,,,SPECI,277.0
KBOS 021811Z 24004KT 8SM BKN012 OVC019 02/M01 A3011 RMK AO2 SNE05 SM BINOVC P0000 T00221006,KBOS,2018-04-02T18:11:00Z,42.37,-71.02,2.2,-0.6,240,4,,8.0,30.109253,,,,TRUE,,,,,,,BKN,1200,OVC,1900,,,,,MVFR,,,,,,0.005,,,,,,SPECI,6.0
ETAD 021811Z AUTO 16003KT 9999 BKN075 BKN110 11/02 A2962 RMK AO2 SLP028 $,ETAD,2018-04-02T18:11:00Z,49.98,6.7,11.0,2.0,160,3,,6.21,29.619095,1002.8,,TRUE,TRUE,TRUE,,,,,,BKN,7500,BKN,11000,,,,,VFR,,,,,,,,,,,,SPECI,365.0
KTCM 021811Z 22007KT 10SM BKN034 BKN046 08/03 A3007 RMK SLP189 $,KTCM,2018-04-02T18:11:00Z,47.12,-122.47,8.0,3.0,220,7,,10.0,30.070866,1018.9,,,,TRUE,,,,,,BKN,3400,BKN,4600,,,,,VFR,,,,,,,,,,,,SPECI,98.0
KPSM 021811Z 27006KT 10SM BKN021 BKN040 03/M03 A3009 RMK AO2A,KPSM,2018-04-02T18:11:00Z,43.07,-70.82,3.0,-3.0,270,6,,10.0,30.088583,,,,TRUE,,,,,,,BKN,2100,BKN,4000,,,,,MVFR,,,,,,,,,,,,SPECI,31.0
KPIM 021810Z AUTO 26008KT 230V300 10SM CLR 24/04 A3003 RMK AO2 T02390036 PWINO,KPIM,2018-04-02T18:10:00Z,32.83,-84.88,23.9,3.6,260,8,,10.0,30.029528,,,TRUE,TRUE,,,,,TRUE,,CLR,,,,,,,,VFR,,,,,,,,,,,,SPECI,275.0
KHSG 021810Z AUTO 12003KT 10SM OVC017 02/M02 A2948 RMK AO2 T00201021,KHSG,2018-04-02T18:10:00Z,43.72,-108.38,2.0,-2.1,120,3,,10.0,29.480314,,,TRUE,TRUE,,,,,,,OVC,1700,,,,,,,MVFR,,,,,,,,,,,,SPECI,1494.0
KHFJ 021810Z AUTO 12006KT 2 1/2SM BR OVC004 04/04 A2986 RMK AO2,KHFJ,2018-04-02T18:10:00Z,36.9,-94.02,4.0,4.0,120,6,,2.5,29.861221,,,TRUE,TRUE,,,,,,BR,OVC,400,,,,,,,LIFR,,,,,,,,,,,,SPECI,401.0
KGLW 021810Z AUTO 07006KT 10SM OVC008 07/07 A3003 RMK AO2 T00710067,KGLW,2018-04-02T18:10:00Z,37.03,-85.95,7.1,6.7,70,6,,10.0,30.029528,,,TRUE,TRUE,,,,,,,OVC,800,,,,,,,IFR,,,,,,,,,,,,SPECI,218.0
KD73 021810Z AUTO 28005KT 10SM CLR 26/07 A3000 RMK AO2 T02550069,KD73,2018-04-02T18:10:00Z,33.78,-83.7,25.5,6.9,280,5,,10.0,30.0,,,TRUE,TRUE,,,,,,,CLR,,,,,,,,VFR,,,,,,,,,,,,SPECI,267.0
KCPU 021810Z AUTO 00000KT 10SM CLR 18/08 A2988 RMK AO2 T01810075,KCPU,2018-04-02T18:10:00Z,38.15,-120.65,18.1,7.5,0,0,,10.0,29.878937,,,TRUE,TRUE,,,,,,,CLR,,,,,,,,VFR,,,,,,,,,,,,METAR,404.0
KCMY 021810Z AUTO 16008KT 10SM BKN065 OVC090 02/M09 A2998 RMK AO2 T00231092,KCMY,2018-04-02T18:10:00Z,43.97,-90.73,2.3,-9.2,160,8,,10.0,29.97933,,,TRUE,TRUE,,,,,,,BKN,6500,OVC,9000,,,,,VFR,,,,,,,,,,,,SPECI,256.0
KCFD 021810Z AUTO 17012G19KT 10SM SCT033 A2987 RMK AO2,KCFD,2018-04-02T18:10:00Z,30.72,-96.33,,,170,12,19,10.0,29.870079,,,TRUE,TRUE,,,,,,,SCT,3300,,,,,,,VFR,,,,,,,,,,,,SPECI,112.0
KAZE 021810Z AUTO 23007G15KT 10SM CLR 27/07 A3002 RMK AO2 T02660070,KAZE,2018-04-02T18:10:00Z,31.88,-82.65,26.6,7.0,230,7,15,10.0,30.02067,,,TRUE,TRUE,,,,,,,CLR,,,,,,,,VFR,,,,,,,,,,,,SPECI,78.0
KAQO 021810Z AUTO 04005KT 10SM BKN014 18/15 A2987 RMK AO2,KAQO,2018-04-02T18:10:00Z,30.78,-98.67,18.0,15.0,40,5,,10.0,29.870079,,,TRUE,TRUE,,,,,,,BKN,1400,,,,,,,MVFR,,,,,,,,,,,,SPECI,336.0
K18A 021810Z AUTO 28006G14KT 10SM CLR 26/05 A2998 RMK AO2 T02620050 TSNO,K18A,2018-04-02T18:10:00Z,34.35,-83.13,26.2,5.0,280,6,14,10.0,29.97933,,,TRUE,TRUE,,,TRUE,,,,CLR,,,,,,,,VFR,,,,,,,,,,,,SPECI,271.0
K0VG 021810Z AUTO 00000KT 10SM CLR 13/12 A3003 RMK AO2,K0VG,2018-04-02T18:10:00Z,36.65,-83.22,13.0,12.0,0,0,,10.0,30.029528,,,TRUE,TRUE,,,,,,,CLR,,,,,,,,VFR,,,,,,,,,,,,SPECI,430.0
KW78 021810Z AUTO 03005KT 10SM SCT032 SCT060 SCT085 19/06 A3000 RMK AO1 T01860063,KW78,2018-04-02T18:10:00Z,36.68,-78.85,18.6,6.3,30,5,,10.0,30.0,,,TRUE,TRUE,,,,,,,SCT,3200,SCT,6000,SCT,8500,,,VFR,,,,,,,,,,,,SPECI,129.0
KVES 021810Z AUTO 15006KT 10SM CLR 03/M02 A3008 RMK AO2,KVES,2018-04-02T18:10:00Z,40.2,-84.53,3.0,-2.0,150,6,,10.0,30.079725,,,TRUE,TRUE,,,,,,,CLR,,,,,,,,VFR,,,,,,,,,,,,SPECI,307.0
KTMA 021810Z AUTO 22011G14KT 10SM SCT038 25/15 A3004 RMK AO2 T02490153,KTMA,2018-04-02T18:10:00Z,31.43,-83.48,24.9,15.3,220,11,14,10.0,30.041338,,,TRUE,TRUE,,,,,,,SCT,3800,,,,,,,VFR,,,,,,,,,,,,SPECI,109.0
KI16 021810Z AUTO 10SM OVC007 07/06 A3009 RMK AO2 T00740057,KI16,2018-04-02T18:10:00Z,37.6,-81.57,7.4,5.7,,,,10.0,30.088583,,,TRUE,TRUE,,,,,,,OVC,700,,,,,,,IFR,,,,,,,,,,,,SPECI,544.0
K6I2 021810Z AUTO 05005KT 10SM OVC012 07/04 A3004 RMK AO2,K6I2,2018-04-02T18:10:00Z,37.63,-85.25,7.0,4.0,50,5,,10.0,30.041338,,,TRUE,TRUE,,,,,,,OVC,1200,,,,,,,MVFR,,,,,,,,,,,,METAR,264.0
KFAM 021810Z AUTO 10007KT 1 1/2SM BR OVC002 01/00 A2998 RMK AO2 FZRANO,KFAM,2018-04-02T18:10:00Z,37.77,-90.42,1.0,0.0,100,7,,1.5,29.97933,,,TRUE,TRUE,,,,TRUE,,BR,OVC,200,,,,,,,LIFR,,,,,,,,,,,,SPECI,288.0
KADF 021810Z AUTO 00000KT 10SM OVC011 11/08 A2997 RMK AO2,KADF,2018-04-02T18:10:00Z,34.1,-93.07,11.0,8.0,0,0,,10.0,29.970472,,,TRUE,TRUE,,,,,,,OVC,1100,,,,,,,MVFR,,,,,,,,,,,,SPECI,56.0
KFIT 021810Z AUTO 29006KT 10SM OVC031 04/M02 A3010 RMK AO2 T00391022,KFIT,2018-04-02T18:10:00Z,42.55,-71.75,3.9,-2.2,290,6,,10.0,30.100393,,,TRUE,TRUE,,,,,,,OVC,3100,,,,,,,VFR,,,,,,,,,,,,SPECI,103.0
KGKY 021810Z 00000KT 7SM OVC010 08/07 A2991 RMK AO2 T00830067,KGKY,2018-04-02T18:10:00Z,32.67,-97.1,8.3,6.7,0,0,,7.0,29.911417,,,,TRUE,,,,,,,OVC,1000,,,,,,,MVFR,,,,,,,,,,,,SPECI,192.0
KTHV 021810Z AUTO VRB03KT 10SM OVC015 04/01 A3013 RMK AO2 T00440011,KTHV,2018-04-02T18:10:00Z,39.92,-76.88,4.4,1.1,0,3,,10.0,30.129921,,,TRUE,TRUE,,,,,,,OVC,1500,,,,,,,MVFR,,,,,,,,,,,,SPECI,144.0
VCRI 021810Z VRB02KT 9999 FEW018 BKN080 25/25 Q1011 NOSIG,VCRI,2018-04-02T18:10:00Z,6.28,81.13,25.0,25.0,0,2,,6.21,29.852362,,,,,,TRUE,,,,,FEW,1800,BKN,8000,,,,,VFR,,,,,,,,,,,,METAR,7.0
VCBI 021810Z 09005KT 050V130 9000 SCT018 25/21 Q1011 NOSIG,VCBI,2018-04-02T18:10:00Z,7.17,79.87,25.0,21.0,90,5,,5.59,29.852362,,,,,,TRUE,,,,,SCT,1800,,,,,,,VFR,,,,,,,,,,,,METAR,8.0
KO86 021810Z AUTO 05008G14KT 10SM CLR 15/M02 A2996 RMK AO1,KO86,2018-04-02T18:10:00Z,40.98,-122.7,15.0,-2.0,50,8,14,10.0,29.958662,,,TRUE,TRUE,,,,,,,CLR,,,,,,,,VFR,,,,,,,,,,,,SPECI,729.0
KVBS 021810Z AUTO 10007KT 080V140 10SM CLR 23/21 A2996 RMK A01,KVBS,2018-04-02T18:10:00Z,29.48,-93.63,23.0,21.0,100,7,,10.0,29.958662,,,TRUE,TRUE,,,,,,,CLR,,,,,,,,VFR,,,,,,,,,,,,METAR,31.0
KEMK 021810Z AUTO 15015KT 8SM BKN015 24/21 A2995 RMK A01,KEMK,2018-04-02T18:10:00Z,27.82,-94.32,24.0,21.0,150,15,,8.0,29.949802,,,TRUE,TRUE,,,,,,,BKN,1500,,,,,,,MVFR,,,,,,,,,,,,METAR,26.0
KMWT 021809Z AUTO VRB04KT 4SM BR OVC004 10/09 A2991 RMK AO2 T01000094,KMWT,2018-04-02T18:09:00Z,34.55,-93.58,10.0,9.4,0,4,,4.0,29.911417,,,TRUE,TRUE,,,,,,BR,OVC,400,,,,,,,LIFR,,,,,,,,,,,,SPECI,214.0
KJKL 021809Z AUTO 00000KT 10SM OVC005 06/04 A3006 RMK AO2 T00560039,KJKL,2018-04-02T18:09:00Z,37.6,-83.32,5.6,3.9,0,0,,10.0,30.059055,,,TRUE,TRUE,,,,,,,OVC,500,,,,,,,IFR,,,,,,,,,,,,SPECI,416.0
KAGC 021809Z 00000KT 10SM OVC028 03/M01 A3010 RMK AO2 T00331011,KAGC,2018-04-02T18:09:00Z,40.35,-79.92,3.3,-1.1,0,0,,10.0,30.100393,,,,TRUE,,,,,,,OVC,2800,,,,,,,MVFR,,,,,,,,,,,,SPECI,389.0
KSHR 021807Z AUTO 05005KT 1 1/4SM -SN BR BKN003 OVC008 01/M01 A2955 RMK AO2 P0000 T00061011,KSHR,2018-04-02T18:07:00Z,44.77,-106.97,0.6,-1.1,50,5,,1.25,29.551182,,,TRUE,TRUE,,,,,,-SN BR,BKN,300,OVC,800,,,,,LIFR,,,,,,0.005,,,,,,SPECI,1202.0
KPAH 021807Z 08007KT 8SM OVC010 07/04 A3001 RMK AO2 T00670039,KPAH,2018-04-02T18:07:00Z,37.07,-88.77,6.7,3.9,80,7,,8.0,30.008858,,,,TRUE,,,,,,,OVC,1000,,,,,,,MVFR,,,,,,,,,,,,SPECI,119.0
KGTF 021807Z 33014KT 1 1/2SM -SN BKN015 BKN022 OVC028 M10/M13 A2980 RMK AO2 P0000 T11001128,KGTF,2018-04-02T18:07:00Z,47.47,-111.38,-10.0,-12.8,330,14,,1.5,29.799213,,,,TRUE,,,,,,-SN,BKN,1500,BKN,2200,OVC,2800,,,IFR,,,,,,0.005,,,,,,SPECI,1119.0
KCKB 021807Z 32004KT 10SM OVC009 06/01 A3009 RMK AO2 T00560011,KCKB,2018-04-02T18:07:00Z,39.3,-80.22,5.6,1.1,320,4,,10.0,30.088583,,,,TRUE,,,,,,,OVC,900,,,,,,,IFR,,,,,,,,,,,,SPECI,360.0
KOFP 021806Z AUTO VRB05KT 10SM BKN027 OVC041 12/04 A3010 RMK AO2 T01170039,KOFP,2018-04-02T18:06:00Z,37.7,-77.43,11.7,3.9,0,5,,10.0,30.100393,,,TRUE,TRUE,,,,,,,BKN,2700,OVC,4100,,,,,MVFR,,,,,,,,,,,,SPECI,62.0
KLLQ 021806Z AUTO 12005KT 10SM OVC010 14/11 A2997 RMK AO2 T01440106,KLLQ,2018-04-02T18:06:00Z,33.63,-91.75,14.4,10.6,120,5,,10.0,29.970472,,,TRUE,TRUE,,,,,,,OVC,1000,,,,,,,MVFR,,,,,,,,,,,,SPECI,83.0
KJST 021805Z AUTO 25003KT 10SM SCT014 OVC021 02/M02 A3004 RMK AO2 T00171017,KJST,2018-04-02T18:05:00Z,40.32,-78.83,1.7,-1.7,250,3,,10.0,30.041338,,,TRUE,TRUE,,,,,,,SCT,1400,OVC,2100,,,,,MVFR,,,,,,,,,,,,SPECI,694.0
KAWM 021805Z AUTO 12007KT 11/08 A2997 RMK AO2 T01060083 PWINO $,KAWM,2018-04-02T18:05:00Z,35.13,-90.23,10.6,8.3,120,7,,,29.970472,,,TRUE,TRUE,TRUE,,,,TRUE,,,,,,,,,,,,,,,,,,,,,,SPECI,65.0
KATY 021805Z AUTO 13011G17KT 10SM BKN014 OVC050 M02/M05 A2972 RMK AO2 T10221050,KATY,2018-04-02T18:05:00Z,44.9,-97.15,-2.2,-5.0,130,11,17,10.0,29.719488,,,TRUE,TRUE,,,,,,,BKN,1400,OVC,5000,,,,,MVFR,,,,,,,,,,,,SPECI,532.0
KAFN 021805Z AUTO VRB04KT 10SM OVC031 02/M05 A3006 RMK AO2 T00171050,KAFN,2018-04-02T18:05:00Z,42.8,-72.0,1.7,-5.0,0,4,,10.0,30.059055,,,TRUE,TRUE,,,,,,,OVC,3100,,,,,,,VFR,,,,,,,,,,,,SPECI,313.0
CYSJ 021805Z 28007G20KT 180V310 15SM FEW052 BKN280 02/M11 A3004 RMK CU1CS6 SLP179,CYSJ,2018-04-02T18:05:00Z,45.32,-65.87,2.0,-11.0,280,7,20,15.0,30.041338,1017.9,,,,,,,,,,FEW,5200,BKN,28000,,,,,VFR,,,,,,,,,,,,SPECI,109.0
KEND 021805Z 15011KT 6SM BR BKN007 OVC011 03/02 A2980 RMK AO2A SLP103 $,KEND,2018-04-02T18:05:00Z,36.32,-97.92,3.0,2.0,150,11,,6.0,29.799213,1010.3,,,TRUE,TRUE,,,,,BR,BKN,700,OVC,1100,,,,,IFR,,,,,,,,,,,,SPECI,398.0
KRSP 021805Z AUTO VRB04KT 10SM SCT008 BKN013 OVC032 03/02 A3011 RMK AO2 $,KRSP,2018-04-02T18:05:00Z,39.65,-77.47,3.0,2.0,0,4,,10.0,30.109253,,,TRUE,TRUE,TRUE,,,,,,SCT,800,BKN,1300,OVC,3200,,,MVFR,,,,,,,,,,,,SPECI,561.0
YBNA 021805Z AUTO 00000KT 2900 // NCD 18/18 Q1015,YBNA,2018-04-02T18:05:00Z,-28.83,153.57,18.0,18.0,0,0,,1.8,29.970472,,,TRUE,,,,,,,,CLR,,,,,,,,IFR,,,,,,,,,,,,METAR,2.0
KSKA 021805Z AUTO 22013KT 10SM -DZ FEW041 03/M06 A2980 RMK AO2 DZB1758 SLP111 $,KSKA,2018-04-02T18:05:00Z,47.62,-117.65,3.0,-6.0,220,13,,10.0,29.799213,1011.1,,TRUE,TRUE,TRUE,,,,,-DZ,FEW,4100,,,,,,,VFR,,,,,,,,,,,,SPECI,750.0
KRST 021804Z 14012KT 10SM FEW015 SCT065 M01/M04 A2991 RMK AO2 SNE1756 P0000 T10111044,KRST,2018-04-02T18:04:00Z,43.9,-92.5,-1.1,-4.4,140,12,,10.0,29.911417,,,,TRUE,,,,,,,FEW,1500,SCT,6500,,,,,VFR,,,,,,0.005,,,,,,SPECI,403.0
KCMI 021804Z 10008KT 10SM BKN016 01/M02 A3006 RMK AO2 T00111017,KCMI,2018-04-02T18:04:00Z,40.03,-88.27,1.1,-1.7,100,8,,10.0,30.059055,,,,TRUE,,,,,,,BKN,1600,,,,,,,MVFR,,,,,,,,,,,,SPECI,228.0
KBNA 021804Z 00000KT 10SM OVC010 11/07 A3002 RMK AO2 T01060072,KBNA,2018-04-02T18:04:00Z,36.12,-86.68,10.6,7.2,0,0,,10.0,30.02067,,,,TRUE,,,,,,,OVC,1000,,,,,,,MVFR,,,,,,,,,,,,SPECI,210.0
KNTU 021804Z 35013KT 10SM SCT010 SCT090 BKN200 12/07 A3005 RMK AO2 T01170067,KNTU,2018-04-02T18:04:00Z,36.82,-76.02,11.7,6.7,350,13,,10.0,30.050198,,,,TRUE,,,,,,,SCT,1000,SCT,9000,BKN,20000,,,VFR,,,,,,,,,,,,SPECI,7.0
KRND 021804Z AUTO 16013G19KT 10SM SCT031 BKN170 27/20 A2981 RMK AO2 SLP087 $,KRND,2018-04-02T18:04:00Z,29.52,-98.27,27.0,20.0,160,13,19,10.0,29.811024,1008.7,,TRUE,TRUE,TRUE,,,,,,SCT,3100,BKN,17000,,,,,VFR,,,,,,,,,,,,SPECI,232.0
KSBP 021803Z 00000KT 10SM SCT013 16/10 A2992 RMK AO2 T01560100,KSBP,2018-04-02T18:03:00Z,35.23,-120.63,15.6,10.0,0,0,,10.0,29.920275,,,,TRUE,,,,,,,SCT,1300,,,,,,,VFR,,,,,,,,,,,,SPECI,59.0
KOJC 021803Z 12008KT 3SM BR OVC004 M02/M02 A2988 RMK AO2 T10171017,KOJC,2018-04-02T18:03:00Z,38.85,-94.73,-1.7,-1.7,120,8,,3.0,29.878937,,,,TRUE,,,,,,BR,OVC,400,,,,,,,LIFR,,,,,,,,,,,,SPECI,326.0
KPRX 021803Z AUTO 13003KT 8SM OVC008 11/08 A2992 RMK AO2,KPRX,2018-04-02T18:03:00Z,33.62,-95.45,11.0,8.0,130,3,,8.0,29.920275,,,TRUE,TRUE,,,,,,,OVC,800,,,,,,,IFR,,,,,,,,,,,,SPECI,167.0
KJAC 021803Z 20018G24KT 2 1/2SM -RA BR SCT009 BKN018 OVC034 01/M01 A2951 RMK AO2 VIS 1 3/4V4 P0000,KJAC,2018-04-02T18:03:00Z,43.62,-110.73,1.0,-1.0,200,18,24,2.5,29.509842,,,,TRUE,,,,,,-RA BR,SCT,900,BKN,1800,OVC,3400,,,IFR,,,,,,0.005,,,,,,SPECI,1961.0
CYZH 021803Z AUTO 30007KT 9SM CLR M10/M15 A3003 RMK SLP216,CYZH,2018-04-02T18:03:00Z,55.28,-114.77,-10.0,-15.0,300,7,,9.0,30.029528,1021.6,,TRUE,,,,,,,,CLR,,,,,,,,VFR,,,,,,,,,,,,SPECI,581.0
KTBN 021803Z AUTO 12009KT 2SM -UP BR OVC004 01/01 A2991 RMK AO2 UPB03 CIG 003 RWY32 SLP142,KTBN,2018-04-02T18:03:00Z,37.72,-92.12,1.0,1.0,120,9,,2.0,29.911417,1014.2,,TRUE,TRUE,,,,,,BR UP,OVC,400,,,,,,,LIFR,,,,,,,,,,,,SPECI,353.0
KHLR 021803Z AUTO 36008KT 1SM BR VV002 09/09 A2986 RMK AO2 SLP110 RVRNO,KHLR,2018-04-02T18:03:00Z,31.13,-97.72,9.0,9.0,360,8,,1.0,29.861221,1011.0,,TRUE,TRUE,,,,,,BR,OVX,0,,,,,,,LIFR,,,,,,,,,,,200,SPECI,283.0
KSEG 021802Z AUTO VRB03KT 10SM SCT025 04/M01 A3013 RMK AO2 T00441011,KSEG,2018-04-02T18:02:00Z,40.82,-76.87,4.4,-1.1,0,3,,10.0,30.129921,,,TRUE,TRUE,,,,,,,SCT,2500,,,,,,,VFR,,,,,,,,,,,,SPECI,134.0
KOKC 021802Z 17009KT 10SM OVC014 07/02 A2983 RMK AO2 T00670017,KOKC,2018-04-02T18:02:00Z,35.38,-97.6,6.7,1.7,170,9,,10.0,29.828741,,,,TRUE,,,,,,,OVC,1400,,,,,,,MVFR,,,,,,,,,,,,SPECI,390.0
KGPI 021802Z 01020KT 3SM BLSN OVC030 M06/M10 A2978 RMK AO2 T10611100 $,KGPI,2018-04-02T18:02:00Z,48.32,-114.25,-6.1,-10.0,10,20,,3.0,29.778543,,,,TRUE,TRUE,,,,,BLSN,OVC,3000,,,,,,,MVFR,,,,,,,,,,,,SPECI,908.0
KDOV 021801Z AUTO 34011KT 10SM OVC015 06/02 A3012 RMK AO2 SLP203 $,KDOV,2018-04-02T18:01:00Z,39.12,-75.47,6.0,2.0,340,11,,10.0,30.121063,1020.3,,TRUE,TRUE,TRUE,,,,,,OVC,1500,,,,,,,MVFR,,,,,,,,,,,,SPECI,9.0
KGCC 021801Z AUTO 02012KT 8SM OVC008 M02/M03 A2953 RMK AO2 CIG 006V011 T10171033,KGCC,2018-04-02T18:01:00Z,44.33,-105.55,-1.7,-3.3,20,12,,8.0,29.530512,,,TRUE,TRUE,,,,,,,OVC,800,,,,,,,IFR,,,,,,,,,,,,SPECI,1320.0
PAMO 021801Z AUTO 04015KT 10SM CLR M03/M10 A3058 RMK AO2 SLP363 60000 T10331100 11028 21050 56007 FZRANO,PAMO,2018-04-02T18:01:00Z,62.1,-163.68,-3.3,-10.0,40,15,,10.0,30.578741,1036.3,,TRUE,TRUE,,,,TRUE,,,CLR,,,,,,,,VFR,-0.7,-2.8,-5.0,,,,,0.005,,,,SPECI,103.0
PAFS 021801Z AUTO 05009KT 10SM CLR M04/M12 A3054 RMK AO2 SLP365 T10441122 11039 21072 58006 FZRANO,PAFS,2018-04-02T18:01:00Z,63.02,-154.35,-4.4,-12.2,50,9,,10.0,30.540354,1036.5,,TRUE,TRUE,,,,TRUE,,,CLR,,,,,,,,VFR,-0.6,-3.9,-7.2,,,,,,,,,SPECI,126.0
GVAC 021800Z 05014KT 9999 BKN014 22/14 Q1012 NOSIG,GVAC,2018-04-02T18:00:00Z,16.72,-22.93,22.0,14.0,50,14,,6.21,29.88189,,,,,,TRUE,,,,,BKN,1400,,,,,,,MVFR,,,,,,,,,,,,METAR,55.0
FQNP 021800Z /////KT 9999 DZ SCT010 BKN020 FEW025CB 21/20 Q1014 RMK CB TO N/W,FQNP,2018-04-02T18:00:00Z,-15.08,39.27,21.0,20.0,,,,6.21,29.940945,,,,,,,,,,DZ,SCT,1000,BKN,2000,FEW,2500,,,MVFR,,,,,,,,,,,,METAR,441.0
CYVC 021800Z 03006KT 15SM FEW250 M15/M22 A3006 RMK CI2 SLP220,CYVC,2018-04-02T18:00:00Z,55.15,-105.27,-15.0,-22.0,30,6,,15.0,30.059055,1022.0,,,,,,,,,,FEW,25000,,,,,,,VFR,,,,,,,,,,,,SPECI,379.0
CYQW 021800Z AUTO 24003KT 9SM CLR M09/M16 A3001 RMK SLP210,CYQW,2018-04-02T18:00:00Z,52.77,-108.25,-9.0,-16.0,240,3,,9.0,30.008858,1021.0,,TRUE,,,,,,,,CLR,,,,,,,,VFR,,,,,,,,,,,,SPECI,548.0
CYQR 021800Z 23006KT 15SM FEW029 FEW250 M11/M15 A2997 RMK SC1CI1 SC TR CI TR SLP195,CYQR,2018-04-02T18:00:00Z,50.43,-104.67,-11.0,-15.0,230,6,,15.0,29.970472,1019.5,,,,,,,,,,FEW,2900,FEW,25000,,,,,VFR,,,,,,,,,,,,SPECI,577.0
CYQF 021800Z 17004KT 10SM BKN250 M12/M17 A2995 RMK CI6 SLP210,CYQF,2018-04-02T18:00:00Z,52.17,-113.9,-12.0,-17.0,170,4,,10.0,29.949802,1021.0,,,,,,,,,,BKN,25000,,,,,,,VFR,,,,,,,,,,,,SPECI,905.0
CYPY 021800Z AUTO VRB03KT 9SM CLR M13/M18 A3013 RMK SLP228,CYPY,2018-04-02T18:00:00Z,58.77,-111.12,-13.0,-18.0,0,3,,9.0,30.129921,1022.8,,TRUE,,,,,,,,CLR,,,,,,,,VFR,,,,,,,,,,,,SPECI,232.0
CYPA 021800Z 16003KT 15SM IC FEW046 FEW250 M13/M20 A3004 RMK SC1CI1 SC TR SLP215,CYPA,2018-04-02T18:00:00Z,53.22,-105.67,-13.0,-20.0,160,3,,15.0,30.041338,1021.5,,,,,,,,,IC,FEW,4600,FEW,25000,,,,,VFR,,,,,,,,,,,,SPECI,428.0
CYOJ 021800Z 01009KT 15SM SCT045 M06/M15 A3013 RMK SC4 SLP235,CYOJ,2018-04-02T18:00:00Z,58.62,-117.17,-6.0,-15.0,10,9,,15.0,30.129921,1023.5,,,,,,,,,,SCT,4500,,,,,,,VFR,,,,,,,,,,,,SPECI,338.0
CYNE 021800Z AUTO 30005KT 270V040 9SM M15/M27 A3013 RMK CLD MISG SLP234,CYNE,2018-04-02T18:00:00Z,53.97,-97.82,-15.0,-27.0,300,5,,9.0,30.129921,1023.4,,TRUE,,,,,,,,,,,,,,,,,,,,,,,,,,,,SPECI,223.0
CYMM 021800Z AUTO 33007KT 9SM BKN030 OVC035 M09/M14 A3005 RMK SLP209,CYMM,2018-04-02T18:00:00Z,56.65,-111.22,-9.0,-14.0,330,7,,9.0,30.050198,1020.9,,TRUE,,,,,,,,BKN,3000,OVC,3500,,,,,MVFR,,,,,,,,,,,,SPECI,369.0
CYLL 021800Z VRB02KT 15SM FEW060 M07/M15 A2995 RMK SC1 SLP195,CYLL,2018-04-02T18:00:00Z,53.32,-110.07,-7.0,-15.0,0,2,,15.0,29.949802,1019.5,,,,,,,,,,FEW,6000,,,,,,,VFR,,,,,,,,,,,,SPECI,669.0
CYKJ 021800Z AUTO 34006KT 9SM CLR M18/M27 A3000 RMK SLP227,CYKJ,2018-04-02T18:00:00Z,57.25,-105.62,-18.0,-27.0,340,6,,9.0,30.0,1022.7,,TRUE,,,,,,,,CLR,,,,,,,,VFR,,,,,,,,,,,,SPECI,509.0
CYGX 021800Z 28009G16KT 15SM SCT012 OVC120 M19/M26 A3008 RMK SC3AS5 SLP209,CYGX,2018-04-02T18:00:00Z,56.35,-94.7,-19.0,-26.0,280,9,16,15.0,30.079725,1020.9,,,,,,,,,,SCT,1200,OVC,12000,,,,,VFR,,,,,,,,,,,,SPECI,145.0
CYET 021800Z AUTO 00000KT 9SM CLR M06/M18 A2994 RMK SLP201,CYET,2018-04-02T18:00:00Z,53.57,-116.47,-6.0,-18.0,0,0,,9.0,29.940945,1020.1,,TRUE,,,,,,,,CLR,,,,,,,,VFR,,,,,,,,,,,,SPECI,925.0
CYEN 021800Z 08011KT 6SM -SN SCT014 BKN220 M10/M14 A2994 RMK SC4CI2 SUN VISBL SLP185,CYEN,2018-04-02T18:00:00Z,49.22,-102.97,-10.0,-14.0,80,11,,6.0,29.940945,1018.5,,,,,,,,,-SN,SCT,1400,BKN,22000,,,,,VFR,,,,,,,,,,,,SPECI,581.0
CYDN 021800Z AUTO 06009KT 9SM CLR M14/M20 A3011 RMK SLP226,CYDN,2018-04-02T18:00:00Z,51.1,-100.03,-14.0,-20.0,60,9,,9.0,30.109253,1022.6,,TRUE,,,,,,,,CLR,,,,,,,,VFR,,,,,,,,,,,,SPECI,305.0
CYBU 021800Z AUTO 13005KT 9SM CLR M15/M20 A3006 RMK SLP222,CYBU,2018-04-02T18:00:00Z,53.32,-104.0,-15.0,-20.0,130,5,,9.0,30.059055,1022.2,,TRUE,,,,,,,,CLR,,,,,,,,VFR,,,,,,,,,,,,SPECI,374.0
CYBR 021800Z 06013KT 15SM FEW240 M15/M22 A3004 RMK CI1 SLP213,CYBR,2018-04-02T18:00:00Z,49.92,-99.95,-15.0,-22.0,60,13,,15.0,30.041338,1021.3,,,,,,,,,,FEW,24000,,,,,,,VFR,,,,,,,,,,,,METAR,409.0
CYBQ 021800Z AUTO 34007KT 280V010 9SM FEW021 SCT028 SCT036 M21/M28 A3002 RMK SLP206,CYBQ,2018-04-02T18:00:00Z,58.7,-98.5,-21.0,-28.0,340,7,,9.0,30.02067,1020.6,,TRUE,,,,,,,,FEW,2100,SCT,2800,SCT,3600,,,VFR,,,,,,,,,,,,METAR,262.0
CYBK 021800Z CCA 31007KT 20SM FEW060 M24/M29 A3002 RMK SC1 SC TR SLP171,CYBK,2018-04-02T18:00:00Z,64.28,-96.07,-24.0,-29.0,310,7,,20.0,30.02067,1017.1,,,,,,,,,,FEW,6000,,,,,,,VFR,,,,,,,,,,,,METAR,18.0
CYAB 021800Z 00000KT 30SM FEW020 SCT030 BKN060 M14/M16 A3023 RMK SC1SC2SC4 CIG ESTD SLP242,CYAB,2018-04-02T18:00:00Z,73.0,-85.05,-14.0,-16.0,0,0,,30.0,30.230314,1024.2,,,,,,,,,,FEW,2000,SCT,3000,BKN,6000,,,VFR,,,,,,,,,,,,METAR,22.0
CYWH 021800Z 23010KT 15SM FEW025 07/01 A3003 RMK CU2 SLP171,CYWH,2018-04-02T18:00:00Z,48.42,-123.38,7.0,1.0,230,10,,15.0,30.029528,1017.1,,,,,,,,,,FEW,2500,,,,,,,VFR,,,,,,,,,,,,SPECI,10.0
VTSG 021800Z 00000KT 7000 FEW020 24/24 Q1011,VTSG,2018-04-02T18:00:00Z,8.1,98.98,24.0,24.0,0,0,,4.35,29.852362,,,,,,,,,,,FEW,2000,,,,,,,MVFR,,,,,,,,,,,,METAR,25.0
WAJJ 021800Z 00000KT 9999 SCT010 25/22 Q1007 NOSIG,WAJJ,2018-04-02T18:00:00Z,-2.58,140.52,25.0,22.0,0,0,,6.21,29.734253,,,,,,TRUE,,,,,SCT,1000,,,,,,,VFR,,,,,,,,,,,,METAR,88.0
MNMG 021800Z 09014KT 9999 BKN029 32/18 Q1010 A2984 NOSIG,MNMG,2018-04-02T18:00:00Z,12.15,-86.17,32.0,18.0,90,14,,6.21,29.822834,,,,,,TRUE,,,,,BKN,2900,,,,,,,MVFR,,,,,,,,,,,,METAR,59.0
NZCH 021800Z AUTO 03008KT 9999 NCD 17/12 Q1004 NOSIG,NZCH,2018-04-02T18:00:00Z,-43.47,172.55,17.0,12.0,30,8,,6.21,29.64567,,,TRUE,,,TRUE,,,,,CLR,,,,,,,,VFR,,,,,,,,,,,,METAR,34.0
NZWN 021800Z AUTO 35020G33KT 9999 BKN018/// 19/16 Q1013 NOSIG,NZWN,2018-04-02T18:00:00Z,-41.32,174.8,19.0,16.0,350,20,33,6.21,29.911417,,,TRUE,,,TRUE,,,,,BKN,1800,,,,,,,MVFR,,,,,,,,,,,,METAR,7.0
NZAA 021800Z AUTO 34003KT 9999 OVC039/// 17/12 Q1020 NOSIG,NZAA,2018-04-02T18:00:00Z,-37.02,174.8,17.0,12.0,340,3,,6.21,30.11811,,,TRUE,,,TRUE,,,,,OVC,3900,,,,,,,VFR,,,,,,,,,,,,METAR,6.0
OTHH 021800Z AUTO 30008KT CAVOK 26/04 Q1013 NOSIG,OTHH,2018-04-02T18:00:00Z,25.25,51.6,26.0,4.0,300,8,,6.21,29.911417,,,TRUE,,,TRUE,,,,,CAVOK,,,,,,,,VFR,,,,,,,,,,,,METAR,0.0
OTBD 021800Z 30007KT 260V330 CAVOK 26/04 Q1013 NOSIG,OTBD,2018-04-02T18:00:00Z,25.25,51.57,26.0,4.0,300,7,,6.21,29.911417,,,,,,TRUE,,,,,CAVOK,,,,,,,,VFR,,,,,,,,,,,,METAR,10.0
VTUU 021800Z 04002KT 7000 FEW028 24/20 Q1010 NOSIG,VTUU,2018-04-02T18:00:00Z,15.25,104.87,24.0,20.0,40,2,,4.35,29.822834,,,,,,TRUE,,,,,FEW,2800,,,,,,,MVFR,,,,,,,,,,,,METAR,127.0
VTUK 021800Z 09002KT 7000 NSC 26/23 Q1011 NOSIG,VTUK,2018-04-02T18:00:00Z,16.47,102.78,26.0,23.0,90,2,,4.35,29.852362,,,,,,TRUE,,,,,CLR,,,,,,,,MVFR,,,,,,,,,,,,METAR,204.0
RJFS 021800Z 28003KT 270V020 CAVOK 14/13 Q1018,RJFS,2018-04-02T18:00:00Z,33.15,130.3,14.0,13.0,280,3,,6.21,30.059055,,,,,,,,,,,CAVOK,,,,,,,,VFR,,,,,,,,,,,,METAR,5.0
RJOH 021800Z VRB02KT 9999 FEW/// 12/07 Q1017,RJOH,2018-04-02T18:00:00Z,35.47,133.25,12.0,7.0,0,2,,6.21,30.029528,,,,,,,,,,,,,,,,,,,,,,,,,,,,,,,METAR,9.0
RJAH 021800Z 01003KT 8000 SCT025 BKN040 12/10 Q1018,RJAH,2018-04-02T18:00:00Z,36.17,140.42,12.0,10.0,10,3,,4.97,30.059055,,,,,,,,,,,SCT,2500,BKN,4000,,,,,MVFR,,,,,,,,,,,,METAR,35.0
RJFR 021800Z 36006KT 9999 FEW030 13/12 Q1018,RJFR,2018-04-02T18:00:00Z,33.82,131.03,13.0,12.0,360,6,,6.21,30.059055,,,,,,,,,,,FEW,3000,,,,,,,VFR,,,,,,,,,,,,METAR,6.0
RJNK 021800Z 18002KT 9999 FEW050 SCT070 12/08 Q1017,RJNK,2018-04-02T18:00:00Z,36.37,136.42,12.0,8.0,180,2,,6.21,30.029528,,,,,,,,,,,FEW,5000,SCT,7000,,,,,VFR,,,,,,,,,,,,METAR,9.0
RJGG 021800Z 15003KT CAVOK 15/12 Q1017 BECMG 36005KT,RJGG,2018-04-02T18:00:00Z,34.87,136.8,15.0,12.0,150,3,,6.21,30.029528,,,,,,,,,,,CAVOK,,,,,,,,VFR,,,,,,,,,,,,METAR,5.0
RJBB 021800Z AUTO 15005KT 9000 NCD 13/13 Q1018 BECMG 12004KT,RJBB,2018-04-02T18:00:00Z,34.42,135.25,13.0,13.0,150,5,,5.59,30.059055,,,TRUE,,,,,,,,CLR,,,,,,,,VFR,,,,,,,,,,,,METAR,8.0
SKCG 021800Z 36019KT 9999 SCT020 29/24 A2981 METAR ,SKCG,2018-04-02T18:00:00Z,10.43,-75.52,29.0,24.0,360,19,,6.21,29.811024,,,,,,,,,,,SCT,2000,,,,,,,VFR,,,,,,,,,,,,SPECI,1.0
VILK 021800Z 00000KT 3000 HZ NSC 26/16 Q1010 NOSIG,VILK,2018-04-02T18:00:00Z,26.75,80.87,26.0,16.0,0,0,,1.86,29.822834,,,,,,TRUE,,,,HZ,CLR,,,,,,,,IFR,,,,,,,,,,,,METAR,128.0
UKLU 021800Z 11003MPS 9999 FEW050 09/01 Q1014 NOSIG,UKLU,2018-04-02T18:00:00Z,48.63,22.27,9.0,1.0,110,6,,6.21,29.940945,,,,,,TRUE,,,,,FEW,5000,,,,,,,VFR,,,,,,,,,,,,METAR,117.0
ZYHB 021800Z 33005MPS CAVOK 01/M14 Q1020 NOSIG,ZYHB,2018-04-02T18:00:00Z,45.62,126.25,1.0,-14.0,330,10,,6.21,30.11811,,,,,,TRUE,,,,,CAVOK,,,,,,,,VFR,,,,,,,,,,,,METAR,140.0
ZYCC 021800Z 35003MPS 6000 BKN033 04/M13 Q1021 NOSIG,ZYCC,2018-04-02T18:00:00Z,43.98,125.68,4.0,-13.0,350,6,,3.73,30.147638,,,,,,TRUE,,,,,BKN,3300,,,,,,,MVFR,,,,,,,,,,,,METAR,238.0
ZUCK 021800Z 02003MPS CAVOK 18/12 Q1009 NOSIG,ZUCK,2018-04-02T18:00:00Z,29.72,106.63,18.0,12.0,20,6,,6.21,29.793306,,,,,,TRUE,,,,,CAVOK,,,,,,,,VFR,,,,,,,,,,,,METAR,416.0
ZSOF 021800Z 15003MPS 2200 BR NSC 18/18 Q1009 NOSIG,ZSOF,2018-04-02T18:00:00Z,31.98,116.97,18.0,18.0,150,6,,1.37,29.793306,,,,,,TRUE,,,,BR,CLR,,,,,,,,IFR,,,,,,,,,,,,METAR,63.0
ZSNJ 021800Z 08003MPS 1500 BR NSC 18/18 Q1011 NOSIG,ZSNJ,2018-04-02T18:00:00Z,31.75,118.87,18.0,18.0,80,6,,0.93,29.852362,,,,,,TRUE,,,,BR,CLR,,,,,,,,LIFR,,,,,,,,,,,,METAR,33.0
ZLLL 021800Z 35006MPS CAVOK 11/M05 Q1017 NOSIG,ZLLL,2018-04-02T18:00:00Z,36.52,103.62,11.0,-5.0,350,12,,6.21,30.029528,,,,,,TRUE,,,,,CAVOK,,,,,,,,VFR,,,,,,,,,,,,METAR,1947.0
ZJSY 021800Z VRB01MPS 9000 FEW020 22/20 Q1012 NOSIG,ZJSY,2018-04-02T18:00:00Z,18.3,109.42,22.0,20.0,0,2,,5.59,29.88189,,,,,,TRUE,,,,,FEW,2000,,,,,,,VFR,,,,,,,,,,,,METAR,27.0
ZJHK 021800Z 19002MPS 6000 NSC 21/20 Q1012 NOSIG,ZJHK,2018-04-02T18:00:00Z,19.93,110.47,21.0,20.0,190,4,,3.73,29.88189,,,,,,TRUE,,,,,CLR,,,,,,,,MVFR,,,,,,,,,,,,METAR,23.0
ZHHH 021800Z 13004MPS 5000 BR NSC 22/19 Q1008 NOSIG,ZHHH,2018-04-02T18:00:00Z,30.78,114.22,22.0,19.0,130,8,,3.11,29.763779,,,,,,TRUE,,,,BR,CLR,,,,,,,,MVFR,,,,,,,,,,,,METAR,33.0
ZHCC 021800Z VRB01MPS 7000 NSC 20/15 Q1008 NOSIG,ZHCC,2018-04-02T18:00:00Z,34.52,113.83,20.0,15.0,0,2,,4.35,29.763779,,,,,,TRUE,,,,,CLR,,,,,,,,MVFR,,,,,,,,,,,,METAR,151.0
ZGHA 021800Z 20001MPS 8000 NSC 21/17 Q1009 NOSIG,ZGHA,2018-04-02T18:00:00Z,28.18,113.22,21.0,17.0,200,2,,4.97,29.793306,,,,,,TRUE,,,,,CLR,,,,,,,,MVFR,,,,,,,,,,,,METAR,66.0
ZBHH 021800Z 08006MPS 9999 FEW040 06/M09 Q1018 NOSIG,ZBHH,2018-04-02T18:00:00Z,40.85,111.82,6.0,-9.0,80,12,,6.21,30.059055,,,,,,TRUE,,,,,FEW,4000,,,,,,,VFR,,,,,,,,,,,,METAR,1065.0
SERO 021800Z 33005KT 9999 FEW016 BKN100 31/22 Q1009,SERO,2018-04-02T18:00:00Z,-3.43,-79.98,31.0,22.0,330,5,,6.21,29.793306,,,,,,,,,,,FEW,1600,BKN,10000,,,,,VFR,,,,,,,,,,,,METAR,51.0
EISG 021800Z 09014KT 9999 FEW015 OVC027 04/02 Q0988,EISG,2018-04-02T18:00:00Z,54.28,-8.6,4.0,2.0,90,14,,6.21,29.17323,,,,,,,,,,,FEW,1500,OVC,2700,,,,,MVFR,,,,,,,,,,,,METAR,3.0
EIME 021800Z VRB02KT 4000 -RA OVC002 07/07 Q0987,EIME,2018-04-02T18:00:00Z,53.3,-6.45,7.0,7.0,0,2,,2.49,29.143702,,,,,,,,,,-RA,OVC,200,,,,,,,LIFR,,,,,,,,,,,,METAR,93.0
EIKY 021800Z 16005KT 120V180 9999 BKN025 12/09 Q0984,EIKY,2018-04-02T18:00:00Z,52.18,-9.52,12.0,9.0,160,5,,6.21,29.055119,,,,,,,,,,,BKN,2500,,,,,,,MVFR,,,,,,,,,,,,METAR,34.0
TTCP 021800Z 12016KT 9999 FEW021 30/22 Q1011 NOSIG,TTCP,2018-04-02T18:00:00Z,11.15,-60.85,30.0,22.0,120,16,,6.21,29.852362,,,,,,TRUE,,,,,FEW,2100,,,,,,,VFR,,,,,,,,,,,,METAR,8.0
TTPP 021800Z 10014KT 9999 SCT020 30/22 Q1010 NOSIG,TTPP,2018-04-02T18:00:00Z,10.58,-61.35,30.0,22.0,100,14,,6.21,29.822834,,,,,,TRUE,,,,,SCT,2000,,,,,,,VFR,,,,,,,,,,,,METAR,15.0
TLPC 021800Z 11012G22KT 9999 SCT024 30/19 Q1012 NOSIG,TLPC,2018-04-02T18:00:00Z,14.02,-61.0,30.0,19.0,110,12,22,6.21,29.88189,,,,,,TRUE,,,,,SCT,2400,,,,,,,VFR,,,,,,,,,,,,METAR,2.0
TDCF 021800Z 13004KT 9999 FEW018 BKN048 29/20 Q1012,TDCF,2018-04-02T18:00:00Z,15.33,-61.4,29.0,20.0,130,4,,6.21,29.88189,,,,,,,,,,,FEW,1800,BKN,4800,,,,,VFR,,,,,,,,,,,,METAR,5.0
SELT 021800Z 17005KT 9999 RA BKN026 SCT100 16/12 Q1027,SELT,2018-04-02T18:00:00Z,-0.92,-78.62,16.0,12.0,170,5,,6.21,30.324802,,,,,,,,,,RA,BKN,2600,SCT,10000,,,,,MVFR,,,,,,,,,,,,METAR,2785.0
MGTU 021800Z 00000KT CAVOK 28/22 OVC070,MGTU,2018-04-02T18:00:00Z,,,28.0,22.0,0,0,,6.21,,,,,,,,,,,,OVC,7000,,,,,,,VFR,,,,,,,,,,,,METAR,
MGMT 021800Z 18004KT 9999 FEW014 35/21 QFE 1008.8,MGMT,2018-04-02T18:00:00Z,,,35.0,21.0,180,4,,6.21,,,,,,,,,,,,FEW,1400,,,,,,,VFR,,,,,,,,,,,,METAR,
MGES 021800Z 03008KT 9999 FEW020 28/10 QFE 908.8,MGES,2018-04-02T18:00:00Z,14.57,-89.32,28.0,10.0,30,8,,6.21,,,,,,,,,,,,FEW,2000,,,,,,,VFR,,,,,,,,,,,,METAR,965.0
MGZA 021800Z 01006KT 9999 FEW035 33/16 QFE 986/3,MGZA,2018-04-02T18:00:00Z,14.97,-89.52,33.0,16.0,10,6,,6.21,,,,,,,,,,,,FEW,3500,,,,,,,VFR,,,,,,,,,,,,METAR,490.0
MGCB 021800Z 07006KT 9999 SCT018 25/15 QFE 869.7,MGCB,2018-04-02T18:00:00Z,15.48,-90.42,25.0,15.0,70,6,,6.21,,,,,,,,,,,,SCT,1800,,,,,,,VFR,,,,,,,,,,,,METAR,1316.0
MGQZ 021800Z 20006KT 9999 BKN020 19/08 QFE 772/0,MGQZ,2018-04-02T18:00:00Z,14.87,-91.5,19.0,8.0,200,6,,6.21,,,,,,,,,,,,BKN,2000,,,,,,,MVFR,,,,,,,,,,,,METAR,2371.0
MGRT 021800Z 23006KT 9999 SCT020 BKN080 30/22 Q1014 A2994 VOL. STA. MARIA Y SANTIAGUITO EN ACTIVIDAD,MGRT,2018-04-02T18:00:00Z,14.53,-91.7,30.0,22.0,230,6,,6.21,29.940945,,,,,,,,,,SA,SCT,2000,BKN,8000,,,,,VFR,,,,,,,,,,,,METAR,200.0
MGSJ 021800Z 19012KT 7000 FEW020 33/22 Q1011 A2985 FU,MGSJ,2018-04-02T18:00:00Z,13.92,-90.83,33.0,22.0,190,12,,4.35,29.852362,,,,,,,,,,FU,FEW,2000,,,,,,,MVFR,,,,,,,,,,,,METAR,9.0
MGPB 021800Z 36006KT 9999 SCT020 29/23 Q1013 A2991,MGPB,2018-04-02T18:00:00Z,15.72,-88.58,29.0,23.0,360,6,,6.21,29.911417,,,,,,,,,,,SCT,2000,,,,,,,VFR,,,,,,,,,,,,METAR,10.0
MGHT 021800Z 27004KT 9999 SCT028 24/10 QFE 819.7,MGHT,2018-04-02T18:00:00Z,15.32,-91.5,24.0,10.0,270,4,,6.21,,,,,,,,,,,,SCT,2800,,,,,,,VFR,,,,,,,,,,,,SPECI,1901.0
MGMM 021800Z 05006KT 9999 FEW018 32/18 Q1014 A2994,MGMM,2018-04-02T18:00:00Z,16.97,-89.87,32.0,18.0,50,6,,6.21,29.940945,,,,,,,,,,,FEW,1800,,,,,,,VFR,,,,,,,,,,,,METAR,123.0
UARR 021800Z 11006MPS CAVOK 01/M02 Q1024 R22/CLRD70 NOSIG RMK QFE764/1019,UARR,2018-04-02T18:00:00Z,51.15,51.53,1.0,-2.0,110,12,,6.21,30.236221,,,,,,TRUE,,,,,CAVOK,,,,,,,,VFR,,,,,,,,,,,,SPECI,38.0
UASK 021800Z VRB01MPS 9999 OVC081 M01/M04 Q1028 R12/090060 NOSIG RMK QFE745/0994,UASK,2018-04-02T18:00:00Z,50.03,82.5,-1.0,-4.0,0,2,,6.21,30.35433,,,,,,TRUE,,,,,OVC,8100,,,,,,,VFR,,,,,,,,,,,,METAR,286.0
UADD 021800Z 31003MPS 9999 OVC012 06/06 Q1021 R13/19//60 NOSIG RMK MT OBSC QFE709/0945,UADD,2018-04-02T18:00:00Z,42.85,71.3,6.0,6.0,310,6,,6.21,30.147638,,,,,,TRUE,,,,,OVC,1200,,,,,,,MVFR,,,,,,,,,,,,SPECI,665.0
UTAV 021800Z 30008KT 9999 FEW050CB BKN100 11/06 Q1016 NOSIG,UTAV,2018-04-02T18:00:00Z,39.08,63.62,11.0,6.0,300,8,,6.21,30.0,,,,,,TRUE,,,,,FEW,5000,BKN,10000,,,,,VFR,,,,,,,,,,,,METAR,192.0
UCFL 021800Z VRB01MPS 9999 SCT026CB BKN120 06/02 Q1022 R07/CLRD70 RMK V/G/CH/Z,UCFL,2018-04-02T18:00:00Z,42.58,76.7,6.0,2.0,0,2,,6.21,30.177166,,,,,,,,,,,SCT,2600,BKN,12000,,,,,VFR,,,,,,,,,,,,METAR,1648.0
LELO 021800Z 11015G25KT 070V130 9999 FEW035 17/01 Q1002,LELO,2018-04-02T18:00:00Z,42.45,-2.32,17.0,1.0,110,15,25,6.21,29.586615,,,,,,,,,,,FEW,3500,,,,,,,VFR,,,,,,,,,,,,METAR,363.0
LECV 021800Z 22009KT 9999 FEW040 SCT060 14/04 Q1006,LECV,2018-04-02T18:00:00Z,40.63,-3.72,14.0,4.0,220,9,,6.21,29.704725,,,,,,,,,,,FEW,4000,SCT,6000,,,,,VFR,,,,,,,,,,,,METAR,710.0
LEBT 021800Z AUTO 11005KT 070V150 9999 NCD 14/08 Q1008,LEBT,2018-04-02T18:00:00Z,39.58,-0.45,14.0,8.0,110,5,,6.21,29.763779,,,TRUE,,,,,,,,CLR,,,,,,,,VFR,,,,,,,,,,,,METAR,50.0
LEAO 021800Z 26012KT CAVOK 17/03 Q1007,LEAO,2018-04-02T18:00:00Z,38.95,-3.73,17.0,3.0,260,12,,6.21,29.734253,,,,,,,,,,,CAVOK,,,,,,,,VFR,,,,,,,,,,,,METAR,629.0
DAUE 021800Z 04011KT 8000 NSC 27/05 Q1012,DAUE,2018-04-02T18:00:00Z,30.57,2.87,27.0,5.0,40,11,,4.97,29.88189,,,,,,,,,,,CLR,,,,,,,,MVFR,,,,,,,,,,,,METAR,397.0
DATM 021800Z 33006KT 8000 NSC 36/M01 Q1008,DATM,2018-04-02T18:00:00Z,21.38,0.92,36.0,-1.0,330,6,,4.97,29.763779,,,,,,,,,,,CLR,,,,,,,,MVFR,,,,,,,,,,,,METAR,396.0
DAOV 021800Z 00000KT 5000 SCT026 SCT100 19/17 Q1008,DAOV,2018-04-02T18:00:00Z,35.2,0.15,19.0,17.0,0,0,,3.11,29.763779,,,,,,,,,,,SCT,2600,SCT,10000,,,,,MVFR,,,,,,,,,,,,METAR,514.0
DAOR 021800Z 13008KT 4000 BLDU FEW030 25/04 Q1010,DAOR,2018-04-02T18:00:00Z,31.65,-2.27,25.0,4.0,130,8,,2.49,29.822834,,,,,,,,,,BLDU,FEW,3000,,,,,,,IFR,,,,,,,,,,,,METAR,773.0
DAOL 021800Z 25016KT 5000 FEW026CB SCT030 17/16 Q1009,DAOL,2018-04-02T18:00:00Z,35.53,-0.52,17.0,16.0,250,16,,3.11,29.793306,,,,,,,,,,,FEW,2600,SCT,3000,,,,,MVFR,,,,,,,,,,,,METAR,112.0
DAOF 021800Z 25012KT CAVOK 28/M01 Q1007,DAOF,2018-04-02T18:00:00Z,27.7,-8.17,28.0,-1.0,250,12,,6.21,29.734253,,,,,,,,,,,CAVOK,,,,,,,,VFR,,,,,,,,,,,,METAR,431.0
DAFH 021800Z 22011KT 9999 BKN030 19/08 Q1016,DAFH,2018-04-02T18:00:00Z,32.93,3.32,19.0,8.0,220,11,,6.21,30.0,,,,,,,,,,,BKN,3000,,,,,,,MVFR,,,,,,,,,,,,METAR,774.0
DAAY 021800Z 19018KT 5000 SCT030 SCT100 19/07 Q1014,DAAY,2018-04-02T18:00:00Z,33.53,-0.25,19.0,7.0,190,18,,3.11,29.940945,,,,,,,,,,,SCT,3000,SCT,10000,,,,,MVFR,,,,,,,,,,,,METAR,1149.0
DAAP 021800Z 10015KT 7000 NSC 32/M04 Q1010,DAAP,2018-04-02T18:00:00Z,26.72,8.62,32.0,-4.0,100,15,,4.35,29.822834,,,,,,,,,,,CLR,,,,,,,,MVFR,,,,,,,,,,,,METAR,558.0
DAAD 021800Z 22010KT 6000 NSC 23/04 Q1011,DAAD,2018-04-02T18:00:00Z,35.32,4.2,23.0,4.0,220,10,,3.73,29.852362,,,,,,,,,,,CLR,,,,,,,,MVFR,,,,,,,,,,,,METAR,461.0
FAVV 021800Z AUTO /////KT //// // ////// 16/14 Q1021,FAVV,2018-04-02T18:00:00Z,-26.57,27.97,16.0,14.0,,,,,30.147638,,,TRUE,,,,,,,,,,,,,,,,,,,,,,,,,,,,METAR,1483.0
FAJB 021800Z AUTO 00000KT //// // ////// 19/12 Q1022,FAJB,2018-04-02T18:00:00Z,-26.15,28.0,19.0,12.0,0,0,,,30.177166,,,TRUE,,,,,,,,,,,,,,,,,,,,,,,,,,,,METAR,1626.0
DAUU 021800Z 02008KT 6000 NSC 27/02 Q1012,DAUU,2018-04-02T18:00:00Z,31.92,5.4,27.0,2.0,20,8,,3.73,29.88189,,,,,,,,,,,CLR,,,,,,,,MVFR,,,,,,,,,,,,METAR,141.0
DAUT 021800Z 20010KT 8000 FEW046 SCT050 32/01 Q1008,DAUT,2018-04-02T18:00:00Z,29.25,0.27,32.0,1.0,200,10,,4.97,29.763779,,,,,,,,,,,FEW,4600,SCT,5000,,,,,MVFR,,,,,,,,,,,,METAR,312.0
DAUO 021800Z 02003KT CAVOK 25/05 Q1013,DAUO,2018-04-02T18:00:00Z,33.5,6.78,25.0,5.0,20,3,,6.21,29.911417,,,,,,,,,,,CAVOK,,,,,,,,VFR,,,,,,,,,,,,METAR,63.0
DAUL 021800Z 20016KT 6000 -RA SCT030 BKN080 17/11 Q1016,DAUL,2018-04-02T18:00:00Z,33.77,2.92,17.0,11.0,200,16,,3.73,30.0,,,,,,,,,,-RA,SCT,3000,BKN,8000,,,,,MVFR,,,,,,,,,,,,METAR,765.0
DAUK 021800Z 00000KT CAVOK 22/08 Q1013,DAUK,2018-04-02T18:00:00Z,33.08,6.12,22.0,8.0,0,0,,6.21,29.911417,,,,,,,,,,,CAVOK,,,,,,,,VFR,,,,,,,,,,,,METAR,85.0
DAUI 021800Z 04002KT 5000 NSC 33/M01 Q1008,DAUI,2018-04-02T18:00:00Z,27.25,2.52,33.0,-1.0,40,2,,3.11,29.763779,,,,,,,,,,,CLR,,,,,,,,MVFR,,,,,,,,,,,,METAR,269.0
SLVR 021800Z 17010KT 9999 SCT020 28/19 Q1012,SLVR,2018-04-02T18:00:00Z,-17.63,-63.12,28.0,19.0,170,10,,6.21,29.88189,,,,,,,,,,,SCT,2000,,,,,,,VFR,,,,,,,,,,,,METAR,373.0
SLLP 021800Z 29007KT 9999 FEW020 BKN200 15/00 Q1034,SLLP,2018-04-02T18:00:00Z,-16.52,-68.17,15.0,0.0,290,7,,6.21,30.531496,,,,,,,,,,,FEW,2000,BKN,20000,,,,,VFR,,,,,,,,,,,,METAR,4014.0
SLCB 021800Z 23006KT 9999 SCT030 25/09 Q1022,SLCB,2018-04-02T18:00:00Z,-17.42,-66.18,25.0,9.0,230,6,,6.21,30.177166,,,,,,,,,,,SCT,3000,,,,,,,VFR,,,,,,,,,,,,METAR,2548.0
SGES 021800Z 21010KT 9999 BKN027 FEW040TCU 27/19 Q1011,SGES,2018-04-02T18:00:00Z,-25.45,-54.85,27.0,19.0,210,10,,6.21,29.852362,,,,,,,,,,,BKN,2700,FEW,4000,,,,,MVFR,,,,,,,,,,,,METAR,849.0
SGAS 021800Z VRB05KT 9999 SCT033 29/18 Q1011,SGAS,2018-04-02T18:00:00Z,-25.25,-57.52,29.0,18.0,0,5,,6.21,29.852362,,,,,,,,,,,SCT,3300,,,,,,,VFR,,,,,,,,,,,,METAR,101.0
LPBJ 021800Z 25010KT 9999 FEW016 16/10 Q1008,LPBJ,2018-04-02T18:00:00Z,38.08,-7.93,16.0,10.0,250,10,,6.21,29.763779,,,,,,,,,,,FEW,1600,,,,,,,VFR,,,,,,,,,,,,METAR,194.0
SASA 021800Z 02005KT 9999 SCT015TCU OVC025 20/14 Q1018,SASA,2018-04-02T18:00:00Z,-24.85,-65.47,20.0,14.0,20,5,,6.21,30.059055,,,,,,,,,,,SCT,1500,OVC,2500,,,,,MVFR,,,,,,,,,,,,METAR,1216.0
SERB 021800Z 09010KT 9999 BKN033 BKN100 19/11 Q1026,SERB,2018-04-02T18:00:00Z,-1.62,-78.67,19.0,11.0,90,10,,6.21,30.295275,,,,,,,,,,,BKN,3300,BKN,10000,,,,,VFR,,,,,,,,,,,,METAR,2796.0
SBTF 021800Z 07005KT 9999 SCT020 FEW025TCU BKN070 28/25 Q1008,SBTF,2018-04-02T18:00:00Z,-3.37,-64.72,28.0,25.0,70,5,,6.21,29.763779,,,,,,,,,,,SCT,2000,FEW,2500,BKN,7000,,,VFR,,,,,,,,,,,,SPECI,47.0
SBPP 021800Z 18005KT 9999 SCT020 27/20 Q1012,SBPP,2018-04-02T18:00:00Z,-22.55,-55.7,27.0,20.0,180,5,,6.21,29.88189,,,,,,,,,,,SCT,2000,,,,,,,VFR,,,,,,,,,,,,SPECI,660.0
SBBG 021800Z 17005KT 9999 BKN027 25/19 Q1012,SBBG,2018-04-02T18:00:00Z,-31.38,-54.12,25.0,19.0,170,5,,6.21,29.88189,,,,,,,,,,,BKN,2700,,,,,,,MVFR,,,,,,,,,,,,SPECI,180.0
SBTT 021800Z 14003KT 9999 BKN027 SCT100 30/23 Q1009,SBTT,2018-04-02T18:00:00Z,-4.25,-69.93,30.0,23.0,140,3,,6.21,29.793306,,,,,,,,,,,BKN,2700,SCT,10000,,,,,MVFR,,,,,,,,,,,,SPECI,85.0
SBSG 021800Z 16008KT 9999 FEW020 29/24 Q1008,SBSG,2018-04-02T18:00:00Z,-5.77,-35.37,29.0,24.0,160,8,,6.21,29.763779,,,,,,,,,,,FEW,2000,,,,,,,VFR,,,,,,,,,,,,SPECI,83.0
SBBE 021800Z 02004KT 9999 -RA BKN012 FEW015TCU BKN100 24/24 Q10 08 RERA,SBBE,2018-04-02T18:00:00Z,-1.37,-48.47,24.0,24.0,20,4,,6.21,,,,,,,,,,,-RA,BKN,1200,FEW,1500,BKN,10000,,,MVFR,,,,,,,,,,,,SPECI,16.0
DAUZ 021800Z 10016KT 6000 DRSA NSC 28/M05 Q1013,DAUZ,2018-04-02T18:00:00Z,28.05,9.62,28.0,-5.0,100,16,,3.73,29.911417,,,,,,,,,,DRSA,CLR,,,,,,,,MVFR,,,,,,,,,,,,METAR,562.0
DABT 021800Z 24014KT CAVOK 19/06 Q1014,DABT,2018-04-02T18:00:00Z,35.75,6.32,19.0,6.0,240,14,,6.21,29.940945,,,,,,,,,,,CAVOK,,,,,,,,VFR,,,,,,,,,,,,METAR,823.0
DAAV 021800Z 00000KT CAVOK 19/16 Q1009,DAAV,2018-04-02T18:00:00Z,36.8,5.88,19.0,16.0,0,0,,6.21,29.793306,,,,,,,,,,,CAVOK,,,,,,,,VFR,,,,,,,,,,,,METAR,11.0
DAAJ 021800Z 16009KT CAVOK 28/01 Q1014,DAAJ,2018-04-02T18:00:00Z,24.28,9.47,28.0,1.0,160,9,,6.21,29.940945,,,,,,,,,,,CAVOK,,,,,,,,VFR,,,,,,,,,,,,METAR,968.0
DAAE 021800Z 11003KT 8000 NSC 18/11 Q1008,DAAE,2018-04-02T18:00:00Z,36.72,5.07,18.0,11.0,110,3,,4.97,29.763779,,,,,,,,,,,CLR,,,,,,,,MVFR,,,,,,,,,,,,METAR,2.0
DAUA 021800Z 23037KT 0300 SS VV/// 28/M02 Q1010,DAUA,2018-04-02T18:00:00Z,27.83,-0.18,28.0,-2.0,230,37,,0.19,29.822834,,,,,,,,,,SS,OVX,0,,,,,,,LIFR,,,,,,,,,,,,METAR,263.0
TNCA 021800Z 07016KT 9999 FEW025 30/24 Q1010 NOSIG,TNCA,2018-04-02T18:00:00Z,12.5,-70.0,30.0,24.0,70,16,,6.21,29.822834,,,,,,TRUE,,,,,FEW,2500,,,,,,,VFR,,,,,,,,,,,,METAR,18.0
RJAW 021800Z 05016KT 9999 FEW015 BKN020 21/15 Q1013 RMK 1CU015 5CU020 A2994,RJAW,2018-04-02T18:00:00Z,24.77,141.32,21.0,15.0,50,16,,6.21,29.911417,,,,,,,,,,,FEW,1500,BKN,2000,,,,,MVFR,,,,,,,,,,,,METAR,116.0
LPLA 021800Z /////KT 9999 SCT030 18/12 Q1013,LPLA,2018-04-02T18:00:00Z,38.77,-27.1,18.0,12.0,,,,6.21,29.911417,,,,,,,,,,,SCT,3000,,,,,,,VFR,,,,,,,,,,,,METAR,55.0
DAOI 021800Z 30006KT 7000 TS FEW020 FEW026CB SCT100 24/16 Q1006,DAOI,2018-04-02T18:00:00Z,36.22,1.32,24.0,16.0,300,6,,4.35,29.704725,,,,,,,,,,TS,FEW,2000,FEW,2600,SCT,10000,,,MVFR,,,,,,,,,,,,METAR,143.0
DAUG 021800Z 00000KT 7000 BKN040 SCT100 25/02 Q1015,DAUG,2018-04-02T18:00:00Z,32.37,3.82,25.0,2.0,0,0,,4.35,29.970472,,,,,,,,,,,BKN,4000,SCT,10000,,,,,MVFR,,,,,,,,,,,,METAR,450.0
DAUB 021800Z 15003KT CAVOK 24/06 Q1014,DAUB,2018-04-02T18:00:00Z,34.78,5.72,24.0,6.0,150,3,,6.21,29.940945,,,,,,,,,,,CAVOK,,,,,,,,VFR,,,,,,,,,,,,METAR,87.0
DAOB 021800Z 18019KT 4000 DRSA FEW026 SCT216 22/04 Q1011,DAOB,2018-04-02T18:00:00Z,35.33,1.47,22.0,4.0,180,19,,2.49,29.852362,,,,,,,,,,DRSA,FEW,2600,SCT,21600,,,,,IFR,,,,,,,,,,,,METAR,989.0
DABS 021800Z 22009KT CAVOK 19/M01 Q1016,DABS,2018-04-02T18:00:00Z,35.43,8.12,19.0,-1.0,220,9,,6.21,30.0,,,,,,,,,,,CAVOK,,,,,,,,VFR,,,,,,,,,,,,METAR,813.0
DAAS 021800Z 20008KT CAVOK 15/03 Q1015,DAAS,2018-04-02T18:00:00Z,36.18,5.33,15.0,3.0,200,8,,6.21,29.970472,,,,,,,,,,,CAVOK,,,,,,,,VFR,,,,,,,,,,,,METAR,1038.0
DTTR 021800Z 10013KT CAVOK 18/05 Q1015 NOSIG,DTTR,2018-04-02T18:00:00Z,31.7,9.27,18.0,5.0,100,13,,6.21,29.970472,,,,,,TRUE,,,,,CAVOK,,,,,,,,VFR,,,,,,,,,,,,METAR,259.0
DTTN 021800Z 32004KT 290V350 9999 FEW020 22/12 Q1010,DTTN,2018-04-02T18:00:00Z,36.47,8.8,22.0,12.0,320,4,,6.21,29.822834,,,,,,,,,,,FEW,2000,,,,,,,VFR,,,,,,,,,,,,METAR,144.0
DTTL 021800Z 15009KT CAVOK 15/14 Q1016,DTTL,2018-04-02T18:00:00Z,36.85,11.07,15.0,14.0,150,9,,6.21,30.0,,,,,,,,,,,CAVOK,,,,,,,,VFR,,,,,,,,,,,,METAR,30.0
DTTK 021800Z 15008KT CAVOK 20/04 Q1015,DTTK,2018-04-02T18:00:00Z,35.67,10.08,20.0,4.0,150,8,,6.21,29.970472,,,,,,,,,,,CAVOK,,,,,,,,VFR,,,,,,,,,,,,METAR,68.0
DTTB 021800Z 10011KT CAVOK 17/12 Q1012,DTTB,2018-04-02T18:00:00Z,37.25,9.8,17.0,12.0,100,11,,6.21,29.88189,,,,,,,,,,,CAVOK,,,,,,,,VFR,,,,,,,,,,,,METAR,3.0
YSRI 021800Z AUTO 18004KT 9999 // OVC022 20/17 Q1019,YSRI,2018-04-02T18:00:00Z,-33.6,150.77,20.0,17.0,180,4,,6.21,30.088583,,,TRUE,,,,,,,,OVC,2200,,,,,,,MVFR,,,,,,,,,,,,SPECI,21.0
YSNF 021800Z AUTO 10012KT 9999 // SCT019 SCT025 21/18 Q1017,YSNF,2018-04-02T18:00:00Z,-29.02,167.92,21.0,18.0,100,12,,6.21,30.029528,,,TRUE,,,,,,,,SCT,1900,SCT,2500,,,,,VFR,,,,,,,,,,,,METAR,109.0
YSDU 021800Z AUTO 14010KT 9999 // NCD 18/10 Q1016,YSDU,2018-04-02T18:00:00Z,-32.22,148.57,18.0,10.0,140,10,,6.21,30.0,,,TRUE,,,,,,,,CLR,,,,,,,,VFR,,,,,,,,,,,,SPECI,275.0
YSCB 021800Z AUTO 02005KT 9999 // SCT036 14/12 Q1020,YSCB,2018-04-02T18:00:00Z,-35.28,149.17,14.0,12.0,20,5,,6.21,30.11811,,,TRUE,,,,,,,,SCT,3600,,,,,,,VFR,,,,,,,,,,,,METAR,577.0
YPPD 021800Z AUTO 24006KT //// // NCD 28/25 Q1009,YPPD,2018-04-02T18:00:00Z,-20.37,118.62,28.0,25.0,240,6,,,29.793306,,,TRUE,,,,,,,,CLR,,,,,,,,,,,,,,,,,,,,METAR,6.0
YPKG 021800Z AUTO 04007KT 9999 // BKN097 17/16 Q1022,YPKG,2018-04-02T18:00:00Z,-30.77,121.45,17.0,16.0,40,7,,6.21,30.177166,,,TRUE,,,,,,,,BKN,9700,,,,,,,VFR,,,,,,,,,,,,METAR,360.0
YPGV 021800Z AUTO 23001KT 9999 // NCD 25/25 Q1006,YPGV,2018-04-02T18:00:00Z,-12.27,136.82,25.0,25.0,230,1,,6.21,29.704725,,,TRUE,,,,,,,,CLR,,,,,,,,VFR,,,,,,,,,,,,SPECI,55.0
YPEA 021800Z AUTO 05007KT 9999 // NCD 24/16 Q1014,YPEA,2018-04-02T18:00:00Z,-31.67,116.02,24.0,16.0,50,7,,6.21,29.940945,,,TRUE,,,,,,,,CLR,,,,,,,,VFR,,,,,,,,,,,,METAR,49.0
YMLT 021800Z AUTO 34009KT 9999 // NCD 09/07 Q1017 RF00.0/000.0,YMLT,2018-04-02T18:00:00Z,-41.52,147.18,9.0,7.0,340,9,,6.21,30.029528,,,TRUE,,,,,,,,CLR,,,,,,,,VFR,,,,,,,,,,,,SPECI,178.0
YMHB 021800Z 34008KT 9999 SCT036 BKN300 14/08 Q1014 RF00.0/000.2,YMHB,2018-04-02T18:00:00Z,-42.82,147.52,14.0,8.0,340,8,,6.21,29.940945,,,,,,,,,,,SCT,3600,BKN,30000,,,,,VFR,,,,,,,,,,,,SPECI,27.0
YFRT 021800Z AUTO 09009KT //// // ////// 14/12 Q1022,YFRT,2018-04-02T18:00:00Z,-30.83,128.12,14.0,12.0,90,9,,,30.177166,,,TRUE,,,,,,,,,,,,,,,,,,,,,,,,,,,,METAR,156.0
YCIN 021800Z AUTO 19005KT 9999 // NCD 26/24 Q1007,YCIN,2018-04-02T18:00:00Z,-17.58,123.83,26.0,24.0,190,5,,6.21,29.734253,,,TRUE,,,,,,,,CLR,,,,,,,,VFR,,,,,,,,,,,,SPECI,91.0
YBRM 021800Z AUTO 21009KT 9999 // NCD 30/27 Q1008,YBRM,2018-04-02T18:00:00Z,-17.93,122.22,30.0,27.0,210,9,,6.21,29.763779,,,TRUE,,,,,,,,CLR,,,,,,,,VFR,,,,,,,,,,,,SPECI,9.0
YBRK 021800Z AUTO 12008KT 9999 // BKN021 23/20 Q1010,YBRK,2018-04-02T18:00:00Z,-23.37,150.47,23.0,20.0,120,8,,6.21,29.822834,,,TRUE,,,,,,,,BKN,2100,,,,,,,MVFR,,,,,,,,,,,,SPECI,14.0
YBMA 021800Z AUTO 19006KT 9999 // NCD 24/12 Q1009,YBMA,2018-04-02T18:00:00Z,-20.67,139.47,24.0,12.0,190,6,,6.21,29.793306,,,TRUE,,,,,,,,CLR,,,,,,,,VFR,,,,,,,,,,,,SPECI,344.0
ZUUU 021800Z 00000MPS CAVOK 16/14 Q1010 NOSIG,ZUUU,2018-04-02T18:00:00Z,30.58,103.95,16.0,14.0,0,0,,6.21,29.822834,,,,,,TRUE,,,,,CAVOK,,,,,,,,VFR,,,,,,,,,,,,METAR,508.0
ZUGY 021800Z 16002MPS 140V210 7000 -TSRA FEW016 FEW060CB 15/14 Q1018 BECMG TL1900 -SHRA,ZUGY,2018-04-02T18:00:00Z,26.53,106.8,15.0,14.0,160,4,,4.35,30.059055,,,,,,,,,,-TSRA,FEW,1600,FEW,6000,,,,,MVFR,,,,,,,,,,,,METAR,1074.0
ZSQD 021800Z 20003MPS 5000 BR NSC 17/14 Q1011 NOSIG,ZSQD,2018-04-02T18:00:00Z,36.27,120.38,17.0,14.0,200,6,,3.11,29.852362,,,,,,TRUE,,,,BR,CLR,,,,,,,,MVFR,,,,,,,,,,,,METAR,77.0
ZSNB 021800Z 17003MPS CAVOK 20/17 Q1012 NOSIG,ZSNB,2018-04-02T18:00:00Z,29.83,121.47,20.0,17.0,170,6,,6.21,29.88189,,,,,,TRUE,,,,,CAVOK,,,,,,,,VFR,,,,,,,,,,,,METAR,4.0
ZSFZ 021800Z 00000MPS 2000 BR BKN002 18/18 Q1013 BECMG TL1900 1400,ZSFZ,2018-04-02T18:00:00Z,25.93,119.67,18.0,18.0,0,0,,1.24,29.911417,,,,,,,,,,BR,BKN,200,,,,,,,LIFR,,,,,,,,,,,,METAR,85.0
ZSAM 021800Z 04001MPS 2500 BR NSC 20/19 Q1013 NOSIG,ZSAM,2018-04-02T18:00:00Z,24.53,118.13,20.0,19.0,40,2,,1.55,29.911417,,,,,,TRUE,,,,BR,CLR,,,,,,,,IFR,,,,,,,,,,,,METAR,18.0
ZPPP 021800Z 22006MPS CAVOK 14/09 Q1020 NOSIG,ZPPP,2018-04-02T18:00:00Z,25.0,102.75,14.0,9.0,220,12,,6.21,30.11811,,,,,,TRUE,,,,,CAVOK,,,,,,,,VFR,,,,,,,,,,,,METAR,1892.0
ZLXY 021800Z 26001MPS CAVOK 11/08 Q1007 NOSIG,ZLXY,2018-04-02T18:00:00Z,34.43,108.75,11.0,8.0,260,2,,6.21,29.734253,,,,,,TRUE,,,,,CAVOK,,,,,,,,VFR,,,,,,,,,,,,METAR,479.0
ZGSZ 021800Z 16003MPS CAVOK 22/19 Q1012 NOSIG,ZGSZ,2018-04-02T18:00:00Z,22.63,113.8,22.0,19.0,160,6,,6.21,29.88189,,,,,,TRUE,,,,,CAVOK,,,,,,,,VFR,,,,,,,,,,,,METAR,18.0
ZGOW 021800Z VRB01MPS 5000 BR NSC 20/19 Q1013 NOSIG,ZGOW,2018-04-02T18:00:00Z,23.55,116.5,20.0,19.0,0,2,,3.11,29.911417,,,,,,TRUE,,,,BR,CLR,,,,,,,,MVFR,,,,,,,,,,,,METAR,3.0
ZGNN 021800Z VRB01MPS CAVOK 20/17 Q1012 NOSIG,ZGNN,2018-04-02T18:00:00Z,22.62,108.17,20.0,17.0,0,2,,6.21,29.88189,,,,,,TRUE,,,,,CAVOK,,,,,,,,VFR,,,,,,,,,,,,METAR,73.0
ZGKL 021800Z 00000MPS 4000 BR BKN066 20/19 Q1011 NOSIG,ZGKL,2018-04-02T18:00:00Z,25.22,110.03,20.0,19.0,0,0,,2.49,29.852362,,,,,,TRUE,,,,BR,BKN,6600,,,,,,,IFR,,,,,,,,,,,,METAR,166.0
SKBG 021800Z 32005KT 260V010 9999 VCSH SCT008TCU SCT015 25/21 A2994 RMK TCU VCSH/E,SKBG,2018-04-02T18:00:00Z,7.13,-73.18,25.0,21.0,320,5,,6.21,29.940945,,,,,,,,,,VCSH,SCT,800,SCT,1500,,,,,VFR,,,,,,,,,,,,METAR,1189.0
ZWSH 021800Z AUTO 06007MPS 1700 // ////// 18/M03 Q1017,ZWSH,2018-04-02T18:00:00Z,39.55,76.02,18.0,-3.0,60,14,,1.06,30.029528,,,TRUE,,,,,,,,,,,,,,,,,,,,,,,,,,,,METAR,1380.0
ZBSJ 021800Z 04012G19MPS 2500 HZ NSC 16/10 Q1011 BECMG TL1850 3000,ZBSJ,2018-04-02T18:00:00Z,38.28,114.7,16.0,10.0,40,23,37,1.55,29.852362,,,,,,,,,,HZ,CLR,,,,,,,,IFR,,,,,,,,,,,,METAR,71.0
FBSK 021800Z 10004KT CAVOK 21/17 Q1018 NOSIG,FBSK,2018-04-02T18:00:00Z,-24.55,25.92,21.0,17.0,100,4,,6.21,30.059055,,,,,,TRUE,,,,,CAVOK,,,,,,,,VFR,,,,,,,,,,,,METAR,1005.0
FBMN 021800Z 12003KT 9999 SCT030 23/14 Q1014,FBMN,2018-04-02T18:00:00Z,-19.97,23.42,23.0,14.0,120,3,,6.21,29.940945,,,,,,,,,,,SCT,3000,,,,,,,VFR,,,,,,,,,,,,METAR,900.0
FBKE 021800Z 13007KT 9999 FEW025 22/17 Q1014,FBKE,2018-04-02T18:00:00Z,-17.82,25.17,22.0,17.0,130,7,,6.21,29.940945,,,,,,,,,,,FEW,2500,,,,,,,VFR,,,,,,,,,,,,METAR,1000.0
FBFT 021800Z 12006KT CAVOK 21/15 Q1016,FBFT,2018-04-02T18:00:00Z,-21.17,27.48,21.0,15.0,120,6,,6.21,30.0,,,,,,,,,,,CAVOK,,,,,,,,VFR,,,,,,,,,,,,METAR,1000.0
FAWK 021800Z AUTO 10010KT //// ///// Q1023,FAWK,2018-04-02T18:00:00Z,-25.82,28.22,,,100,10,,,30.206694,,,TRUE,,,,,,,,,,,,,,,,,,,,,,,,,,,,METAR,1500.0
FAUP 021800Z 01010KT 9999 FEW050TCU 24/15 Q1014 NOSIG,FAUP,2018-04-02T18:00:00Z,-28.38,21.27,24.0,15.0,10,10,,6.21,29.940945,,,,,,TRUE,,,,,FEW,5000,,,,,,,VFR,,,,,,,,,,,,METAR,836.0
FYWH 021800Z 18011KT 9999 FEW015 FEW035CB SCT090 19/13 Q1020,FYWH,2018-04-02T18:00:00Z,-22.47,17.47,19.0,13.0,180,11,,6.21,30.11811,,,,,,,,,,,FEW,1500,FEW,3500,SCT,9000,,,VFR,,,,,,,,,,,,METAR,1700.0
FYWE 021800Z 17010KT 140V200 9999 FEW010 FEW040CB SCT050 18/13 Q1021,FYWE,2018-04-02T18:00:00Z,-22.62,17.08,18.0,13.0,170,10,,6.21,30.147638,,,,,,,,,,,FEW,1000,FEW,4000,SCT,5000,,,VFR,,,,,,,,,,,,METAR,1700.0
FYWB 021800Z 19003KT 9999 OVC025 18/15 Q1010 RERA,FYWB,2018-04-02T18:00:00Z,-22.98,14.65,18.0,15.0,190,3,,6.21,29.822834,,,,,,,,,,,OVC,2500,,,,,,,MVFR,,,,,,,,,,,,METAR,46.0
FYKT 021800Z 00000KT 9999 FEW040CB 25/14 Q1015,FYKT,2018-04-02T18:00:00Z,-26.52,18.12,25.0,14.0,0,0,,6.21,29.970472,,,,,,,,,,,FEW,4000,,,,,,,VFR,,,,,,,,,,,,METAR,1061.0
FAUT 021800Z 11003KT 9999 BKN025 23/20 Q1013,FAUT,2018-04-02T18:00:00Z,-31.52,28.67,23.0,20.0,110,3,,6.21,29.911417,,,,,,,,,,,BKN,2500,,,,,,,MVFR,,,,,,,,,,,,METAR,732.0
FAPP 021800Z 06004KT 8000 FEW040 19/15 Q1020 NOSIG,FAPP,2018-04-02T18:00:00Z,-23.83,29.45,19.0,15.0,60,4,,4.97,30.11811,,,,,,TRUE,,,,,FEW,4000,,,,,,,MVFR,,,,,,,,,,,,METAR,1242.0
FAMM 021800Z 15011KT 9999 FEW015 SCT050 17/15 Q1021 NOSIG,FAMM,2018-04-02T18:00:00Z,-25.8,25.52,17.0,15.0,150,11,,6.21,30.147638,,,,,,TRUE,,,,,FEW,1500,SCT,5000,,,,,VFR,,,,,,,,,,,,METAR,1277.0
FALA 021800Z 15005KT CAVOK 20/15 Q1022 NOSIG,FALA,2018-04-02T18:00:00Z,-25.92,27.92,20.0,15.0,150,5,,6.21,30.177166,,,,,,TRUE,,,,,CAVOK,,,,,,,,VFR,,,,,,,,,,,,METAR,1377.0
DTTZ 021800Z 06004KT CAVOK 24/02 Q1013 NOSIG,DTTZ,2018-04-02T18:00:00Z,33.92,8.08,24.0,2.0,60,4,,6.21,29.911417,,,,,,TRUE,,,,,CAVOK,,,,,,,,VFR,,,,,,,,,,,,METAR,93.0
DTTX 021800Z 10010KT CAVOK 17/10 Q1016 NOSIG,DTTX,2018-04-02T18:00:00Z,34.72,10.67,17.0,10.0,100,10,,6.21,30.0,,,,,,TRUE,,,,,CAVOK,,,,,,,,VFR,,,,,,,,,,,,METAR,23.0
DTTG 021800Z 08010KT CAVOK 19/08 Q1015,DTTG,2018-04-02T18:00:00Z,33.73,9.92,19.0,8.0,80,10,,6.21,29.970472,,,,,,,,,,,CAVOK,,,,,,,,VFR,,,,,,,,,,,,METAR,5.0
DTTF 021800Z /////KT CAVOK 23/04 Q1013 NOSIG,DTTF,2018-04-02T18:00:00Z,34.42,8.82,23.0,4.0,,,,6.21,29.911417,,,,,,TRUE,,,,,CAVOK,,,,,,,,VFR,,,,,,,,,,,,METAR,314.0
DTKA 021800Z 05008KT CAVOK 22/10 Q1010 NOSIG,DTKA,2018-04-02T18:00:00Z,36.98,8.88,22.0,10.0,50,8,,6.21,29.822834,,,,,,TRUE,,,,,CAVOK,,,,,,,,VFR,,,,,,,,,,,,METAR,21.0
FVHA 021800Z 11003KT CAVOK 19/14 Q1020 NOSIG,FVHA,2018-04-02T18:00:00Z,-17.92,31.12,19.0,14.0,110,3,,6.21,30.11811,,,,,,TRUE,,,,,CAVOK,,,,,,,,VFR,,,,,,,,,,,,METAR,1503.0
FBSP 021800Z 00000KT CAVOK 23/15 Q1016,FBSP,2018-04-02T18:00:00Z,-22.05,27.82,23.0,15.0,0,0,,6.21,30.0,,,,,,,,,,,CAVOK,,,,,,,,VFR,,,,,,,,,,,,METAR,892.0
FAOR 021800Z 13006KT 080V240 CAVOK 15/13 Q1023 NOSIG,FAOR,2018-04-02T18:00:00Z,-26.12,28.22,15.0,13.0,130,6,,6.21,30.206694,,,,,,TRUE,,,,,CAVOK,,,,,,,,VFR,,,,,,,,,,,,METAR,1700.0
FALE 021800Z 03012KT CAVOK 25/21 Q1011 NOSIG,FALE,2018-04-02T18:00:00Z,-29.62,31.12,25.0,21.0,30,12,,6.21,29.852362,,,,,,TRUE,,,,,CAVOK,,,,,,,,VFR,,,,,,,,,,,,METAR,109.0
FAKN 021800Z 01002KT 9999 FEW020 23/20 Q1020 NOSIG,FAKN,2018-04-02T18:00:00Z,-25.38,31.1,23.0,20.0,10,2,,6.21,30.11811,,,,,,TRUE,,,,,FEW,2000,,,,,,,VFR,,,,,,,,,,,,METAR,862.0
FAKM 021800Z 01009KT CAVOK 19/15 Q1018,FAKM,2018-04-02T18:00:00Z,-28.8,24.77,19.0,15.0,10,9,,6.21,30.059055,,,,,,,,,,,CAVOK,,,,,,,,VFR,,,,,,,,,,,,METAR,1192.0
FAHS 021800Z AUTO 20002KT //// ///// Q1016,FAHS,2018-04-02T18:00:00Z,-24.37,31.02,,,200,2,,,30.0,,,TRUE,,,,,,,,,,,,,,,,,,,,,,,,,,,,METAR,500.0
FAEL 021800Z 20011KT 9999 FEW021 21/18 Q1012,FAEL,2018-04-02T18:00:00Z,-33.02,27.82,21.0,18.0,200,11,,6.21,29.88189,,,,,,,,,,,FEW,2100,,,,,,,VFR,,,,,,,,,,,,METAR,125.0
FACT 021800Z 18013KT 9999 FEW035 19/15 Q1013 NOSIG,FACT,2018-04-02T18:00:00Z,-33.97,18.6,19.0,15.0,180,13,,6.21,29.911417,,,,,,TRUE,,,,,FEW,3500,,,,,,,VFR,,,,,,,,,,,,METAR,42.0
FQIN 021800Z 00000KT 9999 SCT020 24/23 Q1014,FQIN,2018-04-02T18:00:00Z,-23.87,35.37,24.0,23.0,0,0,,6.21,29.940945,,,,,,,,,,,SCT,2000,,,,,,,VFR,,,,,,,,,,,,METAR,15.0
LKPD 021800Z 10004KT CAVOK 07/M00 Q1010 NOSIG RMK BLU BLU,LKPD,2018-04-02T18:00:00Z,50.02,15.73,7.0,0.0,100,4,,6.21,29.822834,,,,,,TRUE,,,,,CAVOK,,,,,,,,VFR,,,,,,,,,,,,METAR,226.0
LKNA 021800Z 14005KT CAVOK 07/M02 Q1010 NOSIG RMK BLU BLU,LKNA,2018-04-02T18:00:00Z,49.17,16.12,7.0,-2.0,140,5,,6.21,29.822834,,,,,,TRUE,,,,,CAVOK,,,,,,,,VFR,,,,,,,,,,,,METAR,472.0
LKLN 021800Z AUTO VRB02KT 9999 SCT170 08/01 Q1009,LKLN,2018-04-02T18:00:00Z,49.68,13.27,8.0,1.0,0,2,,6.21,29.793306,,,TRUE,,,,,,,,SCT,17000,,,,,,,VFR,,,,,,,,,,,,METAR,362.0
LKKB 021800Z 13004KT 120V230 CAVOK 08/M02 Q1009 NOSIG,LKKB,2018-04-02T18:00:00Z,50.12,14.53,8.0,-2.0,130,4,,6.21,29.793306,,,,,,TRUE,,,,,CAVOK,,,,,,,,VFR,,,,,,,,,,,,METAR,286.0
LKCV 021800Z 13004KT CAVOK 09/M00 Q1010 NOSIG RMK BLU+ BLU,LKCV,2018-04-02T18:00:00Z,49.93,15.38,9.0,0.0,130,4,,6.21,29.822834,,,,,,TRUE,,,,,CAVOK,,,,,,,,VFR,,,,,,,,,,,,METAR,242.0
SKBQ 021800Z 36012KT 9999 FEW015TCU BKN200 31/23 A2982 RMK TCU/W,SKBQ,2018-04-02T18:00:00Z,10.9,-74.77,31.0,23.0,360,12,,6.21,29.819881,,,,,,,,,,,FEW,1500,BKN,20000,,,,,VFR,,,,,,,,,,,,SPECI,10.0
KNEL 021800Z AUTO VRB05KT 10SM OVC019 05/01 A3012 RMK AO2 SLP199 6//// T00500006 10050 20006 58004 PNO $,KNEL,2018-04-02T18:00:00Z,40.02,-74.33,5.0,0.6,0,5,,10.0,30.121063,1019.9,,TRUE,TRUE,TRUE,,,,,,OVC,1900,,,,,,,MVFR,-0.4,5.0,0.6,,,,,,,,,SPECI,31.0
TGPY 021800Z 09015KT 9999 SCT018 29/24 Q1011 NOSIG,TGPY,2018-04-02T18:00:00Z,12.0,-61.78,29.0,24.0,90,15,,6.21,29.852362,,,,,,TRUE,,,,,SCT,1800,,,,,,,VFR,,,,,,,,,,,,METAR,7.0
RKNY 021800Z AUTO 25021G33KT 9999 NCD 19/09 Q1011,RKNY,2018-04-02T18:00:00Z,38.07,128.67,19.0,9.0,250,21,33,6.21,29.852362,,,TRUE,,,,,,,,CLR,,,,,,,,VFR,,,,,,,,,,,,METAR,74.0
RKJB 021800Z AUTO 10005KT 6000 NCD 14/13 Q1016,RKJB,2018-04-02T18:00:00Z,34.98,126.38,14.0,13.0,100,5,,3.73,30.0,,,TRUE,,,,,,,,CLR,,,,,,,,MVFR,,,,,,,,,,,,METAR,2.0
RKTN 021800Z 28001KT CAVOK 15/12 Q1016 NOSIG,RKTN,2018-04-02T18:00:00Z,35.88,128.65,15.0,12.0,280,1,,6.21,30.0,,,,,,TRUE,,,,,CAVOK,,,,,,,,VFR,,,,,,,,,,,,METAR,35.0
RKTU 021800Z 02003KT 9999 FEW040 10/09 Q1017 NOSIG,RKTU,2018-04-02T18:00:00Z,36.7,127.5,10.0,9.0,20,3,,6.21,30.029528,,,,,,TRUE,,,,,FEW,4000,,,,,,,VFR,,,,,,,,,,,,METAR,66.0
RKPK 021800Z 20006KT 9000 NSC 17/15 Q1016 NOSIG,RKPK,2018-04-02T18:00:00Z,35.17,128.92,17.0,15.0,200,6,,5.59,30.0,,,,,,TRUE,,,,,CLR,,,,,,,,VFR,,,,,,,,,,,,METAR,15.0
RKPC 021800Z 12002KT CAVOK 15/10 Q1016 NOSIG,RKPC,2018-04-02T18:00:00Z,33.5,126.48,15.0,10.0,120,2,,6.21,30.0,,,,,,TRUE,,,,,CAVOK,,,,,,,,VFR,,,,,,,,,,,,METAR,27.0
RKSS 021800Z 16005KT 9999 BKN030 16/11 Q1016 NOSIG,RKSS,2018-04-02T18:00:00Z,37.53,126.78,16.0,11.0,160,5,,6.21,30.0,,,,,,TRUE,,,,,BKN,3000,,,,,,,MVFR,,,,,,,,,,,,METAR,19.0
YSSY 021800Z 14014KT 9999 FEW020 SCT030 BKN040 21/16 Q1019,YSSY,2018-04-02T18:00:00Z,-33.95,151.17,21.0,16.0,140,14,,6.21,30.088583,,,,,,,,,,,FEW,2000,SCT,3000,BKN,4000,,,VFR,,,,,,,,,,,,METAR,3.0
YPXM 021800Z AUTO 33005KT 9999 // SCT014 SCT018 SCT025 25/23 Q1012,YPXM,2018-04-02T18:00:00Z,-10.45,105.67,25.0,23.0,330,5,,6.21,29.88189,,,TRUE,,,,,,,,SCT,1400,SCT,1800,SCT,2500,,,VFR,,,,,,,,,,,,METAR,259.0
YPTN 021800Z AUTO 00000KT 9999 // NCD 23/21 Q1007,YPTN,2018-04-02T18:00:00Z,-14.52,132.38,23.0,21.0,0,0,,6.21,29.734253,,,TRUE,,,,,,,,CLR,,,,,,,,VFR,,,,,,,,,,,,METAR,109.0
YPPH 021800Z 07013KT CAVOK 23/15 Q1014 NOSIG,YPPH,2018-04-02T18:00:00Z,-31.93,115.98,23.0,15.0,70,13,,6.21,29.940945,,,,,,TRUE,,,,,CAVOK,,,,,,,,VFR,,,,,,,,,,,,METAR,13.0
YPLM 021800Z AUTO 22004KT 9999 // NCD 26/21 Q1011,YPLM,2018-04-02T18:00:00Z,-22.22,114.07,26.0,21.0,220,4,,6.21,29.852362,,,TRUE,,,,,,,,CLR,,,,,,,,VFR,,,,,,,,,,,,METAR,6.0
YPKU 021800Z AUTO 31001KT 9999 // NCD 25/23 Q1007,YPKU,2018-04-02T18:00:00Z,-15.77,128.68,25.0,23.0,310,1,,6.21,29.734253,,,TRUE,,,,,,,,CLR,,,,,,,,VFR,,,,,,,,,,,,METAR,45.0
YPDN 021800Z 06002KT CAVOK 26/25 Q1007,YPDN,2018-04-02T18:00:00Z,-12.42,130.9,26.0,25.0,60,2,,6.21,29.734253,,,,,,,,,,,CAVOK,,,,,,,,VFR,,,,,,,,,,,,METAR,30.0
YPCC 021800Z AUTO 13014KT 9999 // SCT020 SCT050 27/23 Q1011,YPCC,2018-04-02T18:00:00Z,-12.17,96.82,27.0,23.0,130,14,,6.21,29.852362,,,TRUE,,,,,,,,SCT,2000,SCT,5000,,,,,VFR,,,,,,,,,,,,METAR,3.0
YPAD 021800Z 13006KT 9999 BKN035 17/10 Q1023 NOSIG,YPAD,2018-04-02T18:00:00Z,-34.95,138.52,17.0,10.0,130,6,,6.21,30.206694,,,,,,TRUE,,,,,BKN,3500,,,,,,,VFR,,,,,,,,,,,,METAR,4.0
LFLN 021800Z AUTO 16016KT CAVOK 14/03 Q1003 TEMPO 16020G35KT,LFLN,2018-04-02T18:00:00Z,46.42,4.02,14.0,3.0,160,16,,6.21,29.616142,,,TRUE,,,,,,,,CAVOK,,,,,,,,VFR,,,,,,,,,,,,METAR,244.0
FQBR 021800Z /////KT 9999 FEW018 26/22 Q1012,FQBR,2018-04-02T18:00:00Z,-19.8,34.88,26.0,22.0,,,,6.21,29.88189,,,,,,,,,,,FEW,1800,,,,,,,VFR,,,,,,,,,,,,SPECI,16.0
VEGT 021800Z 00000KT 3000 BR SCT020 BKN100 24/20 Q1010 NOSIG,VEGT,2018-04-02T18:00:00Z,26.1,91.58,24.0,20.0,0,0,,1.86,29.822834,,,,,,TRUE,,,,BR,SCT,2000,BKN,10000,,,,,IFR,,,,,,,,,,,,METAR,54.0
VEGY 021800Z 09008KT 3000 HZ NSC 23/16 Q1010,VEGY,2018-04-02T18:00:00Z,24.75,84.95,23.0,16.0,90,8,,1.86,29.822834,,,,,,,,,,HZ,CLR,,,,,,,,IFR,,,,,,,,,,,,METAR,116.0
SYCJ 021800Z 03004KT 330V100 9000 -RA BKN012 SCT034 BKN080 25/24 Q1010 NOSIG,SYCJ,2018-04-02T18:00:00Z,6.5,-58.25,25.0,24.0,30,4,,5.59,29.822834,,,,,,TRUE,,,,-RA,BKN,1200,SCT,3400,BKN,8000,,,MVFR,,,,,,,,,,,,METAR,30.0
UMGG 021800Z 23006G09MPS 9999 -SHRA OVC018CB 02/00 Q1004 R28/290050 NOSIG,UMGG,2018-04-02T18:00:00Z,52.53,31.02,2.0,0.0,230,12,17,6.21,29.64567,,,,,,TRUE,,,,-SHRA,OVC,1800,,,,,,,MVFR,,,,,,,,,,,,METAR,144.0
LETO 021800Z 23013KT CAVOK 18/01 Q1005 NOSIG,LETO,2018-04-02T18:00:00Z,40.47,-3.47,18.0,1.0,230,13,,6.21,29.675198,,,,,,TRUE,,,,,CAVOK,,,,,,,,VFR,,,,,,,,,,,,METAR,608.0
LELN 021800Z 20015KT 9999 FEW018 SCT040 10/06 Q1002,LELN,2018-04-02T18:00:00Z,42.57,-5.65,10.0,6.0,200,15,,6.21,29.586615,,,,,,,,,,,FEW,1800,SCT,4000,,,,,VFR,,,,,,,,,,,,METAR,914.0
LELC 021800Z 10003KT 030V160 CAVOK 16/11 Q1007 NOSIG,LELC,2018-04-02T18:00:00Z,37.77,-0.8,16.0,11.0,100,3,,6.21,29.734253,,,,,,TRUE,,,,,CAVOK,,,,,,,,VFR,,,,,,,,,,,,METAR,3.0
LEBZ 021800Z 20012KT 170V230 9999 -RA FEW040 17/13 Q1007,LEBZ,2018-04-02T18:00:00Z,38.87,-6.82,17.0,13.0,200,12,,6.21,29.734253,,,,,,,,,,-RA,FEW,4000,,,,,,,VFR,,,,,,,,,,,,METAR,192.0
LEAB 021800Z 27008KT CAVOK 18/02 Q1007 NOSIG,LEAB,2018-04-02T18:00:00Z,38.95,-1.85,18.0,2.0,270,8,,6.21,29.734253,,,,,,TRUE,,,,,CAVOK,,,,,,,,VFR,,,,,,,,,,,,METAR,704.0
LESA 021800Z 22013KT 9999 FEW025 SCT035 12/08 Q1005,LESA,2018-04-02T18:00:00Z,40.95,-5.5,12.0,8.0,220,13,,6.21,29.675198,,,,,,,,,,,FEW,2500,SCT,3500,,,,,VFR,,,,,,,,,,,,METAR,795.0
LFLU 021800Z AUTO 19020KT CAVOK 13/03 Q1008,LFLU,2018-04-02T18:00:00Z,44.92,4.98,13.0,3.0,190,20,,6.21,29.763779,,,TRUE,,,,,,,,CAVOK,,,,,,,,VFR,,,,,,,,,,,,METAR,160.0
MKJS 021800Z 07013KT 9999 FEW022 30/21 Q1013,MKJS,2018-04-02T18:00:00Z,18.5,-77.92,30.0,21.0,70,13,,6.21,29.911417,,,,,,,,,,,FEW,2200,,,,,,,VFR,,,,,,,,,,,,METAR,1.0
LRCT 021800Z 27005KT 9999 SCT060 03/M02 Q1016 BLU BLU,LRCT,2018-04-02T18:00:00Z,46.5,23.88,3.0,-2.0,270,5,,6.21,30.0,,,,,,,,,,,SCT,6000,,,,,,,VFR,,,,,,,,,,,,METAR,331.0
SARI 021800Z 18006KT 9999 BKN030 26/20 Q1012,SARI,2018-04-02T18:00:00Z,-25.72,-54.47,26.0,20.0,180,6,,6.21,29.88189,,,,,,,,,,,BKN,3000,,,,,,,MVFR,,,,,,,,,,,,METAR,270.0
SAZN 021800Z 02010KT CAVOK 29/09 Q1011,SAZN,2018-04-02T18:00:00Z,-38.95,-68.15,29.0,9.0,20,10,,6.21,29.852362,,,,,,,,,,,CAVOK,,,,,,,,VFR,,,,,,,,,,,,METAR,271.0
SAZM 021800Z 11007KT 060V140 9999 FEW023 20/14 Q1017,SAZM,2018-04-02T18:00:00Z,-37.92,-57.57,20.0,14.0,110,7,,6.21,30.029528,,,,,,,,,,,FEW,2300,,,,,,,VFR,,,,,,,,,,,,METAR,21.0
SAWG 021800Z VRB02KT 9999 FEW035 SCT100 18/11 Q0988,SAWG,2018-04-02T18:00:00Z,-51.62,-69.32,18.0,11.0,0,2,,6.21,29.17323,,,,,,,,,,,FEW,3500,SCT,10000,,,,,VFR,,,,,,,,,,,,METAR,19.0
SAWE 021800Z 09002KT 9999 BKN018 BKN060 12/11 Q0987 RESHRA,SAWE,2018-04-02T18:00:00Z,-53.78,-67.75,12.0,11.0,90,2,,6.21,29.143702,,,,,,,,,,,BKN,1800,BKN,6000,,,,,MVFR,,,,,,,,,,,,METAR,22.0
SAVC 021800Z 29019G30KT 9999 FEW040 27/11 Q1002,SAVC,2018-04-02T18:00:00Z,-45.77,-67.47,27.0,11.0,290,19,30,6.21,29.586615,,,,,,,,,,,FEW,4000,,,,,,,VFR,,,,,,,,,,,,METAR,46.0
SASJ 021800Z 05005KT 9999 FEW015 SCT025 BKN100 20/17 Q1017,SASJ,2018-04-02T18:00:00Z,-24.37,-65.1,20.0,17.0,50,5,,6.21,30.029528,,,,,,,,,,,FEW,1500,SCT,2500,BKN,10000,,,VFR,,,,,,,,,,,,METAR,1167.0
SARP 021800Z 20007KT 9999 SCT030 27/18 Q1012,SARP,2018-04-02T18:00:00Z,-27.38,-55.97,27.0,18.0,200,7,,6.21,29.88189,,,,,,,,,,,SCT,3000,,,,,,,VFR,,,,,,,,,,,,METAR,125.0
SARL 021800Z 18008KT 9999 SCT020 SCT200 27/19 Q1012,SARL,2018-04-02T18:00:00Z,-29.67,-57.13,27.0,19.0,180,8,,6.21,29.88189,,,,,,,,,,,SCT,2000,SCT,20000,,,,,VFR,,,,,,,,,,,,METAR,70.0
SARF 021800Z 20006KT 9999 FEW022 BKN200 29/17 Q1012,SARF,2018-04-02T18:00:00Z,-26.22,-58.22,29.0,17.0,200,6,,6.21,29.88189,,,,,,,,,,,FEW,2200,BKN,20000,,,,,VFR,,,,,,,,,,,,METAR,60.0
SARE 021800Z 19007KT 160V230 9999 SCT032 BKN200 26/20 Q1012,SARE,2018-04-02T18:00:00Z,-27.43,-59.03,26.0,20.0,190,7,,6.21,29.88189,,,,,,,,,,,SCT,3200,BKN,20000,,,,,VFR,,,,,,,,,,,,METAR,52.0
SARC 021800Z 20008KT 9999 SCT039TCU BKN200 27/20 Q1012,SARC,2018-04-02T18:00:00Z,-27.43,-58.77,27.0,20.0,200,8,,6.21,29.88189,,,,,,,,,,,SCT,3900,BKN,20000,,,,,VFR,,,,,,,,,,,,METAR,62.0
SANT 021800Z 14004KT 9999 SCT030 25/17 Q1015,SANT,2018-04-02T18:00:00Z,-26.85,-65.08,25.0,17.0,140,4,,6.21,29.970472,,,,,,,,,,,SCT,3000,,,,,,,VFR,,,,,,,,,,,,METAR,450.0
SAME 021800Z 02004KT 9999 FEW045 SCT050 23/14 Q1015,SAME,2018-04-02T18:00:00Z,-32.82,-68.77,23.0,14.0,20,4,,6.21,29.970472,,,,,,,,,,,FEW,4500,SCT,5000,,,,,VFR,,,,,,,,,,,,METAR,704.0
SAEZ 021800Z 16004KT 9999 FEW047 SCT050 25/13 Q1014 NOSIG,SAEZ,2018-04-02T18:00:00Z,-34.82,-58.52,25.0,13.0,160,4,,6.21,29.940945,,,,,,TRUE,,,,,FEW,4700,SCT,5000,,,,,VFR,,,,,,,,,,,,METAR,20.0
SADF 021800Z 09011KT 9999 FEW025TCU SCT025 24/15 Q1015,SADF,2018-04-02T18:00:00Z,-34.45,-58.58,24.0,15.0,90,11,,6.21,29.970472,,,,,,,,,,,FEW,2500,SCT,2500,,,,,VFR,,,,,,,,,,,,METAR,4.0
SACO 021800Z 19003KT 9999 BKN020 20/13 Q1017,SACO,2018-04-02T18:00:00Z,-31.32,-64.22,20.0,13.0,190,3,,6.21,30.029528,,,,,,,,,,,BKN,2000,,,,,,,MVFR,,,,,,,,,,,,METAR,474.0
SABE 021800Z 10010KT 9999 FEW030 SCT060 23/17 Q1015 TEMPO 6000 SHRA FEW035TCU,SABE,2018-04-02T18:00:00Z,-34.57,-58.42,23.0,17.0,100,10,,6.21,29.970472,,,,,,,,,,,FEW,3000,SCT,6000,,,,,VFR,,,,,,,,,,,,METAR,6.0
SAAR 021800Z 11005KT 9999 FEW013 SCT018 OVC100 22/18 Q1015,SAAR,2018-04-02T18:00:00Z,-32.92,-60.77,22.0,18.0,110,5,,6.21,29.970472,,,,,,,,,,,FEW,1300,SCT,1800,OVC,10000,,,VFR,,,,,,,,,,,,METAR,25.0
OIZI 021800Z 22006KT CAVOK 28/03 Q1010,OIZI,2018-04-02T18:00:00Z,27.23,60.72,28.0,3.0,220,6,,6.21,29.822834,,,,,,,,,,,CAVOK,,,,,,,,VFR,,,,,,,,,,,,METAR,591.0
OIZB 021800Z 35008KT CAVOK 19/03 Q1009,OIZB,2018-04-02T18:00:00Z,31.1,61.55,19.0,3.0,350,8,,6.21,29.793306,,,,,,,,,,,CAVOK,,,,,,,,VFR,,,,,,,,,,,,METAR,489.0
OING 021800Z 00000KT CAVOK 08/07 Q1015,OING,2018-04-02T18:00:00Z,36.9,54.4,8.0,7.0,0,0,,6.21,29.970472,,,,,,,,,,,CAVOK,,,,,,,,VFR,,,,,,,,,,,,METAR,155.0
OIZH 021800Z 03006KT CAVOK 20/02 Q1015 A2999,OIZH,2018-04-02T18:00:00Z,29.47,60.92,20.0,2.0,30,6,,6.21,29.970472,,,,,,,,,,,CAVOK,,,,,,,,VFR,,,,,,,,,,,,METAR,1370.0
OIKK 021800Z 00000KT CAVOK 17/M17 Q1017 A3006,OIKK,2018-04-02T18:00:00Z,30.25,56.97,17.0,-17.0,0,0,,6.21,30.029528,,,,,,,,,,,CAVOK,,,,,,,,VFR,,,,,,,,,,,,METAR,1754.0
OITM 021800Z 00000KT CAVOK 13/02 Q1015,OITM,2018-04-02T18:00:00Z,37.35,46.15,13.0,2.0,0,0,,6.21,29.970472,,,,,,,,,,,CAVOK,,,,,,,,VFR,,,,,,,,,,,,METAR,1340.0
OINE 021800Z 00000KT CAVOK 09/09 Q1013,OINE,2018-04-02T18:00:00Z,37.38,55.45,9.0,9.0,0,0,,6.21,29.911417,,,,,,,,,,,CAVOK,,,,,,,,VFR,,,,,,,,,,,,METAR,130.0
OIMQ 021800Z AUTO 10006KT //// // ////// 15/03 Q1015,OIMQ,2018-04-02T18:00:00Z,35.23,58.47,15.0,3.0,100,6,,,29.970472,,,TRUE,,,,,,,,,,,,,,,,,,,,,,,,,,,,METAR,1140.0
OIMD 021800Z AUTO 23008KT //// // ////// 14/03 Q1014,OIMD,2018-04-02T18:00:00Z,34.38,58.63,14.0,3.0,230,8,,,29.940945,,,TRUE,,,,,,,,,,,,,,,,,,,,,,,,,,,,METAR,1100.0
OIMC 021800Z AUTO 00000KT //// // ////// 12/04 Q1018,OIMC,2018-04-02T18:00:00Z,36.5,61.07,12.0,4.0,0,0,,,30.059055,,,TRUE,,,,,,,,,,,,,,,,,,,,,,,,,,,,METAR,288.0
OIBL 021800Z 28006KT 7000 NSC 26/16 Q1009,OIBL,2018-04-02T18:00:00Z,26.53,54.82,26.0,16.0,280,6,,4.35,29.793306,,,,,,,,,,,CLR,,,,,,,,MVFR,,,,,,,,,,,,METAR,14.0
OISY 021800Z 08006KT 9999 FEW040 SCT090 11/M06 Q1021,OISY,2018-04-02T18:00:00Z,30.7,51.55,11.0,-6.0,80,6,,6.21,30.147638,,,,,,,,,,,FEW,4000,SCT,9000,,,,,VFR,,,,,,,,,,,,METAR,1811.0
OISL 021800Z 23004KT CAVOK 21/00 Q1012,OISL,2018-04-02T18:00:00Z,27.67,54.37,21.0,0.0,230,4,,6.21,29.88189,,,,,,,,,,,CAVOK,,,,,,,,VFR,,,,,,,,,,,,METAR,805.0
OINR 021800Z 14004KT 7000 SCT012 FEW020CB SCT025 12/10 Q1012,OINR,2018-04-02T18:00:00Z,36.88,50.67,12.0,10.0,140,4,,4.35,29.88189,,,,,,,,,,,SCT,1200,FEW,2000,SCT,2500,,,MVFR,,,,,,,,,,,,METAR,-20.0
OINN 021800Z 09012KT 9999 BKN020 12/11 Q1013,OINN,2018-04-02T18:00:00Z,36.67,51.47,12.0,11.0,90,12,,6.21,29.911417,,,,,,,,,,,BKN,2000,,,,,,,MVFR,,,,,,,,,,,,METAR,-19.0
OIKQ 021800Z 23014KT 5000 BR NSC 25/21 Q1009,OIKQ,2018-04-02T18:00:00Z,26.75,55.9,25.0,21.0,230,14,,3.11,29.793306,,,,,,,,,,BR,CLR,,,,,,,,MVFR,,,,,,,,,,,,METAR,12.0
OICI 021800Z 17002KT CAVOK 12/M00 Q1019 A3011,OICI,2018-04-02T18:00:00Z,33.58,46.4,12.0,0.0,170,2,,6.21,30.088583,,,,,,,,,,,CAVOK,,,,,,,,VFR,,,,,,,,,,,,METAR,1343.0
OIAM 021800Z 00000KT CAVOK 24/07 Q1011,OIAM,2018-04-02T18:00:00Z,30.55,49.15,24.0,7.0,0,0,,6.21,29.852362,,,,,,,,,,,CAVOK,,,,,,,,VFR,,,,,,,,,,,,METAR,4.0
OISF 021800Z 00000KT CAVOK 15/M05 Q1014,OISF,2018-04-02T18:00:00Z,28.9,53.72,15.0,-5.0,0,0,,6.21,29.940945,,,,,,,,,,,CAVOK,,,,,,,,VFR,,,,,,,,,,,,METAR,1383.0
OICM 021800Z AUTO 29004KT //// // ////// 23/00 Q1014,OICM,2018-04-02T18:00:00Z,,,23.0,0.0,290,4,,,29.940945,,,TRUE,,,,,,,,,,,,,,,,,,,,,,,,,,,,METAR,
OIAH 021800Z 27004KT CAVOK 19/M00 Q1016,OIAH,2018-04-02T18:00:00Z,30.33,50.83,19.0,0.0,270,4,,6.21,30.0,,,,,,,,,,,CAVOK,,,,,,,,VFR,,,,,,,,,,,,METAR,738.0
OIBP 021800Z 28002KT CAVOK 23/17 Q1008 A2978,OIBP,2018-04-02T18:00:00Z,27.38,52.73,23.0,17.0,280,2,,6.21,29.763779,,,,,,,,,,,CAVOK,,,,,,,,VFR,,,,,,,,,,,,METAR,9.0
OIBB 021800Z 36004KT CAVOK 23/15 Q1012 A2990,OIBB,2018-04-02T18:00:00Z,28.97,50.82,23.0,15.0,360,4,,6.21,29.88189,,,,,,,,,,,CAVOK,,,,,,,,VFR,,,,,,,,,,,,METAR,19.0
OIZJ 021800Z 30010KT 5000 HZ NSC 27/19 Q1008,OIZJ,2018-04-02T18:00:00Z,25.65,57.8,27.0,19.0,300,10,,3.11,29.763779,,,,,,,,,,HZ,CLR,,,,,,,,MVFR,,,,,,,,,,,,METAR,4.0
OIMN 021800Z 35004KT CAVOK 10/06 Q1015,OIMN,2018-04-02T18:00:00Z,37.48,57.3,10.0,6.0,350,4,,6.21,29.970472,,,,,,,,,,,CAVOK,,,,,,,,VFR,,,,,,,,,,,,METAR,1074.0
OIMB 021800Z 06004KT 8000 NSC 17/M01 Q1016,OIMB,2018-04-02T18:00:00Z,32.9,59.28,17.0,-1.0,60,4,,4.97,30.0,,,,,,,,,,,CLR,,,,,,,,MVFR,,,,,,,,,,,,METAR,1491.0
OIFS 021800Z 26006KT CAVOK 11/M22 Q1019,OIFS,2018-04-02T18:00:00Z,32.32,50.85,11.0,-22.0,260,6,,6.21,30.088583,,,,,,,,,,,CAVOK,,,,,,,,VFR,,,,,,,,,,,,METAR,2078.0
OITR 021800Z 26008KT CAVOK 11/02 Q1014,OITR,2018-04-02T18:00:00Z,37.67,45.07,11.0,2.0,260,8,,6.21,29.940945,,,,,,,,,,,CAVOK,,,,,,,,VFR,,,,,,,,,,,,METAR,1312.0
OINZ 021800Z 10004KT CAVOK 10/09 Q1013,OINZ,2018-04-02T18:00:00Z,36.63,53.2,10.0,9.0,100,4,,6.21,29.911417,,,,,,,,,,,CAVOK,,,,,,,,VFR,,,,,,,,,,,,METAR,11.0
OIGG 021800Z 00000KT 9999 BKN025 11/09 Q1013,OIGG,2018-04-02T18:00:00Z,37.33,49.6,11.0,9.0,0,0,,6.21,29.911417,,,,,,,,,,,BKN,2500,,,,,,,MVFR,,,,,,,,,,,,METAR,-13.0
OIBK 021800Z 28010KT 8000 NSC 24/19 Q1010,OIBK,2018-04-02T18:00:00Z,26.53,53.98,24.0,19.0,280,10,,4.97,29.822834,,,,,,,,,,,CLR,,,,,,,,MVFR,,,,,,,,,,,,METAR,30.0
OIAA 021800Z 35004KT CAVOK 25/02 Q1012,OIAA,2018-04-02T18:00:00Z,30.37,48.25,25.0,2.0,350,4,,6.21,29.88189,,,,,,,,,,,CAVOK,,,,,,,,VFR,,,,,,,,,,,,METAR,11.0
SBPL 021800Z 16005KT 9999 SCT047 SCT080 33/18 Q1009,SBPL,2018-04-02T18:00:00Z,-9.37,-40.57,33.0,18.0,160,5,,6.21,29.793306,,,,,,,,,,,SCT,4700,SCT,8000,,,,,VFR,,,,,,,,,,,,METAR,375.0
YBDV 021800Z AUTO 17017KT //// // ////// 25/10 Q1012,YBDV,2018-04-02T18:00:00Z,-25.9,139.35,25.0,10.0,170,17,,,29.88189,,,TRUE,,,,,,,,,,,,,,,,,,,,,,,,,,,,METAR,47.0
YBCV 021800Z AUTO 15004KT 9999 // ////// 21/13 Q1013,YBCV,2018-04-02T18:00:00Z,-26.38,146.27,21.0,13.0,150,4,,6.21,29.911417,,,TRUE,,,,,,,,,,,,,,,,,,,,,,,,,,,,METAR,304.0
YBCS 021800Z 18006KT 9999 SCT050 BKN150 25/22 Q1004 NOSIG,YBCS,2018-04-02T18:00:00Z,-16.87,145.75,25.0,22.0,180,6,,6.21,29.64567,,,,,,TRUE,,,,,SCT,5000,BKN,15000,,,,,VFR,,,,,,,,,,,,METAR,7.0
YBCG 021800Z AUTO 19003KT 9999 // NCD 20/19 Q1015 RF00.0/001.6,YBCG,2018-04-02T18:00:00Z,-28.17,153.5,20.0,19.0,190,3,,6.21,29.970472,,,TRUE,,,,,,,,CLR,,,,,,,,VFR,,,,,,,,,,,,SPECI,6.0
YBBN 021800Z 19006KT 9999 FEW030 21/20 Q1014,YBBN,2018-04-02T18:00:00Z,-27.38,153.13,21.0,20.0,190,6,,6.21,29.940945,,,,,,,,,,,FEW,3000,,,,,,,VFR,,,,,,,,,,,,METAR,5.0
YBAS 021800Z AUTO 14006KT 9999 // ////// 20/06 Q1018 RF00.0/000.0,YBAS,2018-04-02T18:00:00Z,-23.8,133.9,20.0,6.0,140,6,,6.21,30.059055,,,TRUE,,,,,,,,,,,,,,,,,,,,,,,,,,,,SPECI,541.0
YAYE 021800Z AUTO 14007KT 9999 // NCD 23/10 Q1019,YAYE,2018-04-02T18:00:00Z,-25.18,130.98,23.0,10.0,140,7,,6.21,30.088583,,,TRUE,,,,,,,,CLR,,,,,,,,VFR,,,,,,,,,,,,SPECI,496.0
YARG 021800Z AUTO 28005KT 9999 // NCD 28/12 Q1009,YARG,2018-04-02T18:00:00Z,-16.63,128.45,28.0,12.0,280,5,,6.21,29.793306,,,TRUE,,,,,,,,CLR,,,,,,,,VFR,,,,,,,,,,,,METAR,165.0
MZBZ 021800Z 15008KT 9999 SCT026 29/21 A2992 Q1013 NOSIG,MZBZ,2018-04-02T18:00:00Z,17.52,-88.3,29.0,21.0,150,8,,6.21,29.911417,,,,,,TRUE,,,,,SCT,2600,,,,,,,VFR,,,,,,,,,,,,METAR,5.0
GQPP 021800Z 34017G27KT 6000 NSC 20/14 Q1011 NOSIG,GQPP,2018-04-02T18:00:00Z,20.92,-17.02,20.0,14.0,340,17,27,3.73,29.852362,,,,,,TRUE,,,,,CLR,,,,,,,,MVFR,,,,,,,,,,,,METAR,3.0
FIMR 021800Z 08006KT 9999 FEW018 26/25 Q1015,FIMR,2018-04-02T18:00:00Z,-19.75,63.37,26.0,25.0,80,6,,6.21,29.970472,,,,,,,,,,,FEW,1800,,,,,,,VFR,,,,,,,,,,,,METAR,31.0
BIEG 021800Z 34007KT 9999 VCSH FEW025 SCT035 M01/M09 Q1016,BIEG,2018-04-02T18:00:00Z,65.27,-14.4,-1.0,-9.0,340,7,,6.21,30.0,,,,,,,,,,VCSH,FEW,2500,SCT,3500,,,,,VFR,,,,,,,,,,,,METAR,38.0
BIAR 021800Z 28004KT 250V310 CAVOK M01/M07 Q1017,BIAR,2018-04-02T18:00:00Z,65.67,-18.07,-1.0,-7.0,280,4,,6.21,30.029528,,,,,,,,,,,CAVOK,,,,,,,,VFR,,,,,,,,,,,,METAR,27.0
LQMO 021800Z 11003KT 080V160 9999 FEW050 12/05 Q1018,LQMO,2018-04-02T18:00:00Z,43.28,17.83,12.0,5.0,110,3,,6.21,30.059055,,,,,,,,,,,FEW,5000,,,,,,,VFR,,,,,,,,,,,,METAR,48.0
SULS 021800Z 18010KT 140V200 9999 2000NE -DZ BKN010 19/18 Q1013 RERA,SULS,2018-04-02T18:00:00Z,-34.87,-55.1,19.0,18.0,180,10,,6.21,29.911417,,,,,,,,,,-DZ,BKN,1000,,,,,,,MVFR,,,,,,,,,,,,METAR,30.0
SUAA 021800Z 18015KT 9999 SCT025 23/17 Q1014,SUAA,2018-04-02T18:00:00Z,-34.77,-56.25,23.0,17.0,180,15,,6.21,29.940945,,,,,,,,,,,SCT,2500,,,,,,,VFR,,,,,,,,,,,,METAR,54.0
SUCA 021800Z 12013KT 9999 FEW020 FEW030 22/18 Q1013,SUCA,2018-04-02T18:00:00Z,-34.45,-57.77,22.0,18.0,120,13,,6.21,29.911417,,,,,,,,,,,FEW,2000,FEW,3000,,,,,VFR,,,,,,,,,,,,METAR,23.0
SUDU 021800Z 13007KT 9999 FEW026 BKN200 26/15 Q1013,SUDU,2018-04-02T18:00:00Z,-33.35,-56.5,26.0,15.0,130,7,,6.21,29.911417,,,,,,,,,,,FEW,2600,BKN,20000,,,,,VFR,,,,,,,,,,,,METAR,93.0
SUSO 021800Z 24006KT 9999 BKN023 SCT200 27/17 Q1012,SUSO,2018-04-02T18:00:00Z,-31.43,-57.98,27.0,17.0,240,6,,6.21,29.88189,,,,,,,,,,,BKN,2300,SCT,20000,,,,,MVFR,,,,,,,,,,,,METAR,34.0
FSIA 021800Z VRB03KT 9999 FEW017 28/25 Q1009 NOSIG,FSIA,2018-04-02T18:00:00Z,-4.67,55.52,28.0,25.0,0,3,,6.21,29.793306,,,,,,TRUE,,,,,FEW,1700,,,,,,,VFR,,,,,,,,,,,,METAR,3.0
OPNH 021800Z 18008KT 5000M HZ NSC 30/18 Q1006 NOSIG,OPNH,2018-04-02T18:00:00Z,26.22,68.37,30.0,18.0,180,8,,3.11,29.704725,,,,,,TRUE,,,,HZ,CLR,,,,,,,,MVFR,,,,,,,,,,,,METAR,38.0
YMOR 021800Z AUTO 06009KT 9999 // NCD 22/16 Q1015,YMOR,2018-04-02T18:00:00Z,-29.5,149.85,22.0,16.0,60,9,,6.21,29.970472,,,TRUE,,,,,,,,CLR,,,,,,,,VFR,,,,,,,,,,,,METAR,214.0
YMML 021800Z 22009KT 9999 FEW015 BKN030 14/11 Q1021,YMML,2018-04-02T18:00:00Z,-37.67,144.82,14.0,11.0,220,9,,6.21,30.147638,,,,,,,,,,,FEW,1500,BKN,3000,,,,,MVFR,,,,,,,,,,,,METAR,141.0
YMIA 021800Z AUTO 17007KT 9999 // NCD 13/08 Q1021,YMIA,2018-04-02T18:00:00Z,-34.23,142.08,13.0,8.0,170,7,,6.21,30.147638,,,TRUE,,,,,,,,CLR,,,,,,,,VFR,,,,,,,,,,,,METAR,51.0
YMER 021800Z AUTO 00000KT 9999 // OVC043 16/12 Q1020,YMER,2018-04-02T18:00:00Z,-36.92,149.9,16.0,12.0,0,0,,6.21,30.11811,,,TRUE,,,,,,,,OVC,4300,,,,,,,VFR,,,,,,,,,,,,METAR,2.0
YMEN 021800Z AUTO 24011KT 9999 // OVC031 15/13 Q1021,YMEN,2018-04-02T18:00:00Z,-37.72,144.9,15.0,13.0,240,11,,6.21,30.147638,,,TRUE,,,,,,,,OVC,3100,,,,,,,VFR,,,,,,,,,,,,METAR,86.0
YMEK 021800Z AUTO 11014KT 9999 // SCT110 20/16 Q1019,YMEK,2018-04-02T18:00:00Z,-26.62,118.55,20.0,16.0,110,14,,6.21,30.088583,,,TRUE,,,,,,,,SCT,11000,,,,,,,VFR,,,,,,,,,,,,METAR,522.0
YMDG 021800Z AUTO 15003KT 9999 // NCD 17/16 Q1018,YMDG,2018-04-02T18:00:00Z,-32.57,149.62,17.0,16.0,150,3,,6.21,30.059055,,,TRUE,,,,,,,,CLR,,,,,,,,VFR,,,,,,,,,,,,METAR,471.0
YMAY 021800Z AUTO 31003KT 9999 // NCD 12/08 Q1018,YMAY,2018-04-02T18:00:00Z,-36.07,146.93,12.0,8.0,310,3,,6.21,30.059055,,,TRUE,,,,,,,,CLR,,,,,,,,VFR,,,,,,,,,,,,METAR,171.0
YMAV 021800Z AUTO 31006KT //// // BKN037 12/12 Q1021 RF00.0/000.0 PRESENT WEATHER SENSOR US,YMAV,2018-04-02T18:00:00Z,-38.03,144.48,12.0,12.0,310,6,,,30.147638,,,TRUE,,,,,,,,BKN,3700,,,,,,,,,,,,,,,,,,,SPECI,8.0
YLRE 021800Z AUTO 13006KT 9999 // NCD 23/17 Q1010,YLRE,2018-04-02T18:00:00Z,-23.43,144.28,23.0,17.0,130,6,,6.21,29.822834,,,TRUE,,,,,,,,CLR,,,,,,,,VFR,,,,,,,,,,,,METAR,193.0
TLPL 021800Z 11013KT 9999 FEW028 30/22 Q1012 NOSIG,TLPL,2018-04-02T18:00:00Z,13.75,-60.95,30.0,22.0,110,13,,6.21,29.88189,,,,,,TRUE,,,,,FEW,2800,,,,,,,VFR,,,,,,,,,,,,METAR,3.0
WSAP 021800Z 02003KT 9999 FEW018 BKN300 28/25 Q1010,WSAP,2018-04-02T18:00:00Z,1.37,103.92,28.0,25.0,20,3,,6.21,29.822834,,,,,,,,,,,FEW,1800,BKN,30000,,,,,VFR,,,,,,,,,,,,METAR,32.0
FQQL 021800Z 11004KT 9999 FEW020 26/23 Q1011,FQQL,2018-04-02T18:00:00Z,-17.87,36.87,26.0,23.0,110,4,,6.21,29.852362,,,,,,,,,,,FEW,2000,,,,,,,VFR,,,,,,,,,,,,METAR,16.0
WSSL 021800Z 02006KT 9999 FEW018 BKN300 27/24 Q1010 RMK 1430Z Q1010,WSSL,2018-04-02T18:00:00Z,1.42,103.87,27.0,24.0,20,6,,6.21,29.822834,,,,,,,,,,,FEW,1800,BKN,30000,,,,,VFR,,,,,,,,,,,,METAR,14.0
SAZS 021800Z 30009KT CAVOK 20/06 Q1014,SAZS,2018-04-02T18:00:00Z,-41.13,-71.17,20.0,6.0,300,9,,6.21,29.940945,,,,,,,,,,,CAVOK,,,,,,,,VFR,,,,,,,,,,,,METAR,840.0
VOBG 021800Z VRB01KT 6000 FEW015 21/16 Q1015,VOBG,2018-04-02T18:00:00Z,12.95,77.63,21.0,16.0,0,1,,3.73,29.970472,,,,,,,,,,,FEW,1500,,,,,,,MVFR,,,,,,,,,,,,METAR,897.0
FWKI 021800Z 12008KT 9999 TS FEW020CB SCT080 19/18 Q1016 NOSIG,FWKI,2018-04-02T18:00:00Z,-13.77,33.77,19.0,18.0,120,8,,6.21,30.0,,,,,,TRUE,,,,TS,FEW,2000,SCT,8000,,,,,VFR,,,,,,,,,,,,METAR,1229.0
VOMD 021800Z 17003KT 5000 HZ FEW018 SCT090 30/23 Q1012 NOSIG,VOMD,2018-04-02T18:00:00Z,9.82,78.07,30.0,23.0,170,3,,3.11,29.88189,,,,,,TRUE,,,,HZ,FEW,1800,SCT,9000,,,,,MVFR,,,,,,,,,,,,METAR,131.0
VOGO 021800Z 32006KT 6000 FEW018 28/23 Q1010 NOSIG,VOGO,2018-04-02T18:00:00Z,15.38,73.83,28.0,23.0,320,6,,3.73,29.822834,,,,,,TRUE,,,,,FEW,1800,,,,,,,MVFR,,,,,,,,,,,,METAR,52.0
VOGO 021800Z 32006KT 6000 FEW018 28/23 Q1010 NOSIG,VOGO,2018-04-02T18:00:00Z,15.38,73.83,28.0,23.0,320,6,,3.73,29.822834,,,,,,TRUE,,,,,FEW,1800,,,,,,,MVFR,,,,,,,,,,,,METAR,52.0
KSTJ 021800Z 14010KT 10SM OVC009 M02/M03 A2988 RMK AO2 T10171033,KSTJ,2018-04-02T18:00:00Z,39.77,-94.92,-1.7,-3.3,140,10,,10.0,29.878937,,,,TRUE,,,,,,,OVC,900,,,,,,,IFR,,,,,,,,,,,,SPECI,247.0
KLVM 021800Z AUTO 33023G27KT 1/4SM +SN FZFG BKN006 OVC010 M06/M07 A2958 RMK AO2 PK WND 33027/1755 WSHFT 1740 P0000 T10611072 $,KLVM,2018-04-02T18:00:00Z,45.7,-110.43,-6.1,-7.2,330,23,27,0.25,29.58071,,,TRUE,TRUE,TRUE,,,,,+SN FZFG,BKN,600,OVC,1000,,,,,LIFR,,,,,,0.005,,,,,,SPECI,1418.0
KFUL 021800Z VRB03KT 10SM BKN035 18/09 A2989 RMK AO2 T01830094,KFUL,2018-04-02T18:00:00Z,33.87,-117.98,18.3,9.4,0,3,,10.0,29.890747,,,,TRUE,,,,,,,BKN,3500,,,,,,,VFR,,,,,,,,,,,,SPECI,35.0
KFCM 021800Z 18011KT 1/2SM SN FZFG FEW007 OVC013 M02/M04 A2993 RMK AO2 P0000 T10171039,KFCM,2018-04-02T18:00:00Z,44.83,-93.47,-1.7,-3.9,180,11,,0.5,29.929134,,,,TRUE,,,,,,SN FZFG,FEW,700,OVC,1300,,,,,LIFR,,,,,,0.005,,,,,,SPECI,280.0
KDTS 021800Z 15007KT 10SM BKN020 BKN026 24/19 A3005 RMK AO2 T02390194 $,KDTS,2018-04-02T18:00:00Z,30.4,-86.47,23.9,19.4,150,7,,10.0,30.050198,,,,TRUE,TRUE,,,,,,BKN,2000,BKN,2600,,,,,MVFR,,,,,,,,,,,,SPECI,5.0
KCHO 021800Z 07006KT 10SM OVC041 12/05 A3006 RMK AO2 T01170050,KCHO,2018-04-02T18:00:00Z,38.13,-78.45,11.7,5.0,70,6,,10.0,30.059055,,,,TRUE,,,,,,,OVC,4100,,,,,,,VFR,,,,,,,,,,,,SPECI,192.0
SBSN 021800Z 26007KT 9999 FEW017 FEW023TCU SCT100 27/24 Q1008,SBSN,2018-04-02T18:00:00Z,-2.42,-54.78,27.0,24.0,260,7,,6.21,29.763779,,,,,,,,,,,FEW,1700,FEW,2300,SCT,10000,,,VFR,,,,,,,,,,,,METAR,72.0
UTAT 021800Z 04006KT CAVOK 11/04 Q1019 R08/CLRD70 NOSIG,UTAT,2018-04-02T18:00:00Z,41.77,59.83,11.0,4.0,40,6,,6.21,30.088583,,,,,,TRUE,,,,,CAVOK,,,,,,,,VFR,,,,,,,,,,,,METAR,83.0
UTAM 021800Z 01004KT 6000 BKN230 12/00 Q1019 NOSIG,UTAM,2018-04-02T18:00:00Z,37.62,61.9,12.0,0.0,10,4,,3.73,30.088583,,,,,,TRUE,,,,,BKN,23000,,,,,,,MVFR,,,,,,,,,,,,METAR,222.0
UTAK 021800Z 31002KT CAVOK 08/06 Q1015 R16R/CLRD70 NOSIG,UTAK,2018-04-02T18:00:00Z,40.05,53.0,8.0,6.0,310,2,,6.21,29.970472,,,,,,TRUE,,,,,CAVOK,,,,,,,,VFR,,,,,,,,,,,,METAR,85.0
UTAA 021800Z 06004KT 040V110 9999 BKN230 13/06 Q1016 R88/CLRD70 NOSIG,UTAA,2018-04-02T18:00:00Z,37.98,58.37,13.0,6.0,60,4,,6.21,30.0,,,,,,TRUE,,,,,BKN,23000,,,,,,,VFR,,,,,,,,,,,,METAR,210.0
SUMU 021800Z 17014KT 9999 BKN015 22/18 Q1014 NOSIG,SUMU,2018-04-02T18:00:00Z,-34.82,-56.0,22.0,18.0,170,14,,6.21,29.940945,,,,,,TRUE,,,,,BKN,1500,,,,,,,MVFR,,,,,,,,,,,,METAR,32.0
SBCT 021800Z 31013KT 9999 BKN033 26/18 Q1012,SBCT,2018-04-02T18:00:00Z,-25.52,-49.17,26.0,18.0,310,13,,6.21,29.88189,,,,,,,,,,,BKN,3300,,,,,,,VFR,,,,,,,,,,,,METAR,908.0
GMME 021800Z 31006KT 280V350 6000 FEW016 SCT020 17/12 Q1011 NOSIG,GMME,2018-04-02T18:00:00Z,34.03,-6.77,17.0,12.0,310,6,,3.73,29.852362,,,,,,TRUE,,,,,FEW,1600,SCT,2000,,,,,MVFR,,,,,,,,,,,,METAR,75.0
SAWH 021800Z 29004KT 7000 RA BKN010 BKN028 09/08 Q0988,SAWH,2018-04-02T18:00:00Z,-54.85,-68.3,9.0,8.0,290,4,,4.35,29.17323,,,,,,,,,,RA,BKN,1000,BKN,2800,,,,,MVFR,,,,,,,,,,,,METAR,14.0
GMTN 021800Z 29011KT 9999 SCT030 SCT100 18/10 Q1009 NOSIG,GMTN,2018-04-02T18:00:00Z,35.57,-5.32,18.0,10.0,290,11,,6.21,29.793306,,,,,,TRUE,,,,,SCT,3000,SCT,10000,,,,,VFR,,,,,,,,,,,,METAR,10.0
GMTA 021800Z 32004KT CAVOK 17/13 Q1009 NOSIG,GMTA,2018-04-02T18:00:00Z,35.17,-3.85,17.0,13.0,320,4,,6.21,29.793306,,,,,,TRUE,,,,,CAVOK,,,,,,,,VFR,,,,,,,,,,,,METAR,14.0
GMMZ 021800Z 15012KT 8000 SCT040 23/M05 Q1009 NOSIG,GMMZ,2018-04-02T18:00:00Z,30.92,-6.9,23.0,-5.0,150,12,,4.97,29.793306,,,,,,TRUE,,,,,SCT,4000,,,,,,,MVFR,,,,,,,,,,,,METAR,1140.0
GMMW 021800Z VRB02KT 8000 FEW023 SCT100 BKN200 15/09 Q1010 NOSIG,GMMW,2018-04-02T18:00:00Z,34.98,-3.02,15.0,9.0,0,2,,4.97,29.822834,,,,,,TRUE,,,,,FEW,2300,SCT,10000,BKN,20000,,,MVFR,,,,,,,,,,,,METAR,175.0
GMML 021800Z 35011KT CAVOK 20/13 Q1012 NOSIG,GMML,2018-04-02T18:00:00Z,27.13,-13.23,20.0,13.0,350,11,,6.21,29.88189,,,,,,TRUE,,,,,CAVOK,,,,,,,,VFR,,,,,,,,,,,,METAR,6.0
GMMI 021800Z 28005KT 8000 FEW020 19/12 Q1011 NOSIG,GMMI,2018-04-02T18:00:00Z,31.4,-9.68,19.0,12.0,280,5,,4.97,29.852362,,,,,,TRUE,,,,,FEW,2000,,,,,,,MVFR,,,,,,,,,,,,METAR,8.0
GMMH 021800Z 01012KT CAVOK 20/14 Q1011 NOSIG,GMMH,2018-04-02T18:00:00Z,23.72,-15.93,20.0,14.0,10,12,,6.21,29.852362,,,,,,TRUE,,,,,CAVOK,,,,,,,,VFR,,,,,,,,,,,,METAR,11.0
GMMD 021800Z 20008KT 9999 SCT023 18/11 Q1011 NOSIG,GMMD,2018-04-02T18:00:00Z,32.4,-6.32,18.0,11.0,200,8,,6.21,29.852362,,,,,,TRUE,,,,,SCT,2300,,,,,,,VFR,,,,,,,,,,,,METAR,509.0
GMMC 021800Z 32009KT 9999 FEW016 18/13 Q1011 NOSIG,GMMC,2018-04-02T18:00:00Z,33.57,-7.67,18.0,13.0,320,9,,6.21,29.852362,,,,,,TRUE,,,,,FEW,1600,,,,,,,VFR,,,,,,,,,,,,METAR,62.0
GMMB 021800Z 30007KT 6000 FEW013 SCT016 17/12 Q1012 NOSIG,GMMB,2018-04-02T18:00:00Z,33.65,-7.22,17.0,12.0,300,7,,3.73,29.88189,,,,,,TRUE,,,,,FEW,1300,SCT,1600,,,,,MVFR,,,,,,,,,,,,METAR,191.0
GMFO 021800Z 33012KT 9999 FEW006 SCT026 14/12 Q1009 NOSIG,GMFO,2018-04-02T18:00:00Z,34.77,-1.92,14.0,12.0,330,12,,6.21,29.793306,,,,,,TRUE,,,,,FEW,600,SCT,2600,,,,,VFR,,,,,,,,,,,,METAR,470.0
GMFM 021800Z 31004KT 6000 BKN020 FEW030CB 16/13 Q1011 NOSIG,GMFM,2018-04-02T18:00:00Z,33.87,-5.52,16.0,13.0,310,4,,3.73,29.852362,,,,,,TRUE,,,,,BKN,2000,FEW,3000,,,,,MVFR,,,,,,,,,,,,METAR,549.0
GMFK 021800Z 20014KT 9999 SCT030 SCT200 25/M09 Q1009 NOSIG,GMFK,2018-04-02T18:00:00Z,31.95,-4.4,25.0,-9.0,200,14,,6.21,29.793306,,,,,,TRUE,,,,,SCT,3000,SCT,20000,,,,,VFR,,,,,,,,,,,,METAR,1045.0
GMAT 021800Z 32010KT CAVOK 18/11 Q1011 NOSIG,GMAT,2018-04-02T18:00:00Z,28.43,-11.15,18.0,11.0,320,10,,6.21,29.852362,,,,,,TRUE,,,,,CAVOK,,,,,,,,VFR,,,,,,,,,,,,METAR,200.0
GMAG 021800Z 34014KT 9999 FEW016 18/09 Q1010 NOSIG,GMAG,2018-04-02T18:00:00Z,29.03,-10.05,18.0,9.0,340,14,,6.21,29.822834,,,,,,TRUE,,,,,FEW,1600,,,,,,,VFR,,,,,,,,,,,,METAR,333.0
OMSJ 021800Z 27007KT CAVOK 26/18 Q1012,OMSJ,2018-04-02T18:00:00Z,25.32,55.52,26.0,18.0,270,7,,6.21,29.88189,,,,,,,,,,,CAVOK,,,,,,,,VFR,,,,,,,,,,,,METAR,33.0
OMRK 021800Z 03003KT CAVOK 25/19 Q1012 A2990,OMRK,2018-04-02T18:00:00Z,25.62,55.92,25.0,19.0,30,3,,6.21,29.88189,,,,,,,,,,,CAVOK,,,,,,,,VFR,,,,,,,,,,,,METAR,31.0
OMFJ 021800Z 29018KT 8000 NSC 29/07 Q1010 RMK A2985,OMFJ,2018-04-02T18:00:00Z,25.1,56.32,29.0,7.0,290,18,,4.97,29.822834,,,,,,,,,,,CLR,,,,,,,,MVFR,,,,,,,,,,,,SPECI,28.0
OMDW 021800Z 26005KT CAVOK 25/19 Q1013 NOSIG,OMDW,2018-04-02T18:00:00Z,24.9,55.17,25.0,19.0,260,5,,6.21,29.911417,,,,,,TRUE,,,,,CAVOK,,,,,,,,VFR,,,,,,,,,,,,METAR,25.0
OMDB 021800Z 27005KT 240V310 CAVOK 26/18 Q1012 NOSIG,OMDB,2018-04-02T18:00:00Z,25.25,55.37,26.0,18.0,270,5,,6.21,29.88189,,,,,,TRUE,,,,,CAVOK,,,,,,,,VFR,,,,,,,,,,,,METAR,5.0
OMAL 021800Z 30004KT CAVOK 26/09 Q1013 NOSIG,OMAL,2018-04-02T18:00:00Z,24.25,55.6,26.0,9.0,300,4,,6.21,29.911417,,,,,,TRUE,,,,,CAVOK,,,,,,,,VFR,,,,,,,,,,,,METAR,262.0
OMAD 021800Z 30005KT CAVOK 26/17 Q1012 NOSIG,OMAD,2018-04-02T18:00:00Z,24.42,54.47,26.0,17.0,300,5,,6.21,29.88189,,,,,,TRUE,,,,,CAVOK,,,,,,,,VFR,,,,,,,,,,,,METAR,3.0
OMAA 021800Z 28006KT CAVOK 26/19 Q1011 NOSIG,OMAA,2018-04-02T18:00:00Z,24.42,54.63,26.0,19.0,280,6,,6.21,29.852362,,,,,,TRUE,,,,,CAVOK,,,,,,,,VFR,,,,,,,,,,,,METAR,27.0
PLCH 021800Z 11007KT 9999 SCT020 28/24 Q1010,PLCH,2018-04-02T18:00:00Z,1.98,-157.35,28.0,24.0,110,7,,6.21,29.822834,,,,,,,,,,,SCT,2000,,,,,,,VFR,,,,,,,,,,,,METAR,3.0
SBCZ 021800Z 07002KT 9999 SCT030TCU 29/24 Q1009,SBCZ,2018-04-02T18:00:00Z,-7.62,-72.77,29.0,24.0,70,2,,6.21,29.793306,,,,,,,,,,,SCT,3000,,,,,,,VFR,,,,,,,,,,,,METAR,170.0
TBPB 021800Z 10014KT 9999 FEW022 29/23 Q1012 NOSIG,TBPB,2018-04-02T18:00:00Z,13.07,-59.48,29.0,23.0,100,14,,6.21,29.88189,,,,,,TRUE,,,,,FEW,2200,,,,,,,VFR,,,,,,,,,,,,METAR,52.0
SBGR 021800Z 24006KT 9999 BKN030 25/21 Q1012,SBGR,2018-04-02T18:00:00Z,-23.42,-46.47,25.0,21.0,240,6,,6.21,29.88189,,,,,,,,,,,BKN,3000,,,,,,,MVFR,,,,,,,,,,,,METAR,750.0
SBPK 021800Z 19005KT 9999 FEW025 FEW030TCU 25/20 Q1010,SBPK,2018-04-02T18:00:00Z,-31.72,-52.33,25.0,20.0,190,5,,6.21,29.822834,,,,,,,,,,,FEW,2500,FEW,3000,,,,,VFR,,,,,,,,,,,,METAR,13.0
SBPB 021800Z 08007KT 9000 -RA SCT017 OVC090 25/25 Q1007,SBPB,2018-04-02T18:00:00Z,-2.92,-41.75,25.0,25.0,80,7,,5.59,29.734253,,,,,,,,,,-RA,SCT,1700,OVC,9000,,,,,VFR,,,,,,,,,,,,METAR,5.0
CYOA 021800Z 33007KT 12SM SCT240 M26/M28 A3009 RMK CS3,CYOA,2018-04-02T18:00:00Z,64.7,-110.62,-26.0,-28.0,330,7,,12.0,30.088583,,,,,,,,,,,SCT,24000,,,,,,,VFR,,,,,,,,,,,,METAR,469.0
TUPJ 021800Z 10004KT 9999SM FEW021 30/18 A2994 RMK Q1013,TUPJ,2018-04-02T18:00:00Z,18.43,-64.52,30.0,18.0,100,4,,99.0,29.940945,,,,,,,,,,,FEW,2100,,,,,,,VFR,,,,,,,,,,,,METAR,4.0
SBUG 021800Z 18007KT 130V220 9999 BKN037 27/18 Q1012,SBUG,2018-04-02T18:00:00Z,-29.77,-57.02,27.0,18.0,180,7,,6.21,29.88189,,,,,,,,,,,BKN,3700,,,,,,,VFR,,,,,,,,,,,,METAR,74.0
SBBR 021800Z 12008KT 9999 SCT023 FEW035TCU BKN100 24/18 Q1016,SBBR,2018-04-02T18:00:00Z,-15.87,-47.92,24.0,18.0,120,8,,6.21,30.0,,,,,,,,,,,SCT,2300,FEW,3500,BKN,10000,,,VFR,,,,,,,,,,,,METAR,1061.0
SVBM 021800Z 11006KT 9999 FEW016 29/17 Q1013,SVBM,2018-04-02T18:00:00Z,10.05,-69.37,29.0,17.0,110,6,,6.21,29.911417,,,,,,,,,,,FEW,1600,,,,,,,VFR,,,,,,,,,,,,METAR,614.0
OPPS 021800Z 31006KT 3000 HZ SCT040 SCT100 24/13 Q1011,OPPS,2018-04-02T18:00:00Z,34.02,71.52,24.0,13.0,310,6,,1.86,29.852362,,,,,,,,,,HZ,SCT,4000,SCT,10000,,,,,IFR,,,,,,,,,,,,METAR,360.0
SBNF 021800Z 26013KT 9999 FEW020 32/20 Q1005,SBNF,2018-04-02T18:00:00Z,-26.88,-48.65,32.0,20.0,260,13,,6.21,29.675198,,,,,,,,,,,FEW,2000,,,,,,,VFR,,,,,,,,,,,,METAR,5.0
LBPL 021800Z 31008KT 9999 SKC 09/M00 Q1017,LBPL,2018-04-02T18:00:00Z,43.45,24.5,9.0,0.0,310,8,,6.21,30.029528,,,,,,,,,,,SKC,,,,,,,,VFR,,,,,,,,,,,,METAR,101.0
LBIA 021800Z 33010KT 9999 FEW060 12/01 Q1016,LBIA,2018-04-02T18:00:00Z,42.45,26.35,12.0,1.0,330,10,,6.21,30.0,,,,,,,,,,,FEW,6000,,,,,,,VFR,,,,,,,,,,,,METAR,155.0
LBPG 021800Z 30008KT 9999 SCT050 10/M00 Q1016,LBPG,2018-04-02T18:00:00Z,42.28,24.72,10.0,0.0,300,8,,6.21,30.0,,,,,,,,,,,SCT,5000,,,,,,,VFR,,,,,,,,,,,,METAR,58.0
CYIN 021800Z AUTO 31012G18KT 280V340 9SM CLR M05/M16 A2985 RMK SLP158,CYIN,2018-04-02T18:00:00Z,51.27,-121.68,-5.0,-16.0,310,12,18,9.0,29.84941,1015.8,,TRUE,,,,,,,,CLR,,,,,,,,VFR,,,,,,,,,,,,METAR,1128.0
CYGE 021800Z VRB08KT 20SM FEW060 SCT190 BKN250 01/M17 A2984 RMK CU2AC1CI2 SLP136,CYGE,2018-04-02T18:00:00Z,51.3,-116.98,1.0,-17.0,0,8,,20.0,29.840551,1013.6,,,,,,,,,,FEW,6000,SCT,19000,BKN,25000,,,VFR,,,,,,,,,,,,SPECI,785.0
CYDL 021800Z AUTO 35006KT 300V050 9SM CLR M04/M16 A2986 RMK SLP148,CYDL,2018-04-02T18:00:00Z,58.42,-130.02,-4.0,-16.0,350,6,,9.0,29.861221,1014.8,,TRUE,,,,,,,,CLR,,,,,,,,VFR,,,,,,,,,,,,METAR,816.0
CYDA 021800Z 35005KT 300V060 20SM FEW110 FEW120 M05/M17 A3040 RMK AC1AC1 AC TR AC TR SLP326,CYDA,2018-04-02T18:00:00Z,64.03,-139.12,-5.0,-17.0,350,5,,20.0,30.398623,1032.6,,,,,,,,,,FEW,11000,FEW,12000,,,,,VFR,,,,,,,,,,,,SPECI,369.0
CYCD 021800Z 30010G17KT 260V360 30SM FEW050 08/M04 A3002 RMK CU1 SLP167,CYCD,2018-04-02T18:00:00Z,49.05,-123.87,8.0,-4.0,300,10,17,30.0,30.02067,1016.7,,,,,,,,,,FEW,5000,,,,,,,VFR,,,,,,,,,,,,SPECI,30.0
CYBD 021800Z 00000KT 15SM FEW065 SCT150 BKN220 03/M09 A3002 RMK CU1AC4CI2 CU TR SLP169,CYBD,2018-04-02T18:00:00Z,52.37,-126.57,3.0,-9.0,0,0,,15.0,30.02067,1016.9,,,,,,,,,,FEW,6500,SCT,15000,BKN,22000,,,VFR,,,,,,,,,,,,SPECI,35.0
CBBC 021800Z AUTO 11004KT 9SM OVC055 03/M03 A2999 RMK SLP160,CBBC,2018-04-02T18:00:00Z,52.18,-128.15,3.0,-3.0,110,4,,9.0,29.991142,1016.0,,TRUE,,,,,,,,OVC,5500,,,,,,,VFR,,,,,,,,,,,,METAR,43.0
CZVL 021800Z AUTO 32005KT 9SM CLR M07/M17 A2998 RMK SLP204,CZVL,2018-04-02T18:00:00Z,53.67,-113.85,-7.0,-17.0,320,5,,9.0,29.97933,1020.4,,TRUE,,,,,,,,CLR,,,,,,,,VFR,,,,,,,,,,,,METAR,686.0
CYYN 021800Z AUTO 05007KT 9SM CLR M09/M15 A2989 RMK SLP178,CYYN,2018-04-02T18:00:00Z,50.27,-107.67,-9.0,-15.0,50,7,,9.0,29.890747,1017.8,,TRUE,,,,,,,,CLR,,,,,,,,VFR,,,,,,,,,,,,SPECI,818.0
CYYL 021800Z AUTO 28006KT 270V340 9SM CLR M18/M27 A3005 RMK SLP224,CYYL,2018-04-02T18:00:00Z,56.87,-101.07,-18.0,-27.0,280,6,,9.0,30.050198,1022.4,,TRUE,,,,,,,,CLR,,,,,,,,VFR,,,,,,,,,,,,SPECI,357.0
CYMA 021800Z 05009G18KT 010V080 20SM FEW040 FEW070 SCT120 M07/M20 A3032 RMK CU1AC1AS1 CLIMAT -7.1/-13.8/0.0 SOG 20 SLP311,CYMA,2018-04-02T18:00:00Z,63.62,-135.87,-7.0,-20.0,50,9,18,20.0,30.318897,1031.1,,,,,,,,,,FEW,4000,FEW,7000,SCT,12000,,,VFR,,,,,,,,,,,,SPECI,504.0
CYLW 021800Z AUTO 01005KT 300V040 9SM FEW046 04/M08 A2991 RMK SLP143,CYLW,2018-04-02T18:00:00Z,49.95,-119.37,4.0,-8.0,10,5,,9.0,29.911417,1014.3,,TRUE,,,,,,,,FEW,4600,,,,,,,VFR,,,,,,,,,,,,SPECI,430.0
CYKA 021800Z 29014G20KT 40SM FEW065 BKN076 BKN270 03/M10 A2997 RMK SC1AC4CI2 SLP167,CYKA,2018-04-02T18:00:00Z,50.7,-120.45,3.0,-10.0,290,14,20,40.0,29.970472,1016.7,,,,,,,,,,FEW,6500,BKN,7600,BKN,27000,,,VFR,,,,,,,,,,,,SPECI,346.0
CYXT 021800Z 00000KT 15SM FEW060 SCT080 OVC100 M01/M06 A2995 RMK SC2AC2AC4 SLP153,CYXT,2018-04-02T18:00:00Z,54.47,-128.57,-1.0,-6.0,0,0,,15.0,29.949802,1015.3,,,,,,,,,,FEW,6000,SCT,8000,OVC,10000,,,VFR,,,,,,,,,,,,SPECI,217.0
CYWL 021800Z VRB02KT 15SM FEW010 FEW130 M06/M15 A2987 RMK SF1AC1 SF TR AC TR SLP166,CYWL,2018-04-02T18:00:00Z,52.18,-122.07,-6.0,-15.0,0,2,,15.0,29.870079,1016.6,,,,,,,,,,FEW,1000,FEW,13000,,,,,VFR,,,,,,,,,,,,SPECI,940.0
CYQU 021800Z 20002KT 25SM FEW120 M13/M19 A3009 RMK AC2 SLP253,CYQU,2018-04-02T18:00:00Z,55.18,-118.88,-13.0,-19.0,200,2,,25.0,30.088583,1025.3,,,,,,,,,,FEW,12000,,,,,,,VFR,,,,,,,,,,,,SPECI,669.0
CYQH 021800Z 08014G21KT 15SM -SN SCT037 BKN058 OVC075 M06/M14 A3007 RMK SC3SC3AC2 CLIMAT -6.0/-8.0/TRCM/TRMM MWE/44068 SLP230,CYQH,2018-04-02T18:00:00Z,60.12,-128.82,-6.0,-14.0,80,14,21,15.0,30.070866,1023.0,,,,,,,,,-SN,SCT,3700,BKN,5800,OVC,7500,,,VFR,,,,,,,,,,,,SPECI,690.0
CYPW 021800Z 28009G15KT 30SM FEW032 FEW250 06/M03 A3000 RMK CU1CI1 CU TR CI TR SLP164,CYPW,2018-04-02T18:00:00Z,49.82,-124.5,6.0,-3.0,280,9,15,30.0,30.0,1016.4,,,,,,,,,,FEW,3200,FEW,25000,,,,,VFR,,,,,,,,,,,,SPECI,130.0
CYFO 021800Z 30008KT 15SM FEW250 M15/M28 A3009 RMK CI1 SLP227,CYFO,2018-04-02T18:00:00Z,54.67,-101.67,-15.0,-28.0,300,8,,15.0,30.088583,1022.7,,,,,,,,,,FEW,25000,,,,,,,VFR,,,,,,,,,,,,SPECI,304.0
CYEV 021800Z 30012G19KT 10SM DRSN BKN017 M16/M20 A3062 RMK SC7 SLP379,CYEV,2018-04-02T18:00:00Z,68.32,-133.5,-16.0,-20.0,300,12,19,10.0,30.620079,1037.9,,,,,,,,,DRSN,BKN,1700,,,,,,,MVFR,,,,,,,,,,,,SPECI,68.0
CYDQ 021800Z AUTO 01003KT 290V020 9SM FEW055 M11/M17 A3011 RMK SLP258,CYDQ,2018-04-02T18:00:00Z,55.75,-120.17,-11.0,-17.0,10,3,,9.0,30.109253,1025.8,,TRUE,,,,,,,,FEW,5500,,,,,,,VFR,,,,,,,,,,,,SPECI,655.0
CYDC 021800Z 00000KT 20SM FEW052 SCT058 BKN096 01/M09 A2992 RMK CU2SC2AC2 SLP154,CYDC,2018-04-02T18:00:00Z,49.47,-120.52,1.0,-9.0,0,0,,20.0,29.920275,1015.4,,,,,,,,,,FEW,5200,SCT,5800,BKN,9600,,,VFR,,,,,,,,,,,,SPECI,700.0
CYDB 021800Z 31016KT 10SM -SN DRSN FEW020 SCT035 BKN050 OVC080 M08/M11 A3024 RMK SF1SC2SC2AS3 PCPN VRY LGT SLP301,CYDB,2018-04-02T18:00:00Z,61.37,-139.05,-8.0,-11.0,310,16,,10.0,30.239174,1030.1,,,,,,,,,-SN DRSN,FEW,2000,SCT,3500,BKN,5000,OVC,8000,VFR,,,,,,,,,,,,SPECI,801.0
CYCQ 021800Z 07007KT 35SM FEW062 SCT100 BKN200 M07/M16 A3012 RMK CU1AC3CC2 CU TR LCL FU E SLP249,CYCQ,2018-04-02T18:00:00Z,55.7,-121.62,-7.0,-16.0,70,7,,35.0,30.121063,1024.9,,,,,,,,,,FEW,6200,SCT,10000,BKN,20000,,,VFR,,,,,,,,,,,,SPECI,609.0
CYCP 021800Z 04009KT 350V060 15SM FEW060 FEW250 01/M15 A2986 RMK CU1CI1 CU TR CI TR SLP141,CYCP,2018-04-02T18:00:00Z,52.13,-119.28,1.0,-15.0,40,9,,15.0,29.861221,1014.1,,,,,,,,,,FEW,6000,FEW,25000,,,,,VFR,,,,,,,,,,,,SPECI,683.0
CYBV 021800Z 30009KT 15SM SKC M16/M24 A3016 RMK SLP241,CYBV,2018-04-02T18:00:00Z,52.35,-97.03,-16.0,-24.0,300,9,,15.0,30.159449,1024.1,,,,,,,,,,SKC,,,,,,,,VFR,,,,,,,,,,,,SPECI,222.0
CYBL 021800Z 30009KT 250V330 30SM FEW040 FEW250 07/M04 A3000 RMK SC1CI1 CI TR SLP163,CYBL,2018-04-02T18:00:00Z,49.95,-125.27,7.0,-4.0,300,9,,30.0,30.0,1016.3,,,,,,,,,,FEW,4000,FEW,25000,,,,,VFR,,,,,,,,,,,,SPECI,106.0
CZFA 021800Z 31004KT 290V360 30SM FEW085 SCT180 SCT240 M08/M20 A3016 RMK AC2AC2CI1 CI TR SLP270,CZFA,2018-04-02T18:00:00Z,62.2,-133.37,-8.0,-20.0,310,4,,30.0,30.159449,1027.0,,,,,,,,,,FEW,8500,SCT,18000,SCT,24000,,,VFR,,,,,,,,,,,,SPECI,717.0
CYZY 021800Z AUTO 03006KT 350V100 9SM CLR M03/M17 A2998 RMK SLP192,CYZY,2018-04-02T18:00:00Z,55.28,-123.12,-3.0,-17.0,30,6,,9.0,29.97933,1019.2,,TRUE,,,,,,,,CLR,,,,,,,,VFR,,,,,,,,,,,,SPECI,690.0
CYZW 021800Z 01010KT 340V060 20SM FEW046 BKN054 BKN061 OVC067 M07/M15 A3004 RMK SC2SC3SC2AC1 SLP225,CYZW,2018-04-02T18:00:00Z,60.17,-132.75,-7.0,-15.0,10,10,,20.0,30.041338,1022.5,,,,,,,,,,FEW,4600,BKN,5400,BKN,6100,OVC,6700,VFR,,,,,,,,,,,,SPECI,705.0
CYYF 021800Z 01013G19KT 15SM FEW060 SCT100 BKN220 05/M08 A2991 RMK SC2AC2CI2 SLP142,CYYF,2018-04-02T18:00:00Z,49.47,-119.58,5.0,-8.0,10,13,19,15.0,29.911417,1014.2,,,,,,,,,,FEW,6000,SCT,10000,BKN,22000,,,VFR,,,,,,,,,,,,SPECI,344.0
CYYE 021800Z 11003KT 30SM SCT031 BKN050 OVC070 M07/M14 A3023 RMK SC4SC2AC2 SLP266,CYYE,2018-04-02T18:00:00Z,58.82,-122.57,-7.0,-14.0,110,3,,30.0,30.230314,1026.6,,,,,,,,,,SCT,3100,BKN,5000,OVC,7000,,,VFR,,,,,,,,,,,,SPECI,382.0
CYYD 021800Z 13004KT 25SM BKN250 M04/M12 A2994 RMK CI7 SLP168,CYYD,2018-04-02T18:00:00Z,54.82,-127.18,-4.0,-12.0,130,4,,25.0,29.940945,1016.8,,,,,,,,,,BKN,25000,,,,,,,VFR,,,,,,,,,,,,SPECI,523.0
CYXY 021800Z 34016G21KT 40SM SCT090 BKN220 M07/M18 A3012 RMK AC4CI2 SLP253,CYXY,2018-04-02T18:00:00Z,60.72,-135.07,-7.0,-18.0,340,16,21,40.0,30.121063,1025.3,,,,,,,,,,SCT,9000,BKN,22000,,,,,VFR,,,,,,,,,,,,SPECI,703.0
CXDB 021800Z AUTO 31016KT M14/M16 RMK AO1 PK WND 33018/1700 T11381156 50005,CXDB,2018-04-02T18:00:00Z,49.05,-112.82,-13.8,-15.6,310,16,,,,,,TRUE,TRUE,,,,,,,,,,,,,,,,0.5,,,,,,,,,,,METAR,1310.0
CXAK 021800Z AUTO 24003KT M09/M14 RMK AO1 T10931143,CXAK,2018-04-02T18:00:00Z,52.35,-112.6,-9.3,-14.3,240,3,,,,,,TRUE,TRUE,,,,,,,,,,,,,,,,,,,,,,,,,,,METAR,795.0
CXWM 021800Z AUTO 32013KT M12/M13 RMK AO1 T11181133,CXWM,2018-04-02T18:00:00Z,49.5,-112.12,-11.8,-13.3,320,13,,,,,,TRUE,TRUE,,,,,,,,,,,,,,,,,,,,,,,,,,,METAR,944.0
CXTH 021800Z AUTO 21001KT M08/M16 RMK AO1 T10841160 50008,CXTH,2018-04-02T18:00:00Z,53.63,-111.68,-8.4,-16.0,210,1,,,,,,TRUE,TRUE,,,,,,,,,,,,,,,,0.8,,,,,,,,,,,METAR,678.0
CXFM 021800Z AUTO 33010KT M10/M13 RMK AO1 T11041129,CXFM,2018-04-02T18:00:00Z,49.48,-111.48,-10.4,-12.9,330,10,,,,,,TRUE,TRUE,,,,,,,,,,,,,,,,,,,,,,,,,,,METAR,881.0
OPMT 021800Z 05006KT 4000 FU FEW040 SCT120 27/19 Q1009 NOSIG,OPMT,2018-04-02T18:00:00Z,30.18,71.42,27.0,19.0,50,6,,2.49,29.793306,,,,,,TRUE,,,,FU,FEW,4000,SCT,12000,,,,,IFR,,,,,,,,,,,,METAR,123.0
TAPA 021800Z 13007KT 9999 -SHRA BKN016 BKN038 26/22 Q1013 NOSIG,TAPA,2018-04-02T18:00:00Z,17.12,-61.78,26.0,22.0,130,7,,6.21,29.911417,,,,,,TRUE,,,,-SHRA,BKN,1600,BKN,3800,,,,,MVFR,,,,,,,,,,,,METAR,14.0
ORER 021800Z 19005KT CAVOK 18/06 Q1015 NOSIG,ORER,2018-04-02T18:00:00Z,36.23,43.97,18.0,6.0,190,5,,6.21,29.970472,,,,,,TRUE,,,,,CAVOK,,,,,,,,VFR,,,,,,,,,,,,METAR,409.0
ORNI 021800Z 00000KT 8000 NSC 22/04 Q1013 NOSIG,ORNI,2018-04-02T18:00:00Z,31.98,44.4,22.0,4.0,0,0,,4.97,29.911417,,,,,,TRUE,,,,,CLR,,,,,,,,MVFR,,,,,,,,,,,,METAR,53.0
YCCY 021800Z AUTO 15003KT //// // ////// 25/15 Q1008,YCCY,2018-04-02T18:00:00Z,-20.67,140.5,25.0,15.0,150,3,,,29.763779,,,TRUE,,,,,,,,,,,,,,,,,,,,,,,,,,,,METAR,570.0
YCBP 021800Z AUTO 16011KT 9999 // NCD 18/07 Q1020,YCBP,2018-04-02T18:00:00Z,-29.03,134.72,18.0,7.0,160,11,,6.21,30.11811,,,TRUE,,,,,,,,CLR,,,,,,,,VFR,,,,,,,,,,,,METAR,226.0
YCBB 021800Z AUTO 10006KT 080V140 //// // ////// 19/11 Q1017,YCBB,2018-04-02T18:00:00Z,-31.33,149.27,19.0,11.0,100,6,,,30.029528,,,TRUE,,,,,,,,,,,,,,,,,,,,,,,,,,,,METAR,645.0
YCBA 021800Z AUTO 18007KT 9999 // NCD 19/06 Q////,YCBA,2018-04-02T18:00:00Z,-31.53,145.8,19.0,6.0,180,7,,6.21,,,,TRUE,,,,,,,,CLR,,,,,,,,VFR,,,,,,,,,,,,METAR,221.0
YCAS 021800Z AUTO 25004KT //// // ////// 18/17 Q1016,YCAS,2018-04-02T18:00:00Z,-28.88,153.07,18.0,17.0,250,4,,,30.0,,,TRUE,,,,,,,,,,,,,,,,,,,,,,,,,,,,METAR,26.0
YCAR 021800Z AUTO 20007KT 9999 // NCD 26/23 Q1011,YCAR,2018-04-02T18:00:00Z,-24.88,113.67,26.0,23.0,200,7,,6.21,29.852362,,,TRUE,,,,,,,,CLR,,,,,,,,VFR,,,,,,,,,,,,METAR,8.0
YBWX 021800Z AUTO 22012KT //// // ////// 29/26 Q1011,YBWX,2018-04-02T18:00:00Z,-20.88,115.4,29.0,26.0,220,12,,,29.852362,,,TRUE,,,,,,,,,,,,,,,,,,,,,,,,,,,,METAR,6.0
YBUD 021800Z AUTO 17005KT 9999 // NCD 21/20 Q1012,YBUD,2018-04-02T18:00:00Z,-24.9,152.32,21.0,20.0,170,5,,6.21,29.88189,,,TRUE,,,,,,,,CLR,,,,,,,,VFR,,,,,,,,,,,,METAR,82.0
YBTL 021800Z AUTO 19016KT 9999 // BKN041 OVC047 25/21 Q1005,YBTL,2018-04-02T18:00:00Z,-19.25,146.75,25.0,21.0,190,16,,6.21,29.675198,,,TRUE,,,,,,,,BKN,4100,OVC,4700,,,,,VFR,,,,,,,,,,,,METAR,6.0
YWLM 021800Z AUTO 17014KT 9999 // SCT018 OVC051 22/19 Q1018,YWLM,2018-04-02T18:00:00Z,-32.8,151.83,22.0,19.0,170,14,,6.21,30.059055,,,TRUE,,,,,,,,SCT,1800,OVC,5100,,,,,VFR,,,,,,,,,,,,METAR,9.0
YWHA 021800Z AUTO 13009KT 9999 // SCT025 16/12 Q1023,YWHA,2018-04-02T18:00:00Z,-33.07,137.52,16.0,12.0,130,9,,6.21,30.206694,,,TRUE,,,,,,,,SCT,2500,,,,,,,VFR,,,,,,,,,,,,METAR,13.0
YWGT 021800Z AUTO 17005KT 9999 // NCD 09/07 Q1018,YWGT,2018-04-02T18:00:00Z,-36.42,146.3,9.0,7.0,170,5,,6.21,30.059055,,,TRUE,,,,,,,,CLR,,,,,,,,VFR,,,,,,,,,,,,METAR,153.0
YTRE 021800Z AUTO 23009KT //// // NCD 22/19 Q1016,YTRE,2018-04-02T18:00:00Z,-31.88,152.52,22.0,19.0,230,9,,,30.0,,,TRUE,,,,,,,,CLR,,,,,,,,,,,,,,,,,,,,METAR,12.0
YTNK 021800Z AUTO 14011KT 9999 // NCD 27/04 Q1012,YTNK,2018-04-02T18:00:00Z,-19.63,134.18,27.0,4.0,140,11,,6.21,29.88189,,,TRUE,,,,,,,,CLR,,,,,,,,VFR,,,,,,,,,,,,METAR,377.0
YTEF 021800Z AUTO 10005KT 9999 // NCD 25/13 Q1011,YTEF,2018-04-02T18:00:00Z,-21.72,122.23,25.0,13.0,100,5,,6.21,29.852362,,,TRUE,,,,,,,,CLR,,,,,,,,VFR,,,,,,,,,,,,METAR,296.0
YSWG 021800Z AUTO 22004KT 9999 // NCD 10/06 Q1018,YSWG,2018-04-02T18:00:00Z,-35.13,147.47,10.0,6.0,220,4,,6.21,30.059055,,,TRUE,,,,,,,,CLR,,,,,,,,VFR,,,,,,,,,,,,METAR,213.0
YSTW 021800Z AUTO 14007KT 9999 // NCD 18/10 Q1016 RF00.0/000.0,YSTW,2018-04-02T18:00:00Z,-31.07,150.85,18.0,10.0,140,7,,6.21,30.0,,,TRUE,,,,,,,,CLR,,,,,,,,VFR,,,,,,,,,,,,SPECI,410.0
SMZO 021800Z 36010KT 9999 SCT010 FEW015CB SCT020 27/24 Q1009 NOSIG,SMZO,2018-04-02T18:00:00Z,5.82,-55.18,27.0,24.0,360,10,,6.21,29.793306,,,,,,TRUE,,,,,SCT,1000,FEW,1500,SCT,2000,,,VFR,,,,,,,,,,,,METAR,10.0
SMJP 021800Z 04008KT 9999 TS FEW008 FEW015CB SCT025 27/24 Q1009 NOSIG,SMJP,2018-04-02T18:00:00Z,5.45,-55.17,27.0,24.0,40,8,,6.21,29.793306,,,,,,TRUE,,,,TS,FEW,800,FEW,1500,SCT,2500,,,VFR,,,,,,,,,,,,METAR,16.0
MKJP 021800Z 17011KT 9999 FEW022TCU 29/20 Q1012,MKJP,2018-04-02T18:00:00Z,17.92,-76.78,29.0,20.0,170,11,,6.21,29.88189,,,,,,,,,,,FEW,2200,,,,,,,VFR,,,,,,,,,,,,METAR,3.0
SBJP 021800Z 09011KT 9999 FEW027 30/23 Q1009,SBJP,2018-04-02T18:00:00Z,-7.15,-34.95,30.0,23.0,90,11,,6.21,29.793306,,,,,,,,,,,FEW,2700,,,,,,,VFR,,,,,,,,,,,,METAR,66.0
SEAM 021800Z 04004KT 9999 -RA SCT026 BKN100 17/14 Q1024,SEAM,2018-04-02T18:00:00Z,-1.18,-78.57,17.0,14.0,40,4,,6.21,30.236221,,,,,,,,,,-RA,SCT,2600,BKN,10000,,,,,VFR,,,,,,,,,,,,METAR,2520.0
GVSV 021800Z 06023KT 9999 FEW023 BKN200 24/13 Q1012 NOSIG,GVSV,2018-04-02T18:00:00Z,16.83,-25.07,24.0,13.0,60,23,,6.21,29.88189,,,,,,TRUE,,,,,FEW,2300,BKN,20000,,,,,VFR,,,,,,,,,,,,METAR,20.0
FQMA 021800Z 09006KT 9999 SCT020 26/21 Q1014 NOSIG,FQMA,2018-04-02T18:00:00Z,-25.92,32.57,26.0,21.0,90,6,,6.21,29.940945,,,,,,TRUE,,,,,SCT,2000,,,,,,,VFR,,,,,,,,,,,,METAR,44.0
FIMP 021800Z 10003KT 9999 SCT017 27/24 Q1015,FIMP,2018-04-02T18:00:00Z,-20.42,57.67,27.0,24.0,100,3,,6.21,29.970472,,,,,,,,,,,SCT,1700,,,,,,,VFR,,,,,,,,,,,,METAR,57.0
GVBA 021800Z 02017KT 9999 BKN015 22/14 Q1012 NOSIG,GVBA,2018-04-02T18:00:00Z,16.13,-22.88,22.0,14.0,20,17,,6.21,29.88189,,,,,,TRUE,,,,,BKN,1500,,,,,,,MVFR,,,,,,,,,,,,METAR,22.0
MHCH 021800Z 02012KT 9999 SCT034 36/17 HZ,MHCH,2018-04-02T18:00:00Z,13.32,-87.15,36.0,17.0,20,12,,6.21,,,,,,,,,,,HZ,SCT,3400,,,,,,,VFR,,,,,,,,,,,,METAR,48.0
MHLE 021800Z 05008KT 9999 FEW024TCU 24/10 TCU SW FU,MHLE,2018-04-02T18:00:00Z,14.32,-88.15,24.0,10.0,50,8,,6.21,,,,,,,,,,,FU,FEW,2400,,,,,,,VFR,,,,,,,,,,,,METAR,1100.0
MHNO 021800Z 35006KT 9999 FEW040 30/12 HZ,MHNO,2018-04-02T18:00:00Z,14.43,-89.18,30.0,12.0,350,6,,6.21,,,,,,,,,,,HZ,FEW,4000,,,,,,,VFR,,,,,,,,,,,,METAR,2.0
MHSR 021800Z 02004KT 9999 SCT030 25/09 HZ,MHSR,2018-04-02T18:00:00Z,14.78,-88.78,25.0,9.0,20,4,,6.21,,,,,,,,,,,HZ,SCT,3000,,,,,,,VFR,,,,,,,,,,,,METAR,1079.0
MHCA 021800Z 06004KT 9999 SCT028 31/19 Q1014,MHCA,2018-04-02T18:00:00Z,14.9,-85.78,31.0,19.0,60,4,,6.21,29.940945,,,,,,,,,,,SCT,2800,,,,,,,VFR,,,,,,,,,,,,METAR,442.0
MHPL 021800Z 02006KT 9999 SCT026TCU 30/21 Q1013 TCU SW W HZ,MHPL,2018-04-02T18:00:00Z,15.27,-83.78,30.0,21.0,20,6,,6.21,29.911417,,,,,,,,,,HZ,SCT,2600,,,,,,,VFR,,,,,,,,,,,,METAR,13.0
MHYR 021800Z 09006KT 9999 SCT025TCU 29/16 TCU ALL FU,MHYR,2018-04-02T18:00:00Z,15.13,-87.12,29.0,16.0,90,6,,6.21,,,,,,,,,,,FU,SCT,2500,,,,,,,VFR,,,,,,,,,,,,METAR,670.0
MHTE 021800Z 05004KT 9999 FEW024 29/24 Q1012 HZ,MHTE,2018-04-02T18:00:00Z,15.78,-87.48,29.0,24.0,50,4,,6.21,29.88189,,,,,,,,,,HZ,FEW,2400,,,,,,,VFR,,,,,,,,,,,,METAR,3.0
MHTR 021800Z 09006KT 9999 FEW028 30/21 HZ,MHTR,2018-04-02T18:00:00Z,15.93,-85.93,30.0,21.0,90,6,,6.21,,,,,,,,,,,HZ,FEW,2800,,,,,,,VFR,,,,,,,,,,,,METAR,3.0
MHAM 021800Z 18004KT 9999 FEW030 33/20,MHAM,2018-04-02T18:00:00Z,13.27,-87.65,33.0,20.0,180,4,,6.21,,,,,,,,,,,,FEW,3000,,,,,,,VFR,,,,,,,,,,,,METAR,5.0
SBRP 021800Z 29008KT 9999 SCT033 FEW038TCU 30/20 Q1011,SBRP,2018-04-02T18:00:00Z,-21.12,-47.77,30.0,20.0,290,8,,6.21,29.852362,,,,,,,,,,,SCT,3300,FEW,3800,,,,,VFR,,,,,,,,,,,,METAR,549.0
SCCY 021800Z VRB04G14KT 9999 BKN036 18/11 Q1006,SCCY,2018-04-02T18:00:00Z,-45.57,-72.1,18.0,11.0,0,4,14,6.21,29.704725,,,,,,,,,,,BKN,3600,,,,,,,VFR,,,,,,,,,,,,METAR,311.0
SCIC 021800Z VRB02KT CAVOK 23/13 Q1013,SCIC,2018-04-02T18:00:00Z,-34.97,-71.22,23.0,13.0,0,2,,6.21,29.911417,,,,,,,,,,,CAVOK,,,,,,,,VFR,,,,,,,,,,,,METAR,242.0
SCGE 021800Z 30005KT 270V350 CAVOK 25/14 Q1014,SCGE,2018-04-02T18:00:00Z,-37.38,-72.42,25.0,14.0,300,5,,6.21,29.940945,,,,,,,,,,,CAVOK,,,,,,,,VFR,,,,,,,,,,,,METAR,114.0
SCRM 021800Z 01024KT 7000 SCT006 OVC020 02/01 Q0988,SCRM,2018-04-02T18:00:00Z,-62.18,-58.98,2.0,1.0,10,24,,4.35,29.17323,,,,,,,,,,,SCT,600,OVC,2000,,,,,MVFR,,,,,,,,,,,,METAR,45.0
SCCH 021800Z 16002KT 8000 NSC 24/14 Q1013,SCCH,2018-04-02T18:00:00Z,-36.57,-72.02,24.0,14.0,160,2,,4.97,29.911417,,,,,,,,,,,CLR,,,,,,,,MVFR,,,,,,,,,,,,METAR,148.0
SCPQ 021800Z 11005KT 080V150 CAVOK 19/14 Q1014,SCPQ,2018-04-02T18:00:00Z,-42.33,-73.72,19.0,14.0,110,5,,6.21,29.940945,,,,,,,,,,,CAVOK,,,,,,,,VFR,,,,,,,,,,,,METAR,5.0
SCIP 021800Z VRB06KT 9999 BKN025 26/19 Q1022 NOSIG,SCIP,2018-04-02T18:00:00Z,-27.17,-109.43,26.0,19.0,0,6,,6.21,30.177166,,,,,,TRUE,,,,,BKN,2500,,,,,,,MVFR,,,,,,,,,,,,METAR,69.0
SCCI 021800Z 24010KT 9999 -RA FEW013 BKN031 OVC049 12/09 Q0988 NOSIG,SCCI,2018-04-02T18:00:00Z,-53.0,-70.83,12.0,9.0,240,10,,6.21,29.17323,,,,,,TRUE,,,,-RA,FEW,1300,BKN,3100,OVC,4900,,,VFR,,,,,,,,,,,,METAR,37.0
SCNT 021800Z 12006KT 070V230 8000 -SHRA SCT020 OVC030 13/11 Q09 90,SCNT,2018-04-02T18:00:00Z,-51.67,-72.53,13.0,11.0,120,6,,4.97,,,,,,,,,,,-SHRA,SCT,2000,OVC,3000,,,,,MVFR,,,,,,,,,,,,METAR,67.0
SCVD 021800Z VRB02KT CAVOK 19/12 Q1014,SCVD,2018-04-02T18:00:00Z,-39.65,-73.07,19.0,12.0,0,2,,6.21,29.940945,,,,,,,,,,,CAVOK,,,,,,,,VFR,,,,,,,,,,,,METAR,14.0
SCTE 021800Z VRB04KT 9999 FEW012 17/12 Q1014 NOSIG,SCTE,2018-04-02T18:00:00Z,-41.42,-73.07,17.0,12.0,0,4,,6.21,29.940945,,,,,,TRUE,,,,,FEW,1200,,,,,,,VFR,,,,,,,,,,,,METAR,86.0
SCQP 021800Z 30004KT 200V360 CAVOK 21/15 Q1013,SCQP,2018-04-02T18:00:00Z,-38.92,-72.65,21.0,15.0,300,4,,6.21,29.911417,,,,,,,,,,,CAVOK,,,,,,,,VFR,,,,,,,,,,,,METAR,97.0
SCJO 021800Z 16003KT 9999 FEW020 18/12 Q1014,SCJO,2018-04-02T18:00:00Z,-40.6,-73.03,18.0,12.0,160,3,,6.21,29.940945,,,,,,,,,,,FEW,2000,,,,,,,VFR,,,,,,,,,,,,METAR,65.0
SCSE 021800Z 25007KT 9999 FEW023 19/12 Q1015,SCSE,2018-04-02T18:00:00Z,-29.92,-71.2,19.0,12.0,250,7,,6.21,29.970472,,,,,,,,,,,FEW,2300,,,,,,,VFR,,,,,,,,,,,,METAR,146.0
SCDA 021800Z 22014KT CAVOK 24/13 Q1011,SCDA,2018-04-02T18:00:00Z,-20.52,-70.17,24.0,13.0,220,14,,6.21,29.852362,,,,,,,,,,,CAVOK,,,,,,,,VFR,,,,,,,,,,,,METAR,52.0
SCAT 021800Z 34006KT 250V030 CAVOK 22/10 Q1015,SCAT,2018-04-02T18:00:00Z,-27.27,-70.77,22.0,10.0,340,6,,6.21,29.970472,,,,,,,,,,,CAVOK,,,,,,,,VFR,,,,,,,,,,,,METAR,204.0
SCIE 021800Z 02010KT 340V040 7000 FEW007 OVC009 13/11 Q1015,SCIE,2018-04-02T18:00:00Z,-36.77,-73.07,13.0,11.0,20,10,,4.35,29.970472,,,,,,,,,,,FEW,700,OVC,900,,,,,IFR,,,,,,,,,,,,METAR,16.0
SCCF 021800Z 25017KT CAVOK 21/M03 Q1023,SCCF,2018-04-02T18:00:00Z,-22.5,-68.9,21.0,-3.0,250,17,,6.21,30.206694,,,,,,,,,,,CAVOK,,,,,,,,VFR,,,,,,,,,,,,METAR,2312.0
SCBA 021800Z 31029KT 9999 BKN030 BKN080 17/10 Q1005,SCBA,2018-04-02T18:00:00Z,-45.92,-71.67,17.0,10.0,310,29,,6.21,29.675198,,,,,,,,,,,BKN,3000,BKN,8000,,,,,MVFR,,,,,,,,,,,,METAR,524.0
SCAR 021800Z 21010KT 170V240 CAVOK 23/14 Q1011,SCAR,2018-04-02T18:00:00Z,-18.35,-70.32,23.0,14.0,210,10,,6.21,29.852362,,,,,,,,,,,CAVOK,,,,,,,,VFR,,,,,,,,,,,,METAR,59.0
SCFA 021800Z 20011KT CAVOK 22/12 Q1012 NOSIG,SCFA,2018-04-02T18:00:00Z,-23.42,-70.42,22.0,12.0,200,11,,6.21,29.88189,,,,,,TRUE,,,,,CAVOK,,,,,,,,VFR,,,,,,,,,,,,METAR,120.0
UBBY 021800Z 12004KT 9999 SCT055 11/08 Q1015 R33/////// NOSIG RMK MT OP,UBBY,2018-04-02T18:00:00Z,41.57,46.67,11.0,8.0,120,4,,6.21,29.970472,,,,,,TRUE,,,,,SCT,5500,,,,,,,VFR,,,,,,,,,,,,METAR,390.0
SBCP 021800Z 34008KT 9999 FEW030 32/21 Q1007,SBCP,2018-04-02T18:00:00Z,-21.7,-41.3,32.0,21.0,340,8,,6.21,29.734253,,,,,,,,,,,FEW,3000,,,,,,,VFR,,,,,,,,,,,,METAR,11.0
SPYL 021800Z 22012KT CAVOK 30/19 Q1010 RMK BIRD HAZARD RWY 17/35 PP000,SPYL,2018-04-02T18:00:00Z,-4.57,-81.25,30.0,19.0,220,12,,6.21,29.822834,,,,,,,,,,,CAVOK,,,,,,,,VFR,,,,,,,,,,,,METAR,90.0
SPTU 021800Z 17006KT 130V210 9999 BKN010 29/25 Q1008 RMK BIRD HAZARD RWY 01/19 PP000,SPTU,2018-04-02T18:00:00Z,-12.62,-69.2,29.0,25.0,170,6,,6.21,29.763779,,,,,,,,,,,BKN,1000,,,,,,,MVFR,,,,,,,,,,,,METAR,266.0
SPST 021800Z 35003KT 5000 -RA BR SCT010 SCTO15 OVC050 24/23 Q1012 RMK BIRD HAZARD RWY 17/35 PP006,SPST,2018-04-02T18:00:00Z,-6.52,-76.37,24.0,23.0,350,3,,3.11,29.88189,,,,,,,,,,-RA BR,SCT,1000,OVC,5000,,,,,MVFR,,,,,,,,,,,,METAR,282.0
SPMS 021800Z 28006KT 2000 -RA BR OVC010 24/24 Q1012 RMK BIRD HAZARD RWY 09/27 PP030,SPMS,2018-04-02T18:00:00Z,-5.9,-76.12,24.0,24.0,280,6,,1.24,29.88189,,,,,,,,,,-RA BR,OVC,1000,,,,,,,IFR,,,,,,,,,,,,METAR,179.0
SPME 021800Z 33010KT 9999 FEW014 BKN033 30/23 Q1009 RMK BIRD HAZARD RWY 32/14 PP000,SPME,2018-04-02T18:00:00Z,-3.53,-80.4,30.0,23.0,330,10,,6.21,29.793306,,,,,,,,,,,FEW,1400,BKN,3300,,,,,VFR,,,,,,,,,,,,METAR,27.0
SPLO 021800Z 17008KT CAVOK 25/18 Q1012 RMK PP000,SPLO,2018-04-02T18:00:00Z,-17.7,-71.35,25.0,18.0,170,8,,6.21,29.88189,,,,,,,,,,,CAVOK,,,,,,,,VFR,,,,,,,,,,,,METAR,9.0
SPJL 021800Z 01006KT 9999 SCT025 16/M01 Q1032 RMK PP000,SPJL,2018-04-02T18:00:00Z,-15.47,-70.15,16.0,-1.0,10,6,,6.21,30.47244,,,,,,,,,,,SCT,2500,,,,,,,VFR,,,,,,,,,,,,METAR,3827.0
SPJI 021800Z 00000KT 9999 BKN030 26/23 Q1020 RMK PP0000,SPJI,2018-04-02T18:00:00Z,-7.17,-76.72,26.0,23.0,0,0,,6.21,30.11811,,,,,,,,,,,BKN,3000,,,,,,,MVFR,,,,,,,,,,,,METAR,363.0
SPHY 021800Z /////KT 9000 BKN090 14/04 Q1033 RMK PP000,SPHY,2018-04-02T18:00:00Z,-13.7,-73.35,14.0,4.0,,,,5.59,30.501968,,,,,,,,,,,BKN,9000,,,,,,,VFR,,,,,,,,,,,,METAR,3548.0
SPHO 021800Z VRB03KT 9999 FEW025 SCT040 23/10 Q1024 RMK PP000,SPHO,2018-04-02T18:00:00Z,-13.17,-74.22,23.0,10.0,0,3,,6.21,30.236221,,,,,,,,,,,FEW,2500,SCT,4000,,,,,VFR,,,,,,,,,,,,METAR,2749.0
SPGM 021800Z 34003KT 9999 FEW025 OVC100 25/21 Q1015 RMK BIRD HAZARD RWY19 PP000,SPGM,2018-04-02T18:00:00Z,-9.28,-76.0,25.0,21.0,340,3,,6.21,29.970472,,,,,,,,,,,FEW,2500,OVC,10000,,,,,VFR,,,,,,,,,,,,METAR,665.0
SPCL 021800Z 21006KT 9999 BKN015 BKN080 26/23 Q1012 RMK PP000,SPCL,2018-04-02T18:00:00Z,-8.38,-74.58,26.0,23.0,210,6,,6.21,29.88189,,,,,,,,,,,BKN,1500,BKN,8000,,,,,MVFR,,,,,,,,,,,,METAR,149.0
UBBQ 021800Z 09003KT 9999 OVC028 10/08 Q1013 R34/////// NOSIG RMK MT OBSC,UBBQ,2018-04-02T18:00:00Z,40.82,47.72,10.0,8.0,90,3,,6.21,29.911417,,,,,,TRUE,,,,,OVC,2800,,,,,,,MVFR,,,,,,,,,,,,METAR,338.0
SBKP 021800Z 28008KT 9999 VCSH SCT033 FEW045TCU 27/20 Q1012,SBKP,2018-04-02T18:00:00Z,-23.0,-47.12,27.0,20.0,280,8,,6.21,29.88189,,,,,,,,,,VCSH,SCT,3300,FEW,4500,,,,,VFR,,,,,,,,,,,,METAR,661.0
SEGS 021800Z 09011KT 9999 SCT023 28/22 Q1011 A2986,SEGS,2018-04-02T18:00:00Z,-0.45,-90.27,28.0,22.0,90,11,,6.21,29.852362,,,,,,,,,,,SCT,2300,,,,,,,VFR,,,,,,,,,,,,METAR,16.0
SESM 021800Z 07006KT 4000 -TSRA SCT007 FEW020CB OVC100 19/19 Q1016 A3001,SESM,2018-04-02T18:00:00Z,-1.5,-78.07,19.0,19.0,70,6,,2.49,30.0,,,,,,,,,,-TSRA,SCT,700,FEW,2000,OVC,10000,,,IFR,,,,,,,,,,,,METAR,1056.0
SECO 021800Z 04006KT 9999 FEW006 SCT016 OVC100 24/24 Q1012 RMK A2989,SECO,2018-04-02T18:00:00Z,-0.45,-76.98,24.0,24.0,40,6,,6.21,29.88189,,,,,,,,,,,FEW,600,SCT,1600,OVC,10000,,,VFR,,,,,,,,,,,,METAR,220.0
SEST 021800Z 29006KT 9999 FEW020 BKN330 28/23 Q1010 RMK A2983,SEST,2018-04-02T18:00:00Z,-0.9,-89.58,28.0,23.0,290,6,,6.21,29.822834,,,,,,,,,,,FEW,2000,BKN,33000,,,,,VFR,,,,,,,,,,,,METAR,6.0
SEJD 021800Z 12005KT 2000 -RA BR FEW003 BKN010 OVC090 22/22 Q1013,SEJD,2018-04-02T18:00:00Z,-1.07,-77.58,22.0,22.0,120,5,,1.24,29.911417,,,,,,,,,,-RA BR,FEW,300,BKN,1000,OVC,9000,,,IFR,,,,,,,,,,,,METAR,375.0
SECA 021800Z 16002KT 9999 SCT040 OVC100 25/17 Q1016,SECA,2018-04-02T18:00:00Z,-4.0,-79.37,25.0,17.0,160,2,,6.21,30.0,,,,,,,,,,,SCT,4000,OVC,10000,,,,,VFR,,,,,,,,,,,,METAR,1121.0
SECU 021800Z 20010KT 9999 BKN040 SCT100 20/9 Q1022,SECU,2018-04-02T18:00:00Z,-2.87,-78.97,20.0,,200,10,,6.21,30.177166,,,,,,,,,,,BKN,4000,SCT,10000,,,,,VFR,,,,,,,,,,,,METAR,2531.0
SETU 021800Z 12005KT 9999 -DZ OVC020 13/11 Q1030,SETU,2018-04-02T18:00:00Z,0.82,-77.7,13.0,11.0,120,5,,6.21,30.413385,,,,,,,,,,-DZ,OVC,2000,,,,,,,MVFR,,,,,,,,,,,,METAR,2940.0
SESA 021800Z 25006KT CAVOK 28/22 Q1010,SESA,2018-04-02T18:00:00Z,-2.2,-80.97,28.0,22.0,250,6,,6.21,29.822834,,,,,,,,,,,CAVOK,,,,,,,,VFR,,,,,,,,,,,,METAR,8.0
SETN 021800Z 28007KT 250V330 9999 VCSH BKN026 BKN100 27/25 Q1010 A2984,SETN,2018-04-02T18:00:00Z,0.98,-79.63,27.0,25.0,280,7,,6.21,29.822834,,,,,,,,,,VCSH,BKN,2600,BKN,10000,,,,,MVFR,,,,,,,,,,,,METAR,10.0
SEGU 021800Z 06005KT 020V090 9999 BKN026 BKN100 30/22 Q1009 NOSIG RMK A2980,SEGU,2018-04-02T18:00:00Z,-2.13,-79.87,30.0,22.0,60,5,,6.21,29.793306,,,,,,TRUE,,,,,BKN,2600,BKN,10000,,,,,MVFR,,,,,,,,,,,,METAR,9.0
SEMT 021800Z 34006KT 9999 FEW023 BKN100 27/23 Q1010 RMK A2984,SEMT,2018-04-02T18:00:00Z,-0.95,-80.67,27.0,23.0,340,6,,6.21,29.822834,,,,,,,,,,,FEW,2300,BKN,10000,,,,,VFR,,,,,,,,,,,,METAR,14.0
SEQM 021800Z 08006KT 9999 -DZ BKN023 OVC070 18/11 Q1024 NOSIG RMK A3026,SEQM,2018-04-02T18:00:00Z,-0.12,-78.35,18.0,11.0,80,6,,6.21,30.236221,,,,,,TRUE,,,,-DZ,BKN,2300,OVC,7000,,,,,MVFR,,,,,,,,,,,,METAR,2400.0
SPTN 021800Z 23010KT CAVOK 26/16 Q1013 RMK PP000,SPTN,2018-04-02T18:00:00Z,-18.07,-70.28,26.0,16.0,230,10,,6.21,29.911417,,,,,,,,,,,CAVOK,,,,,,,,VFR,,,,,,,,,,,,METAR,458.0
SPSO 021800Z 31007KT CAVOK 25/17 Q1011 RMK FU NE BIRD HAZARD RWY 22/04 PP000,SPSO,2018-04-02T18:00:00Z,-13.73,-76.22,25.0,17.0,310,7,,6.21,29.852362,,,,,,,,,,,CAVOK,,,,,,,,VFR,,,,,,,,,,,,METAR,10.0
SPRU 021800Z 17007KT 130V200 9999 BKN100 21/18 Q1011 RMK PP000,SPRU,2018-04-02T18:00:00Z,-8.08,-79.12,21.0,18.0,170,7,,6.21,29.852362,,,,,,,,,,,BKN,10000,,,,,,,VFR,,,,,,,,,,,,METAR,30.0
SPQU 021800Z 25011KT 220V290 CAVOK 19/04 Q1025 NOSIG RMK PP000,SPQU,2018-04-02T18:00:00Z,-16.33,-71.57,19.0,4.0,250,11,,6.21,30.265747,,,,,,TRUE,,,,,CAVOK,,,,,,,,VFR,,,,,,,,,,,,METAR,2554.0
SPQT 021800Z VRB02KT 9999 BKN012 BKN100 29/24 Q1009 NOSIG RMK BIRD HAZARD PP000,SPQT,2018-04-02T18:00:00Z,-3.78,-73.32,29.0,24.0,0,2,,6.21,29.793306,,,,,,TRUE,,,,,BKN,1200,BKN,10000,,,,,MVFR,,,,,,,,,,,,METAR,126.0
SPHI 021800Z 20011KT 160V220 9999 FEW017 BKN100 27/19 Q1010 RMK BIRD HAZARD RWY 19/01 PP000,SPHI,2018-04-02T18:00:00Z,-6.77,-79.82,27.0,19.0,200,11,,6.21,29.822834,,,,,,,,,,,FEW,1700,BKN,10000,,,,,VFR,,,,,,,,,,,,METAR,34.0
SBVT 021800Z 05013KT 9999 FEW040 31/23 Q1008,SBVT,2018-04-02T18:00:00Z,-20.27,-40.27,31.0,23.0,50,13,,6.21,29.763779,,,,,,,,,,,FEW,4000,,,,,,,VFR,,,,,,,,,,,,METAR,4.0
OERK 021800Z 09010KT 8000 NSC 26/01 Q1015 NOSIG,OERK,2018-04-02T18:00:00Z,24.95,46.72,26.0,1.0,90,10,,4.97,29.970472,,,,,,TRUE,,,,,CLR,,,,,,,,MVFR,,,,,,,,,,,,METAR,612.0
OEMA 021800Z 22008KT CAVOK 31/01 Q1012 NOSIG,OEMA,2018-04-02T18:00:00Z,24.55,39.7,31.0,1.0,220,8,,6.21,29.88189,,,,,,TRUE,,,,,CAVOK,,,,,,,,VFR,,,,,,,,,,,,METAR,631.0
OEJN 021800Z 29004KT CAVOK 28/18 Q1006 NOSIG,OEJN,2018-04-02T18:00:00Z,21.68,39.15,28.0,18.0,290,4,,6.21,29.704725,,,,,,TRUE,,,,,CAVOK,,,,,,,,VFR,,,,,,,,,,,,METAR,15.0
OEDR 021800Z 03003KT CAVOK 25/03 Q1011 NOSIG,OEDR,2018-04-02T18:00:00Z,26.27,50.17,25.0,3.0,30,3,,6.21,29.852362,,,,,,TRUE,,,,,CAVOK,,,,,,,,VFR,,,,,,,,,,,,METAR,17.0
OEDF 021800Z 06004KT CAVOK 24/04 Q1013 NOSIG,OEDF,2018-04-02T18:00:00Z,26.47,49.8,24.0,4.0,60,4,,6.21,29.911417,,,,,,TRUE,,,,,CAVOK,,,,,,,,VFR,,,,,,,,,,,,METAR,22.0
MROC 021800Z 12009KT 060V160 9999 FEW040 29/13 A2996 BECMG 20006KT,MROC,2018-04-02T18:00:00Z,10.0,-84.22,29.0,13.0,120,9,,6.21,29.958662,,,,,,,,,,,FEW,4000,,,,,,,VFR,,,0.6,,,,,,,,,METAR,920.0
TKPK 021800Z 07010KT 9999 FEW021 29/22 Q1013,TKPK,2018-04-02T18:00:00Z,17.3,-62.72,29.0,22.0,70,10,,6.21,29.911417,,,,,,,,,,,FEW,2100,,,,,,,VFR,,,,,,,,,,,,METAR,48.0
SBCG 021800Z 35007KT 5000 -RA BR SCT003 FEW040TCU OVC080 22/21 Q1012,SBCG,2018-04-02T18:00:00Z,-20.47,-54.67,22.0,21.0,350,7,,3.11,29.88189,,,,,,,,,,-RA BR,SCT,300,FEW,4000,OVC,8000,,,MVFR,,,,,,,,,,,,METAR,567.0
SPJC 021800Z 19008KT 9999 BKN100 25/17 Q1012 NOSIG RMK PP000,SPJC,2018-04-02T18:00:00Z,-12.02,-77.12,25.0,17.0,190,8,,6.21,29.88189,,,,,,TRUE,,,,,BKN,10000,,,,,,,VFR,,,,,,,,,,,,METAR,13.0
GLRB 021800Z 26010KT 9999 BKN016 FEW026CB 29/25 Q1006 RMK CB-NE,GLRB,2018-04-02T18:00:00Z,6.25,-10.33,29.0,25.0,260,10,,6.21,29.704725,,,,,,,,,,,BKN,1600,FEW,2600,,,,,MVFR,,,,,,,,,,,,METAR,18.0
CXTV 021800Z AUTO 33015KT M18/M20 RMK AO1 SOG 39 1004 PK WND 34021/1723 SLP364 T11791200 50002,CXTV,2018-04-02T18:00:00Z,68.75,-133.5,-17.9,-20.0,330,15,,,,1036.4,,TRUE,TRUE,,,,,,,,,,,,,,,,0.2,,,,,,,,,,,METAR,85.0
CWJO 021800Z AUTO 13005KT M02/M11 RMK AO1 SLP175 T10171108 56017,CWJO,2018-04-02T18:00:00Z,48.43,-71.15,-1.7,-10.8,130,5,,,,1017.5,,TRUE,TRUE,,,,,,,,,,,,,,,,-1.7,,,,,,,,,,,METAR,133.0
CWRU 021800Z AUTO 30013KT 06/M01 RMK AO1 PK WND 31020/1705 SLP156 T00561009 53009,CWRU,2018-04-02T18:00:00Z,50.12,-127.93,5.6,-0.9,300,13,,,,1015.6,,TRUE,TRUE,,,,,,,,,,,,,,,,0.9,,,,,,,,,,,METAR,98.0
CWME 021800Z AUTO 06008KT 03/M04 RMK AO1 SLP166 T00311044 58003,CWME,2018-04-02T18:00:00Z,52.18,-127.47,3.1,-4.4,60,8,,,,1016.6,,TRUE,TRUE,,,,,,,,,,,,,,,,-0.3,,,,,,,,,,,METAR,32.0
CWRY 021800Z AUTO 34016KT M11/M12 RMK AO1 4PAST HR SOG 36 3021 PK WND 35020/1727 SLP177 P0002 T11121123 50014,CWRY,2018-04-02T18:00:00Z,49.12,-112.03,-11.2,-12.3,340,16,,,,1017.7,,TRUE,TRUE,,,,,,,,,,,,,,,,1.4,,,,,0.02,,,,,,METAR,1050.0
CWND 021800Z AUTO 30019KT M18/M20 RMK AO1 PK WND 30023/1719 SLP331 T11801199 56002,CWND,2018-04-02T18:00:00Z,69.63,-135.43,-18.0,-19.9,300,19,,,,1033.1,,TRUE,TRUE,,,,,,,,,,,,,,,,-0.2,,,,,,,,,,,METAR,12.0
CXYH 021800Z AUTO M06/M15 RMK AO1 SOG 37 1009 SLP282 T10581150,CXYH,2018-04-02T18:00:00Z,61.25,-123.75,-5.8,-15.0,,,,,,1028.2,,TRUE,TRUE,,,,,,,,,,,,,,,,,,,,,,,,,,,METAR,204.0
CXPA 021800Z AUTO 02006KT M10/M16 RMK AO1 T10991164,CXPA,2018-04-02T18:00:00Z,55.62,-118.3,-9.9,-16.4,20,6,,,,,,TRUE,TRUE,,,,,,,,,,,,,,,,,,,,,,,,,,,METAR,621.0
CXOY 021800Z AUTO 35003KT M10/M14 RMK AO1 T11001140,CXOY,2018-04-02T18:00:00Z,51.38,-110.35,-10.0,-14.0,350,3,,,,,,TRUE,TRUE,,,,,,,,,,,,,,,,,,,,,,,,,,,METAR,767.0
CXHR 021800Z AUTO 34005KT M10/M13 RMK AO1 T11021130,CXHR,2018-04-02T18:00:00Z,51.18,-112.5,-10.2,-13.0,340,5,,,,,,TRUE,TRUE,,,,,,,,,,,,,,,,,,,,,,,,,,,METAR,971.0
CXDP 021800Z AUTO 32010KT M09/M15 RMK AO1 T10871153 50023,CXDP,2018-04-02T18:00:00Z,54.32,-113.95,-8.7,-15.3,320,10,,,,,,TRUE,TRUE,,,,,,,,,,,,,,,,2.3,,,,,,,,,,,METAR,614.0
CXBR 021800Z AUTO 03007KT M10/M13 RMK AO1 T10971132,CXBR,2018-04-02T18:00:00Z,49.62,-113.82,-9.7,-13.2,30,7,,,,,,TRUE,TRUE,,,,,,,,,,,,,,,,,,,,,,,,,,,METAR,1073.0
CXAF 021800Z AUTO 32001KT M09/M16 RMK AO1 T10891155,CXAF,2018-04-02T18:00:00Z,54.28,-112.97,-8.9,-15.5,320,1,,,,,,TRUE,TRUE,,,,,,,,,,,,,,,,,,,,,,,,,,,METAR,664.0
CXSC 021800Z AUTO 03007KT M08/M12 RMK AO1 T10821122,CXSC,2018-04-02T18:00:00Z,50.3,-110.08,-8.2,-12.2,30,7,,,,,,TRUE,TRUE,,,,,,,,,,,,,,,,,,,,,,,,,,,METAR,800.0
CWZV 021800Z AUTO 28016KT 04/ RMK AO1 PK WND 29023/1724 SLP150 T0035 55007,CWZV,2018-04-02T18:00:00Z,51.93,-131.02,3.5,,280,16,,,,1015.0,,TRUE,TRUE,,,,,,,,,,,,,,,,-0.7,,,,,,,,,,,METAR,92.0
CWZL 021800Z AUTO 17013KT 04/01 RMK AO1 SLP141 T00390011 56014,CWZL,2018-04-02T18:00:00Z,53.03,-131.6,3.9,1.1,170,13,,,,1014.1,,TRUE,TRUE,,,,,,,,,,,,,,,,-1.4,,,,,,,,,,,METAR,17.0
CWXL 021800Z AUTO 36007KT M06/M13 RMK AO1 T10641130,CWXL,2018-04-02T18:00:00Z,49.73,-111.45,-6.4,-13.0,360,7,,,,,,TRUE,TRUE,,,,,,,,,,,,,,,,,,,,,,,,,,,METAR,817.0
CWWX 021800Z AUTO 29009KT M00/M07 RMK AO1 SLP186 T10021066 55002,CWWX,2018-04-02T18:00:00Z,45.32,-81.73,-0.2,-6.6,290,9,,,,1018.6,,TRUE,TRUE,,,,,,,,,,,,,,,,-0.2,,,,,,,,,,,METAR,181.0
CWHP 021800Z AUTO 26022KT M03/M06 RMK AO1 PK WND 25025/1717 SLP132 T10261057 51014,CWHP,2018-04-02T18:00:00Z,49.07,-61.7,-2.6,-5.7,260,22,,,,1013.2,,TRUE,TRUE,,,,,,,,,,,,,,,,1.4,,,,,,,,,,,METAR,4.0
CWDK 021800Z AUTO 36009KT M09/M12 RMK AO1 SOG 09 3019 SLP201 T10911123 50004,CWDK,2018-04-02T18:00:00Z,50.02,-113.62,-9.1,-12.3,360,9,,,,1020.1,,TRUE,TRUE,,,,,,,,,,,,,,,,0.4,,,,,,,,,,,METAR,1012.0
LPMT 021800Z 24010KT 9999 SCT015 16/14 Q1007,LPMT,2018-04-02T18:00:00Z,38.7,-9.05,16.0,14.0,240,10,,6.21,29.734253,,,,,,,,,,,SCT,1500,,,,,,,VFR,,,,,,,,,,,,METAR,11.0
K46U 021800Z AUTO 29012G19KT 1 1/4SM BR BKN003 01/00 A2958 RMK A01 P0003,K46U,2018-04-02T18:00:00Z,43.18,-111.05,1.0,0.0,290,12,19,1.25,29.58071,,,TRUE,TRUE,,,,,,BR,BKN,300,,,,,,,LIFR,,,,,,0.03,,,,,,SPECI,1717.0
WBKW 021800Z VRB02KT 9999 FEW017 BKN140 24/23 Q1010,WBKW,2018-04-02T18:00:00Z,4.32,118.12,24.0,23.0,0,2,,6.21,29.822834,,,,,,,,,,,FEW,1700,BKN,14000,,,,,VFR,,,,,,,,,,,,METAR,20.0
VAAU 021800Z 27003KT 6000 NSC 29/10 Q1012 NOSIG,VAAU,2018-04-02T18:00:00Z,19.85,75.4,29.0,10.0,270,3,,3.73,29.88189,,,,,,TRUE,,,,,CLR,,,,,,,,MVFR,,,,,,,,,,,,METAR,579.0
SBGO 021800Z 35008KT 9999 VCSH BKN045 FEW050TCU 29/20 Q1013,SBGO,2018-04-02T18:00:00Z,-16.62,-49.22,29.0,20.0,350,8,,6.21,29.911417,,,,,,,,,,VCSH,BKN,4500,FEW,5000,,,,,VFR,,,,,,,,,,,,METAR,747.0
SBFI 021800Z 21006KT 9999 SCT030 26/20 Q1012,SBFI,2018-04-02T18:00:00Z,-25.6,-54.48,26.0,20.0,210,6,,6.21,29.88189,,,,,,,,,,,SCT,3000,,,,,,,VFR,,,,,,,,,,,,METAR,243.0
MPBO 021800Z 01005KT 9999 SCT018 ///// Q1015,MPBO,2018-04-02T18:00:00Z,9.35,-82.25,,,10,5,,6.21,29.970472,,,,,,,,,,,SCT,1800,,,,,,,VFR,,,,,,,,,,,,METAR,3.0
MPSM 021800Z 16003KT 130V250 9999 FEW020 30/21 Q1010,MPSM,2018-04-02T18:00:00Z,8.35,-80.13,30.0,21.0,160,3,,6.21,29.822834,,,,,,,,,,,FEW,2000,,,,,,,VFR,,,,,,,,,,,,METAR,0.0
MPDA 021800Z 19009KT 9999 SCT020 32/20 Q1009,MPDA,2018-04-02T18:00:00Z,8.4,-82.43,32.0,20.0,190,9,,6.21,29.793306,,,,,,,,,,,SCT,2000,,,,,,,VFR,,,,,,,,,,,,METAR,27.0
MPPA 021800Z 02009KT 9999 FEW020 32/// Q1010,MPPA,2018-04-02T18:00:00Z,8.92,-79.6,,,20,9,,6.21,29.822834,,,,,,,,,,,FEW,2000,,,,,,,VFR,,,,,,,,,,,,METAR,13.0
MPMG 021800Z 33009KT 300V010 9999 FEW018 32/18 Q1010 NOSIG,MPMG,2018-04-02T18:00:00Z,8.98,-79.57,32.0,18.0,330,9,,6.21,29.822834,,,,,,TRUE,,,,,FEW,1800,,,,,,,VFR,,,,,,,,,,,,METAR,13.0
LFVP 021800Z 28021KT 9999 BKN025 02/M05 Q1013 NOSIG,LFVP,2018-04-02T18:00:00Z,46.77,-56.18,2.0,-5.0,280,21,,6.21,29.911417,,,,,,TRUE,,,,,BKN,2500,,,,,,,MVFR,,,,,,,,,,,,METAR,8.0
NGTA 021800Z 07009KT 9999 SCT07TCU SCT300 27/24 Q008,NGTA,2018-04-02T18:00:00Z,1.37,173.13,27.0,24.0,70,9,,6.21,,,,,,,,,,,,SCT,30000,,,,,,,VFR,,,,,,,,,,,,METAR,2.0
NCPY 021800Z AUTO 08006KT //// ////// 29/25 Q1011,NCPY,2018-04-02T18:00:00Z,-9.02,-158.07,29.0,25.0,80,6,,,29.852362,,,TRUE,,,,,,,,,,,,,,,,,,,,,,,,,,,,METAR,2.0
NCMH 021800Z AUTO NIL,NCMH,2018-04-02T18:00:00Z,-10.38,-161.0,,,,,,,,,,TRUE,,,,,,,,,,,,,,,,,,,,,,,,,,,,METAR,0.0
NCRG 021800Z 08006KT 9999 FEW021 BKN050 25/22 Q1013 RESHRA,NCRG,2018-04-02T18:00:00Z,-21.2,-159.82,25.0,22.0,80,6,,6.21,29.911417,,,,,,,,,,,FEW,2100,BKN,5000,,,,,VFR,,,,,,,,,,,,METAR,7.0
GOGK 021800Z 32006KT CAVOK 39/14 Q1005,GOGK,2018-04-02T18:00:00Z,12.9,-14.97,39.0,14.0,320,6,,6.21,29.675198,,,,,,,,,,,CAVOK,,,,,,,,VFR,,,,,,,,,,,,METAR,10.0
GOSM 021800Z 36002KT CAVOK 39/07 Q1004,GOSM,2018-04-02T18:00:00Z,15.6,-13.33,39.0,7.0,360,2,,6.21,29.64567,,,,,,,,,,,CAVOK,,,,,,,,VFR,,,,,,,,,,,,METAR,17.0
SVVA 021800Z 14005KT 9999 SCT016 33/20 Q1013,SVVA,2018-04-02T18:00:00Z,10.15,-67.92,33.0,20.0,140,5,,6.21,29.911417,,,,,,,,,,,SCT,1600,,,,,,,VFR,,,,,,,,,,,,METAR,431.0
HRYR 021800Z VRB02KT 9999 FEW023CB BKN025 21/17 Q1016 NOSIG,HRYR,2018-04-02T18:00:00Z,-1.97,30.12,21.0,17.0,0,2,,6.21,30.0,,,,,,TRUE,,,,,FEW,2300,BKN,2500,,,,,MVFR,,,,,,,,,,,,METAR,1497.0
HKNW 021800Z 03008KT 9999 BKN021 19/16 Q1019,HKNW,2018-04-02T18:00:00Z,-1.32,36.82,19.0,16.0,30,8,,6.21,30.088583,,,,,,,,,,,BKN,2100,,,,,,,MVFR,,,,,,,,,,,,METAR,1679.0
HKMO 021800Z 14004KT 9999 FEW024 28/25 Q1008 NOSIG,HKMO,2018-04-02T18:00:00Z,-4.02,39.62,28.0,25.0,140,4,,6.21,29.763779,,,,,,TRUE,,,,,FEW,2400,,,,,,,VFR,,,,,,,,,,,,METAR,55.0
HKJK 021800Z 02006KT 9999 SCT022 18/16 Q1018,HKJK,2018-04-02T18:00:00Z,-1.32,36.92,18.0,16.0,20,6,,6.21,30.059055,,,,,,,,,,,SCT,2200,,,,,,,VFR,,,,,,,,,,,,METAR,1624.0
HKEL 021800Z 09004KT 9999 FEW018CB BKN019 BKN080 16/14 Q1021,HKEL,2018-04-02T18:00:00Z,0.4,35.23,16.0,14.0,90,4,,6.21,30.147638,,,,,,,,,,,FEW,1800,BKN,1900,BKN,8000,,,MVFR,,,,,,,,,,,,METAR,2133.0
SYLT 021800Z 12012KT 9999 SCT028 34/23 Q//// NOSIG,SYLT,2018-04-02T18:00:00Z,3.37,-59.78,34.0,23.0,120,12,,6.21,,,,,,,TRUE,,,,,SCT,2800,,,,,,,VFR,,,,,,,,,,,,METAR,107.0
SVAC 021800Z /////KT 9999 SCT017 34/25 Q1011,SVAC,2018-04-02T18:00:00Z,9.55,-69.22,34.0,25.0,,,,6.21,29.852362,,,,,,,,,,,SCT,1700,,,,,,,VFR,,,,,,,,,,,,METAR,225.0
SVBS 021800Z 11004KT 9999 STC013 32/19 Q1011,SVBS,2018-04-02T18:00:00Z,10.25,-67.65,32.0,19.0,110,4,,6.21,29.852362,,,,,,,,,,,,,,,,,,,,,,,,,,,,,,,METAR,437.0
SVCR 021800Z /////KT 9999 SCT016 SCT070 31/23 Q1010,SVCR,2018-04-02T18:00:00Z,11.42,-69.67,31.0,23.0,,,,6.21,29.822834,,,,,,,,,,,SCT,1600,SCT,7000,,,,,VFR,,,,,,,,,,,,METAR,17.0
FMCH 021800Z 16004KT 9999 FEW020 BKN028 28/24 Q1011 NOSIG,FMCH,2018-04-02T18:00:00Z,-11.52,43.27,28.0,24.0,160,4,,6.21,29.852362,,,,,,TRUE,,,,,FEW,2000,BKN,2800,,,,,MVFR,,,,,,,,,,,,METAR,29.0
RPVP 021800Z 29004KT 9999 FEW020 25/23 Q1010 RMK A2983,RPVP,2018-04-02T18:00:00Z,9.75,118.72,25.0,23.0,290,4,,6.21,29.822834,,,,,,,,,,,FEW,2000,,,,,,,VFR,,,,,,,,,,,,METAR,16.0
RPVD 021800Z 00000KT 9999 FEW015 26/24 Q1009 RMK A2980,RPVD,2018-04-02T18:00:00Z,9.33,123.3,26.0,24.0,0,0,,6.21,29.793306,,,,,,,,,,,FEW,1500,,,,,,,VFR,,,,,,,,,,,,METAR,8.0
RPLC 021800Z 35002KT 9999 FEW020 BKN100 25/22 Q1012 NOSIG RMK A2988,RPLC,2018-04-02T18:00:00Z,15.17,120.58,25.0,22.0,350,2,,6.21,29.88189,,,,,,TRUE,,,,,FEW,2000,BKN,10000,,,,,VFR,,,,,,,,,,,,METAR,196.0
WMKP 021800Z 00000KT 8000 FEW017CB SCT140 BKN270 28/25 Q1009 NOSIG,WMKP,2018-04-02T18:00:00Z,5.28,100.27,28.0,25.0,0,0,,4.97,29.793306,,,,,,TRUE,,,,,FEW,1700,SCT,14000,BKN,27000,,,MVFR,,,,,,,,,,,,METAR,4.0
TQPF 021800Z 10008KT 9999 FEW020 28/19 Q1013,TQPF,2018-04-02T18:00:00Z,18.18,-63.03,28.0,19.0,100,8,,6.21,29.911417,,,,,,,,,,,FEW,2000,,,,,,,VFR,,,,,,,,,,,,METAR,31.0
TVSA 021800 09006KT 040V140 9999 SCT020 28/23 Q1012 NOSIG ,TVSA,2018-04-02T18:00:00Z,13.15,-61.15,28.0,23.0,90,6,,6.21,29.88189,,,,,,TRUE,,,,,SCT,2000,,,,,,,VFR,,,,,,,,,,,,METAR,17.0
NVSL 021800Z AUTO 25004KT //// // NCD 25/23 Q1006 RMK NIL,NVSL,2018-04-02T18:00:00Z,-16.45,167.83,25.0,23.0,250,4,,,29.704725,,,TRUE,,,,,,,,CLR,,,,,,,,,,,,,,,,,,,,METAR,26.0
NVSP 021800Z AUTO 29002KT //// // NCD 23/22 Q1006 RMK NIL,NVSP,2018-04-02T18:00:00Z,-16.08,167.4,23.0,22.0,290,2,,,29.704725,,,TRUE,,,,,,,,CLR,,,,,,,,,,,,,,,,,,,,METAR,7.0
NVSG 021800Z AUTO 31005KT //// // NCD 25/24 Q1008 RMK NIL,NVSG,2018-04-02T18:00:00Z,-15.3,167.97,25.0,24.0,310,5,,,29.763779,,,TRUE,,,,,,,,CLR,,,,,,,,,,,,,,,,,,,,METAR,51.0
NVSC 021800Z AUTO 02004KT //// // NCD 26/22 Q1007 RMK NIL,NVSC,2018-04-02T18:00:00Z,-13.83,167.55,26.0,22.0,20,4,,,29.734253,,,TRUE,,,,,,,,CLR,,,,,,,,,,,,,,,,,,,,SPECI,18.0
GFLL 021800Z 29008KT 9999 FEW014 29/24 Q1005,GFLL,2018-04-02T18:00:00Z,8.62,-13.18,29.0,24.0,290,8,,6.21,29.675198,,,,,,,,,,,FEW,1400,,,,,,,VFR,,,,,,,,,,,,METAR,27.0
SVSA 021800Z /////KT 8000 VHFG FEW017 SCT020 29/20 Q1032,SVSA,2018-04-02T18:00:00Z,7.83,-72.45,29.0,20.0,,,,4.97,30.47244,,,,,,,,,,FG,FEW,1700,SCT,2000,,,,,MVFR,,,,,,,,,,,,METAR,378.0
SVGD 021800Z /////KT 9999 SCT023 36/22 Q////,SVGD,2018-04-02T18:00:00Z,7.22,-70.75,36.0,22.0,,,,6.21,,,,,,,,,,,,SCT,2300,,,,,,,VFR,,,,,,,,,,,,METAR,131.0
SVMD 021800Z /////KT 9999 BKN017 24/17 Q1019,SVMD,2018-04-02T18:00:00Z,8.58,-71.17,24.0,17.0,,,,6.21,30.088583,,,,,,,,,,,BKN,1700,,,,,,,MVFR,,,,,,,,,,,,METAR,1498.0
SVGU 021800Z /////KT 9999 SCT023 32/21 Q1010,SVGU,2018-04-02T18:00:00Z,9.03,-69.75,32.0,21.0,,,,6.21,29.822834,,,,,,,,,,,SCT,2300,,,,,,,VFR,,,,,,,,,,,,METAR,163.0
NVVA 021800Z AUTO 03007KT //// // NCD 26/22 Q1008 RMK NIL,NVVA,2018-04-02T18:00:00Z,-20.25,169.77,26.0,22.0,30,7,,,29.763779,,,TRUE,,,,,,,,CLR,,,,,,,,,,,,,,,,,,,,METAR,3.0
NVVW 021800Z AUTO 14003KT //// // NCD 23/22 Q1007 RMK NIL,NVVW,2018-04-02T18:00:00Z,-19.45,169.22,23.0,22.0,140,3,,,29.734253,,,TRUE,,,,,,,,CLR,,,,,,,,,,,,,,,,,,,,METAR,6.0
NVVV 021800Z VRB02KT 9999 SCT020 BKN110 23/22 Q1007 RMK NIL,NVVV,2018-04-02T18:00:00Z,-17.68,168.3,23.0,22.0,0,2,,6.21,29.734253,,,,,,,,,,,SCT,2000,BKN,11000,,,,,VFR,,,,,,,,,,,,METAR,21.0
TDPD 021800Z 24004KT 9999 SCT018 BKN044 26/22 Q1013,TDPD,2018-04-02T18:00:00Z,15.55,-61.3,26.0,22.0,240,4,,6.21,29.911417,,,,,,,,,,,SCT,1800,BKN,4400,,,,,VFR,,,,,,,,,,,,METAR,14.0
SKRG 021800Z 12004KT 9999 VCSH BKN015TCU SCT080 20/14 A3023 RMK TCU VCSH S/SW/W,SKRG,2018-04-02T18:00:00Z,6.17,-75.42,20.0,14.0,120,4,,6.21,30.230314,,,,,,,,,,VCSH,BKN,1500,SCT,8000,,,,,MVFR,,,,,,,,,,,,METAR,2137.0
SKCC 021800Z 02008KT 8000 VCFG SCT015 BKN090 27/23 A2990 RMK VCFG NW,SKCC,2018-04-02T18:00:00Z,7.92,-72.52,27.0,23.0,20,8,,4.97,29.899607,,,,,,,,,,VCFG,SCT,1500,BKN,9000,,,,,MVFR,,,,,,,,,,,,METAR,317.0
SKCL 021800Z VRB02KT 9999 SCT013TCU BKN150 27/19 A2996 RMK TCU NW/N/NE,SKCL,2018-04-02T18:00:00Z,3.53,-76.37,27.0,19.0,0,2,,6.21,29.958662,,,,,,,,,,,SCT,1300,BKN,15000,,,,,VFR,,,,,,,,,,,,METAR,969.0
MRLM 021800Z 11007KT 9999 FEW030 28/21 A2988,MRLM,2018-04-02T18:00:00Z,9.97,-83.03,28.0,21.0,110,7,,6.21,29.878937,,,,,,,,,,,FEW,3000,,,,,,,VFR,,,,,,,,,,,,METAR,2.0
SBRF 021800Z 14009KT 9999 FEW020 29/23 Q1008,SBRF,2018-04-02T18:00:00Z,-8.13,-34.92,29.0,23.0,140,9,,6.21,29.763779,,,,,,,,,,,FEW,2000,,,,,,,VFR,,,,,,,,,,,,METAR,19.0
LEMO 021800Z 22009KT 190V260 9999 FEW033 SCT037 16/11 Q1009 NOSIG,LEMO,2018-04-02T18:00:00Z,37.17,-5.62,16.0,11.0,220,9,,6.21,29.793306,,,,,,TRUE,,,,,FEW,3300,SCT,3700,,,,,VFR,,,,,,,,,,,,METAR,88.0
TKPN 021800Z 09010KT 9999 BKN020 28/21 Q1013,TKPN,2018-04-02T18:00:00Z,17.18,-62.57,28.0,21.0,90,10,,6.21,29.911417,,,,,,,,,,,BKN,2000,,,,,,,MVFR,,,,,,,,,,,,METAR,17.0
UTST 021800Z 21006KT 9000 NSC 16/02 Q1016 R88/CLRD70 NOSIG,UTST,2018-04-02T18:00:00Z,37.28,67.32,16.0,2.0,210,6,,5.59,30.0,,,,,,TRUE,,,,,CLR,,,,,,,,VFR,,,,,,,,,,,,METAR,302.0
UTSS 021800Z 13010KT 6000 SCT061CB 11/06 Q1016 R09/CLRD70 NOSIG,UTSS,2018-04-02T18:00:00Z,39.7,66.98,11.0,6.0,130,10,,3.73,30.0,,,,,,TRUE,,,,,SCT,6100,,,,,,,MVFR,,,,,,,,,,,,METAR,724.0
UTSK 021800Z 21004KT 9999 FEW033CB 12/06 Q1015 R16/CLRD70,UTSK,2018-04-02T18:00:00Z,38.83,65.77,12.0,6.0,210,4,,6.21,29.970472,,,,,,,,,,,FEW,3300,,,,,,,VFR,,,,,,,,,,,,METAR,1365.0
UTSB 021800Z 31006KT CAVOK 13/06 Q1015 R01/CLRD70 NOSIG,UTSB,2018-04-02T18:00:00Z,39.77,64.48,13.0,6.0,310,6,,6.21,29.970472,,,,,,TRUE,,,,,CAVOK,,,,,,,,VFR,,,,,,,,,,,,METAR,226.0
UTNU 021800Z 01006KT 8000 NSC 11/03 Q1018 R31/CLRD70 NOSIG,UTNU,2018-04-02T18:00:00Z,41.58,60.63,11.0,3.0,10,6,,4.97,30.059055,,,,,,TRUE,,,,,CLR,,,,,,,,MVFR,,,,,,,,,,,,METAR,98.0
UTNN 021800Z 03012KT CAVOK 11/M09 Q1020 R33/CLRD60 NOSIG,UTNN,2018-04-02T18:00:00Z,42.48,59.63,11.0,-9.0,30,12,,6.21,30.11811,,,,,,TRUE,,,,,CAVOK,,,,,,,,VFR,,,,,,,,,,,,METAR,67.0
UTFN 021800Z 35002KT 6000 OVC050CB 14/09 Q1017 R28/CLRD70 NOSIG,UTFN,2018-04-02T18:00:00Z,40.98,71.57,14.0,9.0,350,2,,3.73,30.029528,,,,,,TRUE,,,,,OVC,5000,,,,,,,MVFR,,,,,,,,,,,,METAR,490.0
VIGR 021800Z 00000KT 4000 HZ NSC 27/14 Q1009,VIGR,2018-04-02T18:00:00Z,26.28,78.22,27.0,14.0,0,0,,2.49,29.793306,,,,,,,,,,HZ,CLR,,,,,,,,IFR,,,,,,,,,,,,METAR,189.0
FKKR 021800Z 08002KT 4500 HZ NSC 37/05 Q1004 NOSIG,FKKR,2018-04-02T18:00:00Z,9.32,13.37,37.0,5.0,80,2,,2.8,29.64567,,,,,,TRUE,,,,HZ,CLR,,,,,,,,IFR,,,,,,,,,,,,METAR,244.0
FKYS 021800Z /////KT 4000 HZ SCT010 24/23 Q1011 NOSIG,FKYS,2018-04-02T18:00:00Z,3.82,11.52,24.0,23.0,,,,2.49,29.852362,,,,,,TRUE,,,,HZ,SCT,1000,,,,,,,IFR,,,,,,,,,,,,METAR,760.0
FKKD 021800Z 12002KT 4000 HZ BKN013 FEW016CB 26/25 Q1006 NOSIG,FKKD,2018-04-02T18:00:00Z,4.0,9.72,26.0,25.0,120,2,,2.49,29.704725,,,,,,TRUE,,,,HZ,BKN,1300,FEW,1600,,,,,IFR,,,,,,,,,,,,METAR,9.0
FCBB 021800Z 27006KT 250V310 9999 TS FEW020 SCT023 FEW030CB 26/22 Q1008 NOSIG,FCBB,2018-04-02T18:00:00Z,-4.25,15.25,26.0,22.0,270,6,,6.21,29.763779,,,,,,TRUE,,,,TS,FEW,2000,SCT,2300,FEW,3000,,,VFR,,,,,,,,,,,,METAR,316.0
UTTT 021800Z 03006KT 4000 BR NSC 13/09 Q1016 R08R/CLRD70 NOSIG,UTTT,2018-04-02T18:00:00Z,41.27,69.27,13.0,9.0,30,6,,2.49,30.0,,,,,,TRUE,,,,BR,CLR,,,,,,,,IFR,,,,,,,,,,,,METAR,489.0
SAOC 021800Z 07012KT 9999 FEW025 SCT200 22/12 Q1016,SAOC,2018-04-02T18:00:00Z,-33.12,-64.27,22.0,12.0,70,12,,6.21,30.0,,,,,,,,,,,FEW,2500,SCT,20000,,,,,VFR,,,,,,,,,,,,METAR,421.0
CPRY 021800Z AUTO 34009KT M11/M12 RMK AO1 T11091122 50009,CPRY,2018-04-02T18:00:00Z,49.48,-112.68,-10.9,-12.2,340,9,,,,,,TRUE,TRUE,,,,,,,,,,,,,,,,0.9,,,,,,,,,,,METAR,937.0
CXMO 021800Z AUTO 22002KT M13/M17 RMK AO1 T11341174 50014,CXMO,2018-04-02T18:00:00Z,51.67,-112.68,-13.4,-17.4,220,2,,,,,,TRUE,TRUE,,,,,,,,,,,,,,,,1.4,,,,,,,,,,,METAR,836.0
CXOL 021800Z AUTO 28003KT M09/M13 RMK AO1 T10911133,CXOL,2018-04-02T18:00:00Z,51.77,-114.08,-9.1,-13.3,280,3,,,,,,TRUE,TRUE,,,,,,,,,,,,,,,,,,,,,,,,,,,METAR,1046.0
CXPL 021800Z AUTO 36006KT M12/M14 RMK AO1 T11181144,CXPL,2018-04-02T18:00:00Z,51.13,-111.7,-11.8,-14.4,360,6,,,,,,TRUE,TRUE,,,,,,,,,,,,,,,,,,,,,,,,,,,METAR,750.0
CXVM 021800Z AUTO 29002KT M10/M16 RMK AO1 T11041160,CXVM,2018-04-02T18:00:00Z,53.35,-110.88,-10.4,-16.0,290,2,,,,,,TRUE,TRUE,,,,,,,,,,,,,,,,,,,,,,,,,,,METAR,623.0
CZOL 021800Z AUTO 32008KT M08/M17 RMK AO1 T10821173,CZOL,2018-04-02T18:00:00Z,53.65,-113.35,-8.2,-17.3,320,8,,,,,,TRUE,TRUE,,,,,,,,,,,,,,,,,,,,,,,,,,,METAR,665.0
CZPS 021800Z AUTO 27005KT M09/M15 RMK AO1 T10921151,CZPS,2018-04-02T18:00:00Z,52.43,-113.6,-9.2,-15.1,270,5,,,,,,TRUE,TRUE,,,,,,,,,,,,,,,,,,,,,,,,,,,METAR,965.0
CXAG 021800Z AUTO 18003KT M12/M17 RMK AO1 T11211174,CXAG,2018-04-02T18:00:00Z,53.92,-112.28,-12.1,-17.4,180,3,,,,,,TRUE,TRUE,,,,,,,,,,,,,,,,,,,,,,,,,,,METAR,625.0
CXAJ 021800Z AUTO 33003KT M08/M16 RMK AO1 SOG 45 T10801159,CXAJ,2018-04-02T18:00:00Z,54.77,-112.82,-8.0,-15.9,330,3,,,,,,TRUE,TRUE,,,,,,,,,,,,,,,,,,,,,,,,,,,METAR,574.0
CXBA 021800Z AUTO 26006KT M07/M14 RMK AO1 T10661140,CXBA,2018-04-02T18:00:00Z,52.12,-110.1,-6.6,-14.0,260,6,,,,,,TRUE,TRUE,,,,,,,,,,,,,,,,,,,,,,,,,,,METAR,687.0
CXCS 021800Z AUTO 27007KT M09/M15 RMK AO1 T10891148,CXCS,2018-04-02T18:00:00Z,51.93,-110.72,-8.9,-14.8,270,7,,,,,,TRUE,TRUE,,,,,,,,,,,,,,,,,,,,,,,,,,,METAR,772.0
CWOC 021800Z AUTO 27014G20KT M02/M13 RMK AO1 PK WND 26025/1747 SLP161 T10191127 56008,CWOC,2018-04-02T18:00:00Z,48.02,-65.32,-1.9,-12.7,270,14,20,,,1016.1,,TRUE,TRUE,,,,,,,,,,,,,,,,-0.8,,,,,,,,,,,METAR,47.0
CWNQ 021800Z AUTO 23009KT 02/M09 RMK AO1 SLP180 T00161093 56013,CWNQ,2018-04-02T18:00:00Z,46.22,-72.65,1.6,-9.3,230,9,,,,1018.0,,TRUE,TRUE,,,,,,,,,,,,,,,,-1.3,,,,,,,,,,,METAR,10.0
CWNP 021800Z AUTO 09002KT 02/M03 RMK AO1 SOG 26 2033 SLP111 T00231027,CWNP,2018-04-02T18:00:00Z,50.27,-117.82,2.3,-2.7,90,2,,,,1011.1,,TRUE,TRUE,,,,,,,,,,,,,,,,,,,,,,,,,,,METAR,524.0
CWNM 021800Z AUTO 30004KT 04/M03 RMK AO1 2PAST HR 1035 SLP106 P0005 T00361027 50055,CWNM,2018-04-02T18:00:00Z,49.5,-117.28,3.6,-2.7,300,4,,,,1010.6,,TRUE,TRUE,,,,,,,,,,,,,,,,5.5,,,,,0.05,,,,,,METAR,535.0
CWNK 021800Z AUTO 02009KT M13/M19 RMK AO1 T11291190,CWNK,2018-04-02T18:00:00Z,49.5,-98.03,-12.9,-19.0,20,9,,,,,,TRUE,TRUE,,,,,,,,,,,,,,,,,,,,,,,,,,,METAR,268.0
CWNE 021800Z AUTO 28006KT M01/M08 RMK AO1 SLP160 T10101084 58007,CWNE,2018-04-02T18:00:00Z,47.07,-64.0,-1.0,-8.4,280,6,,,,1016.0,,TRUE,TRUE,,,,,,,,,,,,,,,,-0.7,,,,,,,,,,,METAR,15.0
CZZJ 021800Z AUTO 14001KT M04/M21 RMK AO1 SOG 31 1006 SLP201 T10381206,CZZJ,2018-04-02T18:00:00Z,53.58,-116.47,-3.8,-20.6,140,1,,,,1020.1,,TRUE,TRUE,,,,,,,,,,,,,,,,,,,,,,,,,,,METAR,927.0
CZTB 021800Z AUTO 30006KT M04/M14 RMK AO1 SOG 15 0004 SLP167 T10401136,CZTB,2018-04-02T18:00:00Z,48.37,-89.32,-4.0,-13.6,300,6,,,,1016.7,,TRUE,TRUE,,,,,,,,,,,,,,,,,,,,,,,,,,,METAR,199.0
CZMJ 021800Z AUTO 03005KT M07/M15 RMK AO1 SOG 04 1008 SLP197 T10721148,CZMJ,2018-04-02T18:00:00Z,50.33,-105.57,-7.2,-14.8,30,5,,,,1019.7,,TRUE,TRUE,,,,,,,,,,,,,,,,,,,,,,,,,,,METAR,577.0
CZKD 021800Z AUTO 27007KT M17/M26 RMK AO1 SOG 54 6010 SLP207 T11691255,CZKD,2018-04-02T18:00:00Z,56.03,-96.52,-16.9,-25.5,270,7,,,,1020.7,,TRUE,TRUE,,,,,,,,,,,,,,,,,,,,,,,,,,,METAR,183.0
CXZV 021800Z AUTO 29007KT M03/M20 RMK AO1 SOG 113 5001 SLP157 T10301196,CXZV,2018-04-02T18:00:00Z,50.22,-66.25,-3.0,-19.6,290,7,,,,1015.7,,TRUE,TRUE,,,,,,,,,,,,,,,,,,,,,,,,,,,METAR,52.0
CXVN 021800Z AUTO 35007KT 04/M04 RMK AO1 SLP189 T00361037 58010,CXVN,2018-04-02T18:00:00Z,43.18,-79.4,3.6,-3.7,350,7,,,,1018.9,,TRUE,TRUE,,,,,,,,,,,,,,,,-1.0,,,,,,,,,,,METAR,79.0
CXTO 021800Z AUTO 05/M08 RMK AO1 SLP194 T00501076 55005,CXTO,2018-04-02T18:00:00Z,43.67,-79.4,5.0,-7.6,,,,,,1019.4,,TRUE,TRUE,,,,,,,,,,,,,,,,-0.5,,,,,,,,,,,METAR,113.0
CXTD 021800Z AUTO 02009KT M00/M07 RMK AO1 SLP177 T10031070 56002,CXTD,2018-04-02T18:00:00Z,45.62,-61.68,-0.3,-7.0,20,9,,,,1017.7,,TRUE,TRUE,,,,,,,,,,,,,,,,-0.2,,,,,,,,,,,METAR,68.0
CXRL 021800Z AUTO 14003KT M06/M15 RMK AO1 T10621154 50005,CXRL,2018-04-02T18:00:00Z,54.5,-111.7,-6.2,-15.4,140,3,,,,,,TRUE,TRUE,,,,,,,,,,,,,,,,0.5,,,,,,,,,,,METAR,585.0
CXLB 021800Z AUTO 23007KT 03/M07 RMK AO1 SLP169 T00281073 55009,CXLB,2018-04-02T18:00:00Z,44.37,-64.3,2.8,-7.3,230,7,,,,1016.9,,TRUE,TRUE,,,,,,,,,,,,,,,,-0.9,,,,,,,,,,,METAR,4.0
CXKM 021800Z AUTO 26006KT M11/M16 RMK AO1 T11061164,CXKM,2018-04-02T18:00:00Z,52.82,-111.85,-10.6,-16.4,260,6,,,,,,TRUE,TRUE,,,,,,,,,,,,,,,,,,,,,,,,,,,METAR,675.0
CXFR 021800Z AUTO 36006KT M09/M16 RMK AO1 T10881164,CXFR,2018-04-02T18:00:00Z,56.08,-118.43,-8.8,-16.4,360,6,,,,,,TRUE,TRUE,,,,,,,,,,,,,,,,,,,,,,,,,,,METAR,655.0
CXCP 021800Z AUTO 34011KT M10/M12 RMK AO1 T11031123,CXCP,2018-04-02T18:00:00Z,50.28,-113.35,-10.3,-12.3,340,11,,,,,,TRUE,TRUE,,,,,,,,,,,,,,,,,,,,,,,,,,,METAR,1006.0
CXVW 021800Z AUTO 33008KT M10/M16 RMK AO1 T10961162,CXVW,2018-04-02T18:00:00Z,55.1,-117.2,-9.6,-16.2,330,8,,,,,,TRUE,TRUE,,,,,,,,,,,,,,,,,,,,,,,,,,,METAR,698.0
CXSP 021800Z AUTO 14006KT M07/M16 RMK AO1 T10671155 50021,CXSP,2018-04-02T18:00:00Z,54.02,-111.27,-6.7,-15.5,140,6,,,,,,TRUE,TRUE,,,,,,,,,,,,,,,,2.1,,,,,,,,,,,METAR,649.0
CXSL 021800Z AUTO 22002KT M05/M18 RMK AO1 T10471177,CXSL,2018-04-02T18:00:00Z,54.28,-112.5,-4.7,-17.7,220,2,,,,,,TRUE,TRUE,,,,,,,,,,,,,,,,,,,,,,,,,,,METAR,680.0
CXHD 021800Z AUTO 22006KT M10/M16 RMK AO1 T10961158,CXHD,2018-04-02T18:00:00Z,53.18,-112.25,-9.6,-15.8,220,6,,,,,,TRUE,TRUE,,,,,,,,,,,,,,,,,,,,,,,,,,,METAR,688.0
CPXL 021800Z AUTO 01007KT M08/M13 RMK AO1 T10761129,CPXL,2018-04-02T18:00:00Z,49.87,-111.38,-7.6,-12.9,10,7,,,,,,TRUE,TRUE,,,,,,,,,,,,,,,,,,,,,,,,,,,METAR,799.0
CPSV 021800Z AUTO 03008KT M07/M12 RMK AO1 T10731120,CPSV,2018-04-02T18:00:00Z,49.92,-110.92,-7.3,-12.0,30,8,,,,,,TRUE,TRUE,,,,,,,,,,,,,,,,,,,,,,,,,,,METAR,766.0
CPST 021800Z AUTO 35006KT M10/M15 RMK AO1 T11031146,CPST,2018-04-02T18:00:00Z,51.03,-113.28,-10.3,-14.6,350,6,,,,,,TRUE,TRUE,,,,,,,,,,,,,,,,,,,,,,,,,,,METAR,967.0
CPRO 021800Z AUTO 36005KT M11/M15 RMK AO1 T11101152,CPRO,2018-04-02T18:00:00Z,50.83,-112.05,-11.0,-15.2,360,5,,,,,,TRUE,TRUE,,,,,,,,,,,,,,,,,,,,,,,,,,,METAR,714.0
CPFI 021800Z AUTO 35008KT M10/M14 RMK AO1 T11001136,CPFI,2018-04-02T18:00:00Z,49.8,-112.03,-10.0,-13.6,350,8,,,,,,TRUE,TRUE,,,,,,,,,,,,,,,,,,,,,,,,,,,METAR,833.0
CPEH 021800Z AUTO 36009KT M10/M13 RMK AO1 T10991133,CPEH,2018-04-02T18:00:00Z,50.18,-112.43,-9.9,-13.3,360,9,,,,,,TRUE,TRUE,,,,,,,,,,,,,,,,,,,,,,,,,,,METAR,801.0
CWRM 021800Z AUTO 26003KT M07/M20 RMK AO1 SOG 44 2007 SLP196 T10721195,CWRM,2018-04-02T18:00:00Z,52.42,-114.92,-7.2,-19.5,260,3,,,,1019.6,,TRUE,TRUE,,,,,,,,,,,,,,,,,,,,,,,,,,,METAR,988.0
CWZW 021800Z AUTO 02005KT M07/M14 RMK AO1 SOG 49 8003 SLP226 T10671143,CWZW,2018-04-02T18:00:00Z,60.17,-132.73,-6.7,-14.3,20,5,,,,1022.6,,TRUE,TRUE,,,,,,,,,,,,,,,,,,,,,,,,,,,METAR,705.0
CWVT 021800Z AUTO 10002KT M12/M19 RMK AO1 SOG 33 1005 SLP224 T11151187,CWVT,2018-04-02T18:00:00Z,55.82,-108.42,-11.5,-18.7,100,2,,,,1022.4,,TRUE,TRUE,,,,,,,,,,,,,,,,,,,,,,,,,,,METAR,434.0
CWZG 021800Z AUTO 03004KT M07/M18 RMK AO1 SOG 28 1009 SLP166 T10731179 50005,CWZG,2018-04-02T18:00:00Z,51.2,-115.53,-7.3,-17.9,30,4,,,,1016.6,,TRUE,TRUE,,,,,,,,,,,,,,,,0.5,,,,,,,,,,,METAR,1397.0
CWLP 021800Z AUTO 10001KT 05/M01 RMK AO1 SLP165 T00491008 51003,CWLP,2018-04-02T18:00:00Z,50.93,-127.63,4.9,-0.8,100,1,,,,1016.5,,TRUE,TRUE,,,,,,,,,,,,,,,,0.3,,,,,,,,,,,METAR,17.0
CWJD 021800Z AUTO 07003KT M13/M25 RMK AO1 SOG 50 8004 SLP238 T11331253,CWJD,2018-04-02T18:00:00Z,53.17,-99.27,-13.3,-25.3,70,3,,,,1023.8,,TRUE,TRUE,,,,,,,,,,,,,,,,,,,,,,,,,,,METAR,223.0
CWEQ 021800Z AUTO 23002KT M14/M24 RMK AO1 SOG 24 0003 SLP224 T11411240,CWEQ,2018-04-02T18:00:00Z,52.12,-101.22,-14.1,-24.0,230,2,,,,1022.4,,TRUE,TRUE,,,,,,,,,,,,,,,,,,,,,,,,,,,METAR,335.0
CWOY 021800Z AUTO 34004KT M13/M17 RMK AO1 SOG 14 2011 SLP204 T11261172,CWOY,2018-04-02T18:00:00Z,51.77,-104.2,-12.6,-17.2,340,4,,,,1020.4,,TRUE,TRUE,,,,,,,,,,,,,,,,,,,,,,,,,,,METAR,560.0
CWKO 021800Z AUTO 04006KT M10/M15 RMK AO1 SOG 24 1014 SLP163 T11041148,CWKO,2018-04-02T18:00:00Z,49.17,-105.97,-10.4,-14.8,40,6,,,,1016.3,,TRUE,TRUE,,,,,,,,,,,,,,,,,,,,,,,,,,,METAR,917.0
CWEH 021800Z AUTO 07012KT M12/ RMK AO1 SOG 84 3017 PK WND 07018/1718 SLP165 T1121,CWEH,2018-04-02T18:00:00Z,49.42,-108.97,-12.1,,70,12,,,,1016.5,,TRUE,TRUE,,,,,,,,,,,,,,,,,,,,,,,,,,,METAR,1078.0
CWDC 021800Z AUTO 19003KT M16/M28 RMK AO1 SOG 54 0000 SLP236 T11611276,CWDC,2018-04-02T18:00:00Z,59.57,-108.47,-16.1,-27.6,190,3,,,,1023.6,,TRUE,TRUE,,,,,,,,,,,,,,,,,,,,,,,,,,,METAR,318.0
CWLB 021800Z AUTO 07003KT M07/M19 RMK AO1 SOG 14 1004 SLP191 T10701188,CWLB,2018-04-02T18:00:00Z,54.77,-112.02,-7.0,-18.8,70,3,,,,1019.1,,TRUE,TRUE,,,,,,,,,,,,,,,,,,,,,,,,,,,METAR,567.0
CWCT 021800Z AUTO 27005KT M10/M18 RMK AO1 SOG 14 2015 SLP207 T11041178,CWCT,2018-04-02T18:00:00Z,52.07,-111.47,-10.4,-17.8,270,5,,,,1020.7,,TRUE,TRUE,,,,,,,,,,,,,,,,,,,,,,,,,,,METAR,791.0
CWNZ 021800Z AUTO 31006KT M12/M19 RMK AO1 SOG 60 3018 SLP176 T11201194,CWNZ,2018-04-02T18:00:00Z,49.75,-84.17,-12.0,-19.4,310,6,,,,1017.6,,TRUE,TRUE,,,,,,,,,,,,,,,,,,,,,,,,,,,METAR,256.0
CWNC 021800Z AUTO 24010KT 03/M03 RMK AO1 SLP186 T00331027 58012,CWNC,2018-04-02T18:00:00Z,43.95,-78.17,3.3,-2.7,240,10,,,,1018.6,,TRUE,TRUE,,,,,,,,,,,,,,,,-1.2,,,,,,,,,,,METAR,78.0
CWWB 021800Z AUTO 04/M09 RMK AO1 SLP197 T00421092 56007,CWWB,2018-04-02T18:00:00Z,43.3,-79.78,4.2,-9.2,,,,,,1019.7,,TRUE,TRUE,,,,,,,,,,,,,,,,-0.7,,,,,,,,,,,METAR,76.0
CWWZ 021800Z AUTO 32005KT 05/M03 RMK AO1 SLP196 T00481030 58011,CWWZ,2018-04-02T18:00:00Z,43.25,-79.22,4.8,-3.0,320,5,,,,1019.6,,TRUE,TRUE,,,,,,,,,,,,,,,,-1.1,,,,,,,,,,,METAR,79.0
CWPO 021800Z AUTO 06012G18KT M12/M19 RMK AO1 SOG 00 8002 PK WND 07018/1753 SLP196 T11171190,CWPO,2018-04-02T18:00:00Z,49.2,-98.9,-11.7,-19.0,60,12,18,,,1019.6,,TRUE,TRUE,,,,,,,,,,,,,,,,,,,,,,,,,,,METAR,470.0
CWPC 021800Z AUTO 24013KT M00/M05 RMK AO1 SLP205 T10041051 58002,CWPC,2018-04-02T18:00:00Z,42.87,-79.25,-0.4,-5.1,240,13,,,,1020.5,,TRUE,TRUE,,,,,,,,,,,,,,,,-0.2,,,,,,,,,,,METAR,184.0
CWLS 021800Z AUTO 24008G15KT 01/M08 RMK AO1 SLP196 T00131080 57006,CWLS,2018-04-02T18:00:00Z,43.97,-80.75,1.3,-8.0,240,8,15,,,1019.6,,TRUE,TRUE,,,,,,,,,,,,,,,,-0.6,,,,,,,,,,,METAR,415.0
CWBE 021800Z AUTO 22016KT M01/M08 RMK AO1 PK WND 22020/1724 SLP194 T10071084 55007,CWBE,2018-04-02T18:00:00Z,45.98,-81.48,-0.7,-8.4,220,16,,,,1019.4,,TRUE,TRUE,,,,,,,,,,,,,,,,-0.7,,,,,,,,,,,METAR,196.0
CTCK 021800Z AUTO 21007KT 03/M07 RMK AO1 SOG 00 8010 PK WND 22017/1748 SLP186 T00301074,CTCK,2018-04-02T18:00:00Z,45.25,-74.97,3.0,-7.4,210,7,,,,1018.6,,TRUE,TRUE,,,,,,,,,,,,,,,,,,,,,,,,,,,METAR,85.0
CWGM 021800Z AUTO 05007KT M11/M14 RMK AO1 T11141137 50017,CWGM,2018-04-02T18:00:00Z,49.13,-113.78,-11.4,-13.7,50,7,,,,,,TRUE,TRUE,,,,,,,,,,,,,,,,1.7,,,,,,,,,,,METAR,1296.0
CWGL 021800Z AUTO 20006KT M01/M07 RMK AO1 SLP192 T10051071 55005,CWGL,2018-04-02T18:00:00Z,44.52,-79.22,-0.5,-7.1,200,6,,,,1019.2,,TRUE,TRUE,,,,,,,,,,,,,,,,-0.5,,,,,,,,,,,METAR,221.0
CWGD 021800Z AUTO 23010KT M00/M07 RMK AO1 SLP203 T10031069 58005,CWGD,2018-04-02T18:00:00Z,43.77,-81.72,-0.3,-6.9,230,10,,,,1020.3,,TRUE,TRUE,,,,,,,,,,,,,,,,-0.5,,,,,,,,,,,METAR,214.0
CWGB 021800Z AUTO 30015KT 06/01 RMK AO1 PK WND 29023/1700 SLP159 T00550011 51023,CWGB,2018-04-02T18:00:00Z,49.35,-124.17,5.5,1.1,300,15,,,,1015.9,,TRUE,TRUE,,,,,,,,,,,,,,,,2.3,,,,,,,,,,,METAR,5.0
CWFQ 021800Z AUTO 32004KT 03/M11 RMK AO1 SLP184 T00281112 56006,CWFQ,2018-04-02T18:00:00Z,45.03,-72.82,2.8,-11.2,320,4,,,,1018.4,,TRUE,TRUE,,,,,,,,,,,,,,,,-0.6,,,,,,,,,,,METAR,152.0
CWFJ 021800Z AUTO 35007KT M09/M12 RMK AO1 T10921116 50011,CWFJ,2018-04-02T18:00:00Z,49.2,-113.27,-9.2,-11.6,350,7,,,,,,TRUE,TRUE,,,,,,,,,,,,,,,,1.1,,,,,,,,,,,METAR,1136.0
CWEZ 021800Z AUTO 30003KT 08/01 RMK AO1 SLP167 T00820009 52027,CWEZ,2018-04-02T18:00:00Z,48.78,-123.05,8.2,0.9,300,3,,,,1016.7,,TRUE,TRUE,,,,,,,,,,,,,,,,2.7,,,,,,,,,,,METAR,7.0
CWEW 021800Z AUTO 22010G17KT 04/M08 RMK AO1 PK WND 24017/1753 SLP194 T00411082 56004,CWEW,2018-04-02T18:00:00Z,45.82,-73.43,4.1,-8.2,220,10,17,,,1019.4,,TRUE,TRUE,,,,,,,,,,,,,,,,-0.4,,,,,,,,,,,METAR,21.0
CWEL 021800Z AUTO 33019KT 06/M00 RMK AO1 PK WND 33026/1727 SLP164 T00611001 51023,CWEL,2018-04-02T18:00:00Z,49.22,-123.78,6.1,-0.1,330,19,,,,1016.4,,TRUE,TRUE,,,,,,,,,,,,,,,,2.3,,,,,,,,,,,METAR,5.0
CWEB 021800Z AUTO 32011KT 07/M02 RMK AO1 SLP162 T00731018 58005,CWEB,2018-04-02T18:00:00Z,49.38,-126.55,7.3,-1.8,320,11,,,,1016.2,,TRUE,TRUE,,,,,,,,,,,,,,,,-0.5,,,,,,,,,,,METAR,7.0
CZSP 021800Z AUTO 29010G15KT M00/M08 RMK AO1 SOG 00 6006 SLP177 T10041079,CZSP,2018-04-02T18:00:00Z,46.45,-62.58,-0.4,-7.9,290,10,15,,,1017.7,,TRUE,TRUE,,,,,,,,,,,,,,,,,,,,,,,,,,,METAR,30.0
CZDB 021800Z AUTO 24013KT 01/M10 RMK AO1 PK WND 27017/1710 SLP175 T00111099 56006,CZDB,2018-04-02T18:00:00Z,45.42,-63.47,1.1,-9.9,240,13,,,,1017.5,,TRUE,TRUE,,,,,,,,,,,,,,,,-0.6,,,,,,,,,,,METAR,38.0
CZCR 021800Z AUTO 29013G18KT M02/M12 RMK AO1 SOG 89 6009 PK WND 30019/1737 SLP174 T10201120,CZCR,2018-04-02T18:00:00Z,47.97,-66.32,-2.0,-12.0,290,13,18,,,1017.4,,TRUE,TRUE,,,,,,,,,,,,,,,,,,,,,,,,,,,METAR,38.0
CWXI 021800Z AUTO 27014G19KT M02/M08 RMK AO1 SOG 22 1022 PK WND 27020/1721 SLP059 T10211084,CWXI,2018-04-02T18:00:00Z,51.02,-57.1,-2.1,-8.4,270,14,19,,,1005.9,,TRUE,TRUE,,,,,,,,,,,,,,,,,,,,,,,,,,,METAR,6.0
CWBK 021800Z AUTO 33012KT 01/M07 RMK AO1 SOG 03 8006 SLP169 T00051070,CWBK,2018-04-02T18:00:00Z,45.77,-62.67,0.5,-7.0,330,12,,,,1016.9,,TRUE,TRUE,,,,,,,,,,,,,,,,,,,,,,,,,,,METAR,2.0
CERM 021800Z AUTO 29005KT M01/M13 RMK AO1 SOG 57 6016 SLP174 T10061132,CERM,2018-04-02T18:00:00Z,47.42,-68.32,-0.6,-13.2,290,5,,,,1017.4,,TRUE,TRUE,,,,,,,,,,,,,,,,,,,,,,,,,,,METAR,154.0
CWMQ 021800Z AUTO 04006KT M08/M14 RMK AO1 SOG 00 3013 SLP186 T10821137,CWMQ,2018-04-02T18:00:00Z,49.9,-109.47,-8.2,-13.7,40,6,,,,1018.6,,TRUE,TRUE,,,,,,,,,,,,,,,,,,,,,,,,,,,METAR,767.0
CWMM 021800Z AUTO 14005KT 06/01 RMK AO1 SOG 00 1022 SLP168 T00640011 50001,CWMM,2018-04-02T18:00:00Z,49.22,-122.68,6.4,1.1,140,5,,,,1016.8,,TRUE,TRUE,,,,,,,,,,,,,,,,0.1,,,,,,,,,,,METAR,5.0
CWLM 021800Z AUTO 25009KT 09/02 RMK AO1 PK WND 25017/1714 SLP171 T00880016 51022,CWLM,2018-04-02T18:00:00Z,48.42,-123.32,8.8,1.6,250,9,,,,1017.1,,TRUE,TRUE,,,,,,,,,,,,,,,,2.2,,,,,,,,,,,METAR,70.0
CWLE 021800Z AUTO 03004KT M08/M14 RMK AO1 SOG 00 3011 SLP195 T10811138 50002,CWLE,2018-04-02T18:00:00Z,50.95,-107.15,-8.1,-13.8,30,4,,,,1019.5,,TRUE,TRUE,,,,,,,,,,,,,,,,0.2,,,,,,,,,,,METAR,665.0
CWLC 021800Z AUTO 15015KT 01/M00 RMK AO1 PK WND 16020/1738 T00131003,CWLC,2018-04-02T18:00:00Z,54.3,-130.62,1.3,-0.3,150,15,,,,,,TRUE,TRUE,,,,,,,,,,,,,,,,,,,,,,,,,,,METAR,27.0
CWKX 021800Z AUTO 36005KT M04/M17 RMK AO1 SOG 37 6010 SLP163 T10391173,CWKX,2018-04-02T18:00:00Z,58.43,-130.02,-3.9,-17.3,360,5,,,,1016.3,,TRUE,TRUE,,,,,,,,,,,,,,,,,,,,,,,,,,,METAR,793.0
CWKH 021800Z AUTO 06/M04 RMK AO1 SLP151 T00641043 51021,CWKH,2018-04-02T18:00:00Z,48.57,-123.55,6.4,-4.3,,,,,,1015.1,,TRUE,TRUE,,,,,,,,,,,,,,,,2.1,,,,,,,,,,,METAR,366.0
CWKG 021800Z AUTO 30004KT 02/M11 RMK AO1 SLP184 T00161108 56010,CWKG,2018-04-02T18:00:00Z,44.43,-65.2,1.6,-10.8,300,4,,,,1018.4,,TRUE,TRUE,,,,,,,,,,,,,,,,-1.0,,,,,,,,,,,METAR,165.0
CWJX 021800Z AUTO 36004KT M10/M14 RMK AO1 SOG 02 0009 SLP195 T10961144,CWJX,2018-04-02T18:00:00Z,50.88,-109.5,-9.6,-14.4,360,4,,,,1019.5,,TRUE,TRUE,,,,,,,,,,,,,,,,,,,,,,,,,,,METAR,672.0
CWJW 021800Z AUTO 34010G16KT M05/M18 RMK AO1 SOG 02 1002 PK WND 34018/1719 SLP167 T10481179,CWJW,2018-04-02T18:00:00Z,52.93,-118.03,-4.8,-17.9,340,10,16,,,1016.7,,TRUE,TRUE,,,,,,,,,,,,,,,,,,,,,,,,,,,METAR,1020.0
CWJV 021800Z AUTO 27004KT 02/M06 RMK AO1 1030 SLP140 T00191058 50002,CWJV,2018-04-02T18:00:00Z,50.22,-119.18,1.9,-5.8,270,4,,,,1014.0,,TRUE,TRUE,,,,,,,,,,,,,,,,0.2,,,,,,,,,,,METAR,556.0
CWJT 021800Z AUTO 22006KT 01/M08 RMK AO1 SLP186 T00081078 58004,CWJT,2018-04-02T18:00:00Z,46.07,-74.57,0.8,-7.8,220,6,,,,1018.6,,TRUE,TRUE,,,,,,,,,,,,,,,,-0.4,,,,,,,,,,,METAR,239.0
CWJR 021800Z AUTO 09002KT M00/01 RMK AO1 1PAST HR 2042 SLP134 P0012 T10020005 50078,CWJR,2018-04-02T18:00:00Z,49.07,-116.5,-0.2,0.5,90,2,,,,1013.4,,TRUE,TRUE,,,,,,,,,,,,,,,,7.8,,,,,0.12,,,,,,METAR,646.0
CWJI 021800Z AUTO 08009KT M10/M17 RMK AO1 SOG 03 1011 SLP178 T10991173,CWJI,2018-04-02T18:00:00Z,49.72,-105.92,-9.9,-17.3,80,9,,,,1017.8,,TRUE,TRUE,,,,,,,,,,,,,,,,,,,,,,,,,,,METAR,724.0
CWDZ 021800Z AUTO 30002KT M10/M17 RMK AO1 T10971170,CWDZ,2018-04-02T18:00:00Z,51.42,-112.67,-9.7,-17.0,300,2,,,,,,TRUE,TRUE,,,,,,,,,,,,,,,,,,,,,,,,,,,METAR,678.0
CWDJ 021800Z AUTO 22006KT M11/M15 RMK AO1 SOG 09 3009 SLP192 T11061154,CWDJ,2018-04-02T18:00:00Z,50.4,-104.58,-10.6,-15.4,220,6,,,,1019.2,,TRUE,TRUE,,,,,,,,,,,,,,,,,,,,,,,,,,,METAR,573.0
CWCO 021800Z AUTO 29006KT 04/M07 RMK AO1 2PAST HR 5011 SLP190 P0001 T00411070 50002,CWCO,2018-04-02T18:00:00Z,44.45,-80.17,4.1,-7.0,290,6,,,,1019.0,,TRUE,TRUE,,,,,,,,,,,,,,,,0.2,,,,,0.01,,,,,,METAR,221.0
CWCJ 021800Z AUTO 28005KT M05/M18 RMK AO1 SOG 42 1012 SLP160 T10491182,CWCJ,2018-04-02T18:00:00Z,48.6,-86.28,-4.9,-18.2,280,5,,,,1016.0,,TRUE,TRUE,,,,,,,,,,,,,,,,,,,,,,,,,,,METAR,206.0
LERT 021800Z 21008KT 170V240 9999 SCT031 17/14 Q1010 NOSIG,LERT,2018-04-02T18:00:00Z,36.63,-6.33,17.0,14.0,210,8,,6.21,29.822834,,,,,,TRUE,,,,,SCT,3100,,,,,,,VFR,,,,,,,,,,,,SPECI,26.0
SLTR 021800Z 21003KT 8000 VCSH SCT020 FEW023CB BKN200 31/24 Q1010,SLTR,2018-04-02T18:00:00Z,-14.83,-64.92,31.0,24.0,210,3,,4.97,29.822834,,,,,,,,,,VCSH,SCT,2000,FEW,2300,BKN,20000,,,MVFR,,,,,,,,,,,,SPECI,157.0
SLTJ 021800Z 15009KT 9999 BKN027 21/12 Q1019,SLTJ,2018-04-02T18:00:00Z,-21.55,-64.72,21.0,12.0,150,9,,6.21,30.088583,,,,,,,,,,,BKN,2700,,,,,,,MVFR,,,,,,,,,,,,SPECI,1858.0
SLYA 021800Z 21006KT 9999 SCT023 25/22 Q1015,SLYA,2018-04-02T18:00:00Z,-21.97,-63.65,25.0,22.0,210,6,,6.21,29.970472,,,,,,,,,,,SCT,2300,,,,,,,VFR,,,,,,,,,,,,SPECI,645.0
SLVM 021800Z 18003KT 9999 FEW023 26/21 Q1013,SLVM,2018-04-02T18:00:00Z,-21.25,-63.4,26.0,21.0,180,3,,6.21,29.911417,,,,,,,,,,,FEW,2300,,,,,,,VFR,,,,,,,,,,,,SPECI,400.0
SLSI 021800Z 00000KT 9999 SCT017 29/24 Q1012,SLSI,2018-04-02T18:00:00Z,-16.37,-60.95,29.0,24.0,0,0,,6.21,29.88189,,,,,,,,,,,SCT,1700,,,,,,,VFR,,,,,,,,,,,,SPECI,413.0
SLSA 021800Z 09005KT 9999 SCT020 FEW023CB BKN200 32/23 Q1010,SLSA,2018-04-02T18:00:00Z,-13.77,-65.43,32.0,23.0,90,5,,6.21,29.822834,,,,,,,,,,,SCT,2000,FEW,2300,BKN,20000,,,VFR,,,,,,,,,,,,SPECI,144.0
SLRY 021800Z 00000KT 9999 FEW015 BKN080 BKN200 25/24 Q1009,SLRY,2018-04-02T18:00:00Z,-14.3,-67.37,25.0,24.0,0,0,,6.21,29.793306,,,,,,,,,,,FEW,1500,BKN,8000,BKN,20000,,,VFR,,,,,,,,,,,,SPECI,280.0
SLRQ 021800Z 00000KT 9999 FEW015 SCT080 BKN200 28/25 Q1010,SLRQ,2018-04-02T18:00:00Z,-14.42,-67.5,28.0,25.0,0,0,,6.21,29.822834,,,,,,,,,,,FEW,1500,SCT,8000,BKN,20000,,,VFR,,,,,,,,,,,,SPECI,203.0
SLRI 021800Z 34006KT 9999 SCT017 BKN200 32/24 Q1009,SLRI,2018-04-02T18:00:00Z,-11.02,-66.08,32.0,24.0,340,6,,6.21,29.793306,,,,,,,,,,,SCT,1700,BKN,20000,,,,,VFR,,,,,,,,,,,,SPECI,135.0
SLRB 021800Z 00000KT 9999 BKN017 29/22 Q1014,SLRB,2018-04-02T18:00:00Z,-18.32,-59.75,29.0,22.0,0,0,,6.21,29.940945,,,,,,,,,,,BKN,1700,,,,,,,MVFR,,,,,,,,,,,,SPECI,284.0
SLPS 021800Z 00000KT 4000 RA BKN015 FEW030CB OVC070 26/25 Q1012,SLPS,2018-04-02T18:00:00Z,-18.98,-57.82,26.0,25.0,0,0,,2.49,29.88189,,,,,,,,,,RA,BKN,1500,FEW,3000,OVC,7000,,,IFR,,,,,,,,,,,,SPECI,135.0
SLOR 021800Z 29008KT 9999 SCT017 18/04 Q1031,SLOR,2018-04-02T18:00:00Z,-17.97,-67.08,18.0,4.0,290,8,,6.21,30.442913,,,,,,,,,,,SCT,1700,,,,,,,VFR,,,,,,,,,,,,SPECI,3702.0
SLMG 021800Z 14004KT 9999 SCT017 BKN200 31/23 Q1010,SLMG,2018-04-02T18:00:00Z,-13.27,-64.07,31.0,23.0,140,4,,6.21,29.822834,,,,,,,,,,,SCT,1700,BKN,20000,,,,,VFR,,,,,,,,,,,,SPECI,141.0
SLJO 021800Z 16004KT 9999 SCT017 30/24 Q1012,SLJO,2018-04-02T18:00:00Z,-13.07,-64.67,30.0,24.0,160,4,,6.21,29.88189,,,,,,,,,,,SCT,1700,,,,,,,VFR,,,,,,,,,,,,SPECI,140.0
SLJE 021800Z 17006KT 9999 FEW017 BKN070 30/22 Q1015,SLJE,2018-04-02T18:00:00Z,-17.82,-60.75,30.0,22.0,170,6,,6.21,29.970472,,,,,,,,,,,FEW,1700,BKN,7000,,,,,VFR,,,,,,,,,,,,SPECI,284.0
SLCP 021800Z 00000KT 9999 BKN017 28/23 Q1014,SLCP,2018-04-02T18:00:00Z,-16.15,-62.02,28.0,23.0,0,0,,6.21,29.940945,,,,,,,,,,,BKN,1700,,,,,,,MVFR,,,,,,,,,,,,SPECI,497.0
SLCO 021800Z 19012KT 6000 VCSH FEW023 FEW025CB SCT080 BKN200 27/24 Q1009,SLCO,2018-04-02T18:00:00Z,-11.03,-68.78,27.0,24.0,190,12,,3.73,29.793306,,,,,,,,,,VCSH,FEW,2300,FEW,2500,SCT,8000,BKN,20000,MVFR,,,,,,,,,,,,SPECI,272.0
SLCA 021800Z 18004KT 9999 FEW036 23/17 Q1018,SLCA,2018-04-02T18:00:00Z,-20.0,-63.53,23.0,17.0,180,4,,6.21,30.059055,,,,,,,,,,,FEW,3600,,,,,,,VFR,,,,,,,,,,,,SPECI,798.0
CYZR 021800Z AUTO 23006KT 170V340 9SM CLR 04/M08 A3009 RMK SLP199,CYZR,2018-04-02T18:00:00Z,43.0,-82.3,4.0,-8.0,230,6,,9.0,30.088583,1019.9,,TRUE,,,,,,,,CLR,,,,,,,,VFR,,,,,,,,,,,,SPECI,181.0
CYZE 021800Z AUTO 23013G19KT 9SM CLR 00/M06 A3003 RMK SLP181,CYZE,2018-04-02T18:00:00Z,45.87,-82.57,0.0,-6.0,230,13,19,9.0,30.029528,1018.1,,TRUE,,,,,,,,CLR,,,,,,,,VFR,,,,,,,,,,,,SPECI,193.0
CYYY 021800Z VRB02KT 30SM FEW060 M04/M14 A3008 RMK SC1 SLP191,CYYY,2018-04-02T18:00:00Z,48.6,-68.22,-4.0,-14.0,0,2,,30.0,30.079725,1019.1,,,,,,,,,,FEW,6000,,,,,,,VFR,,,,,,,,,,,,SPECI,52.0
CYXR 021800Z AUTO 24016G22KT 9SM BKN055 OVC066 M00/M11 A2989 RMK ICG INTMT SLP140,CYXR,2018-04-02T18:00:00Z,47.7,-79.83,0.0,-11.0,240,16,22,9.0,29.890747,1014.0,,TRUE,,,,,,,,BKN,5500,OVC,6600,,,,,VFR,,,,,,,,,,,,SPECI,243.0
CYWA 021800Z AUTO 30008KT 210V320 9SM FEW084 FEW099 03/M12 A3002 RMK SLP174,CYWA,2018-04-02T18:00:00Z,45.95,-77.32,3.0,-12.0,300,8,,9.0,30.02067,1017.4,,TRUE,,,,,,,,FEW,8400,FEW,9900,,,,,VFR,,,,,,,,,,,,SPECI,130.0
CYVV 021800Z 24012G21KT 15SM FEW030 BKN250 01/M07 A3007 RMK CU2CI3 SLP197,CYVV,2018-04-02T18:00:00Z,44.75,-81.08,1.0,-7.0,240,12,21,15.0,30.070866,1019.7,,,,,,,,,,FEW,3000,BKN,25000,,,,,VFR,,,,,,,,,,,,SPECI,222.0
CYVP 021800Z 24015G21KT 190V260 15SM DRSN FEW015 BKN085 BKN210 M12/M20 A2981 RMK SF1AC5CI1 SLP100,CYVP,2018-04-02T18:00:00Z,58.12,-68.42,-12.0,-20.0,240,15,21,15.0,29.811024,1010.0,,,,,,,,,DRSN,FEW,1500,BKN,8500,BKN,21000,,,VFR,,,,,,,,,,,,SPECI,60.0
CYTZ 021800Z AUTO 20009KT 9SM CLR 04/M05 A3010 RMK SLP197,CYTZ,2018-04-02T18:00:00Z,43.63,-79.4,4.0,-5.0,200,9,,9.0,30.100393,1019.7,,TRUE,,,,,,,,CLR,,,,,,,,VFR,,,,,,,,,,,,SPECI,77.0
CYTL 021800Z AUTO 29014G20KT 9SM CLR M17/M26 A3002 RMK SLP197,CYTL,2018-04-02T18:00:00Z,53.82,-89.88,-17.0,-26.0,290,14,20,9.0,30.02067,1019.7,,TRUE,,,,,,,,CLR,,,,,,,,VFR,,,,,,,,,,,,SPECI,224.0
CYRL 021800Z VRB03KT 15SM SKC M15/M28 A3005 RMK SLP216,CYRL,2018-04-02T18:00:00Z,51.07,-93.78,-15.0,-28.0,0,3,,15.0,30.050198,1021.6,,,,,,,,,,SKC,,,,,,,,VFR,,,,,,,,,,,,SPECI,383.0
CYQT 021800Z 32005KT 230V350 20SM FEW044 BKN055 M04/M13 A2999 RMK CU2SC4 SLP169,CYQT,2018-04-02T18:00:00Z,48.37,-89.32,-4.0,-13.0,320,5,,20.0,29.991142,1016.9,,,,,,,,,,FEW,4400,BKN,5500,,,,,VFR,,,,,,,,,,,,SPECI,199.0
CYPQ 021800Z AUTO VRB11KT 9SM CLR 05/M07 A3005 RMK SLP185,CYPQ,2018-04-02T18:00:00Z,44.22,-78.37,5.0,-7.0,0,11,,9.0,30.050198,1018.5,,TRUE,,,,,,,,CLR,,,,,,,,VFR,,,,,,,,,,,,SPECI,191.0
CYND 021800Z 22008KT 200V280 15SM -SHSN BKN039 BKN058 03/M06 A3007 RMK SC5SC1 CVCTV CLD EMBD SLP187,CYND,2018-04-02T18:00:00Z,45.52,-75.57,3.0,-6.0,220,8,,15.0,30.070866,1018.7,,,,,,,,,-SHSN,BKN,3900,BKN,5800,,,,,VFR,,,,,,,,,,,,SPECI,64.0
CYNA 021800Z AUTO 26018G23KT 9SM CLR M02/M07 A2988 RMK SLP119,CYNA,2018-04-02T18:00:00Z,50.17,-61.82,-2.0,-7.0,260,18,23,9.0,29.878937,1011.9,,TRUE,,,,,,,,CLR,,,,,,,,VFR,,,,,,,,,,,,SPECI,11.0
CYHD 021800Z AUTO 09006KT 040V130 9SM CLR M13/M25 A3000 RMK SLP199,CYHD,2018-04-02T18:00:00Z,49.82,-92.75,-13.0,-25.0,90,6,,9.0,30.0,1019.9,,TRUE,,,,,,,,CLR,,,,,,,,VFR,,,,,,,,,,,,SPECI,413.0
CYGR 021800Z 29013G19KT 20SM FEW027 M02/M08 A3001 RMK SC2 SLP164,CYGR,2018-04-02T18:00:00Z,47.42,-61.77,-2.0,-8.0,290,13,19,20.0,30.008858,1016.4,,,,,,,,,,FEW,2700,,,,,,,VFR,,,,,,,,,,,,SPECI,10.0
CYGP 021800Z 25006G15KT 210V290 15SM FEW035 01/M15 A2994 RMK CF1 CF TR SLP142,CYGP,2018-04-02T18:00:00Z,48.77,-64.47,1.0,-15.0,250,6,15,15.0,29.940945,1014.2,,,,,,,,,,FEW,3500,,,,,,,VFR,,,,,,,,,,,,SPECI,33.0
CYFT 021800Z 27021G26KT 15SM DRSN BKN220 M09/M18 A2975 RMK CI5 SLP082,CYFT,2018-04-02T18:00:00Z,55.07,-59.17,-9.0,-18.0,270,21,26,15.0,29.749016,1008.2,,,,,,,,,DRSN,BKN,22000,,,,,,,VFR,,,,,,,,,,,,SPECI,71.0
CYAM 021800Z 30009KT 15SM FEW040 BKN140 BKN210 00/M11 A2998 RMK CU1AC5CI1 CU TR CONTRAILS SLP168,CYAM,2018-04-02T18:00:00Z,46.47,-84.52,0.0,-11.0,300,9,,15.0,29.97933,1016.8,,,,,,,,,,FEW,4000,BKN,14000,BKN,21000,,,VFR,,,,,,,,,,,,SPECI,192.0
CZSJ 021800Z AUTO 29009KT 250V320 9SM CLR M16/M26 A3007 RMK SLP221,CZSJ,2018-04-02T18:00:00Z,53.07,-93.35,-16.0,-26.0,290,9,,9.0,30.070866,1022.1,,TRUE,,,,,,,,CLR,,,,,,,,VFR,,,,,,,,,,,,METAR,290.0
CZMD 021800Z AUTO 27011G16KT 250V350 9SM FEW037 M16/M25 A3005 RMK SLP213,CZMD,2018-04-02T18:00:00Z,53.43,-91.77,-16.0,-25.0,270,11,16,9.0,30.050198,1021.3,,TRUE,,,,,,,,FEW,3700,,,,,,,VFR,,,,,,,,,,,,METAR,278.0
CYYU 021800Z 34013KT 330V040 15SM FEW033 BKN041 M07/M16 A2993 RMK SC1SC5 SLP156,CYYU,2018-04-02T18:00:00Z,49.42,-82.47,-7.0,-16.0,340,13,,15.0,29.929134,1015.6,,,,,,,,,,FEW,3300,BKN,4100,,,,,VFR,,,,,,,,,,,,SPECI,227.0
CYYH 021800Z 08017KT 7SM DRSN VCSH FEW007 BKN013 BKN080 M15/M18 A3006 RMK ST1SC4AC1 SLP184,CYYH,2018-04-02T18:00:00Z,69.53,-93.57,-15.0,-18.0,80,17,,7.0,30.059055,1018.4,,,,,,,,,DRSN VCSH,FEW,700,BKN,1300,BKN,8000,,,MVFR,,,,,,,,,,,,SPECI,28.0
CYYB 021800Z 24013KT 30SM BKN047 M02/M10 A2998 RMK SC6 SLP175,CYYB,2018-04-02T18:00:00Z,46.35,-79.42,-2.0,-10.0,240,13,,30.0,29.97933,1017.5,,,,,,,,,,BKN,4700,,,,,,,VFR,,,,,,,,,,,,SPECI,371.0
CYXZ 021800Z 29007G19KT 250V310 3SM -SHSN BKN020 OVC033 M04/M09 A2993 RMK SN3CU3SC2 CVCTV CLD EMBD /S01/ SLP155,CYXZ,2018-04-02T18:00:00Z,47.97,-84.77,-4.0,-9.0,290,7,19,3.0,29.929134,1015.5,,,,,,,,,-SHSN,BKN,2000,OVC,3300,,,,,MVFR,,,,,,,,,,,,SPECI,287.0
CYXU 021800Z 28005KT 170V330 15SM FEW035 FEW220 03/M06 A3009 RMK CU1CI1 PRESFR SLP201,CYXU,2018-04-02T18:00:00Z,43.02,-81.15,3.0,-6.0,280,5,,15.0,30.088583,1020.1,,,,,,,,,,FEW,3500,FEW,22000,,,,,VFR,,,,,,,,,,,,SPECI,278.0
CYXL 021800Z 33007KT 260V050 15SM FEW044 FEW220 M14/M28 A3002 RMK CF1CI1 CF TR CI TR SLP202,CYXL,2018-04-02T18:00:00Z,50.12,-91.9,-14.0,-28.0,330,7,,15.0,30.02067,1020.2,,,,,,,,,,FEW,4400,FEW,22000,,,,,VFR,,,,,,,,,,,,SPECI,390.0
CYVQ 021800Z 29015G24KT 10SM DRSN FEW023 SCT042 BKN085 M13/M18 A3056 RMK SC1SC2AC4 SLP359,CYVQ,2018-04-02T18:00:00Z,65.27,-126.78,-13.0,-18.0,290,15,24,10.0,30.561024,1035.9,,,,,,,,,DRSN,FEW,2300,SCT,4200,BKN,8500,,,VFR,,,,,,,,,,,,SPECI,74.0
CYVO 021800Z 22016G25KT 170V250 15SM VCSH BKN055 M01/M12 A2987 RMK CU7 SLP141,CYVO,2018-04-02T18:00:00Z,48.07,-77.77,-1.0,-12.0,220,16,25,15.0,29.870079,1014.1,,,,,,,,,VCSH,BKN,5500,,,,,,,VFR,,,,,,,,,,,,SPECI,337.0
CYSP 021800Z 30004G18KT 260V030 15SM SCT040 M07/M17 A2994 RMK SC4 SLP161,CYSP,2018-04-02T18:00:00Z,48.75,-86.35,-7.0,-17.0,300,4,18,15.0,29.940945,1016.1,,,,,,,,,,SCT,4000,,,,,,,VFR,,,,,,,,,,,,METAR,315.0
CYSN 021800Z 33009KT 15SM FEW030 BKN250 05/M03 A3009 RMK SC1CI4 SLP193,CYSN,2018-04-02T18:00:00Z,43.2,-79.17,5.0,-3.0,330,9,,15.0,30.088583,1019.3,,,,,,,,,,FEW,3000,BKN,25000,,,,,VFR,,,,,,,,,,,,SPECI,98.0
CYSC 021800Z AUTO 23011KT 210V290 9SM BKN055 BKN064 OVC250 01/M10 A3004 RMK SLP185,CYSC,2018-04-02T18:00:00Z,45.43,-71.68,1.0,-10.0,230,11,,9.0,30.041338,1018.5,,TRUE,,,,,,,,BKN,5500,BKN,6400,OVC,25000,,,VFR,,,,,,,,,,,,SPECI,241.0
CYSB 021800Z 23012G22KT 20SM BKN038 M01/M10 A2995 RMK SC7 SLP165,CYSB,2018-04-02T18:00:00Z,46.63,-80.8,-1.0,-10.0,230,12,22,20.0,29.949802,1016.5,,,,,,,,,,BKN,3800,,,,,,,VFR,,,,,,,,,,,,SPECI,348.0
CYRQ 021800Z AUTO 20012G18KT 9SM CLR 01/M09 A3005 RMK SLP181,CYRQ,2018-04-02T18:00:00Z,46.35,-72.68,1.0,-9.0,200,12,18,9.0,30.050198,1018.1,,TRUE,,,,,,,,CLR,,,,,,,,VFR,,,,,,,,,,,,METAR,61.0
CYRB 021800Z 10005KT 060V220 15SM FEW160 BKN200 M15/M18 A3032 RMK AC2CI5 SLP280,CYRB,2018-04-02T18:00:00Z,74.72,-94.97,-15.0,-18.0,100,5,,15.0,30.318897,1028.0,,,,,,,,,,FEW,16000,BKN,20000,,,,,VFR,,,,,,,,,,,,SPECI,67.0
CYQK 021800Z 06003KT 340V090 15SM FEW210 M12/M24 A3000 RMK CI1 SLP196,CYQK,2018-04-02T18:00:00Z,49.77,-94.37,-12.0,-24.0,60,3,,15.0,30.0,1019.6,,,,,,,,,,FEW,21000,,,,,,,VFR,,,,,,,,,,,,SPECI,411.0
CYQA 021800Z AUTO 31010KT 9SM CLR 01/M09 A3005 RMK SLP191,CYQA,2018-04-02T18:00:00Z,44.97,-79.28,1.0,-9.0,310,10,,9.0,30.050198,1019.1,,TRUE,,,,,,,,CLR,,,,,,,,VFR,,,,,,,,,,,,SPECI,282.0
CYPO 021800Z AUTO 28013KT 9SM SCT027 M18/M25 A2992 RMK SLP141,CYPO,2018-04-02T18:00:00Z,54.98,-85.43,-18.0,-25.0,280,13,,9.0,29.920275,1014.1,,TRUE,,,,,,,,SCT,2700,,,,,,,VFR,,,,,,,,,,,,METAR,53.0
CYPL 021800Z 31003KT 250V020 15SM FEW220 M16/M28 A3001 RMK CI1 SLP205,CYPL,2018-04-02T18:00:00Z,51.47,-90.2,-16.0,-28.0,310,3,,15.0,30.008858,1020.5,,,,,,,,,,FEW,22000,,,,,,,VFR,,,,,,,,,,,,SPECI,373.0
CYOO 021800Z AUTO 20011G18KT 9SM CLR 03/M06 A3008 RMK PRESRR SLP193,CYOO,2018-04-02T18:00:00Z,43.92,-78.9,3.0,-6.0,200,11,18,9.0,30.079725,1019.3,,TRUE,,,,,,,,CLR,,,,,,,,VFR,,,,,,,,,,,,METAR,139.0
CYLH 021800Z AUTO 27012G17KT 9SM CLR M15/M27 A3001 RMK SLP192,CYLH,2018-04-02T18:00:00Z,52.2,-87.93,-15.0,-27.0,270,12,17,9.0,30.008858,1019.2,,TRUE,,,,,,,,CLR,,,,,,,,VFR,,,,,,,,,,,,METAR,254.0
CYLD 021800Z 29007G16KT 240V330 15SM SCT022 BKN046 BKN270 M03/M08 A2986 RMK CU3NS4CI1 CI TR SLP147,CYLD,2018-04-02T18:00:00Z,47.82,-83.33,-3.0,-8.0,290,7,16,15.0,29.861221,1014.7,,,,,,,,,,SCT,2200,BKN,4600,BKN,27000,,,VFR,,,,,,,,,,,,SPECI,447.0
CYKZ 021800Z 28012KT 190V320 15SM FEW040 FEW260 05/M10 A3007 RMK CF1CI1 CF TR CI TR SLP193,CYKZ,2018-04-02T18:00:00Z,43.87,-79.37,5.0,-10.0,280,12,,15.0,30.070866,1019.3,,,,,,,,,,FEW,4000,FEW,26000,,,,,VFR,,,,,,,,,,,,SPECI,198.0
CYKP 021800Z AUTO 27014G20KT 9SM CLR M15/M25 A3001 RMK SLP189,CYKP,2018-04-02T18:00:00Z,51.67,-85.9,-15.0,-25.0,270,14,20,9.0,30.008858,1018.9,,TRUE,,,,,,,,CLR,,,,,,,,VFR,,,,,,,,,,,,METAR,179.0
CYKL 021800Z AUTO 29013KT 9SM CLR M11/M20 A2976 RMK SLP129,CYKL,2018-04-02T18:00:00Z,54.78,-66.82,-11.0,-20.0,290,13,,9.0,29.760826,1012.9,,TRUE,,,,,,,,CLR,,,,,,,,VFR,,,,,,,,,,,,SPECI,521.0
CYKF 021800Z AUTO 26011G17KT 230V310 9SM CLR 04/M09 A3008 RMK SLP201,CYKF,2018-04-02T18:00:00Z,43.47,-80.38,4.0,-9.0,260,11,17,9.0,30.079725,1020.1,,TRUE,,,,,,,,CLR,,,,,,,,VFR,,,,,,,,,,,,SPECI,317.0
CYHM 021800Z 23008KT 210V280 15SM FEW022 BKN250 05/M07 A3009 RMK CU1CI6 CU TR CONTRAILS SLP201,CYHM,2018-04-02T18:00:00Z,43.17,-79.93,5.0,-7.0,230,8,,15.0,30.088583,1020.1,,,,,,,,,,FEW,2200,BKN,25000,,,,,VFR,,,,,,,,,,,,SPECI,238.0
CYGQ 021800Z 25010KT 210V320 15SM SCT038 M13/M23 A2998 RMK SC4 SLP184,CYGQ,2018-04-02T18:00:00Z,49.77,-86.92,-13.0,-23.0,250,10,,15.0,29.97933,1018.4,,,,,,,,,,SCT,3800,,,,,,,VFR,,,,,,,,,,,,SPECI,351.0
CYGK 021800Z 18014KT 15SM FEW025 BKN046 02/M04 A3010 RMK CU1SC6 SLP198,CYGK,2018-04-02T18:00:00Z,44.22,-76.58,2.0,-4.0,180,14,,15.0,30.100393,1019.8,,,,,,,,,,FEW,2500,BKN,4600,,,,,VFR,,,,,,,,,,,,SPECI,93.0
CYFR 021800Z 33011KT 15SM FEW160 FEW280 M23/M26 A3020 RMK AC1CS2 AC TR SLP252,CYFR,2018-04-02T18:00:00Z,61.17,-113.67,-23.0,-26.0,330,11,,15.0,30.200787,1025.2,,,,,,,,,,FEW,16000,FEW,28000,,,,,VFR,,,,,,,,,,,,SPECI,164.0
CYER 021800Z AUTO 34008KT 9SM SCT023 M17/M24 A2998 RMK SLP157,CYER,2018-04-02T18:00:00Z,56.02,-87.68,-17.0,-24.0,340,8,,9.0,29.97933,1015.7,,TRUE,,,,,,,,SCT,2300,,,,,,,VFR,,,,,,,,,,,,METAR,16.0
CYCK 021800Z AUTO 19010KT 160V220 9SM CLR 02/M06 A3013 RMK SLP212,CYCK,2018-04-02T18:00:00Z,42.3,-82.08,2.0,-6.0,190,10,,9.0,30.129921,1021.2,,TRUE,,,,,,,,CLR,,,,,,,,VFR,,,,,,,,,,,,METAR,198.0
CYBN 021800Z AUTO 25012KT 210V290 9SM CLR 04/M08 A3006 RMK SLP192,CYBN,2018-04-02T18:00:00Z,44.27,-79.92,4.0,-8.0,250,12,,9.0,30.059055,1019.2,,TRUE,,,,,,,,CLR,,,,,,,,VFR,,,,,,,,,,,,SPECI,223.0
CYBC 021800Z AUTO 20012KT CLR M04/M13 A3006 RMK WX MISG VIS MISG PCPN MISG SLP182,CYBC,2018-04-02T18:00:00Z,49.12,-68.2,-4.0,-13.0,200,12,,,30.059055,1018.2,,TRUE,,,,,,,,CLR,,,,,,,,,,,,,,,,,,,,SPECI,22.0
CYAT 021800Z AUTO /////KT 9SM OVC049 M15/M24 A2997 RMK WND MISG SLP152,CYAT,2018-04-02T18:00:00Z,52.93,-82.43,-15.0,-24.0,,,,9.0,29.970472,1015.2,,TRUE,,,,,,,,OVC,4900,,,,,,,VFR,,,,,,,,,,,,METAR,9.0
CZUM 021800Z AUTO 31017G23KT 9SM CLR M10/M19 A2979 RMK SLP131,CZUM,2018-04-02T18:00:00Z,53.53,-64.08,-10.0,-19.0,310,17,23,9.0,29.790354,1013.1,,TRUE,,,,,,,,CLR,,,,,,,,VFR,,,,,,,,,,,,SPECI,440.0
CZFM 021800Z 31003KT 210V010 35SM FEW120 M12/M17 A3067 RMK AC1 SLP390,CZFM,2018-04-02T18:00:00Z,67.4,-134.87,-12.0,-17.0,310,3,,35.0,30.670275,1039.0,,,,,,,,,,FEW,12000,,,,,,,VFR,,,,,,,,,,,,SPECI,43.0
CZEM 021800Z 32015G22KT 2SM -SHSN DRSN OVC025 M14/M18 A2992 RMK SN3SC5 SUN DIMLY VISBL SLP135,CZEM,2018-04-02T18:00:00Z,52.22,-78.52,-14.0,-18.0,320,15,22,2.0,29.920275,1013.5,,,,,,,,,-SHSN DRSN,OVC,2500,,,,,,,IFR,,,,,,,,,,,,SPECI,7.0
CYPD 021800Z AUTO 29008G16KT 9SM CLR 00/M12 A3001 RMK SLP170,CYPD,2018-04-02T18:00:00Z,45.67,-61.37,0.0,-12.0,290,8,16,9.0,30.008858,1017.0,,TRUE,,,,,,,,CLR,,,,,,,,VFR,,,,,,,,,,,,METAR,114.0
CWYM 021800Z AUTO ///// M08/ A2974 RMK SLP126,CWYM,2018-04-02T18:00:00Z,64.95,-63.57,-8.0,,,,,,29.740158,1012.6,,TRUE,,,,,,,,,,,,,,,,,,,,,,,,,,,,SPECI,583.0
CWXR 021800Z AUTO 30009KT M26/ A3042 RMK SLP316,CWXR,2018-04-02T18:00:00Z,69.27,-119.22,-26.0,,300,9,,,30.41929,1031.6,,TRUE,,,,,,,,,,,,,,,,,,,,,,,,,,,,SPECI,69.0
CWTU 021800Z AUTO ///// A2954,CWTU,2018-04-02T18:00:00Z,54.72,-58.35,,,,,,,29.53937,,,TRUE,,,,,,,,,,,,,,,,,,,,,,,,,,,,SPECI,683.0
CWSA 021800Z AUTO 32006KT 9SM SCT080 03/M04 A3001 RMK TS/LTNG TEMPO UNAVBL SLP165,CWSA,2018-04-02T18:00:00Z,43.93,-60.0,3.0,-4.0,320,6,,9.0,30.008858,1016.5,,TRUE,,,,,,,,SCT,8000,,,,,,,VFR,,,,,,,,,,,,SPECI,4.0
CWRH 021800Z AUTO ///// M11/ A2945 RMK SLP009,CWRH,2018-04-02T18:00:00Z,61.57,-64.65,-11.0,,,,,,29.450787,1000.9,,TRUE,,,,,,,,,,,,,,,,,,,,,,,,,,,,SPECI,369.0
CWKP 021800Z AUTO 00000KT M19/ A3030 RMK SLP311,CWKP,2018-04-02T18:00:00Z,69.67,-121.67,-19.0,,0,0,,,30.301182,1031.1,,TRUE,,,,,,,,,,,,,,,,,,,,,,,,,,,,METAR,330.0
CWFD 021800Z AUTO 36018G24KT ////SM //// NCD ///// A////,CWFD,2018-04-02T18:00:00Z,66.57,-61.58,,,360,18,24,,,,,TRUE,,,,,,,,CLR,,,,,,,,,,,,,,,,,,,,SPECI,393.0
CWEU 021800Z 01002KT 15SM SCT150 M30/M33 A3052 RMK AC3 SLP339,CWEU,2018-04-02T18:00:00Z,80.0,-85.92,-30.0,-33.0,10,2,,15.0,30.519686,1033.9,,,,,,,,,,SCT,15000,,,,,,,VFR,,,,,,,,,,,,SPECI,10.0
CZST 021800Z 25003KT 170V310 15SM SCT065 OVC085 01/M08 A2995 RMK SC4AC4 SLP144,CZST,2018-04-02T18:00:00Z,55.93,-129.98,1.0,-8.0,250,3,,15.0,29.949802,1014.4,,,,,,,,,,SCT,6500,OVC,8500,,,,,VFR,,,,,,,,,,,,SPECI,7.0
CZCP 021800Z AUTO 01005KT ////SM //// NCD M18/M21 A3042,CZCP,2018-04-02T18:00:00Z,70.17,-124.72,-18.0,-21.0,10,5,,,30.41929,,,TRUE,,,,,,,,CLR,,,,,,,,,,,,,,,,,,,,SPECI,93.0
CZBF 021800Z 31006KT 250V360 15SM FEW200 M00/M17 A3001 RMK CS1 CS TR VIA CYQB SLP167,CZBF,2018-04-02T18:00:00Z,47.62,-65.75,0.0,-17.0,310,6,,15.0,30.008858,1016.7,,,,,,,,,,FEW,20000,,,,,,,VFR,,,,,,,,,,,,SPECI,59.0
CWZZ 021800Z AUTO ///// ////SM //// SCT004 M12/M13 A2946,CWZZ,2018-04-02T18:00:00Z,58.32,-62.57,-12.0,-13.0,,,,,29.459646,,,TRUE,,,,,,,,SCT,400,,,,,,,,,,,,,,,,,,,SPECI,483.0
CWVH 021800Z AUTO 30027KT M20/ A3049 RMK SLP364,CWVH,2018-04-02T18:00:00Z,68.9,-133.93,-20.0,,300,27,,,30.490158,1036.4,,TRUE,,,,,,,,,,,,,,,,,,,,,,,,,,,,SPECI,261.0
CWUW 021800Z AUTO 08023G34KT ////SM //// SCT120 M08/M10 A2996,CWUW,2018-04-02T18:00:00Z,68.65,-71.17,-8.0,-10.0,80,23,34,,29.958662,,,TRUE,,,,,,,,SCT,12000,,,,,,,,,,,,,,,,,,,SPECI,527.0
CWUP 021800Z AUTO ///// M13/ A3008 RMK SLP229,CWUP,2018-04-02T18:00:00Z,68.47,-66.82,-13.0,,,,,,30.079725,1022.9,,TRUE,,,,,,,,,,,,,,,,,,,,,,,,,,,,SPECI,390.0
CWSW 021800Z 04004KT 4SM -SN FEW018 BKN030 M08/M13 A2992 RMK SC2SC5 SLP196,CWSW,2018-04-02T18:00:00Z,49.75,-114.87,-8.0,-13.0,40,4,,4.0,29.920275,1019.6,,,,,,,,,-SN,FEW,1800,BKN,3000,,,,,MVFR,,,,,,,,,,,,SPECI,1138.0
CWRX 021800Z AUTO 09021G27KT ////SM //// ////// M04/M05 A3004,CWRX,2018-04-02T18:00:00Z,69.07,-79.02,-4.0,-5.0,90,21,27,,30.041338,,,TRUE,,,,,,,,,,,,,,,,,,,,,,,,,,,,SPECI,41.0
CWPX 021800Z AUTO ///// ////SM //// NCD M27/M31 A3009,CWPX,2018-04-02T18:00:00Z,69.02,-107.82,-27.0,-31.0,,,,,30.088583,,,TRUE,,,,,,,,CLR,,,,,,,,,,,,,,,,,,,,METAR,165.0
CWOB 021800Z AUTO 12035G48KT ////SM //// BKN002 ///// A////,CWOB,2018-04-02T18:00:00Z,63.32,-64.15,,,120,35,48,,,,,TRUE,,,,,,,,BKN,200,,,,,,,,,,,,,,,,,,,SPECI,367.0
CWLY 021800Z AUTO 02009G18KT 9SM CLR 07/M09 A2998 RMK SLP161,CWLY,2018-04-02T18:00:00Z,50.22,-121.58,7.0,-9.0,20,9,18,9.0,29.97933,1016.1,,TRUE,,,,,,,,CLR,,,,,,,,VFR,,,,,,,,,,,,SPECI,229.0
CWLI 021800Z AUTO 30018KT ////SM //// FEW003 FEW009 BKN024 M19/M21 A3046,CWLI,2018-04-02T18:00:00Z,69.58,-130.9,-19.0,-21.0,300,18,,,30.46063,,,TRUE,,,,,,,,FEW,300,FEW,900,BKN,2400,,,,,,,,,,,,,,,SPECI,102.0
CWKW 021800Z AUTO ///// A2942 RMK PRESRR,CWKW,2018-04-02T18:00:00Z,59.97,-64.17,,,,,,,29.421259,,,TRUE,,,,,,,,,,,,,,,,,,,,,,,,,,,,SPECI,551.0
CWKM 021800Z AUTO 27023KT M16/ A3070 RMK SLP401,CWKM,2018-04-02T18:00:00Z,69.6,-140.17,-16.0,,270,23,,,30.699802,1040.1,,TRUE,,,,,,,,,,,,,,,,,,,,,,,,,,,,SPECI,13.0
CWIL 021800Z AUTO 02012KT ////SM OVC031 ///// A////,CWIL,2018-04-02T18:00:00Z,68.32,-100.07,,,20,12,,,,,,TRUE,,,,,,,,OVC,3100,,,,,,,,,,,,,,,,,,,SPECI,36.0
CWCA 021800Z 33017KT 15SM SCT070 BKN200 M05/M12 A2972 RMK AC3CS4 SLP067,CWCA,2018-04-02T18:00:00Z,53.7,-57.02,-5.0,-12.0,330,17,,15.0,29.719488,1006.7,,,,,,,,,,SCT,7000,BKN,20000,,,,,VFR,,,,,,,,,,,,SPECI,14.0
CWAE 021800Z 05002KT 15SM SKC 02/M11 A2992 RMK WND ESTD SLP153,CWAE,2018-04-02T18:00:00Z,50.13,-122.95,2.0,-11.0,50,2,,15.0,29.920275,1015.3,,,,,,,,,,SKC,,,,,,,,VFR,,,,,,,,,,,,METAR,658.0
CYWK 021800Z 32007G19KT 15SM FEW025 M10/M22 A2981 RMK CF1 SLP142,CYWK,2018-04-02T18:00:00Z,52.92,-66.87,-10.0,-22.0,320,7,19,15.0,29.811024,1014.2,,,,,,,,,,FEW,2500,,,,,,,VFR,,,,,,,,,,,,SPECI,551.0
CYSK 021800Z 21014KT 15SM SKC M19/M23 A2981 RMK SLP102,CYSK,2018-04-02T18:00:00Z,56.53,-79.25,-19.0,-23.0,210,14,,15.0,29.811024,1010.2,,,,,,,,,,SKC,,,,,,,,VFR,,,,,,,,,,,,SPECI,26.0
CYQI 021800Z 30007KT 280V340 15SM OVC053 01/M10 A3011 RMK ST8 SLP198,CYQI,2018-04-02T18:00:00Z,43.83,-66.08,1.0,-10.0,300,7,,15.0,30.109253,1019.8,,,,,,,,,,OVC,5300,,,,,,,VFR,,,,,,,,,,,,SPECI,43.0
CYOY 021800Z AUTO 26006KT 160V290 9SM FEW049 FEW067 FEW085 M01/M12 A3003 RMK SLP181,CYOY,2018-04-02T18:00:00Z,46.88,-71.5,-1.0,-12.0,260,6,,9.0,30.029528,1018.1,,TRUE,,,,,,,,FEW,4900,FEW,6700,FEW,8500,,,VFR,,,,,,,,,,,,SPECI,168.0
CYMU 021800Z 19011KT 9SM -SHSN DRSN FEW010 SCT035 M18/M21 A2983 RMK SC1SC3 SC TR SLP112,CYMU,2018-04-02T18:00:00Z,56.52,-76.52,-18.0,-21.0,190,11,,9.0,29.828741,1011.2,,,,,,,,,-SHSN DRSN,FEW,1000,SCT,3500,,,,,VFR,,,,,,,,,,,,SPECI,71.0
CYKG 021800Z 29015G21KT 3/8SM SN DRSN OVC007 M13/M15 A2932 RMK SN6ST2 SLP948,CYKG,2018-04-02T18:00:00Z,61.57,-71.92,-13.0,-15.0,290,15,21,0.38,29.320866,994.8,,,,,,,,,SN DRSN,OVC,700,,,,,,,LIFR,,,,,,,,,,,,SPECI,151.0
CYGV 021800Z AUTO 25020G27KT 8SM -SN CLR M03/M08 A2991 RMK SLP132,CYGV,2018-04-02T18:00:00Z,50.27,-63.62,-3.0,-8.0,250,20,27,8.0,29.911417,1013.2,,TRUE,,,,,,,-SN,CLR,,,,,,,,VFR,,,,,,,,,,,,SPECI,33.0
CYBX 021800Z 25016KT 15SM FEW025 M01/M07 A2969 RMK SC1 SLP059,CYBX,2018-04-02T18:00:00Z,51.45,-57.17,-1.0,-7.0,250,16,,15.0,29.68996,1005.9,,,,,,,,,,FEW,2500,,,,,,,VFR,,,,,,,,,,,,SPECI,35.0
CYAS 021800Z 27030G40KT 5/8SM -SN DRSN BKN008 BKN080 OVC240 M18/M21 A2951 RMK SN3ST2AS2CI1 VIS VRB 3/8-5/8 SLP012,CYAS,2018-04-02T18:00:00Z,60.02,-70.0,-18.0,-21.0,270,30,40,0.63,29.509842,1001.2,,,,,,,,,-SN DRSN,BKN,800,BKN,8000,OVC,24000,,,LIFR,,,,,,,,,,,,SPECI,117.0
CYYG 021800Z 29007KT 240V320 15SM FEW035 FEW220 BKN260 00/M14 A3003 RMK SC1CS1CI6 SC TR SLP171,CYYG,2018-04-02T18:00:00Z,46.27,-63.12,0.0,-14.0,290,7,,15.0,30.029528,1017.1,,,,,,,,,,FEW,3500,FEW,22000,BKN,26000,,,VFR,,,,,,,,,,,,SPECI,54.0
CYTQ 021800Z 24017G22KT 10SM DRSN BKN042 M17/M21 A2976 RMK SC7 SLP085,CYTQ,2018-04-02T18:00:00Z,58.67,-69.95,-17.0,-21.0,240,17,22,10.0,29.760826,1008.5,,,,,,,,,DRSN,BKN,4200,,,,,,,VFR,,,,,,,,,,,,SPECI,31.0
CYNC 021800Z 31011KT 280V350 15SM FEW039 SCT051 OVC077 M15/M24 A2992 RMK SC1SC3AS4 SLP137,CYNC,2018-04-02T18:00:00Z,53.02,-78.82,-15.0,-24.0,310,11,,15.0,29.920275,1013.7,,,,,,,,,,FEW,3900,SCT,5100,OVC,7700,,,VFR,,,,,,,,,,,,SPECI,14.0
CYLU 021800Z 23012G19KT 13SM SCT055 BKN065 OVC076 M15/M21 A2979 RMK SC3SC3AS2 SLP098,CYLU,2018-04-02T18:00:00Z,58.72,-65.97,-15.0,-21.0,230,12,19,13.0,29.790354,1009.8,,,,,,,,,,SCT,5500,BKN,6500,OVC,7600,,,VFR,,,,,,,,,,,,SPECI,60.0
CYGW 021800Z AUTO 27009KT 9SM FEW018 M17/M22 A2986 RMK SLP115,CYGW,2018-04-02T18:00:00Z,55.27,-77.77,-17.0,-22.0,270,9,,9.0,29.861221,1011.5,,TRUE,,,,,,,,FEW,1800,,,,,,,VFR,,,,,,,,,,,,SPECI,12.0
CYDP 021800Z 29021G27KT 15SM FEW220 M12/M18 A2974 RMK CI1 OCNL DRSN G35 PAST HR PRESRR SLP072,CYDP,2018-04-02T18:00:00Z,56.53,-61.67,-12.0,-18.0,290,21,27,15.0,29.740158,1007.2,,,,,,,,,,FEW,22000,,,,,,,VFR,,,,,,,,,,,,SPECI,7.0
CYDF 021800Z 25017G25KT 12SM OVC028 M00/M06 A2985 RMK SC8 SLP112,CYDF,2018-04-02T18:00:00Z,49.22,-57.4,0.0,-6.0,250,17,25,12.0,29.84941,1011.2,,,,,,,,,,OVC,2800,,,,,,,MVFR,,,,,,,,,,,,SPECI,22.0
CYCX 021800Z 28008KT 240V320 15SM FEW040 SCT240 03/M11 A3004 RMK CU1CI3 DA-1395FT SLP176,CYCX,2018-04-02T18:00:00Z,45.82,-66.42,3.0,-11.0,280,8,,15.0,30.041338,1017.6,,,,,,,,,,FEW,4000,SCT,24000,,,,,VFR,,,,,,,,,,,,SPECI,51.0
CYAY 021800Z AUTO 27019G24KT 9SM CLR M01/M06 A2968 RMK SLP055,CYAY,2018-04-02T18:00:00Z,51.38,-56.07,-1.0,-6.0,270,19,24,9.0,29.681103,1005.5,,TRUE,,,,,,,,CLR,,,,,,,,VFR,,,,,,,,,,,,SPECI,28.0
VVPB 021800Z VRB02KT 5000 BR NSC 20/20 Q1013 NOSIG,VVPB,2018-04-02T18:00:00Z,16.38,107.7,20.0,20.0,0,2,,3.11,29.911417,,,,,,TRUE,,,,BR,CLR,,,,,,,,MVFR,,,,,,,,,,,,METAR,17.0
CYZU 021800Z 31005KT 15SM SKC M07/M17 A2997 RMK SLP200,CYZU,2018-04-02T18:00:00Z,54.15,-115.78,-7.0,-17.0,310,5,,15.0,29.970472,1020.0,,,,,,,,,,SKC,,,,,,,,VFR,,,,,,,,,,,,SPECI,785.0
CYXH 021800Z 05010KT 30SM FEW020 SCT070 OVC270 M05/ A2993 RMK SC1AC4CI4 SC TR VIA CYQL SLP172,CYXH,2018-04-02T18:00:00Z,50.02,-110.72,-5.0,,50,10,,30.0,29.929134,1017.2,,,,,,,,,,FEW,2000,SCT,7000,OVC,27000,,,VFR,,,,,,,,,,,,SPECI,716.0
CYVT 021800Z VRB02KT 15SM FEW026 FEW110 BKN250 M12/M19 A3003 RMK CU1AC1CI6 CU TR AC TR SLP211,CYVT,2018-04-02T18:00:00Z,55.82,-108.42,-12.0,-19.0,0,2,,15.0,30.029528,1021.1,,,,,,,,,,FEW,2600,FEW,11000,BKN,25000,,,VFR,,,,,,,,,,,,SPECI,434.0
CYUX 021800Z 08016KT 5SM -SN OVC032 M03/M04 A2998 RMK SC8 SLP153,CYUX,2018-04-02T18:00:00Z,68.77,-81.25,-3.0,-4.0,80,16,,5.0,29.97933,1015.3,,,,,,,,,-SN,OVC,3200,,,,,,,MVFR,,,,,,,,,,,,SPECI,8.0
CYUS 021800Z AUTO 10014KT 090V190 ////SM //// OVC011 M17/M20 A3002,CYUS,2018-04-02T18:00:00Z,68.82,-93.42,-17.0,-20.0,100,14,,,30.02067,,,TRUE,,,,,,,,OVC,1100,,,,,,,,,,,,,,,,,,,SPECI,42.0
CYUB 021800Z 31014KT 6SM DRSN BKN012 M19/M22 A3059 RMK SC6 SLP361,CYUB,2018-04-02T18:00:00Z,69.45,-133.02,-19.0,-22.0,310,14,,6.0,30.590551,1036.1,,,,,,,,,DRSN,BKN,1200,,,,,,,MVFR,,,,,,,,,,,,SPECI,5.0
CYTH 021800Z 25006KT 230V310 15SM FEW038 M16/M27 A3008 RMK SF1 SLP220,CYTH,2018-04-02T18:00:00Z,55.78,-97.87,-16.0,-27.0,250,6,,15.0,30.079725,1022.0,,,,,,,,,,FEW,3800,,,,,,,VFR,,,,,,,,,,,,SPECI,218.0
CYSM 021800Z 30005KT 15SM SCT030 SCT090 SCT210 M12/M19 A3013 RMK SC3AC1CI1 AC TR SLP226,CYSM,2018-04-02T18:00:00Z,60.03,-111.97,-12.0,-19.0,300,5,,15.0,30.129921,1022.6,,,,,,,,,,SCT,3000,SCT,9000,SCT,21000,,,VFR,,,,,,,,,,,,SPECI,203.0
CYSF 021800Z AUTO 35006KT 310V030 9SM CLR M17/M27 A3013 RMK SLP238,CYSF,2018-04-02T18:00:00Z,59.25,-105.82,-17.0,-27.0,350,6,,9.0,30.129921,1023.8,,TRUE,,,,,,,,CLR,,,,,,,,VFR,,,,,,,,,,,,SPECI,250.0
CYQV 021800Z AUTO 09006KT 9SM FEW046 M14/M18 A3002 RMK SLP216,CYQV,2018-04-02T18:00:00Z,51.27,-102.47,-14.0,-18.0,90,6,,9.0,30.02067,1021.6,,TRUE,,,,,,,,FEW,4600,,,,,,,VFR,,,,,,,,,,,,SPECI,498.0
CYPE 021800Z 06010KT 15SM FEW038 FEW045 M08/M17 A3010 RMK CF1SC1 CF TR SC TR SLP239,CYPE,2018-04-02T18:00:00Z,56.22,-117.45,-8.0,-17.0,60,10,,15.0,30.100393,1023.9,,,,,,,,,,FEW,3800,FEW,4500,,,,,VFR,,,,,,,,,,,,SPECI,571.0
CYOD 021800Z 03006KT 15SM FEW063 M07/M13 A3000 RMK SC2 SLP195,CYOD,2018-04-02T18:00:00Z,54.4,-110.28,-7.0,-13.0,30,6,,15.0,30.0,1019.5,,,,,,,,,,FEW,6300,,,,,,,VFR,,,,,,,,,,,,SPECI,544.0
CYLJ 021800Z 00000KT 15SM FEW030 FEW240 M08/M15 A2999 RMK CU1CI1 CI TR SLP193,CYLJ,2018-04-02T18:00:00Z,54.12,-108.52,-8.0,-15.0,0,0,,15.0,29.991142,1019.3,,,,,,,,,,FEW,3000,FEW,24000,,,,,VFR,,,,,,,,,,,,SPECI,480.0
CYIO 021800Z 20002KT 30SM FEW150 BKN250 M17/M20 A3028 RMK AC2CI5 SLP265,CYIO,2018-04-02T18:00:00Z,72.67,-77.97,-17.0,-20.0,200,2,,30.0,30.280512,1026.5,,,,,,,,,,FEW,15000,BKN,25000,,,,,VFR,,,,,,,,,,,,SPECI,57.0
CYED 021800Z AUTO 28005KT 9SM CLR M08/M19 A2997 RMK SLP199,CYED,2018-04-02T18:00:00Z,53.67,-113.47,-8.0,-19.0,280,5,,9.0,29.970472,1019.9,,TRUE,,,,,,,,CLR,,,,,,,,VFR,,,,,,,,,,,,SPECI,688.0
CYBW 021800Z AUTO 26006KT 9SM FEW055 M09/M14 A2987 RMK SLP195,CYBW,2018-04-02T18:00:00Z,51.1,-114.37,-9.0,-14.0,260,6,,9.0,29.870079,1019.5,,TRUE,,,,,,,,FEW,5500,,,,,,,VFR,,,,,,,,,,,,SPECI,1200.0
CWVD 021800Z AUTO 01012KT M08/ A3003 RMK SLP225,CWVD,2018-04-02T18:00:00Z,67.52,-63.77,-8.0,,10,12,,,30.029528,1022.5,,TRUE,,,,,,,,,,,,,,,,,,,,,,,,,,,,SPECI,573.0
CWRF 021800Z AUTO 12008KT M17/ A2991 RMK SLP175,CWRF,2018-04-02T18:00:00Z,69.42,-89.72,-17.0,,120,8,,,29.911417,1017.5,,TRUE,,,,,,,,,,,,,,,,,,,,,,,,,,,,METAR,325.0
CYZX 021800Z 26009KT 15SM BKN250 02/M11 A3008 RMK CI7 SLP189,CYZX,2018-04-02T18:00:00Z,44.98,-64.92,2.0,-11.0,260,9,,15.0,30.079725,1018.9,,,,,,,,,,BKN,25000,,,,,,,VFR,,,,,,,,,,,,SPECI,28.0
CYZV 021800Z 30012G19KT 30SM FEW060 M03/M20 A2998 RMK CU1 CU TR SLP159,CYZV,2018-04-02T18:00:00Z,50.22,-66.27,-3.0,-20.0,300,12,19,30.0,29.97933,1015.9,,,,,,,,,,FEW,6000,,,,,,,VFR,,,,,,,,,,,,SPECI,55.0
CYZF 021800Z 02007KT 15SM FEW200 M19/M26 A3021 RMK CI2 SLP258,CYZF,2018-04-02T18:00:00Z,62.47,-114.45,-19.0,-26.0,20,7,,15.0,30.209646,1025.8,,,,,,,,,,FEW,20000,,,,,,,VFR,,,,,,,,,,,,SPECI,206.0
CYYZ 021800Z 26008G15KT 230V300 15SM FEW045 FEW220 05/M11 A3008 RMK CF1CI1 CF TR SLP194,CYYZ,2018-04-02T18:00:00Z,43.67,-79.62,5.0,-11.0,260,8,15,15.0,30.079725,1019.4,,,,,,,,,,FEW,4500,FEW,22000,,,,,VFR,,,,,,,,,,,,SPECI,173.0
CYYT 021800Z 29030G35KT 15SM FEW028 FEW220 05/M05 A2975 RMK CU1CI1 SLP082,CYYT,2018-04-02T18:00:00Z,47.62,-52.72,5.0,-5.0,290,30,35,15.0,29.749016,1008.2,,,,,,,,,,FEW,2800,FEW,22000,,,,,VFR,,,,,,,,,,,,SPECI,140.0
CYYR 021800Z 29013G18KT 15SM FEW050 FEW110 SCT130 BKN250 M04/M19 A2982 RMK SC1AC2AC2CI2 SLP102,CYYR,2018-04-02T18:00:00Z,53.32,-60.42,-4.0,-19.0,290,13,18,15.0,29.819881,1010.2,,,,,,,,,,FEW,5000,FEW,11000,SCT,13000,BKN,25000,VFR,,,,,,,,,,,,SPECI,49.0
CYYQ 021800Z 30010KT 15SM FEW015 FEW270 M24/M28 A3008 RMK SC1CI1 SC TR SLP193,CYYQ,2018-04-02T18:00:00Z,58.75,-94.07,-24.0,-28.0,300,10,,15.0,30.079725,1019.3,,,,,,,,,,FEW,1500,FEW,27000,,,,,VFR,,,,,,,,,,,,SPECI,29.0
CYYJ 021800Z 00000KT 30SM FEW030 08/M03 A3002 RMK SC1 SLP169,CYYJ,2018-04-02T18:00:00Z,48.63,-123.42,8.0,-3.0,0,0,,30.0,30.02067,1016.9,,,,,,,,,,FEW,3000,,,,,,,VFR,,,,,,,,,,,,SPECI,19.0
CYYC 021800Z 36007KT 15SM SCT060 OVC210 M07/M16 A2990 RMK SC3CI5 SLP197,CYYC,2018-04-02T18:00:00Z,51.12,-114.02,-7.0,-16.0,360,7,,15.0,29.899607,1019.7,,,,,,,,,,SCT,6000,OVC,21000,,,,,VFR,,,,,,,,,,,,SPECI,1084.0
CYXX 021800Z 16003KT 120V250 25SM BKN021TCU 06/01 A3003 RMK TCU5 SLP171,CYXX,2018-04-02T18:00:00Z,49.03,-122.38,6.0,1.0,160,3,,25.0,30.029528,1017.1,,,,,,,,,,BKN,2100,,,,,,,MVFR,,,,,,,,,,,,SPECI,58.0
CYWG 021800Z 04011G17KT 15SM SKC M13/M21 A3010 RMK SLP217,CYWG,2018-04-02T18:00:00Z,49.88,-97.22,-13.0,-21.0,40,11,17,15.0,30.100393,1021.7,,,,,,,,,,SKC,,,,,,,,VFR,,,,,,,,,,,,SPECI,239.0
CYVR 021800Z 28007KT 30SM FEW025TCU 07/01 A3002 RMK TCU2 TCU TOP NE SLP166,CYVR,2018-04-02T18:00:00Z,49.17,-123.17,7.0,1.0,280,7,,30.0,30.02067,1016.6,,,,,,,,,,FEW,2500,,,,,,,VFR,,,,,,,,,,,,SPECI,2.0
CYUL 021800Z 21013KT 30SM SCT052 SCT240 04/M08 A3008 RMK CU4CI1 CI TR SLP191,CYUL,2018-04-02T18:00:00Z,45.47,-73.73,4.0,-8.0,210,13,,30.0,30.079725,1019.1,,,,,,,,,,SCT,5200,SCT,24000,,,,,VFR,,,,,,,,,,,,SPECI,36.0
CYTR 021800Z 23016G21KT 15SM BKN043 04/M05 A3008 RMK SC6 SLP191,CYTR,2018-04-02T18:00:00Z,44.12,-77.52,4.0,-5.0,230,16,21,15.0,30.079725,1019.1,,,,,,,,,,BKN,4300,,,,,,,VFR,,,,,,,,,,,,SPECI,86.0
CYQY 021800Z 30015KT 15SM FEW034 BKN250 03/M08 A2998 RMK CU1CI4 SLP157,CYQY,2018-04-02T18:00:00Z,46.17,-60.03,3.0,-8.0,300,15,,15.0,29.97933,1015.7,,,,,,,,,,FEW,3400,BKN,25000,,,,,VFR,,,,,,,,,,,,SPECI,62.0
CYQX 021800Z 26017G25KT 20SM SCT035 BKN045 02/M06 A2976 RMK CU4SC2 SLP084,CYQX,2018-04-02T18:00:00Z,48.95,-54.58,2.0,-6.0,260,17,25,20.0,29.760826,1008.4,,,,,,,,,,SCT,3500,BKN,4500,,,,,VFR,,,,,,,,,,,,SPECI,151.0
CYQQ 021800Z 36011G16KT 20SM FEW040 FEW250 08/M01 A3001 RMK CU1CI1 SLP164,CYQQ,2018-04-02T18:00:00Z,49.72,-124.9,8.0,-1.0,360,11,16,20.0,30.008858,1016.4,,,,,,,,,,FEW,4000,FEW,25000,,,,,VFR,,,,,,,,,,,,SPECI,24.0
CYQM 021800Z 26009G15KT 15SM BKN250 02/M14 A3001 RMK CI5 SLP166,CYQM,2018-04-02T18:00:00Z,46.12,-64.67,2.0,-14.0,260,9,15,15.0,30.008858,1016.6,,,,,,,,,,BKN,25000,,,,,,,VFR,,,,,,,,,,,,SPECI,71.0
CYQG 021800Z 15006KT 130V210 15SM FEW044 SCT230 BKN260 03/M09 A3012 RMK CU1CS4CI3 CU TR SLP207,CYQG,2018-04-02T18:00:00Z,42.27,-82.97,3.0,-9.0,150,6,,15.0,30.121063,1020.7,,,,,,,,,,FEW,4400,SCT,23000,BKN,26000,,,VFR,,,,,,,,,,,,SPECI,190.0
CYQB 021800Z 22010KT 30SM BKN063 00/M10 A3006 RMK SC5 SLP187,CYQB,2018-04-02T18:00:00Z,46.78,-71.37,0.0,-10.0,220,10,,30.0,30.059055,1018.7,,,,,,,,,,BKN,6300,,,,,,,VFR,,,,,,,,,,,,SPECI,73.0
CYOW 021800Z 23011G17KT 15SM BKN045 03/M07 A3006 RMK SC7 SLP186,CYOW,2018-04-02T18:00:00Z,45.32,-75.67,3.0,-7.0,230,11,17,15.0,30.059055,1018.6,,,,,,,,,,BKN,4500,,,,,,,VFR,,,,,,,,,,,,SPECI,114.0
CYMX 021800Z 24009G17KT 200V280 45SM BKN060 02/M09 A3008 RMK SC6 SLP191,CYMX,2018-04-02T18:00:00Z,45.67,-74.02,2.0,-9.0,240,9,17,45.0,30.079725,1019.1,,,,,,,,,,BKN,6000,,,,,,,VFR,,,,,,,,,,,,SPECI,82.0
CYJT 021800Z 25020KT 15SM OVC023 M01/M05 A2991 RMK SC8 SLP132,CYJT,2018-04-02T18:00:00Z,48.55,-58.57,-1.0,-5.0,250,20,,15.0,29.911417,1013.2,,,,,,,,,,OVC,2300,,,,,,,MVFR,,,,,,,,,,,,SPECI,26.0
CYHZ 021800Z 32007KT 240V330 15SM OVC100 02/M08 A3001 RMK AC8 SLP171,CYHZ,2018-04-02T18:00:00Z,44.87,-63.5,2.0,-8.0,320,7,,15.0,30.008858,1017.1,,,,,,,,,,OVC,10000,,,,,,,VFR,,,,,,,,,,,,SPECI,145.0
CYGL 021800Z 27011KT 270V360 6SM -SN OVC035 M16/M22 A2981 RMK SC8 SLP117,CYGL,2018-04-02T18:00:00Z,53.62,-77.7,-16.0,-22.0,270,11,,6.0,29.811024,1011.7,,,,,,,,,-SN,OVC,3500,,,,,,,VFR,,,,,,,,,,,,SPECI,195.0
CYFC 021800Z AUTO 34009G16KT 300V360 9SM CLR 03/M11 A3004 RMK SLP176,CYFC,2018-04-02T18:00:00Z,45.87,-66.52,3.0,-11.0,340,9,16,9.0,30.041338,1017.6,,TRUE,,,,,,,,CLR,,,,,,,,VFR,,,,,,,,,,,,SPECI,20.0
CYFB 021800Z 10024G34KT 6SM DRSN FEW050 SCT080 BKN220 01/M03 A2952 RMK SC2AC1CI3 SLP001,CYFB,2018-04-02T18:00:00Z,63.75,-68.55,1.0,-3.0,100,24,34,6.0,29.518702,1000.1,,,,,,,,,DRSN,FEW,5000,SCT,8000,BKN,22000,,,VFR,,,,,,,,,,,,SPECI,34.0
CYEG 021800Z 29006KT 15SM FEW220 M09/M17 A2997 RMK CI1 SLP209,CYEG,2018-04-02T18:00:00Z,53.28,-113.57,-9.0,-17.0,290,6,,15.0,29.970472,1020.9,,,,,,,,,,FEW,22000,,,,,,,VFR,,,,,,,,,,,,SPECI,723.0
CYBG 021800Z 09003KT 25SM OVC050 M02/M11 A3000 RMK SC8 SLP171,CYBG,2018-04-02T18:00:00Z,48.33,-70.98,-2.0,-11.0,90,3,,25.0,30.0,1017.1,,,,,,,,,,OVC,5000,,,,,,,VFR,,,,,,,,,,,,SPECI,159.0
CYXP 021800Z 07017G25KT 15SM DRSN FEW030 FEW050 BKN090 BKN220 03/M06 A2988 RMK CF1SC1AC5CI1 CF TR CIG ESTD SLP123,CYXP,2018-04-02T18:00:00Z,66.15,-65.72,3.0,-6.0,70,17,25,15.0,29.878937,1012.3,,,,,,,,,DRSN,FEW,3000,FEW,5000,BKN,9000,BKN,22000,VFR,,,,,,,,,,,,SPECI,23.0
CYWY 021800Z 33009G31KT 300V010 15SM DRSN SCT029 SCT120 BKN250 M10/M19 A3044 RMK SC3AC1CI3 SLP325,CYWY,2018-04-02T18:00:00Z,63.22,-123.42,-10.0,-19.0,330,9,31,15.0,30.43996,1032.5,,,,,,,,,DRSN,SCT,2900,SCT,12000,BKN,25000,,,VFR,,,,,,,,,,,,SPECI,150.0
CYWJ 021800Z 31017G23KT 2SM -SN BLSN SCT025 OVC045 M13/M17 A3037 RMK SC4SC4 SLP310,CYWJ,2018-04-02T18:00:00Z,65.22,-123.43,-13.0,-17.0,310,17,23,2.0,30.369095,1031.0,,,,,,,,,-SN BLSN,SCT,2500,OVC,4500,,,,,IFR,,,,,,,,,,,,SPECI,176.0
CYWE 021800Z AUTO 03004KT 320V130 9SM CLR M23/M27 A3018 RMK SLP277,CYWE,2018-04-02T18:00:00Z,64.18,-114.08,-23.0,-27.0,30,4,,9.0,30.180119,1027.7,,TRUE,,,,,,,,CLR,,,,,,,,VFR,,,,,,,,,,,,METAR,371.0
CYVM 021800Z 05007KT 15SM OVC043 M09/M11 A3021 RMK SC8 SLP231,CYVM,2018-04-02T18:00:00Z,67.53,-64.02,-9.0,-11.0,50,7,,15.0,30.209646,1023.1,,,,,,,,,,OVC,4300,,,,,,,VFR,,,,,,,,,,,,SPECI,6.0
CYTE 021800Z 06021G26KT 3/4SM -SN DRSN VV007 M04/M04 A2947 RMK SN8 SLP987,CYTE,2018-04-02T18:00:00Z,64.22,-76.52,-4.0,-4.0,60,21,26,0.75,29.471457,998.7,,,,,,,,,-SN DRSN,OVX,0,,,,,,,LIFR,,,,,,,,,,,700,SPECI,47.0
CYSY 021800Z 16007KT 10SM -SN OVC013 M20/M23 A3044 RMK SC8 SLP325,CYSY,2018-04-02T18:00:00Z,72.0,-125.27,-20.0,-23.0,160,7,,10.0,30.43996,1032.5,,,,,,,,,-SN,OVC,1300,,,,,,,MVFR,,,,,,,,,,,,SPECI,86.0
CYPC 021800Z 00000KT 15SM FEW020 FEW090 M24/M27 A3049 RMK SC1AC2 SC TR SLP325,CYPC,2018-04-02T18:00:00Z,69.37,-124.07,-24.0,-27.0,0,0,,15.0,30.490158,1032.5,,,,,,,,,,FEW,2000,FEW,9000,,,,,VFR,,,,,,,,,,,,METAR,6.0
CYLK 021800Z 27003KT 250V030 25SM SKC M24/M28 A3020 RMK SLP255,CYLK,2018-04-02T18:00:00Z,62.42,-110.67,-24.0,-28.0,270,3,,25.0,30.200787,1025.5,,,,,,,,,,SKC,,,,,,,,VFR,,,,,,,,,,,,SPECI,179.0
CYLC 021800Z 13022G34KT 15SM -SHSN DRSN FEW030 SCT100 02/M03 A2936 RMK SF2AS2 SLP950,CYLC,2018-04-02T18:00:00Z,62.85,-69.87,2.0,-3.0,130,22,34,15.0,29.359253,995.0,,,,,,,,,-SHSN DRSN,FEW,3000,SCT,10000,,,,,VFR,,,,,,,,,,,,METAR,53.0
CYKD 021800Z 32015G22KT 15SM FEW016 SCT160 M15/M19 A3067 RMK SC2AC1 OCNL DRSN SLP388,CYKD,2018-04-02T18:00:00Z,68.22,-135.0,-15.0,-19.0,320,15,22,15.0,30.670275,1038.8,,,,,,,,,,FEW,1600,SCT,16000,,,,,VFR,,,,,,,,,,,,SPECI,7.0
CYJF 021800Z 04011G18KT 10SM -SN DRSN BKN030 BKN086 M06/M12 A3032 RMK SC5AC2 SLP284,CYJF,2018-04-02T18:00:00Z,60.22,-123.47,-6.0,-12.0,40,11,18,10.0,30.318897,1028.4,,,,,,,,,-SN DRSN,BKN,3000,BKN,8600,,,,,MVFR,,,,,,,,,,,,SPECI,215.0
CYHY 021800Z 07007KT 5SM -SN OVC029 M15/M19 A3024 RMK SC8 SLP262,CYHY,2018-04-02T18:00:00Z,60.82,-115.77,-15.0,-19.0,70,7,,5.0,30.239174,1026.2,,,,,,,,,-SN,OVC,2900,,,,,,,MVFR,,,,,,,,,,,,SPECI,166.0
CYGT 021800Z 08013KT 10SM BKN028 BKN034 BKN050 M03/M05 A3001 RMK SC5SC1SC1 SLP171,CYGT,2018-04-02T18:00:00Z,69.37,-81.82,-3.0,-5.0,80,13,,10.0,30.008858,1017.1,,,,,,,,,,BKN,2800,BKN,3400,BKN,5000,,,MVFR,,,,,,,,,,,,SPECI,51.0
CYGH 021800Z 29009G16KT 10SM -SN DRSN FEW025 BKN037 OVC050 M14/M19 A3057 RMK SC1SC4SC3 SLP364,CYGH,2018-04-02T18:00:00Z,66.27,-128.62,-14.0,-19.0,290,9,16,10.0,30.569881,1036.4,,,,,,,,,-SN DRSN,FEW,2500,BKN,3700,OVC,5000,,,VFR,,,,,,,,,,,,SPECI,66.0
CYFS 021800Z 33016G23KT 10SM DRSN SCT021 BKN031 M08/M12 A3034 RMK SC4SC3 OCNL BLSN SLP291,CYFS,2018-04-02T18:00:00Z,61.75,-121.22,-8.0,-12.0,330,16,23,10.0,30.339567,1029.1,,,,,,,,,DRSN,SCT,2100,BKN,3100,,,,,VFR,,,,,,,,,,,,SPECI,169.0
CYCS 021800Z 33007KT 15SM IC FEW015 BKN280 M25/M28 A2998 RMK SC1CS5 SC TR SLP155,CYCS,2018-04-02T18:00:00Z,63.35,-90.72,-25.0,-28.0,330,7,,15.0,29.97933,1015.5,,,,,,,,,IC,FEW,1500,BKN,28000,,,,,VFR,,,,,,,,,,,,SPECI,11.0
CYBB 021800Z 10006KT 15SM BKN012 M19/M22 A3008 RMK SC6 SLP189,CYBB,2018-04-02T18:00:00Z,68.52,-89.82,-19.0,-22.0,100,6,,15.0,30.079725,1018.9,,,,,,,,,,BKN,1200,,,,,,,MVFR,,,,,,,,,,,,SPECI,15.0
CYCB 021800Z CCA 36012G19KT 4SM BR DRSN SCT009 OVC080 M23/M26 A3016 RMK SC3AC5 SLP219,CYCB,2018-04-02T18:00:00Z,69.08,-105.12,-23.0,-26.0,360,12,19,4.0,30.159449,1021.9,,,,,,,,,DRSN BR,SCT,900,OVC,8000,,,,,MVFR,,,,,,,,,,,,SPECI,27.0
CYZT 021800Z 24007KT 20SM SCT040 BKN220 07/M01 A3002 RMK SC4CI1 SLP168,CYZT,2018-04-02T18:00:00Z,50.67,-127.37,7.0,-1.0,240,7,,20.0,30.02067,1016.8,,,,,,,,,,SCT,4000,BKN,22000,,,,,VFR,,,,,,,,,,,,SPECI,22.0
CYXS 021800Z AUTO 03007KT 9SM CLR M03/M16 A2990 RMK SLP168,CYXS,2018-04-02T18:00:00Z,53.9,-122.68,-3.0,-16.0,30,7,,9.0,29.899607,1016.8,,TRUE,,,,,,,,CLR,,,,,,,,VFR,,,,,,,,,,,,SPECI,691.0
CYXQ 021800Z 30009KT 20SM SCT035 BKN050 BKN070 M09/M14 A3035 RMK SC4SC1AC2 SLP329,CYXQ,2018-04-02T18:00:00Z,62.42,-140.87,-9.0,-14.0,300,9,,20.0,30.351377,1032.9,,,,,,,,,,SCT,3500,BKN,5000,BKN,7000,,,VFR,,,,,,,,,,,,SPECI,649.0
CYXE 021800Z 27004KT 15SM FEW050 M11/M15 A3002 RMK SC1 SLP213,CYXE,2018-04-02T18:00:00Z,52.17,-106.7,-11.0,-15.0,270,4,,15.0,30.02067,1021.3,,,,,,,,,,FEW,5000,,,,,,,VFR,,,,,,,,,,,,SPECI,504.0
CYUA 021800Z AUTO 30017G23KT ////SM //// BKN004 BKN041 M16/M19 A3067,CYUA,2018-04-02T18:00:00Z,68.95,-137.28,-16.0,-19.0,300,17,23,,30.670275,,,TRUE,,,,,,,,BKN,400,BKN,4100,,,,,,,,,,,,,,,,,SPECI,38.0
CYRV 021800Z AUTO 31012G18KT 9SM CLR 02/M08 A2984 RMK SLP125,CYRV,2018-04-02T18:00:00Z,50.97,-118.17,2.0,-8.0,310,12,18,9.0,29.840551,1012.5,,TRUE,,,,,,,,CLR,,,,,,,,VFR,,,,,,,,,,,,SPECI,443.0
CYQZ 021800Z AUTO 01003KT 350V060 9SM CLR M03/M17 A2993 RMK SLP167,CYQZ,2018-04-02T18:00:00Z,53.02,-122.52,-3.0,-17.0,10,3,,9.0,29.929134,1016.7,,TRUE,,,,,,,,CLR,,,,,,,,VFR,,,,,,,,,,,,SPECI,545.0
CYQD 021800Z 32003KT 15SM FEW220 M14/M27 A3010 RMK CI1 CI TR SLP227,CYQD,2018-04-02T18:00:00Z,53.97,-101.08,-14.0,-27.0,320,3,,15.0,30.100393,1022.7,,,,,,,,,,FEW,22000,,,,,,,VFR,,,,,,,,,,,,SPECI,271.0
LEGT 021800Z 24013KT CAVOK 17/04 Q1006,LEGT,2018-04-02T18:00:00Z,40.28,-3.72,17.0,4.0,240,13,,6.21,29.704725,,,,,,,,,,,CAVOK,,,,,,,,VFR,,,,,,,,,,,,SPECI,612.0
HETR 021800Z 31010KT CAVOK 24/16 Q1008,HETR,2018-04-02T18:00:00Z,28.22,33.65,24.0,16.0,310,10,,6.21,29.763779,,,,,,,,,,,CAVOK,,,,,,,,VFR,,,,,,,,,,,,SPECI,35.0
CWPD 021800Z AUTO 21007KT M05/M13 RMK AO1 SLP165 T10521130 56006,CWPD,2018-04-02T18:00:00Z,47.57,-71.22,-5.2,-13.0,210,7,,,,1016.5,,TRUE,TRUE,,,,,,,,,,,,,,,,-0.6,,,,,,,,,,,METAR,803.0
CWOE 021800Z AUTO 06011KT M10/M12 RMK AO1 SOG 29 1028 SLP167 T10971121 50002,CWOE,2018-04-02T18:00:00Z,49.12,-110.47,-9.7,-12.1,60,11,,,,1016.7,,TRUE,TRUE,,,,,,,,,,,,,,,,0.2,,,,,,,,,,,METAR,935.0
CWOD 021800Z AUTO 22011G18KT M02/M10 RMK AO1 SOG 14 6019 PK WND 24018/1758 SLP139 T10211100,CWOD,2018-04-02T18:00:00Z,48.85,-72.55,-2.1,-10.0,220,11,18,,,1013.9,,TRUE,TRUE,,,,,,,,,,,,,,,,,,,,,,,,,,,METAR,137.0
GAMB 021800Z 02006KT 4000 DU NSC 39/01 Q1005,GAMB,2018-04-02T18:00:00Z,14.52,-4.08,39.0,1.0,20,6,,2.49,29.675198,,,,,,,,,,DU,CLR,,,,,,,,IFR,,,,,,,,,,,,METAR,272.0
DRRM 021800Z 06004KT 2500 DU NSC 37/02 Q1007,DRRM,2018-04-02T18:00:00Z,13.5,7.12,37.0,2.0,60,4,,1.55,29.734253,,,,,,,,,,DU,CLR,,,,,,,,IFR,,,,,,,,,,,,METAR,373.0
DRZR 021800Z 36004KT 6000 NSC 35/02 Q1007,DRZR,2018-04-02T18:00:00Z,13.77,8.97,35.0,2.0,360,4,,3.73,29.734253,,,,,,,,,,,CLR,,,,,,,,MVFR,,,,,,,,,,,,METAR,453.0
CWHN 021800Z AUTO 12009KT 9SM FEW034 SCT047 SCT082 M10/M18 A2996 RMK SLP194,CWHN,2018-04-02T18:00:00Z,54.88,-109.97,-10.0,-18.0,120,9,,9.0,29.958662,1019.4,,TRUE,,,,,,,,FEW,3400,SCT,4700,SCT,8200,,,VFR,,,,,,,,,,,,METAR,636.0
CYRT 021800Z 33011KT 15SM IC FEW120 M24/M28 A2997 RMK AC2 SLP155,CYRT,2018-04-02T18:00:00Z,62.82,-92.12,-24.0,-28.0,330,11,,15.0,29.970472,1015.5,,,,,,,,,IC,FEW,12000,,,,,,,VFR,,,,,,,,,,,,METAR,32.0
CYOC 021800Z 23002KT 30SM FEW012 FEW034 FEW080 M20/M23 A3062 RMK ST1SC1AC1 ST TR SC TR AC TR SLP401,CYOC,2018-04-02T18:00:00Z,67.57,-139.82,-20.0,-23.0,230,2,,30.0,30.620079,1040.1,,,,,,,,,,FEW,1200,FEW,3400,FEW,8000,,,VFR,,,,,,,,,,,,METAR,251.0
CYCG 021800Z 35008KT 10SM -SHSN SCT020 BKN035 BKN060 02/M01 A2982 RMK SC3SC3SC1 CVCTV CLD EMBD SLP116,CYCG,2018-04-02T18:00:00Z,49.28,-117.62,2.0,-1.0,350,8,,10.0,29.819881,1011.6,,,,,,,,,-SHSN,SCT,2000,BKN,3500,BKN,6000,,,VFR,,,,,,,,,,,,METAR,495.0
CYAZ 021800Z 31007KT 15SM FEW045 FEW180 FEW250 07/M04 A3002 RMK SC1AC1CI1 SC TR AC TR VIA CYZT SLP167,CYAZ,2018-04-02T18:00:00Z,49.08,-125.77,7.0,-4.0,310,7,,15.0,30.02067,1016.7,,,,,,,,,,FEW,4500,FEW,18000,FEW,25000,,,VFR,,,,,,,,,,,,METAR,24.0
FCPP 021800Z 15002KT 9999 FEW013 FEW030CB 27/25 Q1005 TEMPO TS,FCPP,2018-04-02T18:00:00Z,-4.82,11.9,27.0,25.0,150,2,,6.21,29.675198,,,,,,,,,,,FEW,1300,FEW,3000,,,,,VFR,,,,,,,,,,,,METAR,17.0
FEFF 021800Z 20006KT 8000 FEW013 29/25 Q1006 NOSIG,FEFF,2018-04-02T18:00:00Z,4.4,18.52,29.0,25.0,200,6,,4.97,29.704725,,,,,,TRUE,,,,,FEW,1300,,,,,,,MVFR,,,,,,,,,,,,METAR,366.0
AYPY 021800Z 30005KT 9999 FEW020 SCT040 BKN090 25/25 Q1006,AYPY,2018-04-02T18:00:00Z,-9.42,147.22,25.0,25.0,300,5,,6.21,29.704725,,,,,,,,,,,FEW,2000,SCT,4000,BKN,9000,,,VFR,,,,,,,,,,,,METAR,47.0
HTZA 021800Z 09005KT 9999 FEW018 FEW020CB 28/24 Q1008 NOSIG,HTZA,2018-04-02T18:00:00Z,-6.22,39.22,28.0,24.0,90,5,,6.21,29.763779,,,,,,TRUE,,,,,FEW,1800,FEW,2000,,,,,VFR,,,,,,,,,,,,METAR,15.0
HTMW 021800Z 00000KT 9999 FEW022 FEW023CB BKN090 23/19 Q1011 NOSIG,HTMW,2018-04-02T18:00:00Z,-2.47,32.92,23.0,19.0,0,0,,6.21,29.852362,,,,,,TRUE,,,,,FEW,2200,FEW,2300,BKN,9000,,,VFR,,,,,,,,,,,,METAR,1140.0
HTKJ 021800Z 03006KT 9999 SCT030 23/19 Q1012 NOSIG,HTKJ,2018-04-02T18:00:00Z,-3.42,37.07,23.0,19.0,30,6,,6.21,29.88189,,,,,,TRUE,,,,,SCT,3000,,,,,,,VFR,,,,,,,,,,,,METAR,896.0
HTDA 021800Z 14004KT 9999 FEW017 27/25 Q1009 NOSIG,HTDA,2018-04-02T18:00:00Z,-6.88,39.2,27.0,25.0,140,4,,6.21,29.793306,,,,,,TRUE,,,,,FEW,1700,,,,,,,VFR,,,,,,,,,,,,METAR,55.0
YNWN 021800Z AUTO 21004KT 170V240 9999 // NCD 25/13 Q1015,YNWN,2018-04-02T18:00:00Z,-23.42,119.8,25.0,13.0,210,4,,6.21,29.970472,,,TRUE,,,,,,,,CLR,,,,,,,,VFR,,,,,,,,,,,,METAR,525.0
YNTN 021800Z AUTO 13004KT 9999 // NCD 28/23 Q1005,YNTN,2018-04-02T18:00:00Z,-17.68,141.07,28.0,23.0,130,4,,6.21,29.675198,,,TRUE,,,,,,,,CLR,,,,,,,,VFR,,,,,,,,,,,,METAR,22.0
YNBR 021800Z AUTO 17005KT 9999 // NCD 23/11 Q1015,YNBR,2018-04-02T18:00:00Z,-30.32,149.83,23.0,11.0,170,5,,6.21,29.970472,,,TRUE,,,,,,,,CLR,,,,,,,,VFR,,,,,,,,,,,,METAR,240.0
YNAR 021800Z AUTO 00000KT //// // ////// 10/06 Q1018,YNAR,2018-04-02T18:00:00Z,-34.7,146.52,10.0,6.0,0,0,,,30.059055,,,TRUE,,,,,,,,,,,,,,,,,,,,,,,,,,,,METAR,145.0
YMTG 021800Z AUTO 21006KT 9999 // OVC030 OVC034 14/12 Q1023,YMTG,2018-04-02T18:00:00Z,-37.75,140.78,14.0,12.0,210,6,,6.21,30.206694,,,TRUE,,,,,,,,OVC,3000,OVC,3400,,,,,MVFR,,,,,,,,,,,,METAR,65.0
YESP 021800Z AUTO 06007KT 9999 // NCD 16/11 Q1019,YESP,2018-04-02T18:00:00Z,-33.68,121.82,16.0,11.0,60,7,,6.21,30.088583,,,TRUE,,,,,,,,CLR,,,,,,,,VFR,,,,,,,,,,,,METAR,143.0
YEML 021800Z AUTO 19005KT 9999 // NCD 20/18 Q1011,YEML,2018-04-02T18:00:00Z,-23.57,148.18,20.0,18.0,190,5,,6.21,29.852362,,,TRUE,,,,,,,,CLR,,,,,,,,VFR,,,,,,,,,,,,METAR,190.0
YCNM 021800Z AUTO 14003KT //// // ////// 20/11 Q1015,YCNM,2018-04-02T18:00:00Z,-30.98,148.38,20.0,11.0,140,3,,,29.970472,,,TRUE,,,,,,,,,,,,,,,,,,,,,,,,,,,,METAR,184.0
YSNW 021800Z AUTO 19005KT 9999 // BKN021 OVC025 17/17 Q1020,YSNW,2018-04-02T18:00:00Z,-34.95,150.52,17.0,17.0,190,5,,6.21,30.11811,,,TRUE,,,,,,,,BKN,2100,OVC,2500,,,,,MVFR,,,,,,,,,,,,METAR,110.0
YBPN 021800Z AUTO 17012KT 9999 // BKN020 BKN027 OVC051 24/22 Q1006,YBPN,2018-04-02T18:00:00Z,-20.5,148.55,24.0,22.0,170,12,,6.21,29.704725,,,TRUE,,,,,,,,BKN,2000,BKN,2700,OVC,5100,,,MVFR,,,,,,,,,,,,METAR,25.0
YBOK 021800Z AUTO 07002KT 1500 // NCD 17/17 Q1016,YBOK,2018-04-02T18:00:00Z,-27.42,151.72,17.0,17.0,70,2,,0.93,30.0,,,TRUE,,,,,,,,CLR,,,,,,,,LIFR,,,,,,,,,,,,METAR,407.0
YBMK 021800Z AUTO 15019KT 9999 // SCT021 BKN024 26/23 Q1007,YBMK,2018-04-02T18:00:00Z,-21.17,149.17,26.0,23.0,150,19,,6.21,29.734253,,,TRUE,,,,,,,,SCT,2100,BKN,2400,,,,,MVFR,,,,,,,,,,,,METAR,31.0
YBHI 021800Z AUTO 18010KT 9999 // NCD 14/07 Q1020,YBHI,2018-04-02T18:00:00Z,-32.0,141.47,14.0,7.0,180,10,,6.21,30.11811,,,TRUE,,,,,,,,CLR,,,,,,,,VFR,,,,,,,,,,,,METAR,292.0
FYOW 021800Z AUTO 08002KT //// // ////// 22/12 Q1015,FYOW,2018-04-02T18:00:00Z,-20.43,16.67,22.0,12.0,80,2,,,29.970472,,,TRUE,,,,,,,,,,,,,,,,,,,,,,,,,,,,SPECI,1481.0
FDJR 021800Z AUTO 35013G43KT //// // ////// 18/12 Q1018,FDJR,2018-04-02T18:00:00Z,-27.17,31.43,18.0,12.0,350,13,43,,30.059055,,,TRUE,,,,,,,,,,,,,,,,,,,,,,,,,,,,METAR,701.0
FPST 021800Z 18008KT 9999 TS FEW020CB BKN040 OVC100 26/25 Q1006 NOSIG,FPST,2018-04-02T18:00:00Z,0.37,6.72,26.0,25.0,180,8,,6.21,29.704725,,,,,,TRUE,,,,TS,FEW,2000,BKN,4000,OVC,10000,,,VFR,,,,,,,,,,,,METAR,13.0
FGBT 021800Z 00000KT FEW008 28/26 Q1006,FGBT,2018-04-02T18:00:00Z,1.88,9.8,28.0,26.0,0,0,,,29.704725,,,,,,,,,,,FEW,800,,,,,,,,,,,,,,,,,,,METAR,8.0
FGSL 021800Z 24003KT 8000 FEW010 26/24 Q1007 NOSIG,FGSL,2018-04-02T18:00:00Z,3.75,8.72,26.0,24.0,240,3,,4.97,29.734253,,,,,,TRUE,,,,,FEW,1000,,,,,,,MVFR,,,,,,,,,,,,METAR,56.0
CWFF 021800Z AUTO 00000KT M10/M19 RMK AO1 SOG 32 3002 SLP209 T10951188,CWFF,2018-04-02T18:00:00Z,52.82,-104.58,-9.5,-18.8,0,0,,,,1020.9,,TRUE,TRUE,,,,,,,,,,,,,,,,,,,,,,,,,,,METAR,490.0
CWWS 021800Z AUTO 20004KT M16/M24 RMK AO1 SOG 85 1003 SLP244 T11641244,CWWS,2018-04-02T18:00:00Z,52.82,-97.62,-16.4,-24.4,200,4,,,,1024.4,,TRUE,TRUE,,,,,,,,,,,,,,,,,,,,,,,,,,,METAR,223.0
CXEG 021800Z AUTO M09/M16 RMK AO1 T10861160 50008,CXEG,2018-04-02T18:00:00Z,53.3,-113.6,-8.6,-16.0,,,,,,,,TRUE,TRUE,,,,,,,,,,,,,,,,0.8,,,,,,,,,,,METAR,715.0
CXDE 021800Z AUTO 31016G22KT M13/M16 RMK AO1 PK WND 30024/1736 SLP316 T11281155 53004,CXDE,2018-04-02T18:00:00Z,65.22,-123.43,-12.8,-15.5,310,16,22,,,1031.6,,TRUE,TRUE,,,,,,,,,,,,,,,,0.4,,,,,,,,,,,METAR,213.0
CWDQ 021800Z AUTO 21007KT M00/M11 RMK AO1 SOG 34 6015 SLP169 T10021106,CWDQ,2018-04-02T18:00:00Z,47.42,-72.78,-0.2,-10.6,210,7,,,,1016.9,,TRUE,TRUE,,,,,,,,,,,,,,,,,,,,,,,,,,,METAR,169.0
CWDM 021800Z AUTO 26010KT 01/M08 RMK AO1 SOG 50 3014 SLP095 T00101076,CWDM,2018-04-02T18:00:00Z,50.47,-59.62,1.0,-7.6,260,10,,,,1009.5,,TRUE,TRUE,,,,,,,,,,,,,,,,,,,,,,,,,,,METAR,6.0
CWHO 021800Z AUTO 26023KT M09/M17 RMK AO1 PK WND 25028/1707 SLP084 T10911166 51031,CWHO,2018-04-02T18:00:00Z,55.45,-60.22,-9.1,-16.6,260,23,,,,1008.4,,TRUE,TRUE,,,,,,,,,,,,,,,,3.1,,,,,,,,,,,METAR,8.0
CWDO 021800Z AUTO 26018G24KT 02/M04 RMK AO1 SOG 66 3023 PK WND 27025/1716 SLP075 T00151035,CWDO,2018-04-02T18:00:00Z,49.67,-54.78,1.5,-3.5,260,18,24,,,1007.5,,TRUE,TRUE,,,,,,,,,,,,,,,,,,,,,,,,,,,METAR,92.0
CWER 021800Z AUTO 22017G22KT RMK AO1 PK WND 23022/1800,CWER,2018-04-02T18:00:00Z,47.0,-70.82,,,220,17,22,,,,,TRUE,TRUE,,,,,,,,,,,,,,,,,,,,,,,,,,,METAR,5.0
CXSE 021800Z AUTO 26007KT M30/M33 RMK AO1 SOG 49 8001 SLP301 T12981328,CXSE,2018-04-02T18:00:00Z,73.77,-105.28,-29.8,-32.8,260,7,,,,1030.1,,TRUE,TRUE,,,,,,,,,,,,,,,,,,,,,,,,,,,METAR,11.0
CXRB 021800Z AUTO M16/M23 RMK AO1 SOG 03 2003 SLP269 T11591227,CXRB,2018-04-02T18:00:00Z,74.72,-94.98,-15.9,-22.7,,,,,,1026.9,,TRUE,TRUE,,,,,,,,,,,,,,,,,,,,,,,,,,,METAR,68.0
CXDK 021800Z AUTO M05/M17 RMK AO1 SLP284 T10481170 51007,CXDK,2018-04-02T18:00:00Z,61.27,-124.47,-4.8,-17.0,,,,,,1028.4,,TRUE,TRUE,,,,,,,,,,,,,,,,0.7,,,,,,,,,,,METAR,283.0
CXNP 021800Z AUTO 25007KT 02/M11 RMK AO1 SOG 15 8014 SLP173 T00241107,CXNP,2018-04-02T18:00:00Z,45.75,-64.23,2.4,-10.7,250,7,,,,1017.3,,TRUE,TRUE,,,,,,,,,,,,,,,,,,,,,,,,,,,METAR,20.0
CAHR 021800Z AUTO 27007KT M00/M12 RMK AO1 SOG 13 6006 SLP168 T10021119,CAHR,2018-04-02T18:00:00Z,46.35,-63.17,-0.2,-11.9,270,7,,,,1016.8,,TRUE,TRUE,,,,,,,,,,,,,,,,,,,,,,,,,,,METAR,53.0
CWWK 021800Z AUTO 21003KT 07/01 RMK AO1 SLP172 T00680010 53025,CWWK,2018-04-02T18:00:00Z,49.02,-122.78,6.8,1.0,210,3,,,,1017.2,,TRUE,TRUE,,,,,,,,,,,,,,,,2.5,,,,,,,,,,,METAR,15.0
CWVI 021800Z AUTO 20002KT M09/M20 RMK AO1 SLP202 T10871204 53008,CWVI,2018-04-02T18:00:00Z,53.52,-112.1,-8.7,-20.4,200,2,,,,1020.2,,TRUE,TRUE,,,,,,,,,,,,,,,,0.8,,,,,,,,,,,METAR,639.0
CWBO 021800Z AUTO 36007KT M09/M15 RMK AO1 SOG 11 3018 SLP194 T10921153,CWBO,2018-04-02T18:00:00Z,50.53,-111.83,-9.2,-15.3,360,7,,,,1019.4,,TRUE,TRUE,,,,,,,,,,,,,,,,,,,,,,,,,,,METAR,747.0
CWRT 021800Z AUTO 12006KT M10/M12 RMK AO1 T10991118,CWRT,2018-04-02T18:00:00Z,49.62,-114.47,-9.9,-11.8,120,6,,,,,,TRUE,TRUE,,,,,,,,,,,,,,,,,,,,,,,,,,,METAR,1303.0
FLKK 021800Z 12004KT CAVOK 20/17 Q1017,FLKK,2018-04-02T18:00:00Z,-15.32,28.45,20.0,17.0,120,4,,6.21,30.029528,,,,,,,,,,,CAVOK,,,,,,,,VFR,,,,,,,,,,,,METAR,1154.0
CWIK 021800Z AUTO 14007KT M12/M17 RMK AO1 SOG 08 1004 SLP196 T11231168,CWIK,2018-04-02T18:00:00Z,50.37,-102.58,-12.3,-16.8,140,7,,,,1019.6,,TRUE,TRUE,,,,,,,,,,,,,,,,,,,,,,,,,,,SPECI,602.0
VTCT 021800Z 07011KT 5000 -RA BKN022 OVC100 20/20 Q1014 RETSRA,VTCT,2018-04-02T18:00:00Z,19.95,99.88,20.0,20.0,70,11,,3.11,29.940945,,,,,,,,,,-RA,BKN,2200,OVC,10000,,,,,MVFR,,,,,,,,,,,,METAR,390.0
FZAA 021800Z 26006KT 7000 SCT022 FEW030CB 30/20 Q1006 BECMG TS,FZAA,2018-04-02T18:00:00Z,-4.38,15.45,30.0,20.0,260,6,,4.35,29.704725,,,,,,,,,,,SCT,2200,FEW,3000,,,,,MVFR,,,,,,,,,,,,METAR,312.0
OLBA 021800Z 00000KT 8000 BKN080 18/15 Q1014 NOSIG,OLBA,2018-04-02T18:00:00Z,33.82,35.47,18.0,15.0,0,0,,4.97,29.940945,,,,,,TRUE,,,,,BKN,8000,,,,,,,MVFR,,,,,,,,,,,,METAR,19.0
NFTF 021800Z 00000KT 9999 -RA FEW008 BKN016TCU OVC100 23/23 Q1011,NFTF,2018-04-02T18:00:00Z,-21.23,-175.15,23.0,23.0,0,0,,6.21,29.852362,,,,,,,,,,-RA,FEW,800,BKN,1600,OVC,10000,,,MVFR,,,,,,,,,,,,METAR,38.0
NFTL 021800Z 09008KT 9999 FEW010 BKN016 BKN100 25/24 Q1010,NFTL,2018-04-02T18:00:00Z,-19.78,-174.33,25.0,24.0,90,8,,6.21,29.822834,,,,,,,,,,,FEW,1000,BKN,1600,BKN,10000,,,MVFR,,,,,,,,,,,,METAR,3.0
NFTV 021800Z 35007KT 9999 FEW016TCU BKN110 26/24 Q1009,NFTV,2018-04-02T18:00:00Z,-18.58,-173.97,26.0,24.0,350,7,,6.21,29.793306,,,,,,,,,,,FEW,1600,BKN,11000,,,,,VFR,,,,,,,,,,,,METAR,71.0
SBGL 021800Z 19005KT 9999 BKN047 32/21 Q1006,SBGL,2018-04-02T18:00:00Z,-22.82,-43.25,32.0,21.0,190,5,,6.21,29.704725,,,,,,,,,,,BKN,4700,,,,,,,VFR,,,,,,,,,,,,METAR,6.0
SBCY 021800Z 28003KT 9999 SCT020 32/22 Q1010,SBCY,2018-04-02T18:00:00Z,-15.65,-56.12,32.0,22.0,280,3,,6.21,29.822834,,,,,,,,,,,SCT,2000,,,,,,,VFR,,,,,,,,,,,,METAR,182.0
SBRJ 021800Z 16012KT 9999 SCT030 30/22 Q1007,SBRJ,2018-04-02T18:00:00Z,-22.88,-43.17,30.0,22.0,160,12,,6.21,29.734253,,,,,,,,,,,SCT,3000,,,,,,,VFR,,,,,,,,,,,,METAR,3.0
SKPE 021800Z 22004KT 6000 VCFG SCT009 SCT090 22/20 A3004,SKPE,2018-04-02T18:00:00Z,4.82,-75.73,22.0,20.0,220,4,,3.73,30.041338,,,,,,,,,,VCFG,SCT,900,SCT,9000,,,,,MVFR,,,,,,,,,,,,METAR,1346.0
SKSP 021800Z 05008KT 360V090 9999 SCT018 29/21 A2992,SKSP,2018-04-02T18:00:00Z,12.57,-81.72,29.0,21.0,50,8,,6.21,29.920275,,,,,,,,,,,SCT,1800,,,,,,,VFR,,,,,,,,,,,,METAR,-2.0
KGZN 021800Z AUTO 14006KT 5SM BR BKN005 OVC028 08/07 A2988 RMK AO2,KGZN,2018-04-02T18:00:00Z,32.37,-99.02,8.0,7.0,140,6,,5.0,29.878937,,,TRUE,TRUE,,,,,,BR,BKN,500,OVC,2800,,,,,IFR,,,,,,,,,,,,METAR,522.0
LPMR 021800Z 21011KT 180V250 9999 SCT016 BKN019 BKN028 15/13 Q1005,LPMR,2018-04-02T18:00:00Z,39.82,-8.87,15.0,13.0,210,11,,6.21,29.675198,,,,,,,,,,,SCT,1600,BKN,1900,BKN,2800,,,MVFR,,,,,,,,,,,,METAR,54.0
LPOV 021800Z 20013KT 160V240 9999 BKN016 BKN030 15/13 Q1004,LPOV,2018-04-02T18:00:00Z,40.92,-8.65,15.0,13.0,200,13,,6.21,29.64567,,,,,,,,,,,BKN,1600,BKN,3000,,,,,MVFR,,,,,,,,,,,,METAR,17.0
SKIP 021800Z 09008KT 8000 -RA BKN016 12/10 A3038,SKIP,2018-04-02T18:00:00Z,0.88,-77.67,12.0,10.0,90,8,,4.97,30.380905,,,,,,,,,,-RA,BKN,1600,,,,,,,MVFR,,,,,,,,,,,,METAR,2961.0
SKPS 021800Z 31006KT 9999 VCSH BKN020 BKN080 20/15 A3014 RMK VCSH S SW,SKPS,2018-04-02T18:00:00Z,1.4,-77.28,20.0,15.0,310,6,,6.21,30.138779,,,,,,,,,,VCSH,BKN,2000,BKN,8000,,,,,MVFR,,,,,,,,,,,,SPECI,1826.0
SKNV 021800Z 19005KT 150V220 9000 -DZ SCT010 OVC120 26/23 A2991,SKNV,2018-04-02T18:00:00Z,2.97,-75.28,26.0,23.0,190,5,,5.59,29.911417,,,,,,,,,,-DZ,SCT,1000,OVC,12000,,,,,VFR,,,,,,,,,,,,METAR,443.0
SKVV 021800Z 22004KT 9999 FEW023 BKN090 29/21 A2987,SKVV,2018-04-02T18:00:00Z,4.17,-73.62,29.0,21.0,220,4,,6.21,29.870079,,,,,,,,,,,FEW,2300,BKN,9000,,,,,VFR,,,,,,,,,,,,METAR,431.0
SKIB 021800Z 15005KT 9999 VCSH BKN015TCU OVC100 25/22 A3006 RMK VCSH/TCU/N/W,SKIB,2018-04-02T18:00:00Z,4.42,-75.15,25.0,22.0,150,5,,6.21,30.059055,,,,,,,,,,VCSH,BKN,1500,OVC,10000,,,,,MVFR,,,,,,,,,,,,SPECI,928.0
SKAR 021800Z 13003KT 6000 -DZ BKN015 SCT090 22/XX A3004,SKAR,2018-04-02T18:00:00Z,4.45,-75.77,22.0,,130,3,,3.73,30.041338,,,,,,,,,,-DZ,BKN,1500,SCT,9000,,,,,MVFR,,,,,,,,,,,,METAR,1219.0
SKMZ 021800Z 30005KT 5000 DZ BR OVC005 17/15 A3027 RMK AD BLW MNM MET,SKMZ,2018-04-02T18:00:00Z,5.03,-75.47,17.0,15.0,300,5,,3.11,30.268702,,,,,,,,,,DZ BR,OVC,500,,,,,,,IFR,,,,,,,,,,,,SPECI,2080.0
SKUI 021800Z 00000KT 9999 -DZ BKN017 OVC100 26/24 A2982,SKUI,2018-04-02T18:00:00Z,5.72,-76.62,26.0,24.0,0,0,,6.21,29.819881,,,,,,,,,,-DZ,BKN,1700,OVC,10000,,,,,MVFR,,,,,,,,,,,,METAR,33.0
SKPC 021800Z 29005KT 9999 FEW020 SCT080 35/21 A2973,SKPC,2018-04-02T18:00:00Z,6.17,-67.5,35.0,21.0,290,5,,6.21,29.731298,,,,,,,,,,,FEW,2000,SCT,8000,,,,,VFR,,,,,,,,,,,,METAR,55.0
SKMD 021800Z VRB02KT 9999 VCSH SCT033TCU OVC080 24/15 A3006 RMK TCU VCSH NE/SE,SKMD,2018-04-02T18:00:00Z,6.22,-75.58,24.0,15.0,0,2,,6.21,30.059055,,,,,,,,,,VCSH,SCT,3300,OVC,8000,,,,,VFR,,,,,,,,,,,,SPECI,1499.0
SKUC 021800Z 06003KT 9999 SCT020 36/18 A2978,SKUC,2018-04-02T18:00:00Z,7.07,-70.72,36.0,18.0,60,3,,6.21,29.778543,,,,,,,,,,,SCT,2000,,,,,,,VFR,,,,,,,,,,,,METAR,128.0
SKEJ 021800Z 29003KT 9999 SCT012 30/24 A2978,SKEJ,2018-04-02T18:00:00Z,7.02,-73.78,30.0,24.0,290,3,,6.21,29.778543,,,,,,,,,,,SCT,1200,,,,,,,VFR,,,,,,,,,,,,METAR,134.0
SKLC 021800Z 32015KT 9999 SCT017 BKN090 29/23 A2985,SKLC,2018-04-02T18:00:00Z,7.82,-76.7,29.0,23.0,320,15,,6.21,29.84941,,,,,,,,,,,SCT,1700,BKN,9000,,,,,VFR,,,,,,,,,,,,METAR,30.0
SKMR 021800Z 32010KT 9999 BKN020 31/24 A2981,SKMR,2018-04-02T18:00:00Z,8.82,-75.83,31.0,24.0,320,10,,6.21,29.811024,,,,,,,,,,,BKN,2000,,,,,,,MVFR,,,,,,,,,,,,METAR,26.0
SKVP 021800Z 05011KT 9999 FEW020 SCT200 34/20 A2984,SKVP,2018-04-02T18:00:00Z,10.42,-73.25,34.0,20.0,50,11,,6.21,29.840551,,,,,,,,,,,FEW,2000,SCT,20000,,,,,VFR,,,,,,,,,,,,METAR,138.0
SKRH 021800Z 02012KT 9999 SCT030 SCT070 29/23 A2982,SKRH,2018-04-02T18:00:00Z,11.52,-72.92,29.0,23.0,20,12,,6.21,29.819881,,,,,,,,,,,SCT,3000,SCT,7000,,,,,VFR,,,,,,,,,,,,METAR,4.0
SKSM 021800Z 33008KT 9999 FEW020TCU SCT200 33/24 A2983 RMK TCU/E,SKSM,2018-04-02T18:00:00Z,11.12,-74.22,33.0,24.0,330,8,,6.21,29.828741,,,,,,,,,,,FEW,2000,SCT,20000,,,,,VFR,,,,,,,,,,,,SPECI,4.0
SKPV 021800Z 06003KT 020V130 9999 FEW018 30/23 A2993,SKPV,2018-04-02T18:00:00Z,13.37,-81.33,30.0,23.0,60,3,,6.21,29.929134,,,,,,,,,,,FEW,1800,,,,,,,VFR,,,,,,,,,,,,METAR,6.0
VRMM 021800Z 20006KT 9999 FEW019 30/25 Q1011 NOSIG,VRMM,2018-04-02T18:00:00Z,4.2,73.52,30.0,25.0,200,6,,6.21,29.852362,,,,,,TRUE,,,,,FEW,1900,,,,,,,VFR,,,,,,,,,,,,METAR,2.0
FAPN 021800Z AUTO 27003KT //// 21/16 Q1018,FAPN,2018-04-02T18:00:00Z,-25.33,27.17,21.0,16.0,270,3,,,30.059055,,,TRUE,,,,,,,,,,,,,,,,,,,,,,,,,,,,METAR,1039.0
YLEC 021800Z AUTO 10006KT //// // ////// 18/05 Q1019,YLEC,2018-04-02T18:00:00Z,-30.6,138.43,18.0,5.0,100,6,,,30.088583,,,TRUE,,,,,,,,,,,,,,,,,,,,,,,,,,,,METAR,262.0
YHUG 021800Z AUTO 15006KT 9999 // NCD 22/17 Q1009,YHUG,2018-04-02T18:00:00Z,-20.82,144.23,22.0,17.0,150,6,,6.21,29.793306,,,TRUE,,,,,,,,CLR,,,,,,,,VFR,,,,,,,,,,,,METAR,318.0
YGTH 021800Z AUTO 21004KT 9999 // NCD 14/06 Q1018,YGTH,2018-04-02T18:00:00Z,-34.25,146.07,14.0,6.0,210,4,,6.21,30.059055,,,TRUE,,,,,,,,CLR,,,,,,,,VFR,,,,,,,,,,,,METAR,134.0
YGTE 021800Z AUTO 00000KT 9999 // NCD 24/23 Q1005,YGTE,2018-04-02T18:00:00Z,-13.97,136.45,24.0,23.0,0,0,,6.21,29.675198,,,TRUE,,,,,,,,CLR,,,,,,,,VFR,,,,,,,,,,,,METAR,14.0
YGFN 021800Z AUTO 23003KT 9999 // NCD 17/16 Q1016,YGFN,2018-04-02T18:00:00Z,-29.77,153.03,17.0,16.0,230,3,,6.21,30.0,,,TRUE,,,,,,,,CLR,,,,,,,,VFR,,,,,,,,,,,,METAR,34.0
YPBO 021800Z AUTO 20001KT 9999 // NCD 27/15 Q1014,YPBO,2018-04-02T18:00:00Z,-23.2,117.75,27.0,15.0,200,1,,6.21,29.940945,,,TRUE,,,,,,,,CLR,,,,,,,,VFR,,,,,,,,,,,,METAR,1292.0
YOLD 021800Z AUTO 16010KT 9999 // NCD 17/11 Q1019,YOLD,2018-04-02T18:00:00Z,-30.48,136.88,17.0,11.0,160,10,,6.21,30.088583,,,TRUE,,,,,,,,CLR,,,,,,,,VFR,,,,,,,,,,,,METAR,105.0
KMHV 021800Z AUTO 27021G31KT 10SM CLR 21/04 A2980 RMK A01,KMHV,2018-04-02T18:00:00Z,35.07,-118.15,21.0,4.0,270,21,31,10.0,29.799213,,,TRUE,TRUE,,,,,,,CLR,,,,,,,,VFR,,,,,,,,,,,,SPECI,849.0
UTSA 021800Z 08006KT 8000 NSC 13/07 Q1015 R07/CLRD70 NOSIG,UTSA,2018-04-02T18:00:00Z,40.12,65.17,13.0,7.0,80,6,,4.97,29.970472,,,,,,TRUE,,,,,CLR,,,,,,,,MVFR,,,,,,,,,,,,SPECI,346.0
ORMM 021800Z 28006KT CAVOK 24/01 Q1012 NOSIG,ORMM,2018-04-02T18:00:00Z,30.57,47.67,24.0,1.0,280,6,,6.21,29.88189,,,,,,TRUE,,,,,CAVOK,,,,,,,,VFR,,,,,,,,,,,,METAR,2.0
ORBI 021800Z 11002KT CAVOK 23/02 Q1012 NOSIG,ORBI,2018-04-02T18:00:00Z,33.27,44.23,23.0,2.0,110,2,,6.21,29.88189,,,,,,TRUE,,,,,CAVOK,,,,,,,,VFR,,,,,,,,,,,,METAR,35.0
SBEK 021800Z 10004KT 9999 FEW020 FEW025TCU 32/26 Q1008,SBEK,2018-04-02T18:00:00Z,-6.23,-57.78,32.0,26.0,100,4,,6.21,29.763779,,,,,,,,,,,FEW,2000,FEW,2500,,,,,VFR,,,,,,,,,,,,METAR,98.0
SBCI 021800Z 10002KT 9999 FEW020 32/24 Q1008,SBCI,2018-04-02T18:00:00Z,-7.32,-47.47,32.0,24.0,100,2,,6.21,29.763779,,,,,,,,,,,FEW,2000,,,,,,,VFR,,,,,,,,,,,,METAR,183.0
SBCC 021800Z 36002KT 9999 BKN045 FEW051TCU 28/21 Q1011,SBCC,2018-04-02T18:00:00Z,-9.32,-54.95,28.0,21.0,360,2,,6.21,29.852362,,,,,,,,,,,BKN,4500,FEW,5100,,,,,VFR,,,,,,,,,,,,METAR,536.0
SBAT 021800Z 17002KT 9999 FEW025 32/23 Q1010,SBAT,2018-04-02T18:00:00Z,-9.87,-56.1,32.0,23.0,170,2,,6.21,29.822834,,,,,,,,,,,FEW,2500,,,,,,,VFR,,,,,,,,,,,,METAR,288.0
SBAA 021800Z 26005KT 9999 TS BKN020 FEW025CB 32/25 Q1010,SBAA,2018-04-02T18:00:00Z,-8.35,-49.3,32.0,25.0,260,5,,6.21,29.822834,,,,,,,,,,TS,BKN,2000,FEW,2500,,,,,MVFR,,,,,,,,,,,,METAR,199.0
SBBW 021800Z 33006KT 9999 -RA SCT017 SCT020 BKN090 25/22 Q1012,SBBW,2018-04-02T18:00:00Z,-15.87,-52.37,25.0,22.0,330,6,,6.21,29.88189,,,,,,,,,,-RA,SCT,1700,SCT,2000,BKN,9000,,,VFR,,,,,,,,,,,,METAR,350.0
SBAN 021800Z 05008KT 9999 SCT030 FEW040TCU SCT100 24/19 Q1016,SBAN,2018-04-02T18:00:00Z,-16.22,-48.97,24.0,19.0,50,8,,6.21,30.0,,,,,,,,,,,SCT,3000,FEW,4000,SCT,10000,,,VFR,,,,,,,,,,,,METAR,1137.0
SBUA 021800Z 09007KT 9999 TS SCT030 FEW035CB 32/24 Q1008,SBUA,2018-04-02T18:00:00Z,-0.15,-66.98,32.0,24.0,90,7,,6.21,29.763779,,,,,,,,,,TS,SCT,3000,FEW,3500,,,,,VFR,,,,,,,,,,,,METAR,79.0
SBTU 021800Z /////KT 9999 SCT025 FEW030TCU ///// Q1009,SBTU,2018-04-02T18:00:00Z,-3.78,-49.72,,,,,,6.21,29.793306,,,,,,,,,,,SCT,2500,FEW,3000,,,,,VFR,,,,,,,,,,,,SPECI,40.0
SBTK 021800Z 08003KT 9999 SCT030 33/26 Q1009,SBTK,2018-04-02T18:00:00Z,-8.17,-70.77,33.0,26.0,80,3,,6.21,29.793306,,,,,,,,,,,SCT,3000,,,,,,,VFR,,,,,,,,,,,,METAR,188.0
SBOI 021800Z 05005KT 9000 -RA BKN015 BKN025 BKN100 27/25 Q1008,SBOI,2018-04-02T18:00:00Z,3.85,-51.82,27.0,25.0,50,5,,5.59,29.763779,,,,,,,,,,-RA,BKN,1500,BKN,2500,BKN,10000,,,MVFR,,,,,,,,,,,,METAR,39.0
SBLB 021800Z 05016KT CAVOK 30/23 Q1009 W///S4,SBLB,2018-04-02T18:00:00Z,-22.1,-39.92,30.0,23.0,50,16,,6.21,29.793306,,,,,,,,,,,CAVOK,,,,,,,,VFR,,,,,,,,,,,,SPECI,10.0
SBIH 021800Z /////KT 9999 SCT014 FEW025TCU BKN080 27/24 Q1008,SBIH,2018-04-02T18:00:00Z,-4.25,-56.0,27.0,24.0,,,,6.21,29.763779,,,,,,,,,,,SCT,1400,FEW,2500,BKN,8000,,,VFR,,,,,,,,,,,,SPECI,34.0
SBIC 021800Z 08003KT 9999 SCT020 29/25 Q1009,SBIC,2018-04-02T18:00:00Z,-3.12,-58.47,29.0,25.0,80,3,,6.21,29.793306,,,,,,,,,,,SCT,2000,,,,,,,VFR,,,,,,,,,,,,METAR,43.0
SBHT 021800Z 15003KT 9999 BKN025 31/24 Q1007,SBHT,2018-04-02T18:00:00Z,-3.25,-52.27,31.0,24.0,150,3,,6.21,29.734253,,,,,,,,,,,BKN,2500,,,,,,,MVFR,,,,,,,,,,,,METAR,74.0
SBGM 021800Z 23004KT 9999 FEW025TCU SCT030 32/24 Q1009,SBGM,2018-04-02T18:00:00Z,-10.78,-65.28,32.0,24.0,230,4,,6.21,29.793306,,,,,,,,,,,FEW,2500,SCT,3000,,,,,VFR,,,,,,,,,,,,METAR,146.0
SBKG 021800Z 11012KT 9999 SCT030 27/21 Q1011,SBKG,2018-04-02T18:00:00Z,-7.27,-35.87,27.0,21.0,110,12,,6.21,29.852362,,,,,,,,,,,SCT,3000,,,,,,,VFR,,,,,,,,,,,,METAR,560.0
SBLE 021800Z 07001KT 9999 BKN035 31/21 Q1012,SBLE,2018-04-02T18:00:00Z,-12.48,-41.28,31.0,21.0,70,1,,6.21,29.88189,,,,,,,,,,,BKN,3500,,,,,,,VFR,,,,,,,,,,,,METAR,511.0
SBLP 021800Z 30004KT 9999 FEW030 32/19 Q1010,SBLP,2018-04-02T18:00:00Z,-13.27,-43.42,32.0,19.0,300,4,,6.21,29.822834,,,,,,,,,,,FEW,3000,,,,,,,VFR,,,,,,,,,,,,METAR,440.0
SBQV 021800Z 15006KT 9999 SCT040 27/15 Q1014,SBQV,2018-04-02T18:00:00Z,-14.87,-40.87,27.0,15.0,150,6,,6.21,29.940945,,,,,,,,,,,SCT,4000,,,,,,,VFR,,,,,,,,,,,,METAR,893.0
SBMT 021800Z 28008KT 9999 BKN024 BKN040 25/19 Q1012,SBMT,2018-04-02T18:00:00Z,-23.52,-46.62,25.0,19.0,280,8,,6.21,29.88189,,,,,,,,,,,BKN,2400,BKN,4000,,,,,MVFR,,,,,,,,,,,,METAR,722.0
SBLS 021800Z VRB04KT 9999 SCT040 FEW045TCU 28/17 Q1014,SBLS,2018-04-02T18:00:00Z,-19.67,-43.88,28.0,17.0,0,4,,6.21,29.940945,,,,,,,,,,,SCT,4000,FEW,4500,,,,,VFR,,,,,,,,,,,,METAR,852.0
SBIP 021800Z 04006KT 9999 SCT020 33/21 Q1010,SBIP,2018-04-02T18:00:00Z,-19.47,-42.48,33.0,21.0,40,6,,6.21,29.822834,,,,,,,,,,,SCT,2000,,,,,,,VFR,,,,,,,,,,,,METAR,239.0
SBGW 021800Z 24004KT 9999 SCT030 BKN090 29/19 Q1010,SBGW,2018-04-02T18:00:00Z,-22.77,-45.2,29.0,19.0,240,4,,6.21,29.822834,,,,,,,,,,,SCT,3000,BKN,9000,,,,,VFR,,,,,,,,,,,,METAR,533.0
SBFS 021800Z /////KT 9999 FEW020 ///// Q////,SBFS,2018-04-02T18:00:00Z,-22.02,-41.07,,,,,,6.21,,,,,,,,,,,,FEW,2000,,,,,,,VFR,,,,,,,,,,,,METAR,3.0
SBES 021800Z 12005KT 090V160 9999 FEW025 33/23 Q1007,SBES,2018-04-02T18:00:00Z,-22.82,-42.1,33.0,23.0,120,5,,6.21,29.734253,,,,,,,,,,,FEW,2500,,,,,,,VFR,,,,,,,,,,,,METAR,11.0
SBDN 021800Z 30008KT 9999 BKN030 30/18 Q1011,SBDN,2018-04-02T18:00:00Z,-22.18,-51.43,30.0,18.0,300,8,,6.21,29.852362,,,,,,,,,,,BKN,3000,,,,,,,MVFR,,,,,,,,,,,,METAR,435.0
SBBQ 021800Z 32007KT 9999 FEW033TCU SCT100 26/17 Q1016,SBBQ,2018-04-02T18:00:00Z,-21.25,-43.77,26.0,17.0,320,7,,6.21,30.0,,,,,,,,,,,FEW,3300,SCT,10000,,,,,VFR,,,,,,,,,,,,METAR,1171.0
SBAF 021800Z 23011KT 9999 SCT030 30/22 Q1007,SBAF,2018-04-02T18:00:00Z,-22.87,-43.37,30.0,22.0,230,11,,6.21,29.734253,,,,,,,,,,,SCT,3000,,,,,,,VFR,,,,,,,,,,,,METAR,34.0
SBSM 021800Z 15005KT 100V190 9999 BKN040 26/18 Q1011,SBSM,2018-04-02T18:00:00Z,-29.72,-53.7,26.0,18.0,150,5,,6.21,29.852362,,,,,,,,,,,BKN,4000,,,,,,,VFR,,,,,,,,,,,,METAR,85.0
SBCX 021800Z 18006KT 5000 2000S -DZ BCFG FEW002 OVC005 18/17 Q1012,SBCX,2018-04-02T18:00:00Z,-29.2,-51.18,18.0,17.0,180,6,,3.11,29.88189,,,,,,,,,,BCFG -DZ,FEW,200,OVC,500,,,,,IFR,,,,,,,,,,,,METAR,754.0
SBCH 021800Z 30016KT 9999 BKN020 24/18 Q1013,SBCH,2018-04-02T18:00:00Z,-27.13,-52.67,24.0,18.0,300,16,,6.21,29.911417,,,,,,,,,,,BKN,2000,,,,,,,MVFR,,,,,,,,,,,,METAR,650.0
SBCA 021800Z 25008KT 9999 SCT040 26/19 Q1014,SBCA,2018-04-02T18:00:00Z,-25.0,-53.5,26.0,19.0,250,8,,6.21,29.940945,,,,,,,,,,,SCT,4000,,,,,,,VFR,,,,,,,,,,,,METAR,754.0
SBSC 021800Z 22008KT 9999 TS FEW020 FEW030CB SCT100 29/25 Q1008,SBSC,2018-04-02T18:00:00Z,-22.92,-43.72,29.0,25.0,220,8,,6.21,29.763779,,,,,,,,,,TS,FEW,2000,FEW,3000,SCT,10000,,,VFR,,,,,,,,,,,,METAR,3.0
SBSR 021800Z 30005KT 9999 SCT030 FEW040TCU BKN070 28/19 Q1012,SBSR,2018-04-02T18:00:00Z,-20.8,-49.4,28.0,19.0,300,5,,6.21,29.88189,,,,,,,,,,,SCT,3000,FEW,4000,BKN,7000,,,VFR,,,,,,,,,,,,METAR,543.0
SBTA 021800Z 23004KT 6000 TSRA BKN025 FEW030CB BKN040 24/19 Q1011,SBTA,2018-04-02T18:00:00Z,-23.03,-45.5,24.0,19.0,230,4,,3.73,29.852362,,,,,,,,,,TSRA,BKN,2500,FEW,3000,BKN,4000,,,MVFR,,,,,,,,,,,,METAR,586.0
SBST 021800Z 19003KT CAVOK 30/24 Q1007,SBST,2018-04-02T18:00:00Z,-23.92,-46.28,30.0,24.0,190,3,,6.21,29.734253,,,,,,,,,,,CAVOK,,,,,,,,VFR,,,,,,,,,,,,METAR,3.0
SBYS 021800Z 33004KT 280V360 9999 FEW045 FEW050TCU BKN100 26/21 Q1013,SBYS,2018-04-02T18:00:00Z,-21.97,-47.32,26.0,21.0,330,4,,6.21,29.911417,,,,,,,,,,,FEW,4500,FEW,5000,BKN,10000,,,VFR,,,,,,,,,,,,METAR,598.0
SKLT 021800Z 25004KT 9999 FEW012 BKN020 33/25 A2979,SKLT,2018-04-02T18:00:00Z,-4.2,-69.93,33.0,25.0,250,4,,6.21,29.790354,,,,,,,,,,,FEW,1200,BKN,2000,,,,,MVFR,,,,,,,,,,,,METAR,84.0
MRPV 021800Z 07011KT 9999 FEW045 27/11 A3000 NOSIG,MRPV,2018-04-02T18:00:00Z,9.95,-84.15,27.0,11.0,70,11,,6.21,30.0,,,,,,TRUE,,,,,FEW,4500,,,,,,,VFR,,,,,,,,,,,,SPECI,994.0
OEAO 021800Z 36010KT CAVOK 31/05 Q1011,OEAO,2018-04-02T18:00:00Z,26.48,38.12,31.0,5.0,360,10,,6.21,29.852362,,,,,,,,,,,CAVOK,,,,,,,,VFR,,,,,,,,,,,,METAR,624.0
OEAH 021800Z 05004KT CAVOK 25/05 Q1013 NOSIG,OEAH,2018-04-02T18:00:00Z,25.27,49.47,25.0,5.0,50,4,,6.21,29.911417,,,,,,TRUE,,,,,CAVOK,,,,,,,,VFR,,,,,,,,,,,,METAR,172.0
OEAB 021800Z 05017KT 7000 TSRA BKN020 FEW025CB 12/11 Q1026 NOSIG,OEAB,2018-04-02T18:00:00Z,18.22,42.63,12.0,11.0,50,17,,4.35,30.295275,,,,,,TRUE,,,,TSRA,BKN,2000,FEW,2500,,,,,MVFR,,,,,,,,,,,,METAR,2084.0
DXSK 021800Z 00000KT 4000 HZ NSC 34/18 Q////,DXSK,2018-04-02T18:00:00Z,9.0,1.15,34.0,18.0,0,0,,2.49,,,,,,,,,,,HZ,CLR,,,,,,,,IFR,,,,,,,,,,,,METAR,387.0
DXNG 021800Z 23005KT 200V270 8000 NSC 34/13 Q1009 NOSIG,DXNG,2018-04-02T18:00:00Z,9.77,1.1,34.0,13.0,230,5,,4.97,29.793306,,,,,,TRUE,,,,,CLR,,,,,,,,MVFR,,,,,,,,,,,,METAR,343.0
DXXX 021800Z 22013KT 8000 FEW014 29/26 Q1007 NOSIG,DXXX,2018-04-02T18:00:00Z,6.17,1.25,29.0,26.0,220,13,,4.97,29.734253,,,,,,TRUE,,,,,FEW,1400,,,,,,,MVFR,,,,,,,,,,,,METAR,25.0
DNPO 021800Z VRB02KT 3000 HZ NSC 28/24 Q1006 NOSIG,DNPO,2018-04-02T18:00:00Z,4.83,7.02,28.0,24.0,0,2,,1.86,29.704725,,,,,,TRUE,,,,HZ,CLR,,,,,,,,IFR,,,,,,,,,,,,METAR,18.0
DGAA 021800Z 21017KT 5000 HZ FEW017 29/25 Q1006 NOSIG,DGAA,2018-04-02T18:00:00Z,5.58,-0.17,29.0,25.0,210,17,,3.11,29.704725,,,,,,TRUE,,,,HZ,FEW,1700,,,,,,,MVFR,,,,,,,,,,,,METAR,69.0
DRZA 021800Z 12006KT 6000 NSC 34/M02 Q1009,DRZA,2018-04-02T18:00:00Z,16.97,8.0,34.0,-2.0,120,6,,3.73,29.793306,,,,,,,,,,,CLR,,,,,,,,MVFR,,,,,,,,,,,,METAR,502.0
DRRT 021800Z 04002KT CAVOK 37/03 Q1006,DRRT,2018-04-02T18:00:00Z,14.9,5.25,37.0,3.0,40,2,,6.21,29.704725,,,,,,,,,,,CAVOK,,,,,,,,VFR,,,,,,,,,,,,METAR,391.0
DRRN 021800Z 02004KT 4600 DU NSC 39/M07 Q1005 NOSIG,DRRN,2018-04-02T18:00:00Z,13.47,2.17,39.0,-7.0,20,4,,2.86,29.675198,,,,,,TRUE,,,,DU,CLR,,,,,,,,IFR,,,,,,,,,,,,METAR,227.0
DNKN 021800Z 02004KT 7000 NSC 34/04 Q1009 NOSIG,DNKN,2018-04-02T18:00:00Z,12.05,8.52,34.0,4.0,20,4,,4.35,29.793306,,,,,,TRUE,,,,,CLR,,,,,,,,MVFR,,,,,,,,,,,,METAR,481.0
DNMM 021800Z 20009KT 7000 SCT013 29/26 Q1008 NOSIG,DNMM,2018-04-02T18:00:00Z,6.57,3.32,29.0,26.0,200,9,,4.35,29.763779,,,,,,TRUE,,,,,SCT,1300,,,,,,,MVFR,,,,,,,,,,,,METAR,38.0
CYXJ 021800Z 36005KT 60SM BKN052 M11/M18 A3012 RMK SC7 SLP252,CYXJ,2018-04-02T18:00:00Z,56.25,-120.73,-11.0,-18.0,360,5,,60.0,30.121063,1025.2,,,,,,,,,,BKN,5200,,,,,,,VFR,,,,,,,,,,,,METAR,695.0
TNCC 021800Z 10010KT 9999 SCT023 30/23 Q1011 NOSIG,TNCC,2018-04-02T18:00:00Z,12.2,-68.97,30.0,23.0,100,10,,6.21,29.852362,,,,,,TRUE,,,,,SCT,2300,,,,,,,VFR,,,,,,,,,,,,METAR,9.0
RPLI 021800Z 00000KT 9999 FEW019 23/20 Q1010 NOSIG RMK A2983,RPLI,2018-04-02T18:00:00Z,18.17,120.52,23.0,20.0,0,0,,6.21,29.822834,,,,,,TRUE,,,,,FEW,1900,,,,,,,VFR,,,,,,,,,,,,METAR,5.0
RPMZ 021800Z 00000KT 9999 FEW017 SCT300 24/20 Q1010 RMK A2983,RPMZ,2018-04-02T18:00:00Z,6.92,122.07,24.0,20.0,0,0,,6.21,29.822834,,,,,,,,,,,FEW,1700,SCT,30000,,,,,VFR,,,,,,,,,,,,METAR,6.0
RPMD 021800Z VRB02KT 9999 FEW016 BKN090 BKN290 25/24 Q1010 RMK A2983,RPMD,2018-04-02T18:00:00Z,7.12,125.65,25.0,24.0,0,2,,6.21,29.822834,,,,,,,,,,,FEW,1600,BKN,9000,BKN,29000,,,VFR,,,,,,,,,,,,METAR,18.0
RPVM 021800Z VRB02KT 9999 FEW020 SCT300 26/22 Q1010 NOSIG RMK A2983,RPVM,2018-04-02T18:00:00Z,10.32,123.98,26.0,22.0,0,2,,6.21,29.822834,,,,,,TRUE,,,,,FEW,2000,SCT,30000,,,,,VFR,,,,,,,,,,,,METAR,10.0
RPLB 021800Z VRB02KT 9999 SCT018 BKN080 25/23 Q1009 NOSIG RMK A2980,RPLB,2018-04-02T18:00:00Z,14.8,120.27,25.0,23.0,0,2,,6.21,29.793306,,,,,,TRUE,,,,,SCT,1800,BKN,8000,,,,,VFR,,,,,,,,,,,,METAR,17.0
RPLL 021800Z 09003KT 9999 FEW023 SCT100 27/23 Q1011 NOSIG RMK A2985,RPLL,2018-04-02T18:00:00Z,14.52,121.0,27.0,23.0,90,3,,6.21,29.852362,,,,,,TRUE,,,,,FEW,2300,SCT,10000,,,,,VFR,,,,,,,,,,,,METAR,21.0
GQNO 021800Z 32022KT 7000 NSC 21/15 Q1008 NOSIG,GQNO,2018-04-02T18:00:00Z,18.3,-15.97,21.0,15.0,320,22,,4.35,29.763779,,,,,,TRUE,,,,,CLR,,,,,,,,MVFR,,,,,,,,,,,,METAR,4.0
LFQG 021800Z AUTO 15010KT CAVOK 16/04 Q1002,LFQG,2018-04-02T18:00:00Z,47.0,3.1,16.0,4.0,150,10,,6.21,29.586615,,,TRUE,,,,,,,,CAVOK,,,,,,,,VFR,,,,,,,,,,,,METAR,181.0
LFLW 021800Z AUTO 13018KT CAVOK 10/M01 Q1005,LFLW,2018-04-02T18:00:00Z,44.88,2.42,10.0,-1.0,130,18,,6.21,29.675198,,,TRUE,,,,,,,,CAVOK,,,,,,,,VFR,,,,,,,,,,,,METAR,639.0
GOBD 021800Z 36022KT CAVOK 22/14 Q1008 NOSIG,GOBD,2018-04-02T18:00:00Z,14.67,-17.07,22.0,14.0,360,22,,6.21,29.763779,,,,,,TRUE,,,,,CAVOK,,,,,,,,VFR,,,,,,,,,,,,METAR,88.0
GANR 021800Z 26002KT CAVOK 39/09 Q1005,GANR,2018-04-02T18:00:00Z,15.23,-9.58,39.0,9.0,260,2,,6.21,29.675198,,,,,,,,,,,CAVOK,,,,,,,,VFR,,,,,,,,,,,,METAR,237.0
GAKY 021800Z 29004KT 8000 NSC 40/03 Q1004,GAKY,2018-04-02T18:00:00Z,14.48,-11.4,40.0,3.0,290,4,,4.97,29.64567,,,,,,,,,,,CLR,,,,,,,,MVFR,,,,,,,,,,,,METAR,47.0
GABS 021800Z 17003KT 8000 NSC 38/11 Q1006 NOSIG,GABS,2018-04-02T18:00:00Z,12.52,-7.95,38.0,11.0,170,3,,4.97,29.704725,,,,,,TRUE,,,,,CLR,,,,,,,,MVFR,,,,,,,,,,,,METAR,381.0
VTUQ 021800Z AUTO 00000KT ////NDV ////// 26/20 Q1012 A2988,VTUQ,2018-04-02T18:00:00Z,14.95,102.32,26.0,20.0,0,0,,,29.88189,,,TRUE,,,,,,,,,,,,,,,,,,,,,,,,,,,,METAR,234.0
FQPB 021800Z 18009KT 9999 FEW020 FEW025CB BKN/// 27/24 Q1011 RMK CB TO SW/W/NW,FQPB,2018-04-02T18:00:00Z,-12.97,40.5,27.0,24.0,180,9,,6.21,29.852362,,,,,,,,,,,FEW,2000,FEW,2500,,,,,VFR,,,,,,,,,,,,METAR,50.0
UEEE 021800Z 34008MPS 1500 R23L/P2000N SHSN DRSN BKN015CB M10/M12 Q1008 R23L/490145 NOSIG RMK QFE748,UEEE,2018-04-02T18:00:00Z,62.08,129.77,-10.0,-12.0,340,16,,0.93,29.763779,,,,,,TRUE,,,,SHSN DRSN,BKN,1500,,,,,,,LIFR,,,,,,,,,,,,METAR,103.0
FDST 021800Z AUTO 25004KT //// // ////// 19/19 Q1017,FDST,2018-04-02T18:00:00Z,-26.43,31.95,19.0,19.0,250,4,,,30.029528,,,TRUE,,,,,,,,,,,,,,,,,,,,,,,,,,,,METAR,667.0
NCAI 021800Z AUTO 04005KT //// ////// 26/25 Q1014,NCAI,2018-04-02T18:00:00Z,-18.82,-159.77,26.0,25.0,40,5,,,29.940945,,,TRUE,,,,,,,,,,,,,,,,,,,,,,,,,,,,METAR,6.0
NIUE 021800Z AUTO 09003KT //// ////// 23/23 Q1011,NIUE,2018-04-02T18:00:00Z,-19.07,-169.92,23.0,23.0,90,3,,,29.852362,,,TRUE,,,,,,,,,,,,,,,,,,,,,,,,,,,,METAR,20.0
WMKN 021800Z 24003KT 9999 SCT022 SCT150 BKN300 26/24 Q1010,WMKN,2018-04-02T18:00:00Z,5.37,103.08,26.0,24.0,240,3,,6.21,29.822834,,,,,,,,,,,SCT,2200,SCT,15000,BKN,30000,,,VFR,,,,,,,,,,,,METAR,6.0
WMKM 021800Z VRB03KT 9999 FEW028 SCT140 BKN270 26/24 Q1010,WMKM,2018-04-02T18:00:00Z,2.27,102.25,26.0,24.0,0,3,,6.21,29.822834,,,,,,,,,,,FEW,2800,SCT,14000,BKN,27000,,,VFR,,,,,,,,,,,,METAR,9.0
WMKL 021800Z 07003KT 030V110 9999 FEW017CB SCT140 BKN270 28/25 Q1010,WMKL,2018-04-02T18:00:00Z,6.32,99.72,28.0,25.0,70,3,,6.21,29.822834,,,,,,,,,,,FEW,1700,SCT,14000,BKN,27000,,,VFR,,,,,,,,,,,,METAR,7.0
WMKI 021800Z VRB02KT 8000 FEW030 BKN280 25/24 Q1010,WMKI,2018-04-02T18:00:00Z,4.57,101.08,25.0,24.0,0,2,,4.97,29.822834,,,,,,,,,,,FEW,3000,BKN,28000,,,,,MVFR,,,,,,,,,,,,METAR,39.0
WMKE 021800Z AUTO 00000KT //// // 24/24 Q1010,WMKE,2018-04-02T18:00:00Z,4.53,103.43,24.0,24.0,0,0,,,29.822834,,,TRUE,,,,,,,,,,,,,,,,,,,,,,,,,,,,METAR,5.0
WMKD 021800Z VRB03KT 8000 FEW024 BKN280 26/24 Q1010 NOSIG,WMKD,2018-04-02T18:00:00Z,3.77,103.22,26.0,24.0,0,3,,4.97,29.822834,,,,,,TRUE,,,,,FEW,2400,BKN,28000,,,,,MVFR,,,,,,,,,,,,METAR,16.0
WMKC 021800Z VRB02KT 9999 FEW020 BKN280 26/24 Q1010,WMKC,2018-04-02T18:00:00Z,6.17,102.27,26.0,24.0,0,2,,6.21,29.822834,,,,,,,,,,,FEW,2000,BKN,28000,,,,,VFR,,,,,,,,,,,,METAR,5.0
WMKB 021800Z 06007KT 010V110 7000 -TSRA FEW017CB SCT140 BKN260 25/24 Q1010 NOSIG,WMKB,2018-04-02T18:00:00Z,5.47,100.37,25.0,24.0,60,7,,4.35,29.822834,,,,,,TRUE,,,,-TSRA,FEW,1700,SCT,14000,BKN,26000,,,MVFR,,,,,,,,,,,,METAR,4.0
WMKA 021800Z 15003KT 100V180 9999 -TSRA FEW017CB SCT028 BKN270 27/26 Q1010,WMKA,2018-04-02T18:00:00Z,6.2,100.4,27.0,26.0,150,3,,6.21,29.822834,,,,,,,,,,-TSRA,FEW,1700,SCT,2800,BKN,27000,,,VFR,,,,,,,,,,,,METAR,5.0
WMBA 021800Z 00000KT 9999 FEW033 SCT150 BKN280 26/25 Q1009,WMBA,2018-04-02T18:00:00Z,4.22,100.7,26.0,25.0,0,0,,6.21,29.793306,,,,,,,,,,,FEW,3300,SCT,15000,BKN,28000,,,VFR,,,,,,,,,,,,METAR,8.0
WMAU 021800Z AUTO VRB05KT //// // 27/24 Q//// QFF1010,WMAU,2018-04-02T18:00:00Z,2.38,103.88,27.0,24.0,0,5,,0.63,,,,TRUE,,,,,,,,,,,,,,,,,,,,,,,,,,,,METAR,45.0
ROYN 021800Z AUTO 13004KT 100V160 9999 NCD 21/17 Q1014,ROYN,2018-04-02T18:00:00Z,24.47,122.97,21.0,17.0,130,4,,6.21,29.940945,,,TRUE,,,,,,,,CLR,,,,,,,,VFR,,,,,,,,,,,,METAR,17.0
RORY 021800Z AUTO 11005KT 9999 BKN026 BKN036 20/15 Q1016,RORY,2018-04-02T18:00:00Z,27.05,128.4,20.0,15.0,110,5,,6.21,30.0,,,TRUE,,,,,,,,BKN,2600,BKN,3600,,,,,MVFR,,,,,,,,,,,,METAR,16.0
UWGG 021800Z 16008MPS CAVOK 05/M03 Q1012 R18R/090060 NOSIG RMK QFE752,UWGG,2018-04-02T18:00:00Z,56.23,43.78,5.0,-3.0,160,16,,6.21,29.88189,,,,,,TRUE,,,,,CAVOK,,,,,,,,VFR,,,,,,,,,,,,METAR,73.0
UUOK 021800Z 16003MPS 2200 -RA BR OVC003 02/02 Q1004 R12/290155 TEMPO 1000 RA BR OVC002 RMK QBB110 QFE736/0981,UUOK,2018-04-02T18:00:00Z,51.75,36.28,2.0,2.0,160,6,,1.37,29.64567,,,,,,,,,,-RA BR,OVC,300,,,,,,,LIFR,,,,,,,,,,,,METAR,209.0
UUOB 021800Z 17002MPS 0300 0200SW R11/0750N +RA FG OVC003 03/03 Q1005 R11/290055 NOSIG RMK QBB100,UUOB,2018-04-02T18:00:00Z,50.65,36.58,3.0,3.0,170,4,,0.19,29.675198,,,,,,TRUE,,,,+RA FG,OVC,300,,,,,,,LIFR,,,,,,,,,,,,METAR,224.0
UUBC 021800Z 16006MPS 9999 -RA BKN007 02/01 Q1003 R13/190155 NOSIG RMK QFE734/0979,UUBC,2018-04-02T18:00:00Z,54.55,36.37,2.0,1.0,160,12,,6.21,29.616142,,,,,,TRUE,,,,-RA,BKN,700,,,,,,,IFR,,,,,,,,,,,,METAR,199.0
ULWC 021800Z 17007G12MPS 9999 -RA OVC033 07/00 Q0999 WS R21 R21/290157 NOSIG RMK QFE739/0986,ULWC,2018-04-02T18:00:00Z,59.28,38.02,7.0,0.0,170,14,23,6.21,29.498032,,,,,,TRUE,,,,-RA,OVC,3300,,,,,,,VFR,,,,,,,,,,,,METAR,115.0
UIUU 021800Z 31003MPS 9999 NSC M10/M15 Q1034 R26/CLRD60 NOSIG RMK QFE730/0973,UIUU,2018-04-02T18:00:00Z,51.8,107.45,-10.0,-15.0,310,6,,6.21,30.531496,,,,,,TRUE,,,,,CLR,,,,,,,,VFR,,,,,,,,,,,,METAR,515.0
UIII 021800Z 10003MPS CAVOK M13/M16 Q1032 R12/60D NOSIG RMK QFE731/0975,UIII,2018-04-02T18:00:00Z,52.27,104.4,-13.0,-16.0,100,6,,6.21,30.47244,,,,,,TRUE,,,,,CAVOK,,,,,,,,VFR,,,,,,,,,,,,METAR,513.0
UIBB 021800Z AUTO 22003MPS 180V250 9999 // ///067/// M08/M13 Q1026 RMK QFE726/0968,UIBB,2018-04-02T18:00:00Z,56.37,101.7,-8.0,-13.0,220,6,,6.21,30.295275,,,TRUE,,,,,,,,,,,,,,,,,,,,,,,,,,,,METAR,490.0
UIAA 021800Z 29007MPS 9999 NSC M08/M17 Q1028 R29/70D NOSIG RMK QFE712/0949,UIAA,2018-04-02T18:00:00Z,52.02,113.32,-8.0,-17.0,290,14,,6.21,30.35433,,,,,,TRUE,,,,,CLR,,,,,,,,VFR,,,,,,,,,,,,METAR,685.0
USSS 021800Z 10001MPS CAVOK M08/M09 Q1030 R08R/420260 R08L/490529 NOSIG RMK QFE752/1003,USSS,2018-04-02T18:00:00Z,56.75,60.82,-8.0,-9.0,100,2,,6.21,30.413385,,,,,,TRUE,,,,,CAVOK,,,,,,,,VFR,,,,,,,,,,,,METAR,233.0
USRR 021800Z 33007MPS 7000 DRSN SCT037CB M09/M11 Q1022 R25/450250 TEMPO 2000 SHSN RMK QFE761,USRR,2018-04-02T18:00:00Z,61.33,73.42,-9.0,-11.0,330,14,,4.35,30.177166,,,,,,,,,,DRSN,SCT,3700,,,,,,,MVFR,,,,,,,,,,,,METAR,44.0
USNN 021800Z VRB01MPS CAVOK M10/M11 Q1018 R21/0///65 NOSIG RMK QFE758,USNN,2018-04-02T18:00:00Z,60.95,76.48,-10.0,-11.0,0,2,,6.21,30.059055,,,,,,TRUE,,,,,CAVOK,,,,,,,,VFR,,,,,,,,,,,,METAR,54.0
USCC 021800Z 17002MPS 9999 SCT040 M02/M05 Q1031 R27/000060 NOSIG RMK QFE753,USCC,2018-04-02T18:00:00Z,55.3,61.5,-2.0,-5.0,170,4,,6.21,30.442913,,,,,,TRUE,,,,,SCT,4000,,,,,,,VFR,,,,,,,,,,,,METAR,234.0
UWUU 021800Z 14004MPS 9999 BKN040 02/M02 Q1029 R14R/0///60 NOSIG RMK QFE761/1015,UWUU,2018-04-02T18:00:00Z,54.57,55.87,2.0,-2.0,140,8,,6.21,30.383858,,,,,,TRUE,,,,,BKN,4000,,,,,,,VFR,,,,,,,,,,,,METAR,137.0
URWW 021800Z 13011MPS CAVOK 08/03 Q1011 R06/010070 NOSIG,URWW,2018-04-02T18:00:00Z,48.78,44.33,8.0,3.0,130,21,,6.21,29.852362,,,,,,TRUE,,,,,CAVOK,,,,,,,,VFR,,,,,,,,,,,,METAR,147.0
URWI 021800Z AUTO 13011MPS 9999 // ///012/// 08/06 Q1008,URWI,2018-04-02T18:00:00Z,46.37,44.33,8.0,6.0,130,21,,6.21,29.763779,,,TRUE,,,,,,,,,,,,,,,,,,,,,,,,,,,,METAR,150.0
URWA 021800Z 10005MPS CAVOK 06/01 Q1014 R09/010060 NOSIG RMK QFE762/1017,URWA,2018-04-02T18:00:00Z,46.28,48.02,6.0,1.0,100,10,,6.21,29.940945,,,,,,TRUE,,,,,CAVOK,,,,,,,,VFR,,,,,,,,,,,,METAR,-20.0
HKKI 021800Z 33006KT 9999 FEW020CB SCT025 BKN090 24/18 Q1012,HKKI,2018-04-02T18:00:00Z,-0.1,34.75,24.0,18.0,330,6,,6.21,29.88189,,,,,,,,,,,FEW,2000,SCT,2500,BKN,9000,,,VFR,,,,,,,,,,,,METAR,1146.0
HUEN 021800Z 17007KT 9999 FEW019 FEW021CB 24/20 Q1013 NOSIG,HUEN,2018-04-02T18:00:00Z,0.03,32.45,24.0,20.0,170,7,,6.21,29.911417,,,,,,TRUE,,,,,FEW,1900,FEW,2100,,,,,VFR,,,,,,,,,,,,METAR,1155.0
VIJP 021800Z 07007KT 3000 HZ NSC 31/05 Q1010 NOSIG,VIJP,2018-04-02T18:00:00Z,26.82,75.78,31.0,5.0,70,7,,1.86,29.822834,,,,,,TRUE,,,,HZ,CLR,,,,,,,,IFR,,,,,,,,,,,,METAR,390.0
VERP 021800Z 09009KT 6000 NSC 28/12 Q1010 NOSIG,VERP,2018-04-02T18:00:00Z,21.18,81.73,28.0,12.0,90,9,,3.73,29.822834,,,,,,TRUE,,,,,CLR,,,,,,,,MVFR,,,,,,,,,,,,METAR,316.0
YGLA 021800Z AUTO 16007KT 9999 // NCD 23/20 Q1011,YGLA,2018-04-02T18:00:00Z,-23.87,151.22,23.0,20.0,160,7,,6.21,29.852362,,,TRUE,,,,,,,,CLR,,,,,,,,VFR,,,,,,,,,,,,METAR,52.0
YHID 021800Z AUTO 00000KT 9999 // NCD 26/25 Q1005,YHID,2018-04-02T18:00:00Z,-10.58,142.3,26.0,25.0,0,0,,6.21,29.675198,,,TRUE,,,,,,,,CLR,,,,,,,,VFR,,,,,,,,,,,,METAR,13.0
CYCY 021800Z AUTO 32014KT 9SM -SN OVC015 M12/M14 A3028 RMK SLP258,CYCY,2018-04-02T18:00:00Z,70.47,-68.52,-12.0,-14.0,320,14,,9.0,30.280512,1025.8,,TRUE,,,,,,,-SN,OVC,1500,,,,,,,MVFR,,,,,,,,,,,,METAR,26.0
CWCF 021800Z AUTO 29009KT M17/M25 RMK AO1 SOG 09 0003 SLP239 T11701252 50002,CWCF,2018-04-02T18:00:00Z,52.35,-97.03,-17.0,-25.2,290,9,,,,1023.9,,TRUE,TRUE,,,,,,,,,,,,,,,,0.2,,,,,,,,,,,METAR,222.0
CWBS 021800Z AUTO 22010KT 01/M10 RMK AO1 T00141101,CWBS,2018-04-02T18:00:00Z,46.18,-72.92,1.4,-10.1,220,10,,,,,,TRUE,TRUE,,,,,,,,,,,,,,,,,,,,,,,,,,,METAR,16.0
CWBA 021800Z AUTO 20008G15KT M00/M11 RMK AO1 SOG 33 PK WND 21022/1728 T10021110,CWBA,2018-04-02T18:00:00Z,46.72,-79.1,-0.2,-11.0,200,8,15,,,,,TRUE,TRUE,,,,,,,,,,,,,,,,,,,,,,,,,,,METAR,181.0
CWAV 021800Z AUTO 36001KT M05/M15 RMK AO1 SOG 39 1016 SLP192 T10521150,CWAV,2018-04-02T18:00:00Z,51.77,-114.67,-5.2,-15.0,360,1,,,,1019.2,,TRUE,TRUE,,,,,,,,,,,,,,,,,,,,,,,,,,,METAR,1114.0
CWAQ 021800Z AUTO 05010KT M09/M15 RMK AO1 SOG 02 1010 SLP160 T10941148,CWAQ,2018-04-02T18:00:00Z,49.05,-105.48,-9.4,-14.8,50,10,,,,1016.0,,TRUE,TRUE,,,,,,,,,,,,,,,,,,,,,,,,,,,METAR,756.0
CWAF 021800Z AUTO 21007KT M01/M11 RMK AO1 T10131109,CWAF,2018-04-02T18:00:00Z,48.07,-69.53,-1.3,-10.9,210,7,,,,,,TRUE,TRUE,,,,,,,,,,,,,,,,,,,,,,,,,,,METAR,5.0
CWBU 021800Z AUTO 17004KT M16/M22 RMK AO1 SOG 23 0001 SLP219 T11581215,CWBU,2018-04-02T18:00:00Z,53.33,-104.02,-15.8,-21.5,170,4,,,,1021.9,,TRUE,TRUE,,,,,,,,,,,,,,,,,,,,,,,,,,,METAR,373.0
SLET 021800Z 15010KT 9999 SCT017 29/19 Q1012,SLET,2018-04-02T18:00:00Z,-17.8,-63.17,29.0,19.0,150,10,,6.21,29.88189,,,,,,,,,,,SCT,1700,,,,,,,VFR,,,,,,,,,,,,SPECI,414.0
LERI 021800Z 19008KT 140V240 CAVOK 19/09 Q1006 NOSIG,LERI,2018-04-02T18:00:00Z,37.95,-1.22,19.0,9.0,190,8,,6.21,29.704725,,,,,,TRUE,,,,,CAVOK,,,,,,,,VFR,,,,,,,,,,,,SPECI,75.0
CYPR 021800Z AUTO 16005KT 140V220 1 1/2SM -SN FEW006 OVC014 01/M00 A2993 RMK VIS VRB 3/4-3 PCPN 0.8MM PAST HR SLP138,CYPR,2018-04-02T18:00:00Z,54.28,-130.42,1.0,0.0,160,5,,1.5,29.929134,1013.8,,TRUE,,,,,,,-SN,FEW,600,OVC,1400,,,,,IFR,,,,,,,,,,,,SPECI,34.0
CYKY 021800Z 27005KT 4SM BR FEW090 FEW240 M14/M16 A2997 RMK AC1CI1 SLP209,CYKY,2018-04-02T18:00:00Z,51.52,-109.17,-14.0,-16.0,270,5,,4.0,29.970472,1020.9,,,,,,,,,BR,FEW,9000,FEW,24000,,,,,MVFR,,,,,,,,,,,,SPECI,694.0
CYIV 021800Z 27009KT 15SM FEW020 FEW034 M17/M26 A3011 RMK SC1CU1 SC TR CU TR SLP228,CYIV,2018-04-02T18:00:00Z,53.85,-94.65,-17.0,-26.0,270,9,,15.0,30.109253,1022.8,,,,,,,,,,FEW,2000,FEW,3400,,,,,VFR,,,,,,,,,,,,SPECI,237.0
CYHE 021800Z AUTO 12004KT 060V150 9SM FEW055 SCT090 05/M02 A3002 RMK SLP170,CYHE,2018-04-02T18:00:00Z,49.37,-121.5,5.0,-2.0,120,4,,9.0,30.02067,1017.0,,TRUE,,,,,,,,FEW,5500,SCT,9000,,,,,VFR,,,,,,,,,,,,SPECI,39.0
CYHK 021800Z AUTO 19006KT 9SM -SN OVC020 M17/M19 A3002 RMK SLP176,CYHK,2018-04-02T18:00:00Z,68.62,-95.83,-17.0,-19.0,190,6,,9.0,30.02067,1017.6,,TRUE,,,,,,,-SN,OVC,2000,,,,,,,MVFR,,,,,,,,,,,,METAR,46.0
SKBO 021800Z 21007KT 6000 VCSH FEW006 SCT010CB BKN070 15/13 A3026 RETSRA RMK CB/SE VCSH/NE/SE,SKBO,2018-04-02T18:00:00Z,4.7,-74.12,15.0,13.0,210,7,,3.73,30.259842,,,,,,,,,,VCSH,FEW,600,SCT,1000,BKN,7000,,,MVFR,,,,,,,,,,,,METAR,2548.0
GVNP 021800Z 02022KT 9999 FEW019 23/15 Q1011 NOSIG,GVNP,2018-04-02T18:00:00Z,14.95,-23.48,23.0,15.0,20,22,,6.21,29.852362,,,,,,TRUE,,,,,FEW,1900,,,,,,,VFR,,,,,,,,,,,,METAR,70.0
RKSM 021800Z 20004KT 9999 FEW020 BKN030 17/13 A3004,RKSM,2018-04-02T18:00:00Z,37.42,127.12,17.0,13.0,200,4,,6.21,30.041338,,,,,,,,,,,FEW,2000,BKN,3000,,,,,MVFR,,,,,,,,,,,,METAR,20.0
GOOK 021800Z 32004KT CAVOK 38/10 Q1007,GOOK,2018-04-02T18:00:00Z,14.15,-16.07,38.0,10.0,320,4,,6.21,29.734253,,,,,,,,,,,CAVOK,,,,,,,,VFR,,,,,,,,,,,,METAR,7.0
OEPA 021800Z 11004KT 9999 FEW035 24/07 Q1014 NOSIG,OEPA,2018-04-02T18:00:00Z,28.32,46.12,24.0,7.0,110,4,,6.21,29.940945,,,,,,TRUE,,,,,FEW,3500,,,,,,,VFR,,,,,,,,,,,,METAR,355.0
OENG 021800Z 24012KT 9999 FEW025CB BKN030 BKN090 26/06 Q1016 NOSIG,OENG,2018-04-02T18:00:00Z,17.62,44.42,26.0,6.0,240,12,,6.21,30.0,,,,,,TRUE,,,,,FEW,2500,BKN,3000,BKN,9000,,,MVFR,,,,,,,,,,,,METAR,1203.0
OEMK 021800Z 00000KT CAVOK 30/20 Q1008,OEMK,2018-04-02T18:00:00Z,21.43,40.0,30.0,20.0,0,0,,6.21,29.763779,,,,,,,,,,,CAVOK,,,,,,,,VFR,,,,,,,,,,,,METAR,369.0
OEKM 021800Z 07010KT 7000 RA BKN025 FEW028CB 12/10 Q1027 NOSIG,OEKM,2018-04-02T18:00:00Z,18.3,42.78,12.0,10.0,70,10,,4.35,30.324802,,,,,,TRUE,,,,RA,BKN,2500,FEW,2800,,,,,MVFR,,,,,,,,,,,,METAR,2054.0
MDAB 021800Z 13008KT 9999 BKN018 SCT300 29/23 Q1015,MDAB,2018-04-02T18:00:00Z,19.2,-69.43,29.0,23.0,130,8,,6.21,29.970472,,,,,,,,,,,BKN,1800,SCT,30000,,,,,MVFR,,,,,,,,,,,,METAR,35.0
MDCY 021800Z 06012KT 9999 FEW018 28/23 Q1015 NOSIG,MDCY,2018-04-02T18:00:00Z,19.27,-69.73,28.0,23.0,60,12,,6.21,29.970472,,,,,,TRUE,,,,,FEW,1800,,,,,,,VFR,,,,,,,,,,,,METAR,10.0
MDLR 021800Z 18006KT 7000 -RA FEW016CB SCT018 BKN070 25/22 Q1014 CB/NE/E/SW/W/NW/N,MDLR,2018-04-02T18:00:00Z,18.45,-68.92,25.0,22.0,180,6,,4.35,29.940945,,,,,,,,,,-RA,FEW,1600,SCT,1800,BKN,7000,,,MVFR,,,,,,,,,,,,SPECI,8.0
MDSD 021800Z 18006KT 9999 SCT022 BKN300 30/21 Q1012 NOSIG,MDSD,2018-04-02T18:00:00Z,18.42,-69.67,30.0,21.0,180,6,,6.21,29.88189,,,,,,TRUE,,,,,SCT,2200,BKN,30000,,,,,VFR,,,,,,,,,,,,METAR,18.0
MDJB 021800Z 06008KT 9999 SCT020 SCT300 32/21 Q1012,MDJB,2018-04-02T18:00:00Z,18.57,-69.98,32.0,21.0,60,8,,6.21,29.88189,,,,,,,,,,,SCT,2000,SCT,30000,,,,,VFR,,,,,,,,,,,,METAR,30.0
MDBH 021800Z 13014KT 9999 FEW022CB FEW024 SCT100 30/19 Q1013 CB NW/N,MDBH,2018-04-02T18:00:00Z,18.25,-71.12,30.0,19.0,130,14,,6.21,29.911417,,,,,,,,,,,FEW,2200,FEW,2400,SCT,10000,,,VFR,,,,,,,,,,,,METAR,3.0
MDPC 021800Z 11010KT 9999 FEW026 SCT300 27/20 Q1014 NOSIG,MDPC,2018-04-02T18:00:00Z,18.57,-68.37,27.0,20.0,110,10,,6.21,29.940945,,,,,,TRUE,,,,,FEW,2600,SCT,30000,,,,,VFR,,,,,,,,,,,,METAR,12.0
MDST 021800Z 08008KT 9999 SCT028 30/18 Q1013,MDST,2018-04-02T18:00:00Z,19.4,-70.6,30.0,18.0,80,8,,6.21,29.911417,,,,,,,,,,,SCT,2800,,,,,,,VFR,,,,,,,,,,,,METAR,184.0
MDPP 021800Z 06012KT 9999 FEW022 28/23 Q1013,MDPP,2018-04-02T18:00:00Z,19.75,-70.57,28.0,23.0,60,12,,6.21,29.911417,,,,,,,,,,,FEW,2200,,,,,,,VFR,,,,,,,,,,,,METAR,5.0
OEKJ 021800Z 10009KT 8000 NSC 26/03 Q1017,OEKJ,2018-04-02T18:00:00Z,24.07,47.58,26.0,3.0,100,9,,4.97,30.029528,,,,,,,,,,,CLR,,,,,,,,MVFR,,,,,,,,,,,,METAR,503.0
OEHL 021800Z 09006KT CAVOK 21/14 Q1015,OEHL,2018-04-02T18:00:00Z,27.42,41.67,21.0,14.0,90,6,,6.21,29.970472,,,,,,,,,,,CAVOK,,,,,,,,VFR,,,,,,,,,,,,METAR,1013.0
OEGT 021800Z 32006KT CAVOK 22/M04 Q1011,OEGT,2018-04-02T18:00:00Z,31.42,37.27,22.0,-4.0,320,6,,6.21,29.852362,,,,,,,,,,,CAVOK,,,,,,,,VFR,,,,,,,,,,,,METAR,499.0
OEGS 021800Z 18008KT 4000 DU BKN040 22/17 Q1016,OEGS,2018-04-02T18:00:00Z,26.3,43.77,22.0,17.0,180,8,,2.49,30.0,,,,,,,,,,DU,BKN,4000,,,,,,,IFR,,,,,,,,,,,,METAR,650.0
OEGN 021800Z 34010KT CAVOK 30/24 Q1009 NOSIG,OEGN,2018-04-02T18:00:00Z,16.88,42.57,30.0,24.0,340,10,,6.21,29.793306,,,,,,TRUE,,,,,CAVOK,,,,,,,,VFR,,,,,,,,,,,,METAR,3.0
OEDM 021800Z 24033KT 0100 SS VV/// 24/08 Q1017,OEDM,2018-04-02T18:00:00Z,24.45,44.12,24.0,8.0,240,33,,0.06,30.029528,,,,,,,,,,SS,OVX,0,,,,,,,LIFR,,,,,,,,,,,,METAR,922.0
OEBH 021800Z 14004KT 9000 RA SCT030 SCT100 22/14 Q1018 NOSIG,OEBH,2018-04-02T18:00:00Z,19.97,42.62,22.0,14.0,140,4,,5.59,30.059055,,,,,,TRUE,,,,RA,SCT,3000,SCT,10000,,,,,VFR,,,,,,,,,,,,METAR,1157.0
OEBA 021800Z 09009KT 9000 SCT030 21/10 Q1020 NOSIG,OEBA,2018-04-02T18:00:00Z,20.3,41.62,21.0,10.0,90,9,,5.59,30.11811,,,,,,TRUE,,,,,SCT,3000,,,,,,,VFR,,,,,,,,,,,,METAR,1656.0
OEAR 021800Z 21004KT CAVOK 30/19 Q1009,OEAR,2018-04-02T18:00:00Z,,,30.0,19.0,210,4,,6.21,29.793306,,,,,,,,,,,CAVOK,,,,,,,,VFR,,,,,,,,,,,,METAR,
OERR 021800Z 10006KT CAVOK 23/13 Q1013 NOSIG,OERR,2018-04-02T18:00:00Z,30.88,41.12,23.0,13.0,100,6,,6.21,29.911417,,,,,,TRUE,,,,,CAVOK,,,,,,,,VFR,,,,,,,,,,,,METAR,552.0
OERF 021800Z 11010KT CAVOK 24/02 Q1013,OERF,2018-04-02T18:00:00Z,29.62,43.47,24.0,2.0,110,10,,6.21,29.911417,,,,,,,,,,,CAVOK,,,,,,,,VFR,,,,,,,,,,,,METAR,447.0
OESH 021800Z 05009KT 7000 SKC 30/09 Q1012 NOSIG,OESH,2018-04-02T18:00:00Z,17.47,47.12,30.0,9.0,50,9,,4.35,29.88189,,,,,,TRUE,,,,,SKC,,,,,,,,MVFR,,,,,,,,,,,,METAR,722.0
OEWD 021800Z 12012KT 8000 NSC 28/14 Q1012 NOSIG,OEWD,2018-04-02T18:00:00Z,20.5,45.2,28.0,14.0,120,12,,4.97,29.88189,,,,,,TRUE,,,,,CLR,,,,,,,,MVFR,,,,,,,,,,,,METAR,617.0
OETR 021800Z 05004KT CAVOK 21/00 Q1014,OETR,2018-04-02T18:00:00Z,31.7,38.73,21.0,0.0,50,4,,6.21,29.940945,,,,,,,,,,,CAVOK,,,,,,,,VFR,,,,,,,,,,,,METAR,855.0
OETF 021800Z 28003KT CAVOK 22/16 Q1018 NOSIG,OETF,2018-04-02T18:00:00Z,21.47,40.53,22.0,16.0,280,3,,6.21,30.059055,,,,,,TRUE,,,,,CAVOK,,,,,,,,VFR,,,,,,,,,,,,METAR,1449.0
OETB 021800Z 30006KT CAVOK 28/M02 Q1011 NOSIG,OETB,2018-04-02T18:00:00Z,28.37,36.62,28.0,-2.0,300,6,,6.21,29.852362,,,,,,TRUE,,,,,CAVOK,,,,,,,,VFR,,,,,,,,,,,,METAR,770.0
OESK 021800Z 08007KT 7000 SKC 25/06 Q1015,OESK,2018-04-02T18:00:00Z,29.77,40.1,25.0,6.0,80,7,,4.35,29.970472,,,,,,,,,,,SKC,,,,,,,,MVFR,,,,,,,,,,,,METAR,684.0
CXLC 021800Z AUTO 05003KT M21/M27 RMK AO1 SOG 34 3010 SLP257 T12141267,CXLC,2018-04-02T18:00:00Z,63.6,-113.85,-21.4,-26.7,50,3,,,,1025.7,,TRUE,TRUE,,,,,,,,,,,,,,,,,,,,,,,,,,,METAR,373.0
CXLL 021800Z AUTO 01006KT M08/M15 RMK AO1 SOG 59 2017 SLP302 T10761147,CXLL,2018-04-02T18:00:00Z,61.12,-122.85,-7.6,-14.7,10,6,,,,1030.2,,TRUE,TRUE,,,,,,,,,,,,,,,,,,,,,,,,,,,METAR,183.0
CXTN 021800Z AUTO 26003KT M24/M27 RMK AO1 SLP309 T12361267 53001,CXTN,2018-04-02T18:00:00Z,69.2,-122.35,-23.6,-26.7,260,3,,,,1030.9,,TRUE,TRUE,,,,,,,,,,,,,,,,0.1,,,,,,,,,,,METAR,552.0
CWXA 021800Z AUTO 08002KT M08/M16 RMK AO1 1011 SLP170 T10771155 50007,CWXA,2018-04-02T18:00:00Z,51.07,-115.07,-7.7,-15.5,80,2,,,,1017.0,,TRUE,TRUE,,,,,,,,,,,,,,,,0.7,,,,,,,,,,,METAR,1298.0
CWXC 021800Z AUTO 23004KT M03/M13 RMK AO1 6012 SLP155 T10311128 50002,CWXC,2018-04-02T18:00:00Z,48.88,-71.03,-3.1,-12.8,230,4,,,,1015.5,,TRUE,TRUE,,,,,,,,,,,,,,,,0.2,,,,,,,,,,,METAR,300.0
CWQS 021800Z AUTO 30008KT 04/02 RMK AO1 6012 SLP131 T00390016 50014,CWQS,2018-04-02T18:00:00Z,53.32,-132.77,3.9,1.6,300,8,,,,1013.1,,TRUE,TRUE,,,,,,,,,,,,,,,,1.4,,,,,,,,,,,METAR,14.0
CWEK 021800Z AUTO 16012KT 02/M00 RMK AO1 4PAST HR 3002 PK WND 23018/1705 SLP130 P0005 T00151002 50014,CWEK,2018-04-02T18:00:00Z,54.58,-130.7,1.5,-0.2,160,12,,,,1013.0,,TRUE,TRUE,,,,,,,,,,,,,,,,1.4,,,,,0.05,,,,,,METAR,8.0
CWWL 021800Z AUTO 19007KT 03/ RMK AO1 T0032,CWWL,2018-04-02T18:00:00Z,53.5,-130.63,3.2,,190,7,,,,,,TRUE,TRUE,,,,,,,,,,,,,,,,,,,,,,,,,,,METAR,17.0
GOSP 021800Z 32002KT CAVOK 37/07 Q1007,GOSP,2018-04-02T18:00:00Z,16.68,-14.97,37.0,7.0,320,2,,6.21,29.734253,,,,,,,,,,,CAVOK,,,,,,,,VFR,,,,,,,,,,,,METAR,7.0
GOOG 021800Z 36004KT CAVOK 37/09 Q////,GOOG,2018-04-02T18:00:00Z,15.4,-15.08,37.0,9.0,360,4,,6.21,,,,,,,,,,,,CAVOK,,,,,,,,VFR,,,,,,,,,,,,METAR,21.0
GOOD 021800Z 36006KT CAVOK 33/17 Q1007,GOOD,2018-04-02T18:00:00Z,14.65,-16.22,33.0,17.0,360,6,,6.21,29.734253,,,,,,,,,,,CAVOK,,,,,,,,VFR,,,,,,,,,,,,METAR,9.0
ULMM 021800Z 36001MPS CAVOK M04/M10 Q1008 R13/090070 NOSIG RMK QFE750,ULMM,2018-04-02T18:00:00Z,68.78,32.75,-4.0,-10.0,360,2,,6.21,29.763779,,,,,,TRUE,,,,,CAVOK,,,,,,,,VFR,,,,,,,,,,,,METAR,51.0
ULAA 021800Z 12007MPS 090V150 1800 1400W R08/P2000D SN OVC003 M01/M01 Q1005 R08/592042 TEMPO 0500 +SHSN BKN003CB RMK QBB100 QFE752/1003,ULAA,2018-04-02T18:00:00Z,64.6,40.72,-1.0,-1.0,120,14,,1.12,29.675198,,,,,,,,,,SN,OVC,300,,,,,,,LIFR,,,,,,,,,,,,METAR,19.0
CWPZ 021800Z AUTO 16003KT M06/M16 RMK AO1 SOG 58 8009 SLP175 T10571159,CWPZ,2018-04-02T18:00:00Z,54.38,-125.97,-5.7,-15.9,160,3,,,,1017.5,,TRUE,TRUE,,,,,,,,,,,,,,,,,,,,,,,,,,,METAR,713.0
CWPR 021800Z AUTO 04002KT 01/M14 RMK AO1 SLP149 T00121135 51022,CWPR,2018-04-02T18:00:00Z,49.47,-120.52,1.2,-13.5,40,2,,,,1014.9,,TRUE,TRUE,,,,,,,,,,,,,,,,2.2,,,,,,,,,,,METAR,700.0
CWPE 021800Z AUTO 21009G15KT 04/M07 RMK AO1 SLP182 T00391066 56019,CWPE,2018-04-02T18:00:00Z,45.07,-66.47,3.9,-6.6,210,9,15,,,1018.2,,TRUE,TRUE,,,,,,,,,,,,,,,,-1.9,,,,,,,,,,,METAR,1.0
CWTN 021800Z AUTO 23007KT 01/M10 RMK AO1 SLP184 T00131101 56014,CWTN,2018-04-02T18:00:00Z,47.07,-70.78,1.3,-10.1,230,7,,,,1018.4,,TRUE,TRUE,,,,,,,,,,,,,,,,-1.4,,,,,,,,,,,METAR,6.0
CWTG 021800Z AUTO 23018KT M05/M11 RMK AO1 PK WND 23023/1731 SLP181 T10461114 55004,CWTG,2018-04-02T18:00:00Z,49.32,-67.37,-4.6,-11.4,230,18,,,,1018.1,,TRUE,TRUE,,,,,,,,,,,,,,,,-0.4,,,,,,,,,,,METAR,5.0
CWTA 021800Z AUTO 21005KT 03/M11 RMK AO1 SOG 36 8004 SLP188 T00291108,CWTA,2018-04-02T18:00:00Z,45.5,-73.58,2.9,-10.8,210,5,,,,1018.8,,TRUE,TRUE,,,,,,,,,,,,,,,,,,,,,,,,,,,METAR,63.0
CWUX 021800Z AUTO 07005KT M03/M12 RMK AO1 SLP165 T10261115,CWUX,2018-04-02T18:00:00Z,48.3,-70.93,-2.6,-11.5,70,5,,,,1016.5,,TRUE,TRUE,,,,,,,,,,,,,,,,,,,,,,,,,,,METAR,135.0
CWUS 021800Z AUTO 03005KT 04/M10 RMK AO1 SLP142 T00411095 51028,CWUS,2018-04-02T18:00:00Z,49.57,-119.65,4.1,-9.5,30,5,,,,1014.2,,TRUE,TRUE,,,,,,,,,,,,,,,,2.8,,,,,,,,,,,METAR,454.0
CWTY 021800Z AUTO 20011KT 01/M08 RMK AO1 SLP180 T00061076 56013,CWTY,2018-04-02T18:00:00Z,46.35,-72.52,0.6,-7.6,200,11,,,,1018.0,,TRUE,TRUE,,,,,,,,,,,,,,,,-1.3,,,,,,,,,,,METAR,6.0
CWVQ 021800Z AUTO 24010KT 03/M07 RMK AO1 PK WND 25019/1747 SLP190 T00281070 58007,CWVQ,2018-04-02T18:00:00Z,45.42,-73.92,2.8,-7.0,240,10,,,,1019.0,,TRUE,TRUE,,,,,,,,,,,,,,,,-0.7,,,,,,,,,,,METAR,39.0
CWVP 021800Z AUTO 05004KT M12/M16 RMK AO1 SOG 45 3017 SLP152 T11161159,CWVP,2018-04-02T18:00:00Z,49.63,-109.52,-11.6,-15.9,50,4,,,,1015.2,,TRUE,TRUE,,,,,,,,,,,,,,,,,,,,,,,,,,,METAR,1271.0
CWVN 021800Z AUTO 06014KT M09/M15 RMK AO1 SOG 00 1011 SLP161 T10871146,CWVN,2018-04-02T18:00:00Z,49.07,-107.57,-8.7,-14.6,60,14,,,,1016.1,,TRUE,TRUE,,,,,,,,,,,,,,,,,,,,,,,,,,,METAR,785.0
CWGX 021800Z AUTO 28010KT M19/M26 RMK AO1 SOG 33 8001 SLP209 T11921255,CWGX,2018-04-02T18:00:00Z,56.35,-94.7,-19.2,-25.5,280,10,,,,1020.9,,TRUE,TRUE,,,,,,,,,,,,,,,,,,,,,,,,,,,METAR,145.0
CWGW 021800Z AUTO 04005KT M07/M12 RMK AO1 SOG 33 1024 SLP172 T10741115,CWGW,2018-04-02T18:00:00Z,49.75,-114.9,-7.4,-11.5,40,5,,,,1017.2,,TRUE,TRUE,,,,,,,,,,,,,,,,,,,,,,,,,,,METAR,1137.0
CWGT 021800Z AUTO 33014KT 06/M03 RMK AO1 PK WND 32024/1721 SLP163 T00621026 51023,CWGT,2018-04-02T18:00:00Z,49.48,-124.43,6.2,-2.6,330,14,,,,1016.3,,TRUE,TRUE,,,,,,,,,,,,,,,,2.3,,,,,,,,,,,METAR,5.0
CWGR 021800Z AUTO 28013KT M02/M07 RMK AO1 PK WND 28020/1727 SLP162 T10181074 53005,CWGR,2018-04-02T18:00:00Z,47.42,-61.8,-1.8,-7.4,280,13,,,,1016.2,,TRUE,TRUE,,,,,,,,,,,,,,,,0.5,,,,,,,,,,,METAR,60.0
CXKT 021800Z AUTO 30009KT 01/M12 RMK AO1 SOG 02 7009 SLP177 T00131118,CXKT,2018-04-02T18:00:00Z,45.07,-64.48,1.3,-11.8,300,9,,,,1017.7,,TRUE,TRUE,,,,,,,,,,,,,,,,,,,,,,,,,,,METAR,49.0
CXWN 021800Z AUTO 03005KT M12/M22 RMK AO1 SLP213 T11241223 50002,CXWN,2018-04-02T18:00:00Z,49.88,-97.13,-12.4,-22.3,30,5,,,,1021.3,,TRUE,TRUE,,,,,,,,,,,,,,,,0.2,,,,,,,,,,,METAR,230.0
CXTP 021800Z AUTO 28011G21KT 03/M06 RMK AO1 SOG 25 3021 PK WND 29021/1715 SLP079 T00341062,CXTP,2018-04-02T18:00:00Z,48.55,-53.97,3.4,-6.2,280,11,21,,,1007.9,,TRUE,TRUE,,,,,,,,,,,,,,,,,,,,,,,,,,,METAR,107.0
CXSH 021800Z AUTO 20009G16KT M00/M08 RMK AO1 PK WND 23018/1742 SLP173 T10041075,CXSH,2018-04-02T18:00:00Z,46.58,-72.73,-0.4,-7.5,200,9,16,,,1017.3,,TRUE,TRUE,,,,,,,,,,,,,,,,,,,,,,,,,,,METAR,110.0
CXRH 021800Z AUTO 26012G18KT M01/ RMK AO1 20 T1008,CXRH,2018-04-02T18:00:00Z,49.57,-57.88,-0.8,,260,12,18,,,,,TRUE,TRUE,,,,,,,,,,,,,,,,,,,,,,,,,,,METAR,68.0
CXOX 021800Z AUTO 03006KT M16/M22 RMK AO1 SOG 52 3004 SLP214 T11561215,CXOX,2018-04-02T18:00:00Z,55.15,-105.27,-15.6,-21.5,30,6,,,,1021.4,,TRUE,TRUE,,,,,,,,,,,,,,,,,,,,,,,,,,,METAR,379.0
CXNM 021800Z AUTO 28017G23KT M06/M09 RMK AO1 SOG 114 PK WND 28028/1731 T10581088,CXNM,2018-04-02T18:00:00Z,46.82,-60.67,-5.8,-8.8,280,17,23,,,,,TRUE,TRUE,,,,,,,,,,,,,,,,,,,,,,,,,,,METAR,439.0
CXMY 021800Z AUTO 04/M10 RMK AO1 T00351098,CXMY,2018-04-02T18:00:00Z,44.98,-62.48,3.5,-9.8,,,,,,,,TRUE,TRUE,,,,,,,,,,,,,,,,,,,,,,,,,,,METAR,40.0
CXMM 021800Z AUTO 33007KT M09/M16 RMK AO1 SOG 33 1001 SLP201 T10891161,CXMM,2018-04-02T18:00:00Z,56.65,-111.22,-8.9,-16.1,330,7,,,,1020.1,,TRUE,TRUE,,,,,,,,,,,,,,,,,,,,,,,,,,,METAR,369.0
CXMD 021800Z AUTO 02010G15KT M12/M19 RMK AO1 SOG 01 0005 SLP207 T11191191,CXMD,2018-04-02T18:00:00Z,49.22,-98.08,-11.9,-19.1,20,10,15,,,1020.7,,TRUE,TRUE,,,,,,,,,,,,,,,,,,,,,,,,,,,METAR,301.0
CXIB 021800Z AUTO 25006G15KT 01/M10 RMK AO1 SOG 07 1004 SLP159 T00121099,CXIB,2018-04-02T18:00:00Z,46.67,-60.38,1.2,-9.9,250,6,15,,,1015.9,,TRUE,TRUE,,,,,,,,,,,,,,,,,,,,,,,,,,,METAR,8.0
CXHF 021800Z AUTO 01/M05 RMK AO1 T00141053,CXHF,2018-04-02T18:00:00Z,45.83,-75.65,1.4,-5.3,,,,,,,,TRUE,TRUE,,,,,,,,,,,,,,,,,,,,,,,,,,,METAR,190.0
CXHA 021800Z AUTO 19006KT 02/M06 RMK AO1 SLP212 T00191063 58006,CXHA,2018-04-02T18:00:00Z,42.03,-82.9,1.9,-6.3,190,6,,,,1021.2,,TRUE,TRUE,,,,,,,,,,,,,,,,-0.6,,,,,,,,,,,METAR,191.0
CXGH 021800Z AUTO 02011KT M16/M24 RMK AO1 T11641239,CXGH,2018-04-02T18:00:00Z,50.63,-97.0,-16.4,-23.9,20,11,,,,,,TRUE,TRUE,,,,,,,,,,,,,,,,,,,,,,,,,,,METAR,217.0
CXET 021800Z AUTO 24009KT 03/M10 RMK AO1 SLP188 T00341096 55011,CXET,2018-04-02T18:00:00Z,44.23,-79.78,3.4,-9.6,240,9,,,,1018.8,,TRUE,TRUE,,,,,,,,,,,,,,,,-1.1,,,,,,,,,,,METAR,251.0
CXEC 021800Z AUTO 29005KT M05/M19 RMK AO1 SOG 25 3008 SLP194 T10531188,CXEC,2018-04-02T18:00:00Z,53.57,-113.52,-5.3,-18.8,290,5,,,,1019.4,,TRUE,TRUE,,,,,,,,,,,,,,,,,,,,,,,,,,,METAR,671.0
CXEA 021800Z AUTO 04004KT M14/M28 RMK AO1 SOG 35 8001 SLP208 T11421276,CXEA,2018-04-02T18:00:00Z,50.63,-93.22,-14.2,-27.6,40,4,,,,1020.8,,TRUE,TRUE,,,,,,,,,,,,,,,,,,,,,,,,,,,METAR,355.0
CXDW 021800Z AUTO 04009G15KT M13/M18 RMK AO1 SOG 01 0003 SLP209 T11261184,CXDW,2018-04-02T18:00:00Z,49.4,-98.32,-12.6,-18.4,40,9,15,,,1020.9,,TRUE,TRUE,,,,,,,,,,,,,,,,,,,,,,,,,,,METAR,341.0
CXCK 021800Z AUTO 33008KT M06/M19 RMK AO1 SOG 50 8004 SLP287 T10561193,CXCK,2018-04-02T18:00:00Z,62.12,-136.2,-5.6,-19.3,330,8,,,,1028.7,,TRUE,TRUE,,,,,,,,,,,,,,,,,,,,,,,,,,,METAR,540.0
CXCH 021800Z AUTO M02/M08 RMK AO1 7PAST HR M P0003 T10161083 50007,CXCH,2018-04-02T18:00:00Z,46.63,-60.95,-1.6,-8.3,,,,,,,,TRUE,TRUE,,,,,,,,,,,,,,,,0.7,,,,,0.03,,,,,,METAR,44.0
CXCA 021800Z AUTO 26010G16KT M13/M21 RMK AO1 SOG 24 1017 PK WND 26018/1703 SLP199 T11261210,CXCA,2018-04-02T18:00:00Z,49.15,-88.35,-12.6,-21.0,260,10,16,,,1019.9,,TRUE,TRUE,,,,,,,,,,,,,,,,,,,,,,,,,,,METAR,228.0
CXBO 021800Z AUTO 27010KT RMK AO1,CXBO,2018-04-02T18:00:00Z,46.83,-71.2,,,270,10,,,,,,TRUE,TRUE,,,,,,,,,,,,,,,,,,,,,,,,,,,METAR,100.0
CXBK 021800Z AUTO 12003KT M12/M19 RMK AO1 SOG 14 3013 SLP183 T11221187,CXBK,2018-04-02T18:00:00Z,50.2,-104.7,-12.2,-18.7,120,3,,,,1018.3,,TRUE,TRUE,,,,,,,,,,,,,,,,,,,,,,,,,,,METAR,580.0
CWWF 021800Z AUTO 13006KT M11/M15 RMK AO1 SOG 06 2009 SLP187 T11061146,CWWF,2018-04-02T18:00:00Z,49.7,-103.8,-10.6,-14.6,130,6,,,,1018.7,,TRUE,TRUE,,,,,,,,,,,,,,,,,,,,,,,,,,,METAR,589.0
CWWA 021800Z AUTO 18002KT 07/M02 RMK AO1 SLP159 T00681019 51022,CWWA,2018-04-02T18:00:00Z,49.35,-123.17,6.8,-1.9,180,2,,,,1015.9,,TRUE,TRUE,,,,,,,,,,,,,,,,2.2,,,,,,,,,,,METAR,178.0
CWVU 021800Z AUTO 26006KT 02/M09 RMK AO1 SLP208 T00241086 56010,CWVU,2018-04-02T18:00:00Z,44.28,-66.33,2.4,-8.6,260,6,,,,1020.8,,TRUE,TRUE,,,,,,,,,,,,,,,,-1.0,,,,,,,,,,,METAR,16.0
FOOG 021800Z 22010KT 8000 TS SCT008 FEW016CB OVC030 27/25 Q1007,FOOG,2018-04-02T18:00:00Z,-0.7,8.75,27.0,25.0,220,10,,4.97,29.734253,,,,,,,,,,TS,SCT,800,FEW,1600,OVC,3000,,,MVFR,,,,,,,,,,,,METAR,4.0
OEYN 021800Z 27004KT CAVOK 26/20 Q1006 NOSIG,OEYN,2018-04-02T18:00:00Z,24.13,38.07,26.0,20.0,270,4,,6.21,29.704725,,,,,,TRUE,,,,,CAVOK,,,,,,,,VFR,,,,,,,,,,,,METAR,8.0
OEWJ 021800Z 28006KT CAVOK 25/23 Q1007,OEWJ,2018-04-02T18:00:00Z,26.18,36.47,25.0,23.0,280,6,,6.21,29.734253,,,,,,,,,,,CAVOK,,,,,,,,VFR,,,,,,,,,,,,METAR,16.0
VAID 021800Z 32010KT 5000 HZ NSC 30/03 Q1012 NOSIG,VAID,2018-04-02T18:00:00Z,22.72,75.78,30.0,3.0,320,10,,3.11,29.88189,,,,,,TRUE,,,,HZ,CLR,,,,,,,,MVFR,,,,,,,,,,,,METAR,567.0
TRPG 021800Z 14011KT 9999 FEW018 BKN040 26/22 Q1013,TRPG,2018-04-02T18:00:00Z,16.78,-62.2,26.0,22.0,140,11,,6.21,29.911417,,,,,,,,,,,FEW,1800,BKN,4000,,,,,VFR,,,,,,,,,,,,METAR,168.0
WBKT 021800Z VRB02KT 9999 FEW014 SCT140 BKN280 22/22 Q1009,WBKT,2018-04-02T18:00:00Z,6.92,116.82,22.0,22.0,0,2,,6.21,29.793306,,,,,,,,,,,FEW,1400,SCT,14000,BKN,28000,,,VFR,,,,,,,,,,,,METAR,5.0
WBKS 021800Z 00000KT 9999 SCT015 FEW016CB BKN290 26/25 Q1009,WBKS,2018-04-02T18:00:00Z,5.9,118.07,26.0,25.0,0,0,,6.21,29.793306,,,,,,,,,,,SCT,1500,FEW,1600,BKN,29000,,,VFR,,,,,,,,,,,,METAR,13.0
WBKL 021800Z 00000KT 9999 FEW015 SCT140 BKN290 26/24 Q1009,WBKL,2018-04-02T18:00:00Z,5.28,115.25,26.0,24.0,0,0,,6.21,29.793306,,,,,,,,,,,FEW,1500,SCT,14000,BKN,29000,,,VFR,,,,,,,,,,,,METAR,30.0
WBGY 021800Z 00000KT 9999 FEW022 BKN300 24/23 Q1009,WBGY,2018-04-02T18:00:00Z,1.22,111.43,24.0,23.0,0,0,,6.21,29.793306,,,,,,,,,,,FEW,2200,BKN,30000,,,,,VFR,,,,,,,,,,,,METAR,34.0
WBGS 021800Z VRB02KT 9999 FEW005 BKN150 25/24 Q1010,WBGS,2018-04-02T18:00:00Z,2.27,111.98,25.0,24.0,0,2,,6.21,29.822834,,,,,,,,,,,FEW,500,BKN,15000,,,,,VFR,,,,,,,,,,,,METAR,8.0
WBGR 021800Z 00000KT 9999 SCT016 SCT150 BKN300 25/24 Q1009,WBGR,2018-04-02T18:00:00Z,4.32,113.97,25.0,24.0,0,0,,6.21,29.793306,,,,,,,,,,,SCT,1600,SCT,15000,BKN,30000,,,VFR,,,,,,,,,,,,METAR,18.0
WBGB 021800Z 13003KT 100V190 9999 SCT016 BKN150 25/25 Q1009,WBGB,2018-04-02T18:00:00Z,3.12,113.02,25.0,25.0,130,3,,6.21,29.793306,,,,,,,,,,,SCT,1600,BKN,15000,,,,,VFR,,,,,,,,,,,,METAR,5.0
WMSA 021800Z 00000KT 9000 FEW025 SCT140 BKN270 27/25 Q1010,WMSA,2018-04-02T18:00:00Z,3.13,101.55,27.0,25.0,0,0,,5.59,29.822834,,,,,,,,,,,FEW,2500,SCT,14000,BKN,27000,,,VFR,,,,,,,,,,,,METAR,27.0
WMKJ 021800Z 00000KT 9999 FEW023 BKN300 25/24 Q1010,WMKJ,2018-04-02T18:00:00Z,1.62,103.67,25.0,24.0,0,0,,6.21,29.822834,,,,,,,,,,,FEW,2300,BKN,30000,,,,,VFR,,,,,,,,,,,,METAR,40.0
WMKK 021800Z 11004KT 050V150 7000 FEW030 SCT140 BKN280 27/24 Q1010 NOSIG,WMKK,2018-04-02T18:00:00Z,2.75,101.72,27.0,24.0,110,4,,4.35,29.822834,,,,,,TRUE,,,,,FEW,3000,SCT,14000,BKN,28000,,,MVFR,,,,,,,,,,,,METAR,22.0
WBSB 021800Z 28001KT 7000 FEW015 SCT140 BKN300 26/25 Q1009 NOSIG,WBSB,2018-04-02T18:00:00Z,4.92,114.92,26.0,25.0,280,1,,4.35,29.793306,,,,,,TRUE,,,,,FEW,1500,SCT,14000,BKN,30000,,,MVFR,,,,,,,,,,,,METAR,15.0
WBKK 021800Z VRB02KT 9999 FEW015 BKN280 25/23 Q1009 NOSIG,WBKK,2018-04-02T18:00:00Z,5.92,116.03,25.0,23.0,0,2,,6.21,29.793306,,,,,,TRUE,,,,,FEW,1500,BKN,28000,,,,,VFR,,,,,,,,,,,,METAR,3.0
WBGG 021800Z VRB03KT 8000 FEW020 SCT150 BKN300 25/24 Q1010 NOSIG,WBGG,2018-04-02T18:00:00Z,1.47,110.35,25.0,24.0,0,3,,4.97,29.822834,,,,,,TRUE,,,,,FEW,2000,SCT,15000,BKN,30000,,,MVFR,,,,,,,,,,,,METAR,27.0
CXKE 021800Z AUTO 23008G20KT 04/M08 RMK AO1 SOG 00 6010 PK WND 20020/1759 SLP185 T00371083,CXKE,2018-04-02T18:00:00Z,45.0,-75.63,3.7,-8.3,230,8,20,,,1018.5,,TRUE,TRUE,,,,,,,,,,,,,,,,,,,,,,,,,,,METAR,99.0
CXKA 021800Z AUTO 34010G15KT M09/M18 RMK AO1 SOG 58 1025 PK WND 33018/1701 SLP155 T10921176,CXKA,2018-04-02T18:00:00Z,49.4,-82.45,-9.2,-17.6,340,10,15,,,1015.5,,TRUE,TRUE,,,,,,,,,,,,,,,,,,,,,,,,,,,METAR,218.0
CXHM 021800Z AUTO 27006KT 05/ RMK AO1 SLP194 T0054 55005,CXHM,2018-04-02T18:00:00Z,43.28,-79.9,5.4,,270,6,,,,1019.4,,TRUE,TRUE,,,,,,,,,,,,,,,,-0.5,,,,,,,,,,,METAR,107.0
CWZS 021800Z AUTO 35010G17KT M04/M15 RMK AO1 6010 PK WND 34018/1707 SLP176 T10411150 50010,CWZS,2018-04-02T18:00:00Z,48.47,-67.43,-4.1,-15.0,350,10,17,,,1017.6,,TRUE,TRUE,,,,,,,,,,,,,,,,1.0,,,,,,,,,,,METAR,166.0
CWZO 021800Z AUTO 00006KT RMK AO1,CWZO,2018-04-02T18:00:00Z,48.55,-123.23,,,0,6,,,,,,TRUE,TRUE,,,,,,,,,,,,,,,,,,,,,,,,,,,METAR,1.0
CWZA 021800Z AUTO 10002KT 06/M00 RMK AO1 1024 SLP167 T00551003 50004,CWZA,2018-04-02T18:00:00Z,49.25,-121.77,5.5,-0.3,100,2,,,,1016.7,,TRUE,TRUE,,,,,,,,,,,,,,,,0.4,,,,,,,,,,,METAR,15.0
CWYY 021800Z AUTO 35008G16KT 05/M09 RMK AO1 PK WND 35017/1701 SLP135 T00471086 51034,CWYY,2018-04-02T18:00:00Z,49.03,-119.43,4.7,-8.6,350,8,16,,,1013.5,,TRUE,TRUE,,,,,,,,,,,,,,,,3.4,,,,,,,,,,,METAR,283.0
CWYL 021800Z AUTO 08009KT M06/M15 RMK AO1 SOG 147 1013 SLP130 T10571151,CWYL,2018-04-02T18:00:00Z,51.45,-116.32,-5.7,-15.1,80,9,,,,1013.0,,TRUE,TRUE,,,,,,,,,,,,,,,,,,,,,,,,,,,METAR,1615.0
CWYJ 021800Z AUTO 24004KT 08/M00 RMK AO1 1021 SLP170 T00831002 50002,CWYJ,2018-04-02T18:00:00Z,48.45,-123.3,8.3,-0.2,240,4,,,,1017.0,,TRUE,TRUE,,,,,,,,,,,,,,,,0.2,,,,,,,,,,,METAR,39.0
CXZC 021800Z AUTO 33010KT M13/M16 RMK AO1 2PAST HR SOG 43 1029 SLP162 P0001 T11271161 50014,CXZC,2018-04-02T18:00:00Z,51.3,-80.62,-12.7,-16.1,330,10,,,,1016.2,,TRUE,TRUE,,,,,,,,,,,,,,,,1.4,,,,,0.01,,,,,,METAR,9.0
CXBI 021800Z AUTO 26008KT 03/M09 RMK AO1 SLP197 T00271088 55004,CXBI,2018-04-02T18:00:00Z,44.48,-79.55,2.7,-8.8,260,8,,,,1019.7,,TRUE,TRUE,,,,,,,,,,,,,,,,-0.4,,,,,,,,,,,METAR,289.0
CTRA 021800Z AUTO 04003KT M12/M26 RMK AO1 SOG 27 0000 SLP200 T11241257,CTRA,2018-04-02T18:00:00Z,49.67,-93.73,-12.4,-25.7,40,3,,,,1020.0,,TRUE,TRUE,,,,,,,,,,,,,,,,,,,,,,,,,,,METAR,435.0
CTNK 021800Z AUTO 24004KT 01/M13 RMK AO1 SOG 14 8009 SLP174 T00111130,CTNK,2018-04-02T18:00:00Z,45.53,-78.27,1.1,-13.0,240,4,,,,1017.4,,TRUE,TRUE,,,,,,,,,,,,,,,,,,,,,,,,,,,METAR,410.0
CZSM 021800Z AUTO 27005KT M11/M20 RMK AO1 SOG 58 1001 SLP220 T11091203 50009,CZSM,2018-04-02T18:00:00Z,60.03,-111.93,-10.9,-20.3,270,5,,,,1022.0,,TRUE,TRUE,,,,,,,,,,,,,,,,0.9,,,,,,,,,,,METAR,203.0
CZHY 021800Z AUTO 05007KT M16/M19 RMK AO1 SOG 26 3024 SLP255 T11551190,CZHY,2018-04-02T18:00:00Z,60.83,-115.78,-15.5,-19.0,50,7,,,,1025.5,,TRUE,TRUE,,,,,,,,,,,,,,,,,,,,,,,,,,,METAR,164.0
CWMT 021800Z AUTO 36009KT M18/M25 RMK AO1 SLP277 T11801250 52011,CWMT,2018-04-02T18:00:00Z,63.13,-117.25,-18.0,-25.0,360,9,,,,1027.7,,TRUE,TRUE,,,,,,,,,,,,,,,,1.1,,,,,,,,,,,METAR,271.0
CWDV 021800Z AUTO 36004KT M11/M21 RMK AO1 SOG 42 1004 SLP171 T11061208,CWDV,2018-04-02T18:00:00Z,49.02,-90.47,-10.6,-20.8,360,4,,,,1017.1,,TRUE,TRUE,,,,,,,,,,,,,,,,,,,,,,,,,,,METAR,489.0
CWST 021800Z AUTO 22009KT M00/M10 RMK AO1 SOG 11 6013 SLP176 T10031097,CWST,2018-04-02T18:00:00Z,47.35,-70.02,-0.3,-9.7,220,9,,,,1017.6,,TRUE,TRUE,,,,,,,,,,,,,,,,,,,,,,,,,,,METAR,31.0
CWSR 021800Z AUTO 03002KT M08/M17 RMK AO1 SOG 18 3001 SLP180 T10791172,CWSR,2018-04-02T18:00:00Z,53.37,-107.53,-7.9,-17.2,30,2,,,,1018.0,,TRUE,TRUE,,,,,,,,,,,,,,,,,,,,,,,,,,,METAR,584.0
CWSL 021800Z AUTO 02007KT 04/M03 RMK AO1 SLP139 T00441028 51030,CWSL,2018-04-02T18:00:00Z,50.7,-119.27,4.4,-2.8,20,7,,,,1013.9,,TRUE,TRUE,,,,,,,,,,,,,,,,3.0,,,,,,,,,,,METAR,351.0
CWSK 021800Z AUTO 28003KT 07/M09 RMK AO1 SLP155 T00711086 51012,CWSK,2018-04-02T18:00:00Z,49.78,-123.17,7.1,-8.6,280,3,,,,1015.5,,TRUE,TRUE,,,,,,,,,,,,,,,,1.2,,,,,,,,,,,METAR,60.0
CWSG 021800Z AUTO 25017KT M05/M12 RMK AO1 PK WND 26023/1713 SLP184 T10461118 54000,CWSG,2018-04-02T18:00:00Z,49.12,-66.65,-4.6,-11.8,250,17,,,,1018.4,,TRUE,TRUE,,,,,,,,,,,,,,,,,,,,,,,,,,,METAR,5.0
CWSD 021800Z AUTO 30009KT 01/M09 RMK AO1 SOG 31 8010 SLP169 T00071093,CWSD,2018-04-02T18:00:00Z,46.42,-63.85,0.7,-9.3,300,9,,,,1016.9,,TRUE,TRUE,,,,,,,,,,,,,,,,,,,,,,,,,,,METAR,24.0
CWRZ 021800Z AUTO 22015KT M01/M07 RMK AO1 PK WND 21019/1741 SLP143 T10141074 56003,CWRZ,2018-04-02T18:00:00Z,48.42,-64.32,-1.4,-7.4,220,15,,,,1014.3,,TRUE,TRUE,,,,,,,,,,,,,,,,-0.3,,,,,,,,,,,METAR,16.0
CWRK 021800Z AUTO 22005KT 03/M11 RMK AO1 SOG 02 8010 SLP179 T00321111,CWRK,2018-04-02T18:00:00Z,45.07,-77.87,3.2,-11.1,220,5,,,,1017.9,,TRUE,TRUE,,,,,,,,,,,,,,,,,,,,,,,,,,,METAR,331.0
CWRJ 021800Z AUTO 27004KT M14/M16 RMK AO1 SOG 12 1009 SLP208 T11411157,CWRJ,2018-04-02T18:00:00Z,51.57,-107.92,-14.1,-15.7,270,4,,,,1020.8,,TRUE,TRUE,,,,,,,,,,,,,,,,,,,,,,,,,,,METAR,586.0
CWQV 021800Z AUTO 26007KT M01/M10 RMK AO1 T10061103,CWQV,2018-04-02T18:00:00Z,48.27,-70.12,-0.6,-10.3,260,7,,,,,,TRUE,TRUE,,,,,,,,,,,,,,,,,,,,,,,,,,,METAR,1.0
CWQR 021800Z AUTO 25026KT M04/ RMK AO1 PK WND 25030/1749 T1037,CWQR,2018-04-02T18:00:00Z,50.22,-64.22,-3.7,,250,26,,,,,,TRUE,TRUE,,,,,,,,,,,,,,,,,,,,,,,,,,,METAR,9.0
CWQP 021800Z AUTO 24007KT 04/M04 RMK AO1 SLP201 T00421038 58004,CWQP,2018-04-02T18:00:00Z,43.83,-77.15,4.2,-3.8,240,7,,,,1020.1,,TRUE,TRUE,,,,,,,,,,,,,,,,-0.4,,,,,,,,,,,METAR,79.0
CWQO 021800Z AUTO 05006KT M03/M13 RMK AO1 T10271129,CWQO,2018-04-02T18:00:00Z,48.42,-68.9,-2.7,-12.9,50,6,,,,,,TRUE,TRUE,,,,,,,,,,,,,,,,,,,,,,,,,,,METAR,1.0
CWQK 021800Z AUTO 26016KT 06/M00 RMK AO1 PK WND 26023/1735 SLP170 T00621004 51025,CWQK,2018-04-02T18:00:00Z,48.3,-123.53,6.2,-0.4,260,16,,,,1017.0,,TRUE,TRUE,,,,,,,,,,,,,,,,2.5,,,,,,,,,,,METAR,5.0
CWQH 021800Z AUTO 26010G15KT 02/M08 RMK AO1 SOG 00 PK WND 22017/1735 T00221076,CWQH,2018-04-02T18:00:00Z,45.37,-71.82,2.2,-7.6,260,10,15,,,,,TRUE,TRUE,,,,,,,,,,,,,,,,,,,,,,,,,,,METAR,181.0
CWBY 021800Z AUTO 26022G28KT M05/M10 RMK AO1 SOG 84 1006 PK WND 25028/1750 SLP146 T10451101,CWBY,2018-04-02T18:00:00Z,49.82,-64.28,-4.5,-10.1,260,22,28,,,1014.6,,TRUE,TRUE,,,,,,,,,,,,,,,,,,,,,,,,,,,METAR,53.0
CWWE 021800Z AUTO 20010KT 02/M05 RMK AO1 5008 SLP186 T00241046 50006,CWWE,2018-04-02T18:00:00Z,43.97,-64.67,2.4,-4.6,200,10,,,,1018.6,,TRUE,TRUE,,,,,,,,,,,,,,,,0.6,,,,,,,,,,,METAR,9.0
CWPK 021800Z AUTO 23006KT M03/M10 RMK AO1 SOG 54 5005 SLP165 T10321099,CWPK,2018-04-02T18:00:00Z,47.92,-74.62,-3.2,-9.9,230,6,,,,1016.5,,TRUE,TRUE,,,,,,,,,,,,,,,,,,,,,,,,,,,METAR,442.0
CWNH 021800Z AUTO 24005KT M01/M15 RMK AO1 SOG 33 6013 SLP180 T10121146,CWNH,2018-04-02T18:00:00Z,47.78,-69.53,-1.2,-14.6,240,5,,,,1018.0,,TRUE,TRUE,,,,,,,,,,,,,,,,,,,,,,,,,,,METAR,148.0
CWSF 021800Z AUTO 27016G23KT M05/M13 RMK AO1 SOG 32 0001 PK WND 27027/1734 SLP165 T10471128,CWSF,2018-04-02T18:00:00Z,49.25,-65.32,-4.7,-12.8,270,16,23,,,1016.5,,TRUE,TRUE,,,,,,,,,,,,,,,,,,,,,,,,,,,METAR,29.0
CWRA 021800Z AUTO 27030G39KT RMK AO1 PK WND 28043/1729 51007,CWRA,2018-04-02T18:00:00Z,46.63,-53.07,,,270,30,39,,,,,TRUE,TRUE,,,,,,,,,,,,,,,,0.7,,,,,,,,,,,METAR,28.0
CWSS 021800Z AUTO 24010G19KT 04/M10 RMK AO1 SOG 04 6019 PK WND 24019/1750 SLP179 T00411095,CWSS,2018-04-02T18:00:00Z,45.2,-67.25,4.1,-9.5,240,10,19,,,1017.9,,TRUE,TRUE,,,,,,,,,,,,,,,,,,,,,,,,,,,METAR,26.0
CWRN 021800Z AUTO 32009KT 02/M06 RMK AO1 SLP172 T00211064 55004,CWRN,2018-04-02T18:00:00Z,45.35,-60.98,2.1,-6.4,320,9,,,,1017.2,,TRUE,TRUE,,,,,,,,,,,,,,,,-0.4,,,,,,,,,,,METAR,8.0
CWEP 021800Z AUTO 32012KT M01/M07 RMK AO1 SOG 01 8005 SLP172 T10091067,CWEP,2018-04-02T18:00:00Z,46.45,-61.97,-0.9,-6.7,320,12,,,,1017.2,,TRUE,TRUE,,,,,,,,,,,,,,,,,,,,,,,,,,,METAR,11.0
CWJH 021800Z AUTO 04006KT M19/ RMK AO1 SOG 59 8005 SLP236 T1186 50007,CWJH,2018-04-02T18:00:00Z,56.32,-103.27,-18.6,,40,6,,,,1023.6,,TRUE,TRUE,,,,,,,,,,,,,,,,0.7,,,,,,,,,,,METAR,344.0
CWJC 021800Z AUTO 31013KT M24/M28 RMK AO1 SOG 13 5001 SLP210 T12441280,CWJC,2018-04-02T18:00:00Z,61.13,-100.9,-24.4,-28.0,310,13,,,,1021.0,,TRUE,TRUE,,,,,,,,,,,,,,,,,,,,,,,,,,,METAR,357.0
CWJB 021800Z AUTO 22006KT 01/ RMK AO1 SOG 29 T0013,CWJB,2018-04-02T18:00:00Z,46.78,-71.27,1.3,,220,6,,,,,,TRUE,TRUE,,,,,,,,,,,,,,,,,,,,,,,,,,,METAR,91.0
CWIZ 021800Z AUTO 28009G16KT 04/M08 RMK AO1 SOG 00 T00411075,CWIZ,2018-04-02T18:00:00Z,45.28,-73.33,4.1,-7.5,280,9,16,,,,,TRUE,TRUE,,,,,,,,,,,,,,,,,,,,,,,,,,,METAR,45.0
CWIW 021800Z AUTO 03003KT M17/M19 RMK AO1 SOG 17 1011 SLP213 T11691191,CWIW,2018-04-02T18:00:00Z,51.67,-105.4,-16.9,-19.1,30,3,,,,1021.3,,TRUE,TRUE,,,,,,,,,,,,,,,,,,,,,,,,,,,METAR,526.0
CWIT 021800Z AUTO 28009G16KT 04/M09 RMK AO1 SOG 01 8008 SLP183 T00371089,CWIT,2018-04-02T18:00:00Z,45.17,-73.67,3.7,-8.9,280,9,16,,,1018.3,,TRUE,TRUE,,,,,,,,,,,,,,,,,,,,,,,,,,,METAR,52.0
CWIS 021800Z AUTO 21007KT M05/M13 RMK AO1 SOG 94 6008 SLP162 T10541131,CWIS,2018-04-02T18:00:00Z,47.28,-70.63,-5.4,-13.1,210,7,,,,1016.2,,TRUE,TRUE,,,,,,,,,,,,,,,,,,,,,,,,,,,METAR,719.0
CWIP 021800Z AUTO 28009KT M03/ RMK AO1 T1028,CWIP,2018-04-02T18:00:00Z,50.17,-66.43,-2.8,,280,9,,,,,,TRUE,TRUE,,,,,,,,,,,,,,,,,,,,,,,,,,,METAR,25.0
CWIJ 021800Z AUTO 34013KT M28/M30 RMK AO1 SOG 43 3003 SLP270 T12751304,CWIJ,2018-04-02T18:00:00Z,65.77,-111.23,-27.5,-30.4,340,13,,,,1027.0,,TRUE,TRUE,,,,,,,,,,,,,,,,,,,,,,,,,,,METAR,500.0
CWII 021800Z AUTO 34014KT M15/M22 RMK AO1 T11501215,CWII,2018-04-02T18:00:00Z,50.7,-96.57,-15.0,-21.5,340,14,,,,,,TRUE,TRUE,,,,,,,,,,,,,,,,,,,,,,,,,,,METAR,220.0
CWIG 021800Z AUTO 21014KT RMK AO1 PK WND 22019/1741,CWIG,2018-04-02T18:00:00Z,47.07,-70.53,,,210,14,,,,,,TRUE,TRUE,,,,,,,,,,,,,,,,,,,,,,,,,,,METAR,18.0
CWID 021800Z AUTO 34011G19KT M09/M17 RMK AO1 PK WND 32022/1725 SLP260 T10911173 53014,CWID,2018-04-02T18:00:00Z,61.32,-117.6,-9.1,-17.3,340,11,19,,,1026.0,,TRUE,TRUE,,,,,,,,,,,,,,,,1.4,,,,,,,,,,,METAR,161.0
CWHV 021800Z AUTO 30004KT M00/M12 RMK AO1 SLP177 T10021117 56013,CWHV,2018-04-02T18:00:00Z,46.2,-70.77,-0.2,-11.7,300,4,,,,1017.7,,TRUE,TRUE,,,,,,,,,,,,,,,,-1.3,,,,,,,,,,,METAR,229.0
CWHT 021800Z AUTO 05004KT M05/M16 RMK AO1 SOG 23 1002 SLP277 T10531157,CWHT,2018-04-02T18:00:00Z,60.77,-137.58,-5.3,-15.7,50,4,,,,1027.7,,TRUE,TRUE,,,,,,,,,,,,,,,,,,,,,,,,,,,METAR,599.0
CWHQ 021800Z AUTO 21005KT 02/M10 RMK AO1 T00191103,CWHQ,2018-04-02T18:00:00Z,46.68,-71.97,1.9,-10.3,210,5,,,,,,TRUE,TRUE,,,,,,,,,,,,,,,,,,,,,,,,,,,METAR,55.0
CWHL 021800Z AUTO 27002KT 01/M00 RMK AO1 5001 SLP135 T00141004 50006,CWHL,2018-04-02T18:00:00Z,54.17,-130.35,1.4,-0.4,270,2,,,,1013.5,,TRUE,TRUE,,,,,,,,,,,,,,,,0.6,,,,,,,,,,,METAR,5.0
CWHI 021800Z AUTO 00000KT M09/M15 RMK AO1 T10901149,CWHI,2018-04-02T18:00:00Z,51.7,-113.22,-9.0,-14.9,0,0,,,,,,TRUE,TRUE,,,,,,,,,,,,,,,,,,,,,,,,,,,METAR,907.0
CWGY 021800Z AUTO 22005KT M07/M16 RMK AO1 SLP206 T10721159 52011,CWGY,2018-04-02T18:00:00Z,51.67,-110.2,-7.2,-15.9,220,5,,,,1020.6,,TRUE,TRUE,,,,,,,,,,,,,,,,1.1,,,,,,,,,,,METAR,707.0
UUYY 021800Z 14005MPS CAVOK 02/M06 Q1020 R18/61D NOSIG RMK QFE756/1008,UUYY,2018-04-02T18:00:00Z,61.65,50.82,2.0,-6.0,140,10,,6.21,30.11811,,,,,,TRUE,,,,,CAVOK,,,,,,,,VFR,,,,,,,,,,,,SPECI,119.0
UUOO 021800Z 12006MPS 0350 0300NW R12/1000U +DZ FG VV001 02/02 Q1006 R12/190050 NOSIG RMK QBB050 QFE741,UUOO,2018-04-02T18:00:00Z,51.82,39.23,2.0,2.0,120,12,,0.22,29.704725,,,,,,TRUE,,,,+DZ FG,OVX,0,,,,,,,LIFR,,,,,,,,,,,100,METAR,157.0
DFFD 021800Z VRB03KT 4000 DU NSC 38/01 Q1006 NOSIG,DFFD,2018-04-02T18:00:00Z,12.33,-1.52,38.0,1.0,0,3,,2.49,29.704725,,,,,,TRUE,,,,DU,CLR,,,,,,,,IFR,,,,,,,,,,,,METAR,306.0
DFOO 021800Z 06004KT 3200 DU NSC 37/07 Q1007,DFOO,2018-04-02T18:00:00Z,11.17,-4.32,37.0,7.0,60,4,,1.99,29.734253,,,,,,,,,,DU,CLR,,,,,,,,IFR,,,,,,,,,,,,METAR,460.0
FTTA 021800Z 00000KT 6000 NSC 35/08 Q1006,FTTA,2018-04-02T18:00:00Z,9.15,18.37,35.0,8.0,0,0,,3.73,29.704725,,,,,,,,,,,CLR,,,,,,,,MVFR,,,,,,,,,,,,METAR,365.0
FTTJ 021800Z 32007KT 4500 DU NSC 36/02 Q1004 TEMPO 6000 NSW,FTTJ,2018-04-02T18:00:00Z,12.12,15.02,36.0,2.0,320,7,,2.8,29.64567,,,,,,,,,,DU,CLR,,,,,,,,IFR,,,,,,,,,,,,SPECI,295.0
DBBB 021800Z 23013KT 9000 FEW012 29/25 Q1006 NOSIG,DBBB,2018-04-02T18:00:00Z,6.33,2.37,29.0,25.0,230,13,,5.59,29.704725,,,,,,TRUE,,,,,FEW,1200,,,,,,,VFR,,,,,,,,,,,,METAR,9.0
UMKK 021800Z 26005MPS CAVOK 01/M01 Q1007 R24/60D NOSIG RMK QFE754/1006,UMKK,2018-04-02T18:00:00Z,54.88,20.6,1.0,-1.0,260,10,,6.21,29.734253,,,,,,TRUE,,,,,CAVOK,,,,,,,,VFR,,,,,,,,,,,,METAR,21.0
ULOO 021800Z AUTO 22005MPS 7000 // ///006/// 02/01 Q0992 RMK QFE740,ULOO,2018-04-02T18:00:00Z,57.78,28.4,2.0,1.0,220,10,,4.35,29.291338,,,TRUE,,,,,,,,,,,,,,,,,,,,,,,,,,,,METAR,47.0
FMSD 021800Z 12006KT 9999 SCT016 BKN033 25/22 Q1014,FMSD,2018-04-02T18:00:00Z,-25.02,46.95,25.0,22.0,120,6,,6.21,29.940945,,,,,,,,,,,SCT,1600,BKN,3300,,,,,VFR,,,,,,,,,,,,METAR,9.0
FMMT 021800Z 00000KT 9999 VCSH FEW017 SCT033 24/23 Q1015 NOSIG,FMMT,2018-04-02T18:00:00Z,-18.12,49.38,24.0,23.0,0,0,,6.21,29.970472,,,,,,TRUE,,,,VCSH,FEW,1700,SCT,3300,,,,,VFR,,,,,,,,,,,,METAR,6.0
FMNM 021800Z 12002KT 9999 SCT017CB BKN040 25/24 Q1010 NOSIG,FMNM,2018-04-02T18:00:00Z,-15.67,46.35,25.0,24.0,120,2,,6.21,29.822834,,,,,,TRUE,,,,,SCT,1700,BKN,4000,,,,,VFR,,,,,,,,,,,,METAR,18.0
GOTK 021800Z 00000KT 4000 DU NSC 40/12 Q1004,GOTK,2018-04-02T18:00:00Z,12.57,-12.22,40.0,12.0,0,0,,2.49,29.64567,,,,,,,,,,DU,CLR,,,,,,,,IFR,,,,,,,,,,,,METAR,167.0
GOGS 021800Z VRB08KT CAVOK 24/17 Q1007,GOGS,2018-04-02T18:00:00Z,12.4,-16.75,24.0,17.0,0,8,,6.21,29.734253,,,,,,,,,,,CAVOK,,,,,,,,VFR,,,,,,,,,,,,METAR,13.0
GOGG 021800Z 24006KT CAVOK 32/21 Q1008,GOGG,2018-04-02T18:00:00Z,12.55,-16.27,32.0,21.0,240,6,,6.21,29.763779,,,,,,,,,,,CAVOK,,,,,,,,VFR,,,,,,,,,,,,METAR,23.0
GOTT 021800Z 30006KT CAVOK 39/13 Q1005,GOTT,2018-04-02T18:00:00Z,13.73,-13.65,39.0,13.0,300,6,,6.21,29.675198,,,,,,,,,,,CAVOK,,,,,,,,VFR,,,,,,,,,,,,METAR,50.0
GOOY 021800Z 34012KT 8000 NSC 21/17 Q1009,GOOY,2018-04-02T18:00:00Z,14.72,-17.5,21.0,17.0,340,12,,4.97,29.793306,,,,,,,,,,,CLR,,,,,,,,MVFR,,,,,,,,,,,,METAR,24.0
GOSS 021800Z 36010KT CAVOK 21/17 Q1009,GOSS,2018-04-02T18:00:00Z,16.05,-16.43,21.0,17.0,360,10,,6.21,29.793306,,,,,,,,,,,CAVOK,,,,,,,,VFR,,,,,,,,,,,,METAR,4.0
VMMC 021800Z VRB02KT CAVOK 22/20 Q1012 NOSIG,VMMC,2018-04-02T18:00:00Z,22.15,113.58,22.0,20.0,0,2,,6.21,29.88189,,,,,,TRUE,,,,,CAVOK,,,,,,,,VFR,,,,,,,,,,,,METAR,6.0
RCNN 021800Z 36003KT 9999 FEW012 SCT040 21/17 Q1013 RMK A2993,RCNN,2018-04-02T18:00:00Z,22.93,120.2,21.0,17.0,360,3,,6.21,29.911417,,,,,,,,,,,FEW,1200,SCT,4000,,,,,VFR,,,,,,,,,,,,SPECI,19.0
RCMQ 021800Z 18002KT 5000 BR FEW010 SCT050 21/17 Q1013 RMK A2994,RCMQ,2018-04-02T18:00:00Z,24.27,120.62,21.0,17.0,180,2,,3.11,29.911417,,,,,,,,,,BR,FEW,1000,SCT,5000,,,,,MVFR,,,,,,,,,,,,SPECI,5.0
RCSS 021800Z 10003KT 9999 FEW025 23/18 Q1013 NOSIG RMK A2992,RCSS,2018-04-02T18:00:00Z,25.07,121.53,23.0,18.0,100,3,,6.21,29.911417,,,,,,TRUE,,,,,FEW,2500,,,,,,,VFR,,,,,,,,,,,,SPECI,6.0
RCKH 021800Z 04003KT 9999 FEW015 BKN045 24/17 Q1013 NOSIG RMK A2994,RCKH,2018-04-02T18:00:00Z,22.57,120.33,24.0,17.0,40,3,,6.21,29.911417,,,,,,TRUE,,,,,FEW,1500,BKN,4500,,,,,VFR,,,,,,,,,,,,METAR,9.0
RCTP 021800Z 24004KT 8000 FEW012 20/19 Q1013 NOSIG RMK A2992,RCTP,2018-04-02T18:00:00Z,25.07,121.22,20.0,19.0,240,4,,4.97,29.911417,,,,,,TRUE,,,,,FEW,1200,,,,,,,MVFR,,,,,,,,,,,,METAR,33.0
VERC 021800Z 17003KT 5000 HZ NSC 21/16 Q1014 NOSIG,VERC,2018-04-02T18:00:00Z,23.32,85.32,21.0,16.0,170,3,,3.11,29.940945,,,,,,TRUE,,,,HZ,CLR,,,,,,,,MVFR,,,,,,,,,,,,METAR,652.0
VABP 021800Z 05002KT 6000 NSC 28/07 Q1012 NOSIG,VABP,2018-04-02T18:00:00Z,23.27,77.33,28.0,7.0,50,2,,3.73,29.88189,,,,,,TRUE,,,,,CLR,,,,,,,,MVFR,,,,,,,,,,,,METAR,523.0
FQLC 021800Z 09009KT 9999 DZ FEW007 SCT014 FEW020CB BKN070 18/18 Q1018 RMK DIST LIT TO N,FQLC,2018-04-02T18:00:00Z,-13.27,35.25,18.0,18.0,90,9,,6.21,30.059055,,,,,,,,,,DZ,FEW,700,SCT,1400,FEW,2000,BKN,7000,VFR,,,,,,,,,,,,METAR,1365.0
FAOB 021800Z AUTO 21001KT //// // ////// 19/16 Q1015,FAOB,2018-04-02T18:00:00Z,-34.6,20.27,19.0,16.0,210,1,,,29.970472,,,TRUE,,,,,,,,,,,,,,,,,,,,,,,,,,,,METAR,75.0
FALW 021800Z AUTO 24006KT //// // ////// 18/14 Q1012,FALW,2018-04-02T18:00:00Z,-32.97,18.17,18.0,14.0,240,6,,,29.88189,,,TRUE,,,,,,,,,,,,,,,,,,,,,,,,,,,,METAR,0.0
VOVZ 021800Z 21007KT 6000 SCT018 SCT090 28/24 Q1010 NOSIG,VOVZ,2018-04-02T18:00:00Z,17.75,83.22,28.0,24.0,210,7,,3.73,29.822834,,,,,,TRUE,,,,,SCT,1800,SCT,9000,,,,,MVFR,,,,,,,,,,,,METAR,5.0
UNEE 021800Z 20006MPS 9999 BKN043CB M03/M08 Q1024 R23/911055 NOSIG RMK QFE745,UNEE,2018-04-02T18:00:00Z,55.27,86.08,-3.0,-8.0,200,12,,6.21,30.236221,,,,,,TRUE,,,,,BKN,4300,,,,,,,VFR,,,,,,,,,,,,METAR,260.0
UNBB 021800Z 19003MPS CAVOK M04/M09 Q1025 R24/CLRD66 NOSIG RMK QFE747,UNBB,2018-04-02T18:00:00Z,53.37,83.53,-4.0,-9.0,190,6,,6.21,30.265747,,,,,,TRUE,,,,,CAVOK,,,,,,,,VFR,,,,,,,,,,,,METAR,255.0
UNAA 021800Z 12001MPS 9000 NSC M08/M12 Q1028 R20/190057 NOSIG RMK QFE748,UNAA,2018-04-02T18:00:00Z,53.75,91.4,-8.0,-12.0,120,2,,5.59,30.35433,,,,,,TRUE,,,,,CLR,,,,,,,,VFR,,,,,,,,,,,,METAR,245.0
UUMO 021800Z 16004MPS 110V210 9999 OVC010 02/00 Q1005 R08/090060 NOSIG RMK QFE739/0985,UUMO,2018-04-02T18:00:00Z,55.52,37.5,2.0,0.0,160,8,,6.21,29.675198,,,,,,TRUE,,,,,OVC,1000,,,,,,,MVFR,,,,,,,,,,,,METAR,174.0
GGOV 021800Z 27009KT 9000 NSC 33/19 Q1005 NOSIG,GGOV,2018-04-02T18:00:00Z,11.87,-15.65,33.0,19.0,270,9,,5.59,29.675198,,,,,,TRUE,,,,,CLR,,,,,,,,VFR,,,,,,,,,,,,METAR,36.0
FOON 021800Z VRB02KT 9999 TS FEW011 FEW020CB 23/22 Q1009,FOON,2018-04-02T18:00:00Z,-1.63,13.42,23.0,22.0,0,2,,6.21,29.793306,,,,,,,,,,TS,FEW,1100,FEW,2000,,,,,VFR,,,,,,,,,,,,METAR,441.0
USHH 021800Z 33002MPS 280V020 CAVOK M06/M12 Q1025 R24/010060 NOSIG RMK QFE765,USHH,2018-04-02T18:00:00Z,61.03,69.08,-6.0,-12.0,330,4,,6.21,30.265747,,,,,,TRUE,,,,,CAVOK,,,,,,,,VFR,,,,,,,,,,,,METAR,23.0
USTR 021800Z 24005MPS CAVOK M05/M10 Q1030 R30/CLRD65 NOSIG RMK QFE762/1017,USTR,2018-04-02T18:00:00Z,57.17,65.32,-5.0,-10.0,240,10,,6.21,30.413385,,,,,,TRUE,,,,,CAVOK,,,,,,,,VFR,,,,,,,,,,,,METAR,115.0
UNTT 021800Z 23004MPS 4700 -SHSN SCT041CB M04/M06 Q1022 NOSIG RMK QFE751,UNTT,2018-04-02T18:00:00Z,56.38,85.22,-4.0,-6.0,230,8,,2.92,30.177166,,,,,,TRUE,,,,-SHSN,SCT,4100,,,,,,,IFR,,,,,,,,,,,,METAR,182.0
UNOO 021800Z 29004MPS 8000 SCT033CB M04/M06 Q1027 R25/190055 NOSIG RMK QFE762,UNOO,2018-04-02T18:00:00Z,54.97,73.32,-4.0,-6.0,290,8,,4.97,30.324802,,,,,,TRUE,,,,,SCT,3300,,,,,,,MVFR,,,,,,,,,,,,METAR,95.0
UNNT 021800Z 24004MPS 9999 -SN BKN040 M03/M06 Q1025 R25/490155 R34/490155 NOSIG RMK QFE758/1011,UNNT,2018-04-02T18:00:00Z,55.02,82.63,-3.0,-6.0,240,8,,6.21,30.265747,,,,,,TRUE,,,,-SN,BKN,4000,,,,,,,VFR,,,,,,,,,,,,METAR,111.0
UNKL 021800Z 24003MPS 9999 SCT036CB M04/M11 Q1025 R29/150060 NOSIG RMK QFE743,UNKL,2018-04-02T18:00:00Z,56.17,92.48,-4.0,-11.0,240,6,,6.21,30.265747,,,,,,TRUE,,,,,SCT,3600,,,,,,,VFR,,,,,,,,,,,,METAR,276.0
URKA 021800Z 23005MPS 9999 SCT/// 09/08 Q1009 R22/750065 TEMPO 3000 -SHRA BKN011 BKN020CB RMK QFE752/1003,URKA,2018-04-02T18:00:00Z,45.0,37.35,9.0,8.0,230,10,,6.21,29.793306,,,,,,,,,,,,,,,,,,,,,,,,,,,,,,,METAR,53.0
USCM 021800Z 13002MPS 9999 NSC M03/M04 Q1029 R18/090060 NOSIG RMK QFE734,USCM,2018-04-02T18:00:00Z,53.4,58.75,-3.0,-4.0,130,4,,6.21,30.383858,,,,,,TRUE,,,,,CLR,,,,,,,,VFR,,,,,,,,,,,,METAR,435.0
MNBL 021800Z 08004KT 9999 SCT017 SCT080 28/24 Q1014,MNBL,2018-04-02T18:00:00Z,12.0,-83.77,28.0,24.0,80,4,,6.21,29.940945,,,,,,,,,,,SCT,1700,SCT,8000,,,,,VFR,,,,,,,,,,,,METAR,5.0
MNCH 021800Z 14006KT 9999 FEW025 33/17 Q1010,MNCH,2018-04-02T18:00:00Z,12.62,-87.12,33.0,17.0,140,6,,6.21,29.822834,,,,,,,,,,,FEW,2500,,,,,,,VFR,,,,,,,,,,,,METAR,53.0
MNJU 021800Z 08006KT 9999 SCT020 32/22 Q1012,MNJU,2018-04-02T18:00:00Z,12.08,-85.37,32.0,22.0,80,6,,6.21,29.88189,,,,,,,,,,,SCT,2000,,,,,,,VFR,,,,,,,,,,,,METAR,90.0
MNJG 021800Z 36010KT 9999 FEW020 26/15 Q1012,MNJG,2018-04-02T18:00:00Z,13.08,-86.02,26.0,15.0,360,10,,6.21,29.88189,,,,,,,,,,,FEW,2000,,,,,,,VFR,,,,,,,,,,,,METAR,985.0
MNRS 021800Z 06010KT 9999 FEW020 29/21 Q1011,MNRS,2018-04-02T18:00:00Z,11.42,-85.82,29.0,21.0,60,10,,6.21,29.852362,,,,,,,,,,,FEW,2000,,,,,,,VFR,,,,,,,,,,,,METAR,53.0
MNPC 021800Z 10006KT 7000 BKN016 30/23 Q1012 HZ,MNPC,2018-04-02T18:00:00Z,14.05,-83.38,30.0,23.0,100,6,,4.35,29.88189,,,,,,,,,,HZ,BKN,1600,,,,,,,MVFR,,,,,,,,,,,,METAR,16.0
URMG 021800Z VRB01MPS 9999 OVC014 08/07 Q1006 R26/000070 NOSIG RMK QFE740/0986,URMG,2018-04-02T18:00:00Z,43.37,45.7,8.0,7.0,0,2,,6.21,29.704725,,,,,,TRUE,,,,,OVC,1400,,,,,,,MVFR,,,,,,,,,,,,METAR,263.0
URKK 021800Z 21005MPS 9999 -SHRA FEW010 BKN055CB 10/08 Q1009 R23L/290060 TEMPO 28010G16MPS 2000 TSRA BKN007 BKN020CB RMK QFE753,URKK,2018-04-02T18:00:00Z,45.03,39.15,10.0,8.0,210,10,,6.21,29.793306,,,,,,,,,,-SHRA,FEW,1000,BKN,5500,,,,,VFR,,,,,,,,,,,,METAR,34.0
YPJT 021800Z AUTO 07008KT 9999 // NCD 23/16 Q1014 RF00.0/000.0,YPJT,2018-04-02T18:00:00Z,-32.1,115.88,23.0,16.0,70,8,,6.21,29.940945,,,TRUE,,,,,,,,CLR,,,,,,,,VFR,,,,,,,,,,,,METAR,30.0
YCDU 021800Z AUTO 11005KT 9999 // NCD 13/11 Q1023,YCDU,2018-04-02T18:00:00Z,-32.12,133.7,13.0,11.0,110,5,,6.21,30.206694,,,TRUE,,,,,,,,CLR,,,,,,,,VFR,,,,,,,,,,,,METAR,15.0
YLHI 021800Z AUTO 00000KT 9999 // NCD 19/16 Q1018,YLHI,2018-04-02T18:00:00Z,-31.53,159.07,19.0,16.0,0,0,,6.21,30.059055,,,TRUE,,,,,,,,CLR,,,,,,,,VFR,,,,,,,,,,,,METAR,2.0
YRMD 021800Z AUTO 11007KT 9999 // NCD 23/19 Q1008,YRMD,2018-04-02T18:00:00Z,-20.7,143.12,23.0,19.0,110,7,,6.21,29.763779,,,TRUE,,,,,,,,CLR,,,,,,,,VFR,,,,,,,,,,,,METAR,207.0
YCFS 021800Z AUTO 32006KT //// // ////// 21/18 Q1016,YCFS,2018-04-02T18:00:00Z,-30.32,153.12,21.0,18.0,320,6,,,30.0,,,TRUE,,,,,,,,,,,,,,,,,,,,,,,,,,,,METAR,5.0
UUWW 021800Z 14004MPS 9999 OVC010 02/M00 Q1003 R06/290050 BECMG OVC007,UUWW,2018-04-02T18:00:00Z,55.6,37.27,2.0,0.0,140,8,,6.21,29.616142,,,,,,,,,,,OVC,1000,,,,,,,MVFR,,,,,,,,,,,,METAR,203.0
UUEE 021800Z 15006MPS 9999 BKN011 03/01 Q1003 R06L/150057 R06R/150057 NOSIG,UUEE,2018-04-02T18:00:00Z,55.97,37.42,3.0,1.0,150,12,,6.21,29.616142,,,,,,TRUE,,,,,BKN,1100,,,,,,,MVFR,,,,,,,,,,,,METAR,190.0
UUDL 021800Z 15005MPS CAVOK 07/M03 Q1004 R23/010060 NOSIG RMK QFE745,UUDL,2018-04-02T18:00:00Z,57.57,40.17,7.0,-3.0,150,10,,6.21,29.64567,,,,,,TRUE,,,,,CAVOK,,,,,,,,VFR,,,,,,,,,,,,METAR,88.0
UUDD 021800Z 17008MPS 9999 OVC007 02/M00 Q1004 R88/290095 NOSIG,UUDD,2018-04-02T18:00:00Z,55.4,37.9,2.0,0.0,170,16,,6.21,29.64567,,,,,,TRUE,,,,,OVC,700,,,,,,,IFR,,,,,,,,,,,,METAR,168.0
UUBW 021800Z 14007MPS 9999 BKN012 02/00 Q1005 R12/010060 NOSIG,UUBW,2018-04-02T18:00:00Z,55.55,38.15,2.0,0.0,140,14,,6.21,29.675198,,,,,,TRUE,,,,,BKN,1200,,,,,,,MVFR,,,,,,,,,,,,METAR,115.0
ULLI 021800Z 17003MPS 130V200 9999 FEW007 BKN015CB OVC033 03/01 Q0989 R10R/290050 NOSIG RMK OBST OBSC,ULLI,2018-04-02T18:00:00Z,59.8,30.27,3.0,1.0,170,6,,6.21,29.202755,,,,,,TRUE,,,,,FEW,700,BKN,1500,OVC,3300,,,MVFR,,,,,,,,,,,,METAR,4.0
UWWW 021800Z 13004MPS CAVOK 00/M04 Q1023 R15/120050 NOSIG RMK QFE756/1008,UWWW,2018-04-02T18:00:00Z,53.5,50.17,0.0,-4.0,130,8,,6.21,30.206694,,,,,,TRUE,,,,,CAVOK,,,,,,,,VFR,,,,,,,,,,,,METAR,146.0
UWSS 021800Z 13009G14MPS CAVOK 01/M01 Q1016 R12/120055 NOSIG RMK QFE750,UWSS,2018-04-02T18:00:00Z,51.57,46.07,1.0,-1.0,130,17,27,6.21,30.0,,,,,,TRUE,,,,,CAVOK,,,,,,,,VFR,,,,,,,,,,,,METAR,166.0
UWOO 021800Z 12005MPS CAVOK M00/M05 Q1029 R08/60D NOSIG RMK QFE761/1015,UWOO,2018-04-02T18:00:00Z,51.8,55.47,0.0,-5.0,120,10,,6.21,30.383858,,,,,,TRUE,,,,,CAVOK,,,,,,,,VFR,,,,,,,,,,,,METAR,109.0
UWOR 021800Z 20004MPS CAVOK M02/M05 Q1030 R25/CLRD65 NOSIG RMK QFE749/0998,UWOR,2018-04-02T18:00:00Z,51.07,58.6,-2.0,-5.0,200,8,,6.21,30.413385,,,,,,TRUE,,,,,CAVOK,,,,,,,,VFR,,,,,,,,,,,,METAR,277.0
UWLW 021800Z 14004MPS 8000 NSC 01/M05 Q1022 R20/CLRD60 NOSIG RMK QFE761,UWLW,2018-04-02T18:00:00Z,54.4,48.8,1.0,-5.0,140,8,,4.97,30.177166,,,,,,TRUE,,,,,CLR,,,,,,,,MVFR,,,,,,,,,,,,METAR,66.0
UWKS 021800Z 17006MPS CAVOK 02/M04 Q1018 R06/510555 NOSIG RMK QFE748,UWKS,2018-04-02T18:00:00Z,56.08,47.35,2.0,-4.0,170,12,,6.21,30.059055,,,,,,TRUE,,,,,CAVOK,,,,,,,,VFR,,,,,,,,,,,,METAR,170.0
UWKE 021800Z 16006MPS CAVOK 02/M02 Q1025 R21/110070 NOSIG RMK QFE751/1002,UWKE,2018-04-02T18:00:00Z,55.57,52.08,2.0,-2.0,160,12,,6.21,30.265747,,,,,,TRUE,,,,,CAVOK,,,,,,,,VFR,,,,,,,,,,,,METAR,196.0
UWKD 021800Z 15007MPS CAVOK 02/M04 Q1022 R11/810050 NOSIG RMK QFE756/1008,UWKD,2018-04-02T18:00:00Z,55.62,49.28,2.0,-4.0,150,14,,6.21,30.177166,,,,,,TRUE,,,,,CAVOK,,,,,,,,VFR,,,,,,,,,,,,METAR,126.0
USPP 021800Z 19003MPS CAVOK M00/M04 Q1028 R21/290150 NOSIG RMK QFE760,USPP,2018-04-02T18:00:00Z,57.92,56.02,0.0,-4.0,190,6,,6.21,30.35433,,,,,,TRUE,,,,,CAVOK,,,,,,,,VFR,,,,,,,,,,,,METAR,123.0
UHSS 021800Z 14005G10MPS 9999 BKN026CB 05/03 Q1002 R19/70D NOSIG RMK MT OBSC QFE750/1001,UHSS,2018-04-02T18:00:00Z,46.88,142.72,5.0,3.0,140,10,19,6.21,29.586615,,,,,,TRUE,,,,,BKN,2600,,,,,,,MVFR,,,,,,,,,,,,METAR,31.0
UHMM 021800Z 09004MPS 0700 0650W R10/0650N +SHSN VV005 M04/M04 Q1015 RMK QFE747,UHMM,2018-04-02T18:00:00Z,59.92,150.72,-4.0,-4.0,90,8,,0.43,29.970472,,,,,,,,,,+SHSN,OVX,0,,,,,,,LIFR,,,,,,,,,,,500,METAR,175.0
UHMA 021800Z VRB01MPS 9999 VCFG FEW003 OVC150 M07/M08 Q1038 RMK END R01/33002MPS QFE775/1033,UHMA,2018-04-02T18:00:00Z,64.73,177.73,-7.0,-8.0,0,2,,6.21,30.649607,,,,,,,,,,VCFG,FEW,300,OVC,15000,,,,,VFR,,,,,,,,,,,,METAR,62.0
UHWW 021800Z 00000MPS 1900 1400E R25L/P2000U -SHRA BR BKN002 BKN020CB 02/02 Q1012 R25L/290060 NOSIG RMK QBB080 MT OBSC QFE758,UHWW,2018-04-02T18:00:00Z,43.4,132.15,2.0,2.0,0,0,,1.18,29.88189,,,,,,TRUE,,,,-SHRA BR,BKN,200,BKN,2000,,,,,LIFR,,,,,,,,,,,,METAR,14.0
UHPP 021800Z 02005MPS 9999 NSC M12/M15 Q1019 R34L/CLRD70 NOSIG RMK QFE760/1014,UHPP,2018-04-02T18:00:00Z,53.17,158.45,-12.0,-15.0,20,10,,6.21,30.088583,,,,,,TRUE,,,,,CLR,,,,,,,,VFR,,,,,,,,,,,,METAR,40.0
UHHH 021800Z 27008MPS CAVOK M00/M10 Q1007 R23L/090060 NOSIG RMK QFE749/0998,UHHH,2018-04-02T18:00:00Z,48.52,135.18,0.0,-10.0,270,16,,6.21,29.734253,,,,,,TRUE,,,,,CAVOK,,,,,,,,VFR,,,,,,,,,,,,METAR,72.0
UHBB 021800Z 32006MPS CAVOK M03/M19 Q1013 R36/090060 NOSIG RMK QFE742/0990,UHBB,2018-04-02T18:00:00Z,50.43,127.42,-3.0,-19.0,320,12,,6.21,29.911417,,,,,,TRUE,,,,,CAVOK,,,,,,,,VFR,,,,,,,,,,,,METAR,195.0
FYWW 021800Z AUTO 19007KT //// // ////// 18/14 Q1020,FYWW,2018-04-02T18:00:00Z,-22.57,17.1,18.0,14.0,190,7,,,30.11811,,,TRUE,,,,,,,,,,,,,,,,,,,,,,,,,,,,METAR,1725.0
FYML 021800Z AUTO 05002KT //// // ////// 23/18 Q1019,FYML,2018-04-02T18:00:00Z,-24.6,17.93,23.0,18.0,50,2,,,30.088583,,,TRUE,,,,,,,,,,,,,,,,,,,,,,,,,,,,METAR,1113.0
FYLZ 021800Z AUTO 20007KT //// // ////// 19/14 Q1010,FYLZ,2018-04-02T18:00:00Z,-26.67,15.25,19.0,14.0,200,7,,,29.822834,,,TRUE,,,,,,,,,,,,,,,,,,,,,,,,,,,,METAR,130.0
URML 021800Z 15007MPS 9999 OVC009 08/06 Q1008 R14/01//70 NOSIG RMK MT OBSC QFE756/1008,URML,2018-04-02T18:00:00Z,42.82,47.65,8.0,6.0,150,14,,6.21,29.763779,,,,,,TRUE,,,,,OVC,900,,,,,,,IFR,,,,,,,,,,,,METAR,4.0
URMM 021800Z 12003MPS 9999 OVC005 05/05 Q1005 R12/090070 NOSIG RMK MT OBSC QFE726/0968,URMM,2018-04-02T18:00:00Z,44.22,43.1,5.0,5.0,120,6,,6.21,29.675198,,,,,,TRUE,,,,,OVC,500,,,,,,,IFR,,,,,,,,,,,,METAR,314.0
URMN 021800Z 01001MPS 0800 R24/1000 FG VV002 05/05 Q1005 R24/110060 NOSIG RMK QBB060 MT OBSC OBST OBSC QFE717,URMN,2018-04-02T18:00:00Z,43.52,43.63,5.0,5.0,10,2,,0.5,29.675198,,,,,,TRUE,,,,FG,OVX,0,,,,,,,LIFR,,,,,,,,,,,200,METAR,445.0
URSS 021800Z 30006MPS 270V360 2700 R06/3000U -SHRA SCT006 OVC033CB 09/08 Q1014 WS ALL RWY R06/220350 R02/////// NOSIG RMK R02/29005G08MPS QBB180 MT OBSC QFE760,URSS,2018-04-02T18:00:00Z,43.45,39.95,9.0,8.0,300,12,,1.68,29.940945,,,,,,TRUE,,,,-SHRA,SCT,600,OVC,3300,,,,,IFR,,,,,,,,,,,,METAR,16.0
URMT 021800Z 15003MPS 6000 FEW006 04/03 Q1006 R07/010070 NOSIG RMK QFE714,URMT,2018-04-02T18:00:00Z,45.12,42.12,4.0,3.0,150,6,,3.73,29.704725,,,,,,TRUE,,,,,FEW,600,,,,,,,MVFR,,,,,,,,,,,,METAR,453.0
FYKM 021800Z 00000KT CAVOK 23/20 Q1013,FYKM,2018-04-02T18:00:00Z,-17.63,24.18,23.0,20.0,0,0,,6.21,29.911417,,,,,,,,,,,CAVOK,,,,,,,,VFR,,,,,,,,,,,,METAR,958.0
FYGB 021800Z AUTO 08002KT //// // ////// 25/12 Q1019,FYGB,2018-04-02T18:00:00Z,-22.5,18.97,25.0,12.0,80,2,,,30.088583,,,TRUE,,,,,,,,,,,,,,,,,,,,,,,,,,,,METAR,1442.0
HECA 021800Z 01011KT CAVOK 24/14 Q1013 NOSIG,HECA,2018-04-02T18:00:00Z,30.12,31.38,24.0,14.0,10,11,,6.21,29.911417,,,,,,TRUE,,,,,CAVOK,,,,,,,,VFR,,,,,,,,,,,,METAR,74.0
FNCA 021800Z 00000KT 9999 BKN020 27/25 Q1007,FNCA,2018-04-02T18:00:00Z,-5.58,12.18,27.0,25.0,0,0,,6.21,29.734253,,,,,,,,,,,BKN,2000,,,,,,,MVFR,,,,,,,,,,,,METAR,20.0
FNLU 021800Z 22008KT 9999 FEW020 BKN090 28/22 Q1005,FNLU,2018-04-02T18:00:00Z,-8.83,13.22,28.0,22.0,220,8,,6.21,29.675198,,,,,,,,,,,FEW,2000,BKN,9000,,,,,VFR,,,,,,,,,,,,METAR,70.0
FQCH 021800Z 16004KT 9999 SCT015 21/18 Q1018,FQCH,2018-04-02T18:00:00Z,-19.15,33.43,21.0,18.0,160,4,,6.21,30.059055,,,,,,,,,,,SCT,1500,,,,,,,VFR,,,,,,,,,,,,METAR,732.0
OSKL 021800Z 07006KT CAVOK 19/09 Q1011,OSKL,2018-04-02T18:00:00Z,37.03,41.2,19.0,9.0,70,6,,6.21,29.852362,,,,,,,,,,,CAVOK,,,,,,,,VFR,,,,,,,,,,,,METAR,455.0
OSLK 021800Z 10010KT CAVOK 15/13 Q1013,OSLK,2018-04-02T18:00:00Z,35.4,35.95,15.0,13.0,100,10,,6.21,29.911417,,,,,,,,,,,CAVOK,,,,,,,,VFR,,,,,,,,,,,,METAR,48.0
OSDI 021800Z 25004KT CAVOK 20/03 Q1013,OSDI,2018-04-02T18:00:00Z,33.42,36.52,20.0,3.0,250,4,,6.21,29.911417,,,,,,,,,,,CAVOK,,,,,,,,VFR,,,,,,,,,,,,METAR,605.0
SBCJ 021800Z 00000KT 9999 SCT013 27/22 Q1012,SBCJ,2018-04-02T18:00:00Z,-6.12,-50.0,27.0,22.0,0,0,,6.21,29.88189,,,,,,,,,,,SCT,1300,,,,,,,VFR,,,,,,,,,,,,METAR,621.0
SBCF 021800Z 31004KT 9999 SCT040 27/16 Q1014,SBCF,2018-04-02T18:00:00Z,-19.63,-43.97,27.0,16.0,310,4,,6.21,29.940945,,,,,,,,,,,SCT,4000,,,,,,,VFR,,,,,,,,,,,,METAR,828.0
SBFN 021800Z 12008KT 9999 SCT013 BKN020 27/25 Q1008,SBFN,2018-04-02T18:00:00Z,-3.85,-32.42,27.0,25.0,120,8,,6.21,29.763779,,,,,,,,,,,SCT,1300,BKN,2000,,,,,MVFR,,,,,,,,,,,,METAR,56.0
SCVM 021800Z 33005KT 9999 OVC018 15/12 Q1016,SCVM,2018-04-02T18:00:00Z,-32.95,-71.48,15.0,12.0,330,5,,6.21,30.0,,,,,,,,,,,OVC,1800,,,,,,,MVFR,,,,,,,,,,,,METAR,141.0
SBMQ 021800Z 07010KT 9999 SCT017 FEW025TCU 28/27 Q1007,SBMQ,2018-04-02T18:00:00Z,0.05,-51.07,28.0,27.0,70,10,,6.21,29.734253,,,,,,,,,,,SCT,1700,FEW,2500,,,,,VFR,,,,,,,,,,,,METAR,15.0
SVMI 021800Z 07004KT 9999 BKN016 28/23 Q1010,SVMI,2018-04-02T18:00:00Z,10.58,-67.0,28.0,23.0,70,4,,6.21,29.822834,,,,,,,,,,,BKN,1600,,,,,,,MVFR,,,,,,,,,,,,METAR,48.0
MWCR 021800Z 05011KT 9999 SCT018 27/23 Q1013,MWCR,2018-04-02T18:00:00Z,19.3,-81.37,27.0,23.0,50,11,,6.21,29.911417,,,,,,,,,,,SCT,1800,,,,,,,VFR,,,,,,,,,,,,METAR,3.0
MWCB 021800Z 11012KT 9999 FEW018 28/22 Q1014,MWCB,2018-04-02T18:00:00Z,19.68,-79.88,28.0,22.0,110,12,,6.21,29.940945,,,,,,,,,,,FEW,1800,,,,,,,VFR,,,,,,,,,,,,METAR,2.0
NGFU 021800Z 03008KT 9999 FEW017TCU SCT020 BKN300 28/24 Q1008,NGFU,2018-04-02T18:00:00Z,-8.52,179.22,28.0,24.0,30,8,,6.21,29.763779,,,,,,,,,,,FEW,1700,SCT,2000,BKN,30000,,,VFR,,,,,,,,,,,,METAR,1.0
MGGT 021800Z 03008KT 9999 SCT022 26/13 Q1023 A3021 FEW200,MGGT,2018-04-02T18:00:00Z,14.57,-90.53,26.0,13.0,30,8,,6.21,30.206694,,,,,,,,,,,SCT,2200,FEW,20000,,,,,VFR,,,,,,,,,,,,METAR,1509.0
SBLO 021800Z 28006KT 9999 SCT020 SCT100 28/20 Q1012,SBLO,2018-04-02T18:00:00Z,-23.32,-51.12,28.0,20.0,280,6,,6.21,29.88189,,,,,,,,,,,SCT,2000,SCT,10000,,,,,VFR,,,,,,,,,,,,METAR,570.0
SBFL 021800Z 14011KT 9999 BKN030 FEW035TCU 27/23 Q1005,SBFL,2018-04-02T18:00:00Z,-27.67,-48.53,27.0,23.0,140,11,,6.21,29.675198,,,,,,,,,,,BKN,3000,FEW,3500,,,,,MVFR,,,,,,,,,,,,METAR,5.0
SBMA 021800Z 14002KT 9999 SCT022 SCT100 35/25 Q1008,SBMA,2018-04-02T18:00:00Z,-5.37,-49.13,35.0,25.0,140,2,,6.21,29.763779,,,,,,,,,,,SCT,2200,SCT,10000,,,,,VFR,,,,,,,,,,,,METAR,102.0
SBPS 021800Z 06011KT 9999 FEW020 29/22 Q1010,SBPS,2018-04-02T18:00:00Z,-16.43,-39.07,29.0,22.0,60,11,,6.21,29.822834,,,,,,,,,,,FEW,2000,,,,,,,VFR,,,,,,,,,,,,METAR,51.0
SBAR 021800Z 13011KT 9999 FEW017 30/23 Q1009,SBAR,2018-04-02T18:00:00Z,-10.97,-37.07,30.0,23.0,130,11,,6.21,29.793306,,,,,,,,,,,FEW,1700,,,,,,,VFR,,,,,,,,,,,,METAR,9.0
GBYD 1800Z 26012KT CAVOK 25/16 Q1007,GBYD,2018-04-02T18:00:00Z,13.33,-16.65,25.0,16.0,260,12,,6.21,29.734253,,,,,,,,,,,CAVOK,,,,,,,,VFR,,,,,,,,,,,,METAR,36.0
SBEG 021800Z 04006KT 9999 SCT015 BKN100 27/22 Q1009,SBEG,2018-04-02T18:00:00Z,-3.02,-60.03,27.0,22.0,40,6,,6.21,29.793306,,,,,,,,,,,SCT,1500,BKN,10000,,,,,VFR,,,,,,,,,,,,METAR,2.0
SBMO 021800Z 11009KT 9999 VCSH BKN022 28/22 Q1009,SBMO,2018-04-02T18:00:00Z,-9.52,-35.77,28.0,22.0,110,9,,6.21,29.793306,,,,,,,,,,VCSH,BKN,2200,,,,,,,MVFR,,,,,,,,,,,,METAR,115.0
MHTG 021800Z 10004KT 6000 SCT030TCU 26/12 Q1017 A3003 NOSIG,MHTG,2018-04-02T18:00:00Z,14.07,-87.22,26.0,12.0,100,4,,3.73,30.029528,,,,,,TRUE,,,,,SCT,3000,,,,,,,MVFR,,,,,,,,,,,,METAR,1004.0
MHLM 021800Z 08006KT 9999 FEW026 31/21 Q1013 A2992 NOSIG,MHLM,2018-04-02T18:00:00Z,15.45,-87.93,31.0,21.0,80,6,,6.21,29.911417,,,,,,TRUE,,,,,FEW,2600,,,,,,,VFR,,,,,,,,,,,,METAR,26.0
MHLC 021800Z 36008KT 9999 FEW028 29/21 Q1013 A2992 NOSIG,MHLC,2018-04-02T18:00:00Z,15.75,-86.85,29.0,21.0,360,8,,6.21,29.911417,,,,,,TRUE,,,,,FEW,2800,,,,,,,VFR,,,,,,,,,,,,METAR,15.0
MHRO 021800Z 09008KT 9999 FEW025 30/22 Q1014 A2995 NOSIG,MHRO,2018-04-02T18:00:00Z,16.32,-86.53,30.0,22.0,90,8,,6.21,29.940945,,,,,,TRUE,,,,,FEW,2500,,,,,,,VFR,,,,,,,,,,,,METAR,5.0
SBCB 021800Z 10005KT 9999 FEW035 BKN070 33/25 Q1007,SBCB,2018-04-02T18:00:00Z,-22.92,-42.08,33.0,25.0,100,5,,6.21,29.734253,,,,,,,,,,,FEW,3500,BKN,7000,,,,,VFR,,,,,,,,,,,,METAR,4.0
SBFZ 021800Z 09010KT 9999 BKN020 FEW025TCU BKN100 28/23 Q1008,SBFZ,2018-04-02T18:00:00Z,-3.77,-38.52,28.0,23.0,90,10,,6.21,29.763779,,,,,,,,,,,BKN,2000,FEW,2500,BKN,10000,,,MVFR,,,,,,,,,,,,METAR,25.0
SBSL 021800Z 05013KT 9999 BKN020 FEW025TCU 30/25 Q1007,SBSL,2018-04-02T18:00:00Z,-2.6,-44.22,30.0,25.0,50,13,,6.21,29.734253,,,,,,,,,,,BKN,2000,FEW,2500,,,,,MVFR,,,,,,,,,,,,METAR,53.0
MYNN 021800Z 03009KT 9999 FEW020 28/20 A3003,MYNN,2018-04-02T18:00:00Z,25.03,-77.47,28.0,20.0,30,9,,6.21,30.029528,,,,,,,,,,,FEW,2000,,,,,,,VFR,,,,,,,,,,,,METAR,3.0
SBRB 021800Z 30006KT 9999 SCT030 FEW035TCU 32/22 Q1011,SBRB,2018-04-02T18:00:00Z,-10.0,-67.78,32.0,22.0,300,6,,6.21,29.852362,,,,,,,,,,,SCT,3000,FEW,3500,,,,,VFR,,,,,,,,,,,,METAR,143.0
SBBV 021800Z 13009KT 9999 BKN040 FEW045TCU BKN090 34/19 Q1008,SBBV,2018-04-02T18:00:00Z,2.85,-60.7,34.0,19.0,130,9,,6.21,29.763779,,,,,,,,,,,BKN,4000,FEW,4500,BKN,9000,,,VFR,,,,,,,,,,,,METAR,140.0
ORSU 021800Z 32008KT CAVOK 13/07 Q1017,ORSU,2018-04-02T18:00:00Z,35.57,45.32,13.0,7.0,320,8,,6.21,30.029528,,,,,,,,,,,CAVOK,,,,,,,,VFR,,,,,,,,,,,,METAR,761.0
OJAQ 021800Z 35010KT CAVOK 28/09 Q1008 NOSIG,OJAQ,2018-04-02T18:00:00Z,29.62,35.02,28.0,9.0,350,10,,6.21,29.763779,,,,,,TRUE,,,,,CAVOK,,,,,,,,VFR,,,,,,,,,,,,METAR,51.0
OJAI 021800Z 31004KT 8000 NSC 18/08 Q1014 NOSIG,OJAI,2018-04-02T18:00:00Z,31.72,36.0,18.0,8.0,310,4,,4.97,29.940945,,,,,,TRUE,,,,,CLR,,,,,,,,MVFR,,,,,,,,,,,,METAR,730.0
ZMUB 021800Z 18002MPS CAVOK M13/M18 Q1029 NOSIG RMK QFE663.2 65,ZMUB,2018-04-02T18:00:00Z,47.83,106.78,-13.0,-18.0,180,4,,6.21,30.383858,,,,,,TRUE,,,,,CAVOK,,,,,,,,VFR,,,,,,,,,,,,METAR,1330.0
OKBK 021800Z 19008KT CAVOK 24/04 Q1013 NOSIG,OKBK,2018-04-02T18:00:00Z,29.22,47.97,24.0,4.0,190,8,,6.21,29.911417,,,,,,TRUE,,,,,CAVOK,,,,,,,,VFR,,,,,,,,,,,,METAR,55.0
MYGF 021800Z 16003KT 9999 VCSH FEW015CB SCT018 27/21 A3005 RMK CB N VCSH W/N,MYGF,2018-04-02T18:00:00Z,26.55,-78.7,27.0,21.0,160,3,,6.21,30.050198,,,,,,,,,,VCSH,FEW,1500,SCT,1800,,,,,VFR,,,,,,,,,,,,METAR,2.0
SCEL 021800Z 17013KT CAVOK 23/10 Q1013 NOSIG,SCEL,2018-04-02T18:00:00Z,-33.37,-70.77,23.0,10.0,170,13,,6.21,29.911417,,,,,,TRUE,,,,,CAVOK,,,,,,,,VFR,,,,,,,,,,,,METAR,476.0
OPST 021800Z 05005KT 4000 FU SCT100 24/15 Q1011 NOSIG RH57,OPST,2018-04-02T18:00:00Z,32.53,74.37,24.0,15.0,50,5,,2.49,29.852362,,,,,,TRUE,,,,FU,SCT,10000,,,,,,,IFR,,,,,,,,,,,,METAR,247.0
SBSV 021800Z 12010KT 9999 FEW023 29/22 Q1010,SBSV,2018-04-02T18:00:00Z,-12.9,-38.32,29.0,22.0,120,10,,6.21,29.822834,,,,,,,,,,,FEW,2300,,,,,,,VFR,,,,,,,,,,,,METAR,6.0
MPTO 021800Z 01005KT 9999 SCT018 33/17 Q1010 NOSIG,MPTO,2018-04-02T18:00:00Z,9.05,-79.37,33.0,17.0,10,5,,6.21,29.822834,,,,,,TRUE,,,,,SCT,1800,,,,,,,VFR,,,,,,,,,,,,METAR,45.0
AGGH 021800Z 20002KT 9999 FEW015 FEW017CB BKN100 25/24 Q1008,AGGH,2018-04-02T18:00:00Z,-9.42,160.05,25.0,24.0,200,2,,6.21,29.763779,,,,,,,,,,,FEW,1500,FEW,1700,BKN,10000,,,VFR,,,,,,,,,,,,METAR,9.0
SBNT 021800Z /////KT 9999 FEW023 30/23 Q1008,SBNT,2018-04-02T18:00:00Z,-5.92,-35.25,30.0,23.0,,,,6.21,29.763779,,,,,,,,,,,FEW,2300,,,,,,,VFR,,,,,,,,,,,,METAR,49.0
SBSJ 021800Z 29007KT 9999 FEW040 BKN080 27/19 Q1012,SBSJ,2018-04-02T18:00:00Z,-23.22,-45.87,27.0,19.0,290,7,,6.21,29.88189,,,,,,,,,,,FEW,4000,BKN,8000,,,,,VFR,,,,,,,,,,,,METAR,646.0
TNCM 021800Z 14007KT 090V180 9999 FEW022 28/21 Q1013 NOSIG RMK A2993,TNCM,2018-04-02T18:00:00Z,18.05,-63.12,28.0,21.0,140,7,,6.21,29.911417,,,,,,TRUE,,,,,FEW,2200,,,,,,,VFR,,,,,,,,,,,,SPECI,4.0
NFFN 021800Z 03003KT 350V060 9999 FEW005 SCT040 25/25 Q1006 NOSIG,NFFN,2018-04-02T18:00:00Z,-17.75,177.45,25.0,25.0,30,3,,6.21,29.704725,,,,,,TRUE,,,,,FEW,500,SCT,4000,,,,,VFR,,,,,,,,,,,,METAR,18.0
NFNA 021800Z 33003KT 9999 FW020 23/23 Q1006,NFNA,2018-04-02T18:00:00Z,-18.05,178.57,23.0,23.0,330,3,,6.21,29.704725,,,,,,,,,,,,,,,,,,,,,,,,,,,,,,,METAR,5.0
OJAM 021800Z 00000KT 6000 NSC 19/08 Q1014 NOSIG,OJAM,2018-04-02T18:00:00Z,31.97,35.97,19.0,8.0,0,0,,3.73,29.940945,,,,,,TRUE,,,,,CLR,,,,,,,,MVFR,,,,,,,,,,,,METAR,773.0
SBSP 021800Z 32011KT 9999 FEW025 26/18 Q1013,SBSP,2018-04-02T18:00:00Z,-23.62,-46.63,26.0,18.0,320,11,,6.21,29.911417,,,,,,,,,,,FEW,2500,,,,,,,VFR,,,,,,,,,,,,METAR,803.0
BIVM 021800Z 10015KT 4000 SNRA BKN015 OVC025 01/M00 Q1012,BIVM,2018-04-02T18:00:00Z,63.42,-20.27,1.0,0.0,100,15,,2.49,29.88189,,,,,,,,,,SN RA,BKN,1500,OVC,2500,,,,,IFR,,,,,,,,,,,,METAR,124.0
MBPV 021800Z 09005KT 9999 SCT012 27/18 Q1013,MBPV,2018-04-02T18:00:00Z,21.77,-72.27,27.0,18.0,90,5,,6.21,29.911417,,,,,,,,,,,SCT,1200,,,,,,,VFR,,,,,,,,,,,,METAR,5.0
SBPV 021800Z 25004KT 9999 VCSH BKN025 FEW030TCU 28/23 Q1008,SBPV,2018-04-02T18:00:00Z,-8.72,-63.9,28.0,23.0,250,4,,6.21,29.763779,,,,,,,,,,VCSH,BKN,2500,FEW,3000,,,,,MVFR,,,,,,,,,,,,METAR,88.0
MRLB COR 021800Z 08013KT 9999 FEW045 35/16 A2981 NOSIG,MRLB,2018-04-02T18:00:00Z,10.6,-85.55,35.0,16.0,80,13,,6.21,29.811024,,TRUE,,,,TRUE,,,,,FEW,4500,,,,,,,VFR,,,,,,,,,,,,METAR,82.0
SBMN 021800Z 11004KT 9999 SCT010 FEW020TCU SCT100 27/23 Q1009,SBMN,2018-04-02T18:00:00Z,-3.13,-59.97,27.0,23.0,110,4,,6.21,29.793306,,,,,,,,,,,SCT,1000,FEW,2000,SCT,10000,,,VFR,,,,,,,,,,,,METAR,84.0
OPSK 021800Z 05006KT 4000 HZ SCT100 30/19 Q1005 NOSIG,OPSK,2018-04-02T18:00:00Z,27.72,68.8,30.0,19.0,50,6,,2.49,29.675198,,,,,,TRUE,,,,HZ,SCT,10000,,,,,,,IFR,,,,,,,,,,,,METAR,58.0
UBBL 021800Z 15009KT 9000 SCT100 11/09 Q1014 R33/CLRD// NOSIG RMK MT OP,UBBL,2018-04-02T18:00:00Z,38.75,48.82,11.0,9.0,150,9,,5.59,29.940945,,,,,,TRUE,,,,,SCT,10000,,,,,,,VFR,,,,,,,,,,,,METAR,10.0
YPWR 021800Z AUTO 16014KT 9999 // NCD 16/11 Q1021,YPWR,2018-04-02T18:00:00Z,-31.12,136.82,16.0,11.0,160,14,,6.21,30.147638,,,TRUE,,,,,,,,CLR,,,,,,,,VFR,,,,,,,,,,,,METAR,167.0
FAPR 021759Z 11007KT 9999 BKN030 17/15 Q1021,FAPR,2018-04-02T17:59:00Z,-25.72,28.17,17.0,15.0,110,7,,6.21,30.147638,,,,,,,,,,,BKN,3000,,,,,,,MVFR,,,,,,,,,,,,METAR,1322.0
KNHK 021759Z 01013KT 10SM BKN022 09/03 A3011 RMK AO2 T00940028,KNHK,2018-04-02T17:59:00Z,38.27,-76.4,9.4,2.8,10,13,,10.0,30.109253,,,,TRUE,,,,,,,BKN,2200,,,,,,,MVFR,,,,,,,,,,,,SPECI,12.0
KPWM 021759Z 16004KT 9SM BKN012 OVC029 01/M01 A3011 RMK AO2 T00111011,KPWM,2018-04-02T17:59:00Z,43.65,-70.3,1.1,-1.1,160,4,,9.0,30.109253,,,,TRUE,,,,,,,BKN,1200,OVC,2900,,,,,MVFR,,,,,,,,,,,,SPECI,15.0
KABI 021759Z 14007KT 8SM BKN007 OVC029 07/06 A2985 RMK AO2 T00720061,KABI,2018-04-02T17:59:00Z,32.42,-99.68,7.2,6.1,140,7,,8.0,29.84941,,,,TRUE,,,,,,,BKN,700,OVC,2900,,,,,IFR,,,,,,,,,,,,SPECI,548.0
KNGU 021759Z 01016G27KT 8SM SCT010 BKN250 11/05 A3008 RMK AO2 PK WND 01027/1751 SLP185 T01060050 10167 20100 51019,KNGU,2018-04-02T17:59:00Z,36.92,-76.27,10.6,5.0,10,16,27,8.0,30.079725,1018.5,,,TRUE,,,,,,,SCT,1000,BKN,25000,,,,,VFR,1.9,16.7,10.0,,,,,,,,,SPECI,5.0
KNYC 021759Z AUTO VRB04KT 10SM 03/M01 A3015 RMK AO2 T00281011 $,KNYC,2018-04-02T17:59:00Z,40.78,-73.97,2.8,-1.1,0,4,,10.0,30.15059,,,TRUE,TRUE,TRUE,,,,,,,,,,,,,,,,,,,,,,,,,,SPECI,11.0
KNOZ 021759Z AUTO 14008KT 120V180 10SM CLR 27/M02 A2976 RMK AO2 SLP028 T02671017 10267 20161 50003,KNOZ,2018-04-02T17:59:00Z,32.5,-114.45,26.7,-1.7,140,8,,10.0,29.760826,1002.8,,TRUE,TRUE,,,,,,,CLR,,,,,,,,VFR,0.3,26.7,16.1,,,,,,,,,SPECI,103.0
KGYL 021759Z AUTO 14008KT 3/4SM -SN OVC007 M01/M01 A2991 RMK AO2,KGYL,2018-04-02T17:59:00Z,44.77,-94.08,-1.0,-1.0,140,8,,0.75,29.911417,,,TRUE,TRUE,,,,,,-SN,OVC,700,,,,,,,LIFR,,,,,,,,,,,,SPECI,302.0
MUCF 021759Z AUTO 22012KT 180V240 29/17 Q1015,MUCF,2018-04-02T17:59:00Z,22.13,-80.4,29.0,17.0,220,12,,,29.970472,,,TRUE,,,,,,,,,,,,,,,,,,,,,,,,,,,,METAR,39.0
KGXF 021758Z COR AUTO 20004KT 10SM FEW250 27/M13 A2976 RMK AO2 SLP067 T02701129 10274 20144 58001 COR 1821,KGXF,2018-04-02T17:58:00Z,32.87,-112.72,27.0,-12.9,200,4,,10.0,29.760826,1006.7,TRUE,TRUE,TRUE,,,,,,,FEW,25000,,,,,,,VFR,-0.1,27.4,14.4,,,,,,,,,SPECI,262.0
PASY 021758Z 07012KT 2SM -RA BR OVC003 03/03 A2987 RMK SLP116 60004 58012 $,PASY,2018-04-02T17:58:00Z,52.72,174.12,3.0,3.0,70,12,,2.0,29.870079,1011.6,,,,TRUE,,,,,-RA BR,OVC,300,,,,,,,LIFR,-1.2,,,,,,,,,,,SPECI,31.0
KNTD 021758Z 28006KT 10SM OVC022 15/11 A2991 RMK AO2 SLP131 T01500111 10150 20139 51006 VISNO N $,KNTD,2018-04-02T17:58:00Z,34.12,-119.12,15.0,11.1,280,6,,10.0,29.911417,1013.1,,,TRUE,TRUE,,,,,,OVC,2200,,,,,,,MVFR,0.6,15.0,13.9,,,,,,,,,SPECI,4.0
KROG 021758Z 16005KT 7SM OVC003 08/07 A2987 RMK AO2 SLP119 60000 T00780072 10078 20022 58023,KROG,2018-04-02T17:58:00Z,36.37,-94.08,7.8,7.2,160,5,,7.0,29.870079,1011.9,,,TRUE,,,,,,,OVC,300,,,,,,,LIFR,-2.3,7.8,2.2,,,,,0.005,,,,METAR,415.0
OAIX 021758Z 28004KT 9999 FEW170 16/08 A3008 RMK AO2A LTG DSNT SE SLP116 60001 T01600077 10217 20160 52013,OAIX,2018-04-02T17:58:00Z,34.95,69.27,16.0,7.7,280,4,,6.21,30.079725,1011.6,,,TRUE,,,,,,,FEW,17000,,,,,,,VFR,1.3,21.7,16.0,,,,,0.01,,,,METAR,1492.0
KEDW 021758Z 26018G24KT 50SM FEW300 22/03 A2977 RMK AO2A PK WND 27027/1658 SLP065 T02240030 10224 20122 58002,KEDW,2018-04-02T17:58:00Z,34.88,-117.87,22.4,3.0,260,18,24,50.0,29.769686,1006.5,,,TRUE,,,,,,,FEW,30000,,,,,,,VFR,-0.2,22.4,12.2,,,,,,,,,SPECI,702.0
KBKF 021758Z 29005KT 10SM FEW090 BKN220 21/M09 A2951 RMK AO2A SLP944 T02091086 10209 20001 58016,KBKF,2018-04-02T17:58:00Z,39.72,-104.75,20.9,-8.6,290,5,,10.0,29.509842,994.4,,,TRUE,,,,,,,FEW,9000,BKN,22000,,,,,VFR,-1.6,20.9,0.1,,,,,,,,,SPECI,1726.0
KSLI 021758Z 19003KT 7SM BKN030 BKN037 19/10 A2989 RMK AO2A SLP125 T01870100 10189 20146 50001,KSLI,2018-04-02T17:58:00Z,33.77,-118.03,18.7,10.0,190,3,,7.0,29.890747,1012.5,,,TRUE,,,,,,,BKN,3000,BKN,3700,,,,,MVFR,0.1,18.9,14.6,,,,,,,,,SPECI,11.0
K0J4 021758Z AUTO VRB05KT 10SM BKN048 BKN055 27/13 A3004 RMK AO2 SLP169 T02670133 10267 20133 58015 PWINO $,K0J4,2018-04-02T17:58:00Z,31.05,-86.32,26.7,13.3,0,5,,10.0,30.041338,1016.9,,TRUE,TRUE,TRUE,,,,TRUE,,BKN,4800,BKN,5500,,,,,VFR,-1.5,26.7,13.3,,,,,,,,,SPECI,96.0
PAQT 021758Z AUTO 25003KT 2SM BR OVC002 M24/M24 A3079 RMK AO2 T12391239 TSNO,PAQT,2018-04-02T17:58:00Z,70.22,-151.0,-23.9,-23.9,250,3,,2.0,30.791338,,,TRUE,TRUE,,,TRUE,,,BR,OVC,200,,,,,,,LIFR,,,,,,,,,,,,SPECI,12.0
KMRH 021758Z AUTO 23013KT 10SM CLR 21/14 A2999 RMK AO2 SLP156 T02110144 10211 20167 58016,KMRH,2018-04-02T17:58:00Z,34.73,-76.65,21.1,14.4,230,13,,10.0,29.991142,1015.6,,TRUE,TRUE,,,,,,,CLR,,,,,,,,VFR,-1.6,21.1,16.7,,,,,,,,,SPECI,3.0
KMEI 021758Z 19010KT 10SM SCT040 24/13 A3001 RMK AO2 SLP160 T02440133 10244 20144 58008,KMEI,2018-04-02T17:58:00Z,32.33,-88.75,24.4,13.3,190,10,,10.0,30.008858,1016.0,,,TRUE,,,,,,,SCT,4000,,,,,,,VFR,-0.8,24.4,14.4,,,,,,,,,SPECI,89.0
K1OW 021758Z AUTO 25010KT 10SM CLR 17/M05 A2950 RMK AO2 SLP964 T01681053 10169 21013 57015 PWINO $,K1OW,2018-04-02T17:58:00Z,,,16.8,-5.3,250,10,,10.0,29.500984,996.4,,TRUE,TRUE,TRUE,,,,TRUE,,CLR,,,,,,,,VFR,-1.5,16.9,-1.3,,,,,,,,,METAR,
KGRK 021758Z AUTO 01007KT 1 3/8SM BR OVC004 10/10 A2988 RMK AO2 VIS 2 3/4 RWY15 SLP118 58007,KGRK,2018-04-02T17:58:00Z,31.07,-97.83,10.0,10.0,10,7,,1.38,29.878937,1011.8,,TRUE,TRUE,,,,,,BR,OVC,400,,,,,,,LIFR,-0.7,,,,,,,,,,,METAR,309.0
KHUA 021758Z AUTO 29006KT 10SM BKN039 21/13 A2998 RMK AO2 SLP149 T02060128 10208 20112 57005,KHUA,2018-04-02T17:58:00Z,34.68,-86.68,20.6,12.8,290,6,,10.0,29.97933,1014.9,,TRUE,TRUE,,,,,,,BKN,3900,,,,,,,VFR,-0.5,20.8,11.2,,,,,,,,,METAR,209.0
KPOE 021758Z AUTO 16010G18KT 10SM BKN034 BKN060 26/18 A2993 RMK AO2 SLP135 T02600180 10260 20178 58015,KPOE,2018-04-02T17:58:00Z,31.05,-93.2,26.0,18.0,160,10,18,10.0,29.929134,1013.5,,TRUE,TRUE,,,,,,,BKN,3400,BKN,6000,,,,,VFR,-1.5,26.0,17.8,,,,,,,,,METAR,101.0
KT70 021758Z AUTO 22006KT 10SM SCT021 BKN033 24/18 A2974 RMK AO2 SLP060 T02380178 10238 20208 58009,KT70,2018-04-02T17:58:00Z,29.12,-100.48,23.8,17.8,220,6,,10.0,29.740158,1006.0,,TRUE,TRUE,,,,,,,SCT,2100,BKN,3300,,,,,VFR,-0.9,23.8,20.8,,,,,,,,,SPECI,298.0
KHEY 021758Z AUTO 25004KT 10SM BKN039 24/16 A3002 RMK AO2 SLP166 T02380162 10240 20152 58015,KHEY,2018-04-02T17:58:00Z,31.35,-85.65,23.8,16.2,250,4,,10.0,30.02067,1016.6,,TRUE,TRUE,,,,,,,BKN,3900,,,,,,,VFR,-1.5,24.0,15.2,,,,,,,,,SPECI,97.0
KLOR 021758Z AUTO 22010KT 9SM SCT040 25/16 A3003 RMK AO2 SLP151 T02540157 10254 20149 58014,KLOR,2018-04-02T17:58:00Z,31.35,-85.75,25.4,15.7,220,10,,9.0,30.029528,1015.1,,TRUE,TRUE,,,,,,,SCT,4000,,,,,,,VFR,-1.4,25.4,14.9,,,,,,,,,SPECI,74.0
PWAK 021758Z AUTO 21018KT 9999 FEW055 SCT095 25/25 A2973 RMK AO2 PK WND 22029/24 RAB03E12 SLP074 53002,PWAK,2018-04-02T17:58:00Z,19.28,166.65,25.0,25.0,210,18,,6.21,29.731298,1007.4,,TRUE,TRUE,,,,,,,FEW,5500,SCT,9500,,,,,VFR,0.2,,,,,,,,,,,METAR,4.0
PAFR 021758Z AUTO 00000KT 10SM CLR M02/M10 A3028 RMK AO2 SLP264 T10251104 11025 21091 58007,PAFR,2018-04-02T17:58:00Z,61.27,-149.65,-2.5,-10.4,0,0,,10.0,30.280512,1026.4,,TRUE,TRUE,,,,,,,CLR,,,,,,,,VFR,-0.7,-2.5,-9.1,,,,,,,,,METAR,115.0
PAFB 021758Z AUTO 00000KT 10SM CLR M14/M20 A3060 RMK AO2 SLP373 T11361196 11121 21219 57010 $,PAFB,2018-04-02T17:58:00Z,64.83,-147.62,-13.6,-19.6,0,0,,10.0,30.59941,1037.3,,TRUE,TRUE,TRUE,,,,,,CLR,,,,,,,,VFR,-1.0,-12.1,-21.9,,,,,,,,,METAR,137.0
KNKT 021758Z 18009KT 7SM FEW060 SCT120 26/16 A2998 RMK SLP148 T02560156,KNKT,2018-04-02T17:58:00Z,34.9,-76.88,25.6,15.6,180,9,,7.0,29.97933,1014.8,,,,,,,,,,FEW,6000,SCT,12000,,,,,VFR,,,,,,,,,,,,SPECI,9.0
KDMA 021758Z AUTO 16010G15KT 10SM CLR 26/M06 A2985 RMK AO2 SLP074 T02571059 10257 20107 55007 $,KDMA,2018-04-02T17:58:00Z,32.17,-110.87,25.7,-5.9,160,10,15,10.0,29.84941,1007.4,,TRUE,TRUE,TRUE,,,,,,CLR,,,,,,,,VFR,-0.7,25.7,10.7,,,,,,,,,SPECI,824.0
KCWN 021758Z AUTO 06003KT 10SM CLR 16/M07 A2956 RMK AO2 SLP890 T01611075 10161 20099 58019 $,KCWN,2018-04-02T17:58:00Z,38.75,-104.85,16.1,-7.5,60,3,,10.0,29.56004,989.0,,TRUE,TRUE,TRUE,,,,,,CLR,,,,,,,,VFR,-1.9,16.1,9.9,,,,,,,,,SPECI,2040.0
KCVS 021758Z AUTO 26016G25KT 10SM FEW200 24/M08 A2978 RMK AO2 PK WND 26031/49 SLP052 T02351076 10235 21003 57021 $,KCVS,2018-04-02T17:58:00Z,34.37,-103.32,23.5,-7.6,260,16,25,10.0,29.778543,1005.2,,TRUE,TRUE,TRUE,,,,,,FEW,20000,,,,,,,VFR,-2.1,23.5,-0.3,,,,,,,,,SPECI,1309.0
K4MR 021758Z AUTO 23014G21KT 10SM CLR 23/M05 A2979 RMK AO2 SLP054 T02291055 10229 21024 57018 $,K4MR,2018-04-02T17:58:00Z,34.3,-103.8,22.9,-5.5,230,14,21,10.0,29.790354,1005.4,,TRUE,TRUE,TRUE,,,,,,CLR,,,,,,,,VFR,-1.8,22.9,-2.4,,,,,,,,,METAR,1326.0
KEUF 021758Z AUTO 23007KT 10SM FEW039 27/14 A3002 RMK AO2 SLP162 T02670144 10267 20139 58016,KEUF,2018-04-02T17:58:00Z,31.95,-85.13,26.7,14.4,230,7,,10.0,30.02067,1016.2,,TRUE,TRUE,,,,,,,FEW,3900,,,,,,,VFR,-1.6,26.7,13.9,,,,,,,,,METAR,87.0
KFCS 021758Z AUTO 22020G29KT 10SM CLR 21/M13 A2953 RMK AO2 PK WND 22031/42 PRESFR SLP989 T02131129 10213 21029 57030 $,KFCS,2018-04-02T17:58:00Z,38.67,-104.77,21.3,-12.9,220,20,29,10.0,29.530512,998.9,,TRUE,TRUE,TRUE,,,,,,CLR,,,,,,,,VFR,-3.0,21.3,-2.9,,,,,,,,,METAR,1789.0
KLUF 021758Z AUTO 17004KT 10SM CLR 26/M06 A2977 RMK AO2 DZB50 SLP070 P0000 60000 T02551060 10256 20137 58003 RVRNO VISNO RWY21 $,KLUF,2018-04-02T17:58:00Z,33.52,-112.37,25.5,-6.0,170,4,,10.0,29.769686,1007.0,,TRUE,TRUE,TRUE,,,,,,CLR,,,,,,,,VFR,-0.3,25.6,13.7,,,0.005,,,,,,SPECI,332.0
KLSV 021758Z AUTO 20006KT 10SM CLR 24/M03 A2972 RMK AO2 SLP046 T02361029 10236 20133 58001,KLSV,2018-04-02T17:58:00Z,36.22,-115.02,23.6,-2.9,200,6,,10.0,29.719488,1004.6,,TRUE,TRUE,,,,,,,CLR,,,,,,,,VFR,-0.1,23.6,13.3,,,,,,,,,METAR,570.0
KHMN 021758Z AUTO 24006G20KT 10SM CLR 25/M15 A2989 RMK AO2 SLP058 T02541148 10258 20110 55009 $,KHMN,2018-04-02T17:58:00Z,32.85,-106.08,25.4,-14.8,240,6,20,10.0,29.890747,1005.8,,TRUE,TRUE,TRUE,,,,,,CLR,,,,,,,,VFR,-0.9,25.8,11.0,,,,,,,,,SPECI,1248.0
KGRF 021758Z AUTO 14007KT 10SM BKN032 OVC042 07/03 A3006 RMK AO2 SLP185 T00720034 10072 20005 52020 RVRNO $,KGRF,2018-04-02T17:58:00Z,47.07,-122.57,7.2,3.4,140,7,,10.0,30.059055,1018.5,,TRUE,TRUE,TRUE,,,,,,BKN,3200,OVC,4200,,,,,VFR,2.0,7.2,0.5,,,,,,,,,METAR,92.0
KFEW 021758Z AUTO 26032G40KT 10SM CLR 18/M09 A2953 RMK AO2 PK WND 27041/02 SLP952 T01801091 10180 21013 57013 $,KFEW,2018-04-02T17:58:00Z,41.13,-104.87,18.0,-9.1,260,32,40,10.0,29.530512,995.2,,TRUE,TRUE,TRUE,,,,,,CLR,,,,,,,,VFR,-1.3,18.0,-1.3,,,,,,,,,METAR,1878.0
K1YT 021758Z AUTO 32014KT 10SM CLR 08/M09 A2990 RMK AO2 SLPNO T00771094 10079 21034 52018 $,K1YT,2018-04-02T17:58:00Z,46.67,-120.45,7.7,-9.4,320,14,,10.0,29.899607,,,TRUE,TRUE,TRUE,,,,,,CLR,,,,,,,,VFR,1.8,7.9,-3.4,,,,,,,,,METAR,438.0
KMUO 021758Z COR 30029G34KT 10SM FEW100 05/M09 A2988 RMK AO2 PK WND 30037/13 SLP123 60006 T00531086 10073 20021 52037 COR 1759,KMUO,2018-04-02T17:58:00Z,43.03,-115.87,5.3,-8.6,300,29,34,10.0,29.878937,1012.3,TRUE,,TRUE,,,,,,,FEW,10000,,,,,,,VFR,3.7,7.3,2.1,,,,,,,,,SPECI,913.0
KSXS 021758Z AUTO 28003KT 9SM FEW042 24/14 A3003 RMK AO2 SLP169 T02430142 10249 20147 58013,KSXS,2018-04-02T17:58:00Z,31.37,-85.85,24.3,14.2,280,3,,9.0,30.029528,1016.9,,TRUE,TRUE,,,,,,,FEW,4200,,,,,,,VFR,-1.3,24.9,14.7,,,,,,,,,SPECI,122.0
KBAB 021758Z AUTO 31008KT 10SM CLR 19/11 A2988 RMK AO2 SLP121 T01880111 10188 20106 52010 $,KBAB,2018-04-02T17:58:00Z,39.12,-121.42,18.8,11.1,310,8,,10.0,29.878937,1012.1,,TRUE,TRUE,TRUE,,,,,,CLR,,,,,,,,VFR,1.0,18.8,10.6,,,,,,,,,METAR,34.0
KAPG 021758Z 05004KT 10SM OVC018 06/02 A3014 RMK AO2A SLP210 60001 T00610021 10061 20028 53001,KAPG,2018-04-02T17:58:00Z,39.47,-76.17,6.1,2.1,50,4,,10.0,30.138779,1021.0,,,TRUE,,,,,,,OVC,1800,,,,,,,MVFR,0.1,6.1,2.8,,,,,,,,,SPECI,18.0
K9L2 021758Z AUTO 25013KT 8SM CLR 24/03 A2977 RMK AO2 SLP063 T02430025 10243 20117 58004 $,K9L2,2018-04-02T17:58:00Z,34.97,-117.87,24.3,2.5,250,13,,8.0,29.769686,1006.3,,TRUE,TRUE,TRUE,,,,,,CLR,,,,,,,,VFR,-0.4,24.3,11.7,,,,,,,,,METAR,701.0
KGOV 021758Z AUTO 25007G15KT 10SM CLR 02/M10 A3001 RMK AO2 SLP187 T00211102 10021 21125 58008 $,KGOV,2018-04-02T17:58:00Z,44.68,-84.73,2.1,-10.2,250,7,15,10.0,30.008858,1018.7,,TRUE,TRUE,TRUE,,,,,,CLR,,,,,,,,VFR,-0.8,2.1,-12.5,,,,,,,,,SPECI,353.0
KBIF 021758Z AUTO 25015G20KT 10SM CLR 24/M09 A2989 RMK AO2 PK WND 20028/35 SLP063 T02441092 10248 20147 58006 $,KBIF,2018-04-02T17:58:00Z,31.85,-106.38,24.4,-9.2,250,15,20,10.0,29.890747,1006.3,,TRUE,TRUE,TRUE,,,,,,CLR,,,,,,,,VFR,-0.6,24.8,14.7,,,,,,,,,METAR,1203.0
KSUU 021758Z AUTO 00000KT 5SM HZ CLR 18/09 A2988 RMK AO2 SLP125 T01800091 10181 20100 51012 $,KSUU,2018-04-02T17:58:00Z,38.27,-121.92,18.0,9.1,0,0,,5.0,29.878937,1012.5,,TRUE,TRUE,TRUE,,,,,HZ,CLR,,,,,,,,MVFR,1.2,18.1,10.0,,,,,,,,,SPECI,19.0
KINS 021758Z AUTO 28005KT 10SM CLR 23/M06 A2975 RMK AO2 SLP035 T02251063 10225 20091 58004 $,KINS,2018-04-02T17:58:00Z,36.58,-115.67,22.5,-6.3,280,5,,10.0,29.749016,1003.5,,TRUE,TRUE,TRUE,,,,,,CLR,,,,,,,,VFR,-0.4,22.5,9.1,,,,,,,,,METAR,955.0
KNYL 021757Z 13007KT 7SM SCT250 26/01 A2975 RMK AO2 SLP072 T02610006 10267 20172 50003,KNYL,2018-04-02T17:57:00Z,32.63,-114.62,26.1,0.6,130,7,,7.0,29.749016,1007.2,,,TRUE,,,,,,,SCT,25000,,,,,,,VFR,0.3,26.7,17.2,,,,,,,,,SPECI,65.0
KCBE 021757Z AUTO 00000KT 10SM BKN013 BKN018 OVC024 06/03 A3016 RMK AO1,KCBE,2018-04-02T17:57:00Z,39.62,-78.77,6.0,3.0,0,0,,10.0,30.159449,,,TRUE,TRUE,,,,,,,BKN,1300,BKN,1800,OVC,2400,,,MVFR,,,,,,,,,,,,SPECI,236.0
KFLG 021757Z 21016G23KT 10SM CLR 14/M09 A2996 RMK AO2 PK WND 22029/1718 SLP075 T01441094 10144 21022 58002,KFLG,2018-04-02T17:57:00Z,35.13,-111.67,14.4,-9.4,210,16,23,10.0,29.958662,1007.5,,,TRUE,,,,,,,CLR,,,,,,,,VFR,-0.2,14.4,-2.2,,,,,,,,,METAR,2134.0
EQYG 021757Z AUTO 04003KT 10SM CLR 13/ A3009 RMK AO2 SLP186 T0128 10183 20117 51010 $ ,EQYG,2018-04-02T17:57:00Z,,,12.8,,40,3,,10.0,30.088583,1018.6,,TRUE,TRUE,TRUE,,,,,,CLR,,,,,,,,VFR,1.0,18.3,11.7,,,,,,,,,METAR,
MMCB 021757Z RTD 18005KT 8SM FEW025 29/10 A3005 RMK 8/100 HZY,MMCB,2018-04-02T17:57:00Z,18.83,-99.27,29.0,10.0,180,5,,8.0,30.050198,,,,,,,,,,,FEW,2500,,,,,,,VFR,,,,,,,,,,,,METAR,1560.0
KNSI 021757Z 32011KT 7SM BKN013 OVC016 16/08 A2992 RMK AO2 SLP127 T01560083 10156 20117 51009 $,KNSI,2018-04-02T17:57:00Z,33.22,-119.45,15.6,8.3,320,11,,7.0,29.920275,1012.7,,,TRUE,TRUE,,,,,,BKN,1300,OVC,1600,,,,,MVFR,0.9,15.6,11.7,,,,,,,,,SPECI,154.0
PHNG 021757Z 20004KT 10SM FEW046 SCT055 23/22 A2984 RMK AO2 RAE35 SLP099 P0000 60025 T02280217 10250 20228 50007 $,PHNG,2018-04-02T17:57:00Z,21.43,-157.77,22.8,21.7,200,4,,10.0,29.840551,1009.9,,,TRUE,TRUE,,,,,,FEW,4600,SCT,5500,,,,,VFR,0.7,25.0,22.8,,,0.005,,0.25,,,,METAR,3.0
KMUI 021757Z 00000KT 10SM OVC017 04/04 A3013 RMK AO2A SLP209 60002 4/001 T00350035 10036 20003 50001 $,KMUI,2018-04-02T17:57:00Z,40.42,-76.57,3.5,3.5,0,0,,10.0,30.129921,1020.9,,,TRUE,TRUE,,,,,,OVC,1700,,,,,,,MVFR,0.1,3.6,0.3,,,,,0.02,,1.0,,METAR,149.0
MMZC 021757Z RTD 24012G22KT 10SM SKC 25/M04 A3018,MMZC,2018-04-02T17:57:00Z,22.9,-102.68,25.0,-4.0,240,12,22,10.0,30.180119,,,,,,,,,,,SKC,,,,,,,,VFR,,,,,,,,,,,,METAR,2177.0
KSDF 021756Z 10008KT 10SM OVC018 08/03 A3006 RMK AO2 SLP182 T00780028 10078 20033 58016,KSDF,2018-04-02T17:56:00Z,38.18,-85.73,7.8,2.8,100,8,,10.0,30.059055,1018.2,,,TRUE,,,,,,,OVC,1800,,,,,,,MVFR,-1.6,7.8,3.3,,,,,,,,,METAR,146.0
KLFI 021756Z AUTO 04020KT 8SM FEW160 11/06 A3007 RMK AO2 SLP189 60000 T01130064 10164 20109 52020,KLFI,2018-04-02T17:56:00Z,37.07,-76.37,11.3,6.4,40,20,,8.0,30.070866,1018.9,,TRUE,TRUE,,,,,,,FEW,16000,,,,,,,VFR,2.0,16.4,10.9,,,,,,,,,SPECI,3.0
KVAD 021756Z AUTO 25010G15KT 10SM FEW047 SCT190 27/14 A3004 RMK AO2 SLP174 T02660137 10266 20126 57015 $,KVAD,2018-04-02T17:56:00Z,30.97,-83.2,26.6,13.7,250,10,15,10.0,30.041338,1017.4,,TRUE,TRUE,TRUE,,,,,,FEW,4700,SCT,19000,,,,,VFR,-1.5,26.6,12.6,,,,,,,,,SPECI,71.0
KFSI 021756Z AUTO 19008KT 10SM OVC011 06/03 A2985 RMK AO2 SLP113 T00600032 10060 20008 57025,KFSI,2018-04-02T17:56:00Z,34.65,-98.4,6.0,3.2,190,8,,10.0,29.84941,1011.3,,TRUE,TRUE,,,,,,,OVC,1100,,,,,,,MVFR,-2.5,6.0,0.8,,,,,,,,,SPECI,362.0
KBOW 021756Z VRB04KT 10SM BKN043 27/17 A3004,KBOW,2018-04-02T17:56:00Z,27.93,-81.77,27.0,17.0,0,4,,10.0,30.041338,,,,,,,,,,,BKN,4300,,,,,,,VFR,,,,,,,,,,,,METAR,39.0
EGUN 021756Z AUTO 20008KT 9999 BKN015 BKN044 OVC065 10/10 A2935 RMK AO2 CIG 015V036 SLP942 60002 T01030103 10112 20100 55010 .,EGUN,2018-04-02T17:56:00Z,52.37,0.47,10.3,10.3,200,8,,6.21,29.350393,994.2,,TRUE,TRUE,,,,,,,BKN,1500,BKN,4400,OVC,6500,,,MVFR,-1.0,11.2,10.0,,,,,0.02,,,,METAR,10.0
PAEI 021756Z 00000KT 10SM CLR M17/M19 A3057 RMK AO2A SLP369 4/024 T11661189 11166 21256 57007 $,PAEI,2018-04-02T17:56:00Z,64.67,-147.1,-16.6,-18.9,0,0,,10.0,30.569881,1036.9,,,TRUE,TRUE,,,,,,CLR,,,,,,,,VFR,-0.7,-16.6,-25.6,,,,,,,24.0,,SPECI,167.0
PHSF 021756Z 25004KT 7SM BKN120 16/07 A3025 RMK SLPNO 5////,PHSF,2018-04-02T17:56:00Z,19.77,-155.55,16.0,7.0,250,4,,7.0,30.250984,,,,,,,,,,,BKN,12000,,,,,,,VFR,,,,,,,,,,,,METAR,1887.0
KNXP 021756Z AUTO 31016KT 10SM CLR 26/M04 A2984 RMK AO2 SLP070 T02561039 10256 20150 58001,KNXP,2018-04-02T17:56:00Z,34.28,-116.17,25.6,-3.9,310,16,,10.0,29.840551,1007.0,,TRUE,TRUE,,,,,,,CLR,,,,,,,,VFR,-0.1,25.6,15.0,,,,,,,,,SPECI,626.0
KNOG 021756Z AUTO 18020G26KT 10SM SCT040 30/19 A2979 RMK AO2 PK WND 19027/1732 SLP067 T03000194 10306 20222 58020,KNOG,2018-04-02T17:56:00Z,27.9,-98.05,30.0,19.4,180,20,26,10.0,29.790354,1006.7,,TRUE,TRUE,,,,,,,SCT,4000,,,,,,,VFR,-2.0,30.6,22.2,,,,,,,,,SPECI,78.0
KSXT 021756Z AUTO 01006KT 10SM SCT017 M01/M03 A3006 RMK AO2 SLP196 I6000 T10111033 11011 21044 51014,KSXT,2018-04-02T17:56:00Z,42.6,-123.37,-1.1,-3.3,10,6,,10.0,30.059055,1019.6,,TRUE,TRUE,,,,,,,SCT,1700,,,,,,,VFR,1.4,-1.1,-4.4,,,,,,,,,SPECI,1170.0
KTBR 021756Z AUTO 23003KT 10SM CLR 27/06 A3002 RMK AO2,KTBR,2018-04-02T17:56:00Z,32.48,-81.73,27.0,6.0,230,3,,10.0,30.02067,,,TRUE,TRUE,,,,,,,CLR,,,,,,,,VFR,,,,,,,,,,,,METAR,57.0
KP60 021756Z AUTO 30007KT M03/M04 A2947 RMK AO1 SLP978 P0011 60030 T10281044 11011 21033 55000 $,KP60,2018-04-02T17:56:00Z,44.55,-110.42,-2.8,-4.4,300,7,,,29.471457,997.8,,TRUE,TRUE,TRUE,,,,,,,,,,,,,,,0.0,-1.1,-3.3,,,0.11,,,,,,SPECI,2388.0
KQBF 021756Z AUTO 00000KT 6000 HZ CLR 38/M04 A2970 RMK AO2 SLPNO WND DATA ESTMD T03771044 10401 20377 53002,KQBF,2018-04-02T17:56:00Z,,,37.7,-4.4,0,0,,3.73,29.698818,,,TRUE,TRUE,,,,,,HZ,CLR,,,,,,,,MVFR,0.2,40.1,37.7,,,,,,,,,METAR,
KSMP 021756Z AUTO VRB06G14KT 9SM FEW013 SCT018 OVC028 M03/M06 A2990 RMK AO2 SLP161 60007 T10331056 11033 21050 53032 $,KSMP,2018-04-02T17:56:00Z,47.28,-121.33,-3.3,-5.6,0,6,14,9.0,29.899607,1016.1,,TRUE,TRUE,TRUE,,,,,,FEW,1300,SCT,1800,OVC,2800,,,MVFR,3.2,-3.3,-5.0,,,,,,,,,SPECI,1208.0
KQHY 021756Z AUTO 18004KT 10SM CLR 24/20 A3006 RMK AO2 SLP186 T02360204 10241 20145 $,KQHY,2018-04-02T17:56:00Z,,,23.6,20.4,180,4,,10.0,30.059055,1018.6,,TRUE,TRUE,TRUE,,,,,,CLR,,,,,,,,VFR,,24.1,14.5,,,,,,,,,METAR,
KQRH 021756Z AUTO 14009G15KT 110V180 9000 M BKN170 BKN230 29/21 A2986 RMK AO2 SLP099 WND DATA ESTMD T02890210 10318 20282 52020 $,KQRH,2018-04-02T17:56:00Z,,,28.9,21.0,140,9,15,5.59,29.861221,1009.9,,TRUE,TRUE,TRUE,,,,,,BKN,17000,BKN,23000,,,,,VFR,2.0,31.8,28.2,,,,,,,,,METAR,
KNQI 021756Z 14015G22KT 10SM SCT044 BKN180 BKN250 30/22 A2979 RMK AO2 SLP084 T03000217 10311 20228 58017,KNQI,2018-04-02T17:56:00Z,27.5,-97.82,30.0,21.7,140,15,22,10.0,29.790354,1008.4,,,TRUE,,,,,,,SCT,4400,BKN,18000,BKN,25000,,,VFR,-1.7,31.1,22.8,,,,,,,,,SPECI,15.0
KNLC 021756Z 36012KT 10SM BKN230 21/07 A2989 RMK AO2 SLP119 RH/41 T02060072 10211 20083 51009,KNLC,2018-04-02T17:56:00Z,36.32,-119.95,20.6,7.2,360,12,,10.0,29.890747,1011.9,,,TRUE,,,,,,,BKN,23000,,,,,,,VFR,0.9,21.1,8.3,,,,,,,,,SPECI,72.0
KCEF 021756Z COR 00000KT 10SM BKN027 BKN200 02/M03 A3010 RMK AO2A SLP201 60015 T00191034 10020 21017 57016 COR 1805,KCEF,2018-04-02T17:56:00Z,42.2,-72.52,1.9,-3.4,0,0,,10.0,30.100393,1020.1,TRUE,,TRUE,,,,,,,BKN,2700,BKN,20000,,,,,MVFR,-1.6,2.0,-1.7,,,,,,,,,SPECI,75.0
KQVF 021756Z AUTO VRB06KT 9999 FEW019 28/25 A2978 RMK AO2 SLPNO WND DATA ESTMD T02770254 10313 20156 52018,KQVF,2018-04-02T17:56:00Z,,,27.7,25.4,0,6,,6.21,29.778543,,,TRUE,TRUE,,,,,,,FEW,1900,,,,,,,VFR,1.8,31.3,15.6,,,,,,,,,METAR,
KNUC 021756Z 33007KT 10SM BKN011 BKN015 OVC022 16/12 A2992 RMK SLP132 T01560117 10156 20144 51009,KNUC,2018-04-02T17:56:00Z,33.02,-118.57,15.6,11.7,330,7,,10.0,29.920275,1013.2,,,,,,,,,,BKN,1100,BKN,1500,OVC,2200,,,MVFR,0.9,15.6,14.4,,,,,,,,,METAR,55.0
KMTC 021756Z 15011KT 10SM FEW200 BKN240 03/M06 A3011 RMK AO2A SLP207 T00291060 10029 21043 58007,KMTC,2018-04-02T17:56:00Z,42.62,-82.82,2.9,-6.0,150,11,,10.0,30.109253,1020.7,,,TRUE,,,,,,,FEW,20000,BKN,24000,,,,,VFR,-0.7,2.9,-4.3,,,,,,,,,METAR,177.0
KWRI 021756Z 04008KT 10SM OVC018 05/00 A3011 RMK AO2A SLP197 60006 T00460004 10046 20004 53001,KWRI,2018-04-02T17:56:00Z,40.02,-74.58,4.6,0.4,40,8,,10.0,30.109253,1019.7,,,TRUE,,,,,,,OVC,1800,,,,,,,MVFR,0.1,4.6,0.4,,,,,0.06,,,,METAR,41.0
KRDR 021756Z 06013KT 10SM FEW160 M07/M15 A2997 RMK AO2A SNB07E12 SLP171 4/004 T10701155 11069 21116 58002 $,KRDR,2018-04-02T17:56:00Z,47.97,-97.4,-7.0,-15.5,60,13,,10.0,29.970472,1017.1,,,TRUE,TRUE,,,,,,FEW,16000,,,,,,,VFR,-0.2,-6.9,-11.6,,,,,,,4.0,,METAR,278.0
KXNO 021756Z AUTO 24009KT 10SM FEW150 FEW210 27/07 M RMK AO2 SLPNO T02680067 10276 20115 $,KXNO,2018-04-02T17:56:00Z,33.62,-81.07,26.8,6.7,240,9,,10.0,,,,TRUE,TRUE,TRUE,,,,,,FEW,15000,FEW,21000,,,,,VFR,,27.6,11.5,,,,,,,,,METAR,98.0
KTDR 021756Z AUTO 21006KT 10SM SCT046 24/19 A3006 RMK AO2 SLP183 T02390186 10244 20158 58008 $,KTDR,2018-04-02T17:56:00Z,30.05,-85.52,23.9,18.6,210,6,,10.0,30.059055,1018.3,,TRUE,TRUE,TRUE,,,,,,SCT,4600,,,,,,,VFR,-0.8,24.4,15.8,,,,,,,,,SPECI,5.0
KSKF 021756Z AUTO 15014KT 10SM FEW034 SCT200 27/19 A2980 RMK AO2 SLP085 T02650194 10268 20202 57015 $,KSKF,2018-04-02T17:56:00Z,29.37,-98.57,26.5,19.4,150,14,,10.0,29.799213,1008.5,,TRUE,TRUE,TRUE,,,,,,FEW,3400,SCT,20000,,,,,VFR,-1.5,26.8,20.2,,,,,,,,,SPECI,210.0
KHST 021756Z AUTO 08007KT 10SM CLR 27/18 A3003 RMK AO2 SLP172 T02690184 10272 20214 58010,KHST,2018-04-02T17:56:00Z,25.47,-80.37,26.9,18.4,80,7,,10.0,30.029528,1017.2,,TRUE,TRUE,,,,,,,CLR,,,,,,,,VFR,-1.0,27.2,21.4,,,,,,,,,SPECI,2.0
KXMR 021756Z AUTO 15010KT 10SM CLR 27/18 A3004 RMK AO2 SLP176 T02700183 10270 20179 58010 FZRANO $,KXMR,2018-04-02T17:56:00Z,28.47,-80.57,27.0,18.3,150,10,,10.0,30.041338,1017.6,,TRUE,TRUE,TRUE,,,TRUE,,,CLR,,,,,,,,VFR,-1.0,27.0,17.9,,,,,,,,,METAR,3.0
KSZL 021756Z 13008KT 3SM -FZDZ BR OVC006 M01/M02 A2989 RMK AO2A SLP134 T10061020 11006 21038 58024 $,KSZL,2018-04-02T17:56:00Z,38.72,-93.53,-0.6,-2.0,130,8,,3.0,29.890747,1013.4,,,TRUE,TRUE,,,,,-FZDZ BR,OVC,600,,,,,,,IFR,-2.4,-0.6,-3.8,,,,,,,,,METAR,265.0
KMGE 021756Z 18009KT 10SM SCT200 BKN250 26/05 A2999 RMK AO2A SLP150 T02570053 10258 20130 58010 $,KMGE,2018-04-02T17:56:00Z,33.92,-84.52,25.7,5.3,180,9,,10.0,29.991142,1015.0,,,TRUE,TRUE,,,,,,SCT,20000,BKN,25000,,,,,VFR,-1.0,25.8,13.0,,,,,,,,,METAR,326.0
OTBH 021756Z 29005KT 9000 HZ SCT120 25/06 A2994 RMK AO2A SLP140 T02460063 10304 20246 52016 $,OTBH,2018-04-02T17:56:00Z,25.12,51.32,24.6,6.3,290,5,,5.59,29.940945,1014.0,,,TRUE,TRUE,,,,,HZ,SCT,12000,,,,,,,VFR,1.6,30.4,24.6,,,,,,,,,SPECI,40.0
MUGM 021756Z COR 14014KT 9999 SCT032 SCT280 29/23 A2994 RMK SLP139 VCSH N AND NE T02940228 10300 20228 58016,MUGM,2018-04-02T17:56:00Z,19.9,-75.2,29.4,22.8,140,14,,6.21,29.940945,1013.9,TRUE,,,,,,,,,SCT,3200,SCT,28000,,,,,VFR,-1.6,30.0,22.8,,,,,,,,,METAR,17.0
KMMT 021756Z 21013G18KT 10SM BKN250 28/08 A2998 RMK AO2A SLP153 T02760079 10276 20135 57016 $,KMMT,2018-04-02T17:56:00Z,33.92,-80.78,27.6,7.9,210,13,18,10.0,29.97933,1015.3,,,TRUE,TRUE,,,,,,BKN,25000,,,,,,,VFR,-1.6,27.6,13.5,,,,,,,,,METAR,77.0
KPAM 021756Z 20009KT 10SM SCT040 24/18 A3006 RMK AO2A SLP182 T02400182 10241 20158 58007 $,KPAM,2018-04-02T17:56:00Z,30.07,-85.57,24.0,18.2,200,9,,10.0,30.059055,1018.2,,,TRUE,TRUE,,,,,,SCT,4000,,,,,,,VFR,-0.7,24.1,15.8,,,,,,,,,METAR,5.0
KSSC 021756Z 21013KT 10SM BKN250 28/09 A2996 RMK AO2A SLP145 T02770085 10280 20143 57013,KSSC,2018-04-02T17:56:00Z,33.97,-80.47,27.7,8.5,210,13,,10.0,29.958662,1014.5,,,TRUE,,,,,,,BKN,25000,,,,,,,VFR,-1.3,28.0,14.3,,,,,,,,,METAR,74.0
KDYS 021756Z AUTO 13008KT 10SM OVC029 09/07 A2985 RMK AO2 CIG 028 RWY34 PRESFR SLP105 60000 T00850065 10085 20039 58026 $,KDYS,2018-04-02T17:56:00Z,32.42,-99.83,8.5,6.5,130,8,,10.0,29.84941,1010.5,,TRUE,TRUE,TRUE,,,,,,OVC,2900,,,,,,,MVFR,-2.6,8.5,3.9,,,,,0.005,,,,METAR,545.0
KHRT 021756Z 18012KT 10SM FEW016 25/20 A3003 RMK AO2A SLP171 T02470202 10251 20131 58005 $,KHRT,2018-04-02T17:56:00Z,30.42,-86.67,24.7,20.2,180,12,,10.0,30.029528,1017.1,,,TRUE,TRUE,,,,,,FEW,1600,,,,,,,VFR,-0.5,25.1,13.1,,,,,,,,,METAR,12.0
KLRF 021756Z 10006KT 3SM BR OVC006 08/07 A2998 RMK AO2A CIG 006 RWY07 SLP156 60000 T00820067 10082 20042 57018,KLRF,2018-04-02T17:56:00Z,34.92,-92.15,8.2,6.7,100,6,,3.0,29.97933,1015.6,,,TRUE,,,,,,BR,OVC,600,,,,,,,IFR,-1.8,8.2,4.2,,,,,0.005,,,,METAR,95.0
KTIK 021756Z AUTO 17007KT 10SM OVC015 07/01 A2984 RMK AO2 CIG 014 RWY13 CIG 014 RWY31 CIG 014 RWY36 SLP118 T00670010 10067 20000 57031,KTIK,2018-04-02T17:56:00Z,35.42,-97.37,6.7,1.0,170,7,,10.0,29.840551,1011.8,,TRUE,TRUE,,,,,,,OVC,1500,,,,,,,MVFR,-3.1,6.7,0.0,,,,,,,,,SPECI,394.0
KLSF 021756Z AUTO 22006KT 10SM CLR 25/12 A3002 RMK AO2 SLP170 T02470123 10247 20078 57014,KLSF,2018-04-02T17:56:00Z,32.32,-84.97,24.7,12.3,220,6,,10.0,30.02067,1017.0,,TRUE,TRUE,,,,,,,CLR,,,,,,,,VFR,-1.4,24.7,7.8,,,,,,,,,SPECI,71.0
KIAB 021756Z AUTO 19013KT 10SM OVC012 03/M02 A2979 RMK AO2 CIG 011 RWY01 PRESFR SLP102 T00281017 10028 21038 57036,KIAB,2018-04-02T17:56:00Z,37.62,-97.27,2.8,-1.7,190,13,,10.0,29.790354,1010.2,,TRUE,TRUE,,,,,,,OVC,1200,,,,,,,MVFR,-3.6,2.8,-3.8,,,,,,,,,SPECI,418.0
KMXF 021756Z AUTO 22005KT 10SM CLR 22/12 A3002 RMK AO2 SLP168 T02160119 10216 20100 58011 $,KMXF,2018-04-02T17:56:00Z,32.37,-86.37,21.6,11.9,220,5,,10.0,30.02067,1016.8,,TRUE,TRUE,TRUE,,,,,,CLR,,,,,,,,VFR,-1.1,21.6,10.0,,,,,,,,,SPECI,51.0
KSVN 021756Z AUTO 20003KT 10SM FEW050 28/15 A2999 RMK AO2 SLP158 T02780148 10281 20150 57019 $,KSVN,2018-04-02T17:56:00Z,32.02,-81.15,27.8,14.8,200,3,,10.0,29.991142,1015.8,,TRUE,TRUE,TRUE,,,,,,FEW,5000,,,,,,,VFR,-1.9,28.1,15.0,,,,,,,,,SPECI,13.0
KTTS 021756Z AUTO 16006KT 10SM FEW080 FEW140 SCT180 SCT200 28/15 A3003 RMK AO2 VIS 1/8 RWY15/33 SLP173 T02780154 10283 20183 57013 $,KTTS,2018-04-02T17:56:00Z,28.62,-80.72,27.8,15.4,160,6,,10.0,30.029528,1017.3,,TRUE,TRUE,TRUE,,,,,,FEW,8000,FEW,14000,SCT,18000,SCT,20000,VFR,-1.3,28.3,18.3,,,,,,,,,SPECI,3.0
KWRB 021756Z 22008KT 10SM BKN190 26/09 A3001 RMK AO2A SLP163 T02630087 10270 20105 57012,KWRB,2018-04-02T17:56:00Z,32.62,-83.58,26.3,8.7,220,8,,10.0,30.008858,1016.3,,,TRUE,,,,,,,BKN,19000,,,,,,,VFR,-1.2,27.0,10.5,,,,,,,,,SPECI,90.0
KPOB 021756Z AUTO 28008G21KT 10SM CLR 27/08 A2995 RMK AO2 SLP144 T02710080 10274 20150 57015 $,KPOB,2018-04-02T17:56:00Z,35.17,-79.02,27.1,8.0,280,8,21,10.0,29.949802,1014.4,,TRUE,TRUE,TRUE,,,,,,CLR,,,,,,,,VFR,-1.5,27.4,15.0,,,,,,,,,SPECI,66.0
KPRN 021756Z AUTO 24008KT 180V280 10SM CLR 25/13 A3002 RMK AO2 SLP161 T02500128 10250 20117 58012,KPRN,2018-04-02T17:56:00Z,31.85,-86.62,25.0,12.8,240,8,,10.0,30.02067,1016.1,,TRUE,TRUE,,,,,,,CLR,,,,,,,,VFR,-1.2,25.0,11.7,,,,,,,,,METAR,138.0
KNGP 021756Z 15020G27KT 10SM FEW010 BKN014 OVC180 26/22 A2983 RMK AO2 PK WND 16027/1739 SLP100 T02610222 10272 20233 58011 $,KNGP,2018-04-02T17:56:00Z,27.68,-97.27,26.1,22.2,150,20,27,10.0,29.828741,1010.0,,,TRUE,TRUE,,,,,,FEW,1000,BKN,1400,OVC,18000,,,MVFR,-1.1,27.2,23.3,,,,,,,,,SPECI,6.0
ETIK 021756Z AUTO 00000KT 9999 FEW095 12/00 A2973 RMK AO2 SLP076 T01200004 10146 20117 57014 $,ETIK,2018-04-02T17:56:00Z,49.47,10.37,12.0,0.4,0,0,,6.21,29.731298,1007.6,,TRUE,TRUE,TRUE,,,,,,FEW,9500,,,,,,,VFR,-1.4,14.6,11.7,,,,,,,,,METAR,325.0
ETIH 021756Z AUTO 00000KT 9999 FEW220 08/03 A2977 RMK AO2 SLP094 T00820031 10134 20081 57010 $,ETIH,2018-04-02T17:56:00Z,49.22,11.82,8.2,3.1,0,0,,6.21,29.769686,1009.4,,TRUE,TRUE,TRUE,,,,,,FEW,22000,,,,,,,VFR,-1.0,13.4,8.1,,,,,,,,,METAR,442.0
ETIC 021756Z AUTO 13003KT 9999 CLR 10/01 A2975 RMK AO2 SLP085 T00970011 10130 20088 57008 $,ETIC,2018-04-02T17:56:00Z,49.7,11.93,9.7,1.1,130,3,,6.21,29.749016,1008.5,,TRUE,TRUE,TRUE,,,,,,CLR,,,,,,,,VFR,-0.8,13.0,8.8,,,,,,,,,METAR,415.0
MMTJ 021756Z 11005KT 7SM OVC026 16/10 A2993 RMK SLP139 52008 962 8/5/,MMTJ,2018-04-02T17:56:00Z,32.53,-116.97,16.0,10.0,110,5,,7.0,29.929134,1013.9,,,,,,,,,,OVC,2600,,,,,,,MVFR,0.8,,,,,,,,,,,METAR,152.0
KFBG 021756Z AUTO 25007KT 10SM FEW150 FEW200 28/08 A2994 RMK AO2 SLP140 60000 T02800078 10280 20154 57014 $,KFBG,2018-04-02T17:56:00Z,35.12,-78.92,28.0,7.8,250,7,,10.0,29.940945,1014.0,,TRUE,TRUE,TRUE,,,,,,FEW,15000,FEW,20000,,,,,VFR,-1.4,28.0,15.4,,,,,,,,,SPECI,74.0
KLTS 021756Z AUTO 20011KT 10SM OVC021 07/M01 A2985 RMK AO2 CIG 020 RWY17L CIG 020 RWY35R SLP114 T00721010 10073 20010 57026 $,KLTS,2018-04-02T17:56:00Z,34.67,-99.27,7.2,-1.0,200,11,,10.0,29.84941,1011.4,,TRUE,TRUE,TRUE,,,,,,OVC,2100,,,,,,,MVFR,-2.6,7.3,1.0,,,,,,,,,SPECI,420.0
KLHW 021756Z AUTO 23009G15KT 10SM FEW200 28/12 M RMK AO2 SLPNO T02800123 10280 20125 $,KLHW,2018-04-02T17:56:00Z,31.87,-81.57,28.0,12.3,230,9,15,10.0,,,,TRUE,TRUE,TRUE,,,,,,FEW,20000,,,,,,,VFR,,28.0,12.5,,,,,,,,,SPECI,14.0
KNSE 021756Z 19014G18KT 10SM SCT036 BKN050 BKN250 27/19 A3003 RMK AO2 SLP155 T02670189 10267 20117 58008 $,KNSE,2018-04-02T17:56:00Z,30.73,-87.02,26.7,18.9,190,14,18,10.0,30.029528,1015.5,,,TRUE,TRUE,,,,,,SCT,3600,BKN,5000,BKN,25000,,,VFR,-0.8,26.7,11.7,,,,,,,,,SPECI,61.0
KFRI 021756Z AUTO 16012G18KT 10SM OVC010 01/M02 A2980 RMK AO2 SLP100 T00071020 10007 21041 57039,KFRI,2018-04-02T17:56:00Z,39.03,-96.77,0.7,-2.0,160,12,18,10.0,29.799213,1010.0,,TRUE,TRUE,,,,,,,OVC,1000,,,,,,,MVFR,-3.9,0.7,-4.1,,,,,,,,,METAR,325.0
KHFF 021756Z AUTO 25010KT 10SM CLR 28/06 A2995 RMK AO2 LTG DSNT E SLP155 T02760060 10280 20144 57014 $,KHFF,2018-04-02T17:56:00Z,35.02,-79.5,27.6,6.0,250,10,,10.0,29.949802,1015.5,,TRUE,TRUE,TRUE,,,,,,CLR,,,,,,,,VFR,-1.4,28.0,14.4,,,,,,,,,SPECI,115.0
KBIX 021756Z AUTO 18008KT 10SM BKN055 25/20 A3003 RMK AO2 SLP172 T02470197 10248 20167 58001,KBIX,2018-04-02T17:56:00Z,30.42,-88.92,24.7,19.7,180,8,,10.0,30.029528,1017.2,,TRUE,TRUE,,,,,,,BKN,5500,,,,,,,VFR,-0.1,24.8,16.7,,,,,,,,,SPECI,10.0
ETEB 021756Z AUTO 14006KT 9999 CLR 11/M01 A2973 RMK AO2 SLP091 T01081007 10127 20104 57015 $,ETEB,2018-04-02T17:56:00Z,49.32,10.62,10.8,-0.7,140,6,,6.21,29.731298,1009.1,,TRUE,TRUE,TRUE,,,,,,CLR,,,,,,,,VFR,-1.5,12.7,10.4,,,,,,,,,METAR,467.0
KQD3 021756Z AUTO 13008KT 9000 M CLR 29/21 A2989 RMK AO2 SLP087 WND DATA ESTMD T02890207 10329 20286 52023 $,KQD3,2018-04-02T17:56:00Z,,,28.9,20.7,130,8,,5.59,29.890747,1008.7,,TRUE,TRUE,TRUE,,,,,,CLR,,,,,,,,VFR,2.3,32.9,28.6,,,,,,,,,METAR,
OAKN 021756Z VRB02KT 4400 DU CLR 24/04 A2988 RMK AO2A SLP066 Q1012 PA3342 DA5253 50008,OAKN,2018-04-02T17:56:00Z,31.5,65.83,24.0,4.0,0,2,,2.73,29.878937,1006.6,,,TRUE,,,,,,DU,CLR,,,,,,,,IFR,0.8,,,,,,,,,,,METAR,1010.0
KCOF 021756Z AUTO 10011KT 10SM CLR 27/21 A3005 RMK AO2 SLP180 T02670205 10267 20211 58010,KCOF,2018-04-02T17:56:00Z,28.23,-80.6,26.7,20.5,100,11,,10.0,30.050198,1018.0,,TRUE,TRUE,,,,,,,CLR,,,,,,,,VFR,-1.0,26.7,21.1,,,,,,,,,SPECI,3.0
KCBM 021756Z AUTO 00000KT 10SM SCT036 BKN200 23/16 A2998 RMK AO2 SLP154 60000 T02330163 10233 20099 58005 TSNO $,KCBM,2018-04-02T17:56:00Z,33.63,-88.45,23.3,16.3,0,0,,10.0,29.97933,1015.4,,TRUE,TRUE,TRUE,,TRUE,,,,SCT,3600,BKN,20000,,,,,VFR,-0.5,23.3,9.9,,,,,,,,,SPECI,67.0
K2DP 021756Z AUTO 28007G14KT 10SM FEW065 26/11 A2995 RMK AO2 LTG DSNT SE SLPNO T02640106 10264 20168 56011 $,K2DP,2018-04-02T17:56:00Z,35.68,-75.9,26.4,10.6,280,7,14,10.0,29.949802,,,TRUE,TRUE,TRUE,,,,,,FEW,6500,,,,,,,VFR,-1.1,26.4,16.8,,,,,,,,,METAR,3.0
KGSB 021756Z AUTO 24011KT 10SM CLR 27/09 A2994 RMK AO2 SLP141 T02730087 10274 20160 57013 $,KGSB,2018-04-02T17:56:00Z,35.32,-77.97,27.3,8.7,240,11,,10.0,29.940945,1014.1,,TRUE,TRUE,TRUE,,,,,,CLR,,,,,,,,VFR,-1.3,27.4,16.0,,,,,,,,,SPECI,33.0
KOZR 021756Z AUTO 20008KT 10SM FEW037 25/15 A3003 RMK AO2 SLP170 T02480154 10251 20151,KOZR,2018-04-02T17:56:00Z,31.28,-85.72,24.8,15.4,200,8,,10.0,30.029528,1017.0,,TRUE,TRUE,,,,,,,FEW,3700,,,,,,,VFR,,25.1,15.1,,,,,,,,,SPECI,93.0
KMOB 021756Z 20010G15KT 10SM BKN030 BKN055 BKN250 26/17 A3003 RMK AO2 SLP166 T02610172 10261 20167 58008,KMOB,2018-04-02T17:56:00Z,30.68,-88.25,26.1,17.2,200,10,15,10.0,30.029528,1016.6,,,TRUE,,,,,,,BKN,3000,BKN,5500,BKN,25000,,,MVFR,-0.8,26.1,16.7,,,,,,,,,METAR,63.0
KMDT 021756Z 00000KT 10SM OVC022 06/01 A3013 RMK AO2 SLP206 60000 T00610011 10061 20011 50001,KMDT,2018-04-02T17:56:00Z,40.2,-76.77,6.1,1.1,0,0,,10.0,30.129921,1020.6,,,TRUE,,,,,,,OVC,2200,,,,,,,MVFR,0.1,6.1,1.1,,,,,0.005,,,,METAR,95.0
KEED 021756Z AUTO 11006KT 10SM CLR 28/M03 A2973 RMK AO2 SLP038 T02831033 10289 20178 50002,KEED,2018-04-02T17:56:00Z,34.77,-114.62,28.3,-3.3,110,6,,10.0,29.731298,1003.8,,TRUE,TRUE,,,,,,,CLR,,,,,,,,VFR,0.2,28.9,17.8,,,,,,,,,METAR,302.0
KIGX 021756Z AUTO 29006KT 10SM FEW120 26/06 A2996 RMK AO2 SLP139 T02610061 10267 20144 56007,KIGX,2018-04-02T17:56:00Z,35.93,-79.07,26.1,6.1,290,6,,10.0,29.958662,1013.9,,TRUE,TRUE,,,,,,,FEW,12000,,,,,,,VFR,-0.7,26.7,14.4,,,,,,,,,METAR,155.0
KINW 021756Z AUTO 23014G25KT 10SM CLR 22/M08 A2986 RMK AO2 PK WND 24027/1712 SLP058 T02221083 10222 20044 58008,KINW,2018-04-02T17:56:00Z,35.03,-110.72,22.2,-8.3,230,14,25,10.0,29.861221,1005.8,,TRUE,TRUE,,,,,,,CLR,,,,,,,,VFR,-0.8,22.2,4.4,,,,,,,,,METAR,1490.0
KISP 021756Z 01006KT 10SM BKN012 OVC065 02/M01 A3010 RMK AO2 SLP194 931027 4/002 933002 60022 T00221006 10022 21006 56009 $,KISP,2018-04-02T17:56:00Z,40.8,-73.1,2.2,-0.6,10,6,,10.0,30.100393,1019.4,,,TRUE,TRUE,,,,,,BKN,1200,OVC,6500,,,,,MVFR,-0.9,2.2,-0.6,,,,,0.22,,2.0,,METAR,43.0
KLCI 021756Z AUTO 34008KT 10SM 04/M07 A3005 RMK AO2 SLP195 60000 T00441072 10050 21006 58021 $,KLCI,2018-04-02T17:56:00Z,43.57,-71.42,4.4,-7.2,340,8,,10.0,30.050198,1019.5,,TRUE,TRUE,TRUE,,,,,,,,,,,,,,,-2.1,5.0,-0.6,,,,,0.005,,,,METAR,166.0
KLBL 021756Z AUTO 18015G22KT 10SM CLR 19/02 A2960 RMK AO2 SLP023 T01940017 10194 21050 58040 TSNO,KLBL,2018-04-02T17:56:00Z,37.03,-100.97,19.4,1.7,180,15,22,10.0,29.601377,1002.3,,TRUE,TRUE,,,TRUE,,,,CLR,,,,,,,,VFR,-4.0,19.4,-5.0,,,,,,,,,SPECI,879.0
KKLS 021756Z AUTO VRB05KT 10SM OVC029 06/03 A3015 RMK AO2 RAB12E42 SLP215 P0000 60009 T00610028 10061 20017 53014,KKLS,2018-04-02T17:56:00Z,46.12,-122.9,6.1,2.8,0,5,,10.0,30.15059,1021.5,,TRUE,TRUE,,,,,,,OVC,2900,,,,,,,MVFR,1.4,6.1,1.7,,,0.005,,0.09,,,,METAR,5.0
KJAX 021756Z 25005KT 10SM BKN035 BKN250 27/17 A3003 RMK AO2 SLP171 T02670167 10272 20144 58013,KJAX,2018-04-02T17:56:00Z,30.5,-81.68,26.7,16.7,250,5,,10.0,30.029528,1017.1,,,TRUE,,,,,,,BKN,3500,BKN,25000,,,,,VFR,-1.3,27.2,14.4,,,,,,,,,METAR,10.0
KHOP 021756Z AUTO 08008KT 10SM OVC009 08/06 A3001 RMK AO2 SLP166 60007 T00750063 10077 20046 57017,KHOP,2018-04-02T17:56:00Z,36.67,-87.5,7.5,6.3,80,8,,10.0,30.008858,1016.6,,TRUE,TRUE,,,,,,,OVC,900,,,,,,,IFR,-1.7,7.7,4.6,,,,,0.07,,,,METAR,174.0
KJXN 021756Z 19006KT 10SM CLR 03/M08 A3008 RMK AO2 SLP197 T00331078 10039 21067 58018,KJXN,2018-04-02T17:56:00Z,42.27,-84.47,3.3,-7.8,190,6,,10.0,30.079725,1019.7,,,TRUE,,,,,,,CLR,,,,,,,,VFR,-1.8,3.9,-6.7,,,,,,,,,METAR,305.0
RKJK 021756Z AUTO 08005KT 10SM FEW041 SCT070 15/15 A3001 RMK AO2 SLP166 T01500150 10158 20131 58004,RKJK,2018-04-02T17:56:00Z,35.9,126.62,15.0,15.0,80,5,,10.0,30.008858,1016.6,,TRUE,TRUE,,,,,,,FEW,4100,SCT,7000,,,,,VFR,-0.4,15.8,13.1,,,,,,,,,METAR,9.0
KMIB 021756Z AUTO 08009KT 10SM FEW160 SCT200 M09/M15 A2991 RMK AO2 SLP168 T10951147 11095 21149 53003 $,KMIB,2018-04-02T17:56:00Z,48.42,-101.33,-9.5,-14.7,80,9,,10.0,29.911417,1016.8,,TRUE,TRUE,TRUE,,,,,,FEW,16000,SCT,20000,,,,,VFR,0.3,-9.5,-14.9,,,,,,,,,METAR,508.0
KNUQ 021756Z 05004KT 10SM CLR 16/10 A2994 RMK AO2 SLP139 T01560100 10161 20100 50002,KNUQ,2018-04-02T17:56:00Z,37.4,-122.05,15.6,10.0,50,4,,10.0,29.940945,1013.9,,,TRUE,,,,,,,CLR,,,,,,,,VFR,0.2,16.1,10.0,,,,,,,,,METAR,12.0
KOFK 021756Z AUTO 15013G23KT 10SM OVC010 M01/M04 A2970 RMK AO2 PRESFR SLP076 T10111044 11011 21056 58022,KOFK,2018-04-02T17:56:00Z,41.98,-97.43,-1.1,-4.4,150,13,23,10.0,29.698818,1007.6,,TRUE,TRUE,,,,,,,OVC,1000,,,,,,,MVFR,-2.2,-1.1,-5.6,,,,,,,,,METAR,470.0
PAKH 021756Z AUTO 10SM CLR 03/M02 A3028 RMK AO2 SLP254 T00331017 10033 21011 52000 $,PAKH,2018-04-02T17:56:00Z,56.93,-154.18,3.3,-1.7,,,,10.0,30.280512,1025.4,,TRUE,TRUE,TRUE,,,,,,CLR,,,,,,,,VFR,0.0,3.3,-1.1,,,,,,,,,METAR,14.0
PAKF 021756Z AUTO VRB06G14KT 10SM OVC016 03/M01 A3016 RMK AO2 SLP213 T00331006 10033 20028 55001,PAKF,2018-04-02T17:56:00Z,54.85,-163.42,3.3,-0.6,0,6,14,10.0,30.159449,1021.3,,TRUE,TRUE,,,,,,,OVC,1600,,,,,,,MVFR,-0.1,3.3,2.8,,,,,,,,,METAR,6.0
PALG 021756Z 07006KT 10SM CLR M03/M10 A3051 RMK AO2 SLP305 11010 21040 57007 PWINO FZRANO TSNO RVRNO,PALG,2018-04-02T17:56:00Z,61.53,-160.33,-3.0,-10.0,70,6,,10.0,30.510826,1030.5,,,TRUE,,,TRUE,TRUE,TRUE,,CLR,,,,,,,,VFR,-0.7,-1.0,-4.0,,,,,,,,,SPECI,17.0
PAKI 021756Z AUTO 04021KT 10SM CLR M06/M08 A3039 RMK AO2 SLP294 T10561083 11044 21061 56007 FZRANO,PAKI,2018-04-02T17:56:00Z,59.93,-164.03,-5.6,-8.3,40,21,,10.0,30.389763,1029.4,,TRUE,TRUE,,,,TRUE,,,CLR,,,,,,,,VFR,-0.7,-4.4,-6.1,,,,,,,,,SPECI,4.0
PANW 021756Z AUTO 01013G18KT 10SM CLR M03/M07 A3038 RMK AO2 SLP304 T10281072 11017 21033 55006 FZRANO,PANW,2018-04-02T17:56:00Z,59.45,-157.37,-2.8,-7.2,10,13,18,10.0,30.380905,1030.4,,TRUE,TRUE,,,,TRUE,,,CLR,,,,,,,,VFR,-0.6,-1.7,-3.3,,,,,,,,,SPECI,92.0
PAMK 021756Z AUTO 06010KT 10SM CLR M04/M08 A3063 RMK AO2 SLP376 T10441083 11044 21067 58011 FZRANO $,PAMK,2018-04-02T17:56:00Z,63.48,-162.12,-4.4,-8.3,60,10,,10.0,30.628937,1037.6,,TRUE,TRUE,TRUE,,,TRUE,,,CLR,,,,,,,,VFR,-1.1,-4.4,-6.7,,,,,,,,,SPECI,28.0
PAMH 021756Z VRB03KT 10SM CLR M04/M16 A3056 RMK AO2 SLP301 11030 21060 57007 PWINO FZRANO RVRNO,PAMH,2018-04-02T17:56:00Z,63.9,-152.32,-4.0,-16.0,0,3,,10.0,30.561024,1030.1,,,TRUE,,,,TRUE,TRUE,,CLR,,,,,,,,VFR,-0.7,-3.0,-6.0,,,,,,,,,SPECI,214.0
PAMB 021756Z AUTO 04019G24KT 10SM CLR M01/M06 A3036 RMK AO2 SLP289 T10111061 10011 21017 55003 FZRANO $,PAMB,2018-04-02T17:56:00Z,58.98,-159.05,-1.1,-6.1,40,19,24,10.0,30.360237,1028.9,,TRUE,TRUE,TRUE,,,TRUE,,,CLR,,,,,,,,VFR,-0.3,1.1,-1.7,,,,,,,,,SPECI,16.0
KRDM 021756Z 27015G20KT 10SM SCT046 BKN055 04/M06 A3002 RMK AO2 SLP174 T00391061 10044 21028 52017,KRDM,2018-04-02T17:56:00Z,44.25,-121.15,3.9,-6.1,270,15,20,10.0,30.02067,1017.4,,,TRUE,,,,,,,SCT,4600,BKN,5500,,,,,VFR,1.7,4.4,-2.8,,,,,,,,,METAR,938.0
PAOU 021756Z AUTO 10SM CLR 02/01 A3019 RMK AO2 SLP223 T00220011 10022 21006 56004 FZRANO $,PAOU,2018-04-02T17:56:00Z,56.0,-161.17,2.2,1.1,,,,10.0,30.188976,1022.3,,TRUE,TRUE,TRUE,,,TRUE,,,CLR,,,,,,,,VFR,-0.4,2.2,-0.6,,,,,,,,,SPECI,4.0
PAOO 021756Z AUTO 35017KT 9SM CLR M03/M08 A3047 RMK AO2 PK WND 35031/1658 SLP330 T10281078 10006 21028 58001 FZRANO,PAOO,2018-04-02T17:56:00Z,60.53,-165.12,-2.8,-7.8,350,17,,9.0,30.469488,1033.0,,TRUE,TRUE,,,,TRUE,,,CLR,,,,,,,,VFR,-0.1,0.6,-2.8,,,,,,,,,SPECI,18.0
RJTY 021756Z AUTO 03006KT 10SM OVC014 13/10 A3014 RMK AO2 SLP208 T01330103 10159 20133 58007 FZRANO $,RJTY,2018-04-02T17:56:00Z,35.75,139.33,13.3,10.3,30,6,,10.0,30.138779,1020.8,,TRUE,TRUE,TRUE,,,TRUE,,,OVC,1400,,,,,,,MVFR,-0.7,15.9,13.3,,,,,,,,,METAR,139.0
KELZ 021756Z AUTO VRB05KT 10SM CLR 05/M08 A3003 RMK AO2 SLP189 T00501083 10056 21028 58008 $,KELZ,2018-04-02T17:56:00Z,42.1,-77.98,5.0,-8.3,0,5,,10.0,30.029528,1018.9,,TRUE,TRUE,TRUE,,,,,,CLR,,,,,,,,VFR,-0.8,5.6,-2.8,,,,,,,,,METAR,646.0
PAPM 021756Z AUTO 04005KT 10SM CLR M01/M05 A3035 RMK AO2 SLP281 T10061050 11006 21033 58001 FZRANO,PAPM,2018-04-02T17:56:00Z,59.02,-161.82,-0.6,-5.0,40,5,,10.0,30.351377,1028.1,,TRUE,TRUE,,,,TRUE,,,CLR,,,,,,,,VFR,-0.1,-0.6,-3.3,,,,,,,,,SPECI,5.0
PAPH 021756Z AUTO 03006KT 10SM CLR M01/M02 A3025 RMK AO2 SLP248 T10111022 11011 21056 58000 FZRANO,PAPH,2018-04-02T17:56:00Z,56.95,-158.62,-1.1,-2.2,30,6,,10.0,30.250984,1024.8,,TRUE,TRUE,,,,TRUE,,,CLR,,,,,,,,VFR,0.0,-1.1,-5.6,,,,,,,,,SPECI,29.0
PAPG 021756Z 05004KT 10SM FEW045 SCT065 03/M06 A2992 RMK AO2 SLP135 VCSH T00281056 10028 21028 56004,PAPG,2018-04-02T17:56:00Z,56.82,-132.97,2.8,-5.6,50,4,,10.0,29.920275,1013.5,,,TRUE,,,,,,,FEW,4500,SCT,6500,,,,,VFR,-0.4,2.8,-2.8,,,,,,,,,SPECI,15.0
PARS 021756Z AUTO 05004KT 10SM CLR M03/M10 A3055 RMK AO2 SLP349 T10331100 11011 21044 55003 FZRANO $,PARS,2018-04-02T17:56:00Z,61.77,-161.32,-3.3,-10.0,50,4,,10.0,30.549213,1034.9,,TRUE,TRUE,TRUE,,,TRUE,,,CLR,,,,,,,,VFR,-0.3,-1.1,-4.4,,,,,,,,,SPECI,16.0
PARC 021756Z AUTO 34003KT 9SM CLR M22/M27 A3048 RMK AO2 SLP408 T12221272 11200 21306 58012 FZRANO,PARC,2018-04-02T17:56:00Z,68.12,-145.58,-22.2,-27.2,340,3,,9.0,30.481298,1040.8,,TRUE,TRUE,,,,TRUE,,,CLR,,,,,,,,VFR,-1.2,-20.0,-30.6,,,,,,,,,SPECI,636.0
PAPO 021756Z AUTO 15010KT 10SM CLR M10/M12 A3066 RMK AO2 SLP381 T11001122 11100 21111 56013 FZRANO,PAPO,2018-04-02T17:56:00Z,68.35,-166.8,-10.0,-12.2,150,10,,10.0,30.661417,1038.1,,TRUE,TRUE,,,,TRUE,,,CLR,,,,,,,,VFR,-1.3,-10.0,-11.1,,,,,,,,,SPECI,6.0
KRYM 021756Z AUTO 15003KT 7/8SM -SHRASN OVC017 M03/M05 A2993 RMK AO2 RAE1659SHRAB1659E30SHSNB30E35 SLP161 T10331049 11027 21120 53002 PWINO FZRANO $,KRYM,2018-04-02T17:56:00Z,,,-3.3,-4.9,150,3,,0.88,29.929134,1016.1,,TRUE,TRUE,TRUE,,,TRUE,TRUE,-SHRA -SHSN,OVC,1700,,,,,,,LIFR,0.2,-2.7,-12.0,,,,,,,,,SPECI,
PASK 021756Z AUTO 06004KT 10SM CLR M16/M17 A3071 RMK AO2 SLP398 T11561172 11133 21183 58012 FZRANO $,PASK,2018-04-02T17:56:00Z,66.6,-160.0,-15.6,-17.2,60,4,,10.0,30.708662,1039.8,,TRUE,TRUE,TRUE,,,TRUE,,,CLR,,,,,,,,VFR,-1.2,-13.3,-18.3,,,,,,,,,SPECI,8.0
PASD 021756Z VRB03KT 10SM FEW018 FEW042 SCT080 02/01 A3022 RMK AO2 SLP236 T00170006 10017 21017 55000,PASD,2018-04-02T17:56:00Z,55.33,-160.5,1.7,0.6,0,3,,10.0,30.221457,1023.6,,,TRUE,,,,,,,FEW,1800,FEW,4200,SCT,8000,,,VFR,0.0,1.7,-1.7,,,,,,,,,SPECI,7.0
PASA 021756Z AUTO 08007KT 6SM BR SCT001 M04/M06 A3069 RMK AO2 SNE00 SLP394 P0000 60000 T10441056 11033 21056 58006 FZRANO $,PASA,2018-04-02T17:56:00Z,63.68,-170.5,-4.4,-5.6,80,7,,6.0,30.690945,1039.4,,TRUE,TRUE,TRUE,,,TRUE,,BR,SCT,100,,,,,,,VFR,-0.6,-3.3,-5.6,,,0.005,,,,,,SPECI,16.0
PARY 021756Z AUTO 00000KT 10SM CLR M09/M14 A3061 RMK AO2 SLP398 T10891139 11061 21122 58008 FZRANO,PARY,2018-04-02T17:56:00Z,64.73,-155.47,-8.9,-13.9,0,0,,10.0,30.611221,1039.8,,TRUE,TRUE,,,,TRUE,,,CLR,,,,,,,,VFR,-0.8,-6.1,-12.2,,,,,,,,,SPECI,199.0
PATG 021756Z AUTO 36008KT 10SM CLR M03/M09 A3037 RMK AO2 SLP384 T10331089 10006 21061 56001 FZRANO,PATG,2018-04-02T17:56:00Z,59.05,-160.38,-3.3,-8.9,360,8,,10.0,30.369095,1038.4,,TRUE,TRUE,,,,TRUE,,,CLR,,,,,,,,VFR,-0.1,0.6,-6.1,,,,,,,,,SPECI,4.0
PATE 021756Z AUTO 16005KT 8SM CLR M07/M11 A3065 RMK AO2 SLP390 T10671106 11061 21083 56009 FZRANO,PATE,2018-04-02T17:56:00Z,65.23,-166.33,-6.7,-10.6,160,5,,8.0,30.649607,1039.0,,TRUE,TRUE,,,,TRUE,,,CLR,,,,,,,,VFR,-0.9,-6.1,-8.3,,,,,,,,,SPECI,90.0
PASX 021756Z AUTO 02007G15KT 10SM CLR 01/M11 A3037 RMK AO2 SLP296 T00111111 10011 21017 58006 FZRANO,PASX,2018-04-02T17:56:00Z,60.48,-151.03,1.1,-11.1,20,7,15,10.0,30.369095,1029.6,,TRUE,TRUE,,,,TRUE,,,CLR,,,,,,,,VFR,-0.6,1.1,-1.7,,,,,,,,,SPECI,32.0
PAVC 021756Z AUTO 06011KT 10SM SCT018 02/M01 A3019 RMK AO2 SLP230 T00221006 10022 20011 52004 PWINO FZRANO,PAVC,2018-04-02T17:56:00Z,55.12,-162.27,2.2,-0.6,60,11,,10.0,30.188976,1023.0,,TRUE,TRUE,,,,TRUE,TRUE,,SCT,1800,,,,,,,VFR,0.4,2.2,1.1,,,,,,,,,METAR,47.0
PAVA 021756Z AUTO 36007KT 10SM CLR M05/M09 A3057 RMK AO2 SLP441 T10501094 11022 21056 55001 FZRANO,PAVA,2018-04-02T17:56:00Z,61.53,-165.6,-5.0,-9.4,360,7,,10.0,30.569881,1044.1,,TRUE,TRUE,,,,TRUE,,,CLR,,,,,,,,VFR,-0.1,-2.2,-5.6,,,,,,,,,METAR,23.0
PAUN 021756Z AUTO 07012KT 10SM CLR M06/M14 A3064 RMK AO2 SLP381 T10611139 11050 21083 58010 FZRANO,PAUN,2018-04-02T17:56:00Z,63.88,-160.8,-6.1,-13.9,70,12,,10.0,30.640747,1038.1,,TRUE,TRUE,,,,TRUE,,,CLR,,,,,,,,VFR,-1.0,-5.0,-8.3,,,,,,,,,SPECI,6.0
PAVD 021756Z 33014G20KT 10SM FEW075 02/M15 A3032 RMK AO2 PK WND 08027/1713 SLP292 1751Z WEA: NONE PK WND 07033/1656 TWR WND VRB05KT 6//// T00221150 10033 20017 55000 $,PAVD,2018-04-02T17:56:00Z,61.13,-146.25,2.2,-15.0,330,14,20,10.0,30.318897,1029.2,,,TRUE,TRUE,,,,,,FEW,7500,,,,,,,VFR,0.0,3.3,1.7,,,,,,,,,SPECI,37.0
PAWM 021756Z AUTO 01006KT 10SM CLR M07/M13 A3065 RMK AO2 SLP386 T10671133 11056 21083 56011 FZRANO,PAWM,2018-04-02T17:56:00Z,64.68,-163.42,-6.7,-13.3,10,6,,10.0,30.649607,1038.6,,TRUE,TRUE,,,,TRUE,,,CLR,,,,,,,,VFR,-1.1,-5.6,-8.3,,,,,,,,,METAR,82.0
PAWN 021756Z AUTO 00000KT 10SM SCT039 M13/M17 A3071 RMK AO2 SLP415 T11331167 11089 21156 56009 FZRANO $,PAWN,2018-04-02T17:56:00Z,67.57,-162.98,-13.3,-16.7,0,0,,10.0,30.708662,1041.5,,TRUE,TRUE,TRUE,,,TRUE,,,SCT,3900,,,,,,,VFR,-0.9,-8.9,-15.6,,,,,,,,,SPECI,30.0
PAWS 021756Z AUTO 05015G26KT 10SM CLR 01/M13 A3034 RMK AO2 PK WND 06028/1730 SLP289 T00061133 10011 20000 55003 FZRANO,PAWS,2018-04-02T17:56:00Z,61.57,-149.53,0.6,-13.3,50,15,26,10.0,30.339567,1028.9,,TRUE,TRUE,,,,TRUE,,,CLR,,,,,,,,VFR,-0.3,1.1,0.0,,,,,,,,,SPECI,107.0
PFKT 021756Z AUTO 09005KT 10SM CLR M08/M13 A3068 RMK AO2 SLP391 T10781128 11056 21089 56011 FZRANO,PFKT,2018-04-02T17:56:00Z,65.33,-166.47,-7.8,-12.8,90,5,,10.0,30.679134,1039.1,,TRUE,TRUE,,,,TRUE,,,CLR,,,,,,,,VFR,-1.1,-5.6,-8.9,,,,,,,,,METAR,9.0
PFYU 021756Z 00000KT 10SM CLR M10/M21 A3063 RMK AO2 SLP403 T11001211 11100 21172 $,PFYU,2018-04-02T17:56:00Z,66.57,-145.27,-10.0,-21.1,0,0,,10.0,30.628937,1040.3,,,TRUE,TRUE,,,,,,CLR,,,,,,,,VFR,,-10.0,-17.2,,,,,,,,,SPECI,131.0
PPIZ 021756Z AUTO 13004KT 10SM CLR M10/M13 A3066 RMK AO2 SLP386 T11001128 11094 21122 56013 FZRANO TSNO,PPIZ,2018-04-02T17:56:00Z,69.73,-163.0,-10.0,-12.8,130,4,,10.0,30.661417,1038.6,,TRUE,TRUE,,,TRUE,TRUE,,,CLR,,,,,,,,VFR,-1.3,-9.4,-12.2,,,,,,,,,METAR,8.0
PABL 021756Z AUTO 15006KT 10SM CLR M14/M17 A3070 RMK AO2 SLP399 T11441167 11144 21161 58015 FZRANO,PABL,2018-04-02T17:56:00Z,65.98,-161.15,-14.4,-16.7,150,6,,10.0,30.699802,1039.9,,TRUE,TRUE,,,,TRUE,,,CLR,,,,,,,,VFR,-1.5,-14.4,-16.1,,,,,,,,,SPECI,7.0
PADL 021756Z 36013KT 10SM CLR M01/M07 A3037 RMK AO2 SLP290 6//// T10061067 10011 21011 56007 PNO $,PADL,2018-04-02T17:56:00Z,59.05,-158.5,-0.6,-6.7,360,13,,10.0,30.369095,1029.0,,,TRUE,TRUE,,,,,,CLR,,,,,,,,VFR,-0.7,1.1,-1.1,,,,,,,,,SPECI,26.0
PADU 021756Z 11014G28KT 6SM -RA BR BKN013 OVC019 06/02 A3004 RMK AO2 PK WND 09034/1724 RAB01 SLP176 VIS NE 2 1/2 NW 4 BLK WTR NE-E MH P0001 60002 T00560022 10056 20044 56004,PADU,2018-04-02T17:56:00Z,53.9,-166.53,5.6,2.2,110,14,28,6.0,30.041338,1017.6,,,TRUE,,,,,,-RA BR,BKN,1300,OVC,1900,,,,,MVFR,-0.4,5.6,4.4,,,0.01,,,,,,SPECI,4.0
PADM 021756Z AUTO 05013KT 10SM CLR M04/M10 A3057 RMK AO2 SLP360 T10441100 11011 21056 56004 FZRANO,PADM,2018-04-02T17:56:00Z,61.87,-162.03,-4.4,-10.0,50,13,,10.0,30.569881,1036.0,,TRUE,TRUE,,,,TRUE,,,CLR,,,,,,,,VFR,-0.4,-1.1,-5.6,,,,,,,,,SPECI,31.0
PAEM 021756Z AUTO 04009KT 10SM CLR M07/M08 A3063 RMK AO2 SLP433 T10671078 11067 21100 50000 FZRANO,PAEM,2018-04-02T17:56:00Z,62.78,-164.48,-6.7,-7.8,40,9,,10.0,30.628937,1043.3,,TRUE,TRUE,,,,TRUE,,,CLR,,,,,,,,VFR,0.0,-6.7,-10.0,,,,,,,,,SPECI,3.0
PAGA 021756Z AUTO 31003KT 10SM CLR M12/M15 A3067 RMK AO2 SLP391 T11171150 11106 21144 58009 FZRANO,PAGA,2018-04-02T17:56:00Z,64.73,-156.93,-11.7,-15.0,310,3,,10.0,30.670275,1039.1,,TRUE,TRUE,,,,TRUE,,,CLR,,,,,,,,VFR,-0.9,-10.6,-14.4,,,,,,,,,METAR,46.0
PAGH 021756Z AUTO 13004KT 10SM OVC060 M14/M17 A3069 RMK AO2 SLP404 T11391167 11139 21178 58014 FZRANO,PAGH,2018-04-02T17:56:00Z,66.88,-157.17,-13.9,-16.7,130,4,,10.0,30.690945,1040.4,,TRUE,TRUE,,,,TRUE,,,OVC,6000,,,,,,,VFR,-1.4,-13.9,-17.8,,,,,,,,,SPECI,60.0
PAGS 021756Z AUTO 35012G16KT 10SM BKN090 OVC100 02/M15 A3004 RMK AO2 SLP173 T00171150 10017 20000 55003 FZRANO,PAGS,2018-04-02T17:56:00Z,58.42,-135.73,1.7,-15.0,350,12,16,10.0,30.041338,1017.3,,TRUE,TRUE,,,,TRUE,,,BKN,9000,OVC,10000,,,,,VFR,-0.3,1.7,0.0,,,,,,,,,SPECI,9.0
PAHL 021756Z AUTO 00000KT 10SM CLR M13/M15 A3067 RMK AO2 SLP397 T11331150 11133 21161 56013 FZRANO,PAHL,2018-04-02T17:56:00Z,65.7,-156.35,-13.3,-15.0,0,0,,10.0,30.670275,1039.7,,TRUE,TRUE,,,,TRUE,,,CLR,,,,,,,,VFR,-1.3,-13.3,-16.1,,,,,,,,,SPECI,65.0
PAHY 021756Z AUTO 10SM CLR 03/M01 A2988 RMK AO2 SLP220 T00331011 10039 21011 56008 $,PAHY,2018-04-02T17:56:00Z,55.2,-132.83,3.3,-1.1,,,,10.0,29.878937,1022.0,,TRUE,TRUE,TRUE,,,,,,CLR,,,,,,,,VFR,-0.8,3.9,-1.1,,,,,,,,,SPECI,1.0
PAIG 021756Z AUTO 03008KT 10SM CLR M05/M07 A3036 RMK AO2 SLP291 T10501072 11028 21061 58004 FZRANO $,PAIG,2018-04-02T17:56:00Z,59.32,-155.9,-5.0,-7.2,30,8,,10.0,30.360237,1029.1,,TRUE,TRUE,TRUE,,,TRUE,,,CLR,,,,,,,,VFR,-0.4,-2.8,-6.1,,,,,,,,,SPECI,28.0
PAIK 021756Z AUTO 07003KT 10SM BKN060 M10/M16 A3071 RMK AO2 SLP406 T11001156 11089 21122 56009 FZRANO,PAIK,2018-04-02T17:56:00Z,66.98,-160.43,-10.0,-15.6,70,3,,10.0,30.708662,1040.6,,TRUE,TRUE,,,,TRUE,,,BKN,6000,,,,,,,VFR,-0.9,-8.9,-12.2,,,,,,,,,SPECI,51.0
PAIN 021756Z AUTO 01006KT 10SM CLR M05/M12 A3045 RMK AO2 SLP354 T10501117 11050 21133 58009 FZRANO,PAIN,2018-04-02T17:56:00Z,63.73,-148.92,-5.0,-11.7,10,6,,10.0,30.448818,1035.4,,TRUE,TRUE,,,,TRUE,,,CLR,,,,,,,,VFR,-0.9,-5.0,-13.3,,,,,,,,,SPECI,524.0
PHNY 021756Z AUTO 17015KT 10SM BKN005 OVC009 22/21 A2995 RMK AO2 SLP124 T02170206 10217 20206 51009,PHNY,2018-04-02T17:56:00Z,20.77,-156.93,21.7,20.6,170,15,,10.0,29.949802,1012.4,,TRUE,TRUE,,,,,,,BKN,500,OVC,900,,,,,IFR,0.9,21.7,20.6,,,,,,,,,SPECI,399.0
PAJZ 021756Z AUTO 01012KT 8SM CLR M03/M07 A3044 RMK AO2 SLP318 T10281072 11011 21033 55003 FZRANO $,PAJZ,2018-04-02T17:56:00Z,59.73,-157.27,-2.8,-7.2,10,12,,8.0,30.43996,1031.8,,TRUE,TRUE,TRUE,,,TRUE,,,CLR,,,,,,,,VFR,-0.3,-1.1,-3.3,,,,,,,,,SPECI,82.0
PAIW 021756Z AUTO 21009KT 10SM CLR M06/M09 A3068 RMK AO2 SLP391 T10561094 11056 21078 56009 FZRANO,PAIW,2018-04-02T17:56:00Z,65.62,-168.1,-5.6,-9.4,210,9,,10.0,30.679134,1039.1,,TRUE,TRUE,,,,TRUE,,,CLR,,,,,,,,VFR,-0.9,-5.6,-7.8,,,,,,,,,SPECI,7.0
PMDY 021756Z AUTO 34008KT 10SM 17/12 A2985 RMK AO2 SLP109 T01720122 10178 20172 53011,PMDY,2018-04-02T17:56:00Z,28.22,-177.37,17.2,12.2,340,8,,10.0,29.84941,1010.9,,TRUE,TRUE,,,,,,,,,,,,,,,,1.1,17.8,17.2,,,,,,,,,METAR,4.0
KNDZ 021756Z 17012KT 10SM FEW031 SCT045 BKN250 26/19 A3003 RMK AO2 SLP156 T02610189 10267 20128 58007 $,KNDZ,2018-04-02T17:56:00Z,30.7,-87.02,26.1,18.9,170,12,,10.0,30.029528,1015.6,,,TRUE,TRUE,,,,,,FEW,3100,SCT,4500,BKN,25000,,,VFR,-0.7,26.7,12.8,,,,,,,,,METAR,54.0
K79J 021756Z AUTO 25007KT 220V290 10SM SCT046 28/15 A3002 RMK AO2 SLP162 T02780150 10278 20144 58013,K79J,2018-04-02T17:56:00Z,31.32,-86.4,27.8,15.0,250,7,,10.0,30.02067,1016.2,,TRUE,TRUE,,,,,,,SCT,4600,,,,,,,VFR,-1.3,27.8,14.4,,,,,,,,,SPECI,94.0
KNPA 021756Z 18012KT 10SM SCT017 BKN250 26/19 A3003 RMK AO2 SLP172 T02560189 10256 20139 58003 $,KNPA,2018-04-02T17:56:00Z,30.35,-87.32,25.6,18.9,180,12,,10.0,30.029528,1017.2,,,TRUE,TRUE,,,,,,SCT,1700,BKN,25000,,,,,VFR,-0.3,25.6,13.9,,,,,,,,,METAR,9.0
KGNA 021756Z AUTO 17004KT M03/M09 A2998 RMK AO1 SLP168 T10331094 11022 21072 53006,KGNA,2018-04-02T17:56:00Z,47.75,-90.35,-3.3,-9.4,170,4,,,29.97933,1016.8,,TRUE,TRUE,,,,,,,,,,,,,,,,0.6,-2.2,-7.2,,,,,,,,,METAR,185.0
KMHS 021756Z AUTO 30009G20KT 240V340 10SM CLR 08/M04 A2999 RMK AO2 SLP171 T00781044 10083 20056 51028,KMHS,2018-04-02T17:56:00Z,41.32,-122.32,7.8,-4.4,300,9,20,10.0,29.991142,1017.1,,TRUE,TRUE,,,,,,,CLR,,,,,,,,VFR,2.8,8.3,5.6,,,,,,,,,METAR,1078.0
KGNR 021756Z AUTO 33006KT 00/M11 A2997 RMK AO1 SLP168 T00001111 10000 21050 56017,KGNR,2018-04-02T17:56:00Z,45.47,-69.55,0.0,-11.1,330,6,,,29.970472,1016.8,,TRUE,TRUE,,,,,,,,,,,,,,,,-1.7,0.0,-5.0,,,,,,,,,METAR,427.0
KNRS 021756Z 17006KT 10SM SCT020 OVC029 16/11 A2992 RMK AO2 SLP130 T01610111 10161 20144 51006 PNO $,KNRS,2018-04-02T17:56:00Z,32.57,-117.12,16.1,11.1,170,6,,10.0,29.920275,1013.0,,,TRUE,TRUE,,,,,,SCT,2000,OVC,2900,,,,,MVFR,0.6,16.1,14.4,,,,,,,,,METAR,7.0
KALK 021756Z AUTO 23017KT 10SM CLR 22/M09 A2996 RMK AO2 PK WND 23029/1725 SLP065 T02221094 10222 20089 58006,KALK,2018-04-02T17:56:00Z,31.6,-110.43,22.2,-9.4,230,17,,10.0,29.958662,1006.5,,TRUE,TRUE,,,,,,,CLR,,,,,,,,VFR,-0.6,22.2,8.9,,,,,,,,,METAR,1453.0
PADG 021756Z 00000KT 15SM FEW040 SCT060 M10/M16 A3063,PADG,2018-04-02T17:56:00Z,68.03,-162.9,-10.0,-16.0,0,0,,15.0,30.628937,,,,,,,,,,,FEW,4000,SCT,6000,,,,,VFR,,,,,,,,,,,,SPECI,297.0
KNFE 021756Z AUTO 01018G25KT 10SM CLR 14/06 A3004 RMK AO2 SLP175 60000 T01390061 10211 20139 51020,KNFE,2018-04-02T17:56:00Z,36.7,-76.13,13.9,6.1,10,18,25,10.0,30.041338,1017.5,,TRUE,TRUE,,,,,,,CLR,,,,,,,,VFR,2.0,21.1,13.9,,,,,0.005,,,,METAR,5.0
KNCA 021756Z AUTO VRB05KT 10SM CLR 28/10 A2996 RMK AO2 SLP148 T02780100 10283 20161 58017,KNCA,2018-04-02T17:56:00Z,34.72,-77.45,27.8,10.0,0,5,,10.0,29.958662,1014.8,,TRUE,TRUE,,,,,,,CLR,,,,,,,,VFR,-1.7,28.3,16.1,,,,,,,,,SPECI,8.0
KAQV 021756Z AUTO 18009KT 10SM SCT035 BKN047 BKN055 26/16 A2992 RMK AO2 SLP127 T02560161 10256 20178 58017,KAQV,2018-04-02T17:56:00Z,31.4,-93.3,25.6,16.1,180,9,,10.0,29.920275,1012.7,,TRUE,TRUE,,,,,,,SCT,3500,BKN,4700,BKN,5500,,,VFR,-1.7,25.6,17.8,,,,,,,,,SPECI,111.0
KNMM 021756Z 22007G15KT 10SM SCT040 24/14 A3001 RMK AO2 SLP170 T02440139 10250 20150 58006 CHINO SOUTH $,KNMM,2018-04-02T17:56:00Z,32.53,-88.57,24.4,13.9,220,7,15,10.0,30.008858,1017.0,,,TRUE,TRUE,,,,,,SCT,4000,,,,,,,VFR,-0.6,25.0,15.0,,,,,,,,,SPECI,97.0
K8D3 021756Z AUTO 14013KT M02/M03 A2978 RMK AO1 SLP111 P0001 60007 T10171028 11011 21028 58004,K8D3,2018-04-02T17:56:00Z,45.67,-96.98,-1.7,-2.8,140,13,,,29.778543,1011.1,,TRUE,TRUE,,,,,,,,,,,,,,,,-0.4,-1.1,-2.8,,,0.01,,0.07,,,,METAR,354.0
K2WX 021756Z AUTO 05016KT M05/M08 A2959 RMK AO1 SLP054 P0001 60005 T10501078 11039 21056 52010,K2WX,2018-04-02T17:56:00Z,45.6,-103.55,-5.0,-7.8,50,16,,,29.589567,1005.4,,TRUE,TRUE,,,,,,,,,,,,,,,,1.0,-3.9,-5.6,,,0.01,,0.05,,,,METAR,915.0
ETAR 021756Z AUTO 00000KT 9999 FEW080 SCT110 12/M01 A2963 RMK AO2 DZB1657E05 SLP043 P0000 60000 T01191006 10143 20116 57021 $,ETAR,2018-04-02T17:56:00Z,49.42,7.58,11.9,-0.6,0,0,,6.21,29.630905,1004.3,,TRUE,TRUE,TRUE,,,,,,FEW,8000,SCT,11000,,,,,VFR,-2.1,14.3,11.6,,,0.005,,0.005,,,,METAR,238.0
RODN 021756Z AUTO 10008KT 10SM BKN055 21/15 A3000 RMK AO2 SLP165 T02050148 10206 20148 57011,RODN,2018-04-02T17:56:00Z,26.35,127.77,20.5,14.8,100,8,,10.0,30.0,1016.5,,TRUE,TRUE,,,,,,,BKN,5500,,,,,,,VFR,-1.1,20.6,14.8,,,,,,,,,METAR,45.0
TJSJ 021756Z 06011KT 10SM SCT065 SCT085 29/22 A2992 RMK AO2 SLP130 T02890217 10289 20250 58018,TJSJ,2018-04-02T17:56:00Z,18.43,-66.02,28.9,21.7,60,11,,10.0,29.920275,1013.0,,,TRUE,,,,,,,SCT,6500,SCT,8500,,,,,VFR,-1.8,28.9,25.0,,,,,,,,,METAR,21.0
BGTL 021756Z 13004KT 9999 CLR M19/M21 A3014 RMK AO2A SLP198 4/010 T11931211 11168 21220 50001 TSNO $,BGTL,2018-04-02T17:56:00Z,76.53,-68.7,-19.3,-21.1,130,4,,6.21,30.138779,1019.8,,,TRUE,TRUE,,TRUE,,,,CLR,,,,,,,,VFR,0.1,-16.8,-22.0,,,,,,,10.0,,METAR,77.0
KDAA 021756Z AUTO 02006KT 10SM OVC023 09/03 A3012 RMK AO2 SLP203 6//// T00900026 10090 20055 51005,KDAA,2018-04-02T17:56:00Z,38.72,-77.17,9.0,2.6,20,6,,10.0,30.121063,1020.3,,TRUE,TRUE,,,,,,,OVC,2300,,,,,,,MVFR,0.5,9.0,5.5,,,,,,,,,METAR,21.0
KFAF 021756Z AUTO 03008KT 10SM CLR 14/06 A3003 RMK AO2 SLP172 60000 T01440060 10154 20124 51011 $,KFAF,2018-04-02T17:56:00Z,37.12,-76.62,14.4,6.0,30,8,,10.0,30.029528,1017.2,,TRUE,TRUE,TRUE,,,,,,CLR,,,,,,,,VFR,1.1,15.4,12.4,,,,,0.005,,,,METAR,4.0
KSPD 021756Z AUTO 17011G16KT 25/M09 A2956 RMK AO1 SLP974 T02501094 10250 21044 58020,KSPD,2018-04-02T17:56:00Z,37.28,-102.62,25.0,-9.4,170,11,16,,29.56004,997.4,,TRUE,TRUE,,,,,,,,,,,,,,,,-2.0,25.0,-4.4,,,,,,,,,SPECI,1335.0
KGUS 021756Z AUTO 10007KT 10SM FEW025 FEW130 SCT200 02/00 A3008 RMK AO2 SLP198 T00241005 10024 21058 58024 RVRNO $,KGUS,2018-04-02T17:56:00Z,40.63,-86.15,2.4,-0.5,100,7,,10.0,30.079725,1019.8,,TRUE,TRUE,TRUE,,,,,,FEW,2500,FEW,13000,SCT,20000,,,VFR,-2.4,2.4,-5.8,,,,,,,,,METAR,247.0
KOFF 021756Z AUTO 16011KT 10SM OVC018 00/M05 A2983 RMK AO2 SLP119 T10011055 10007 21059 $,KOFF,2018-04-02T17:56:00Z,41.12,-95.92,-0.1,-5.5,160,11,,10.0,29.828741,1011.9,,TRUE,TRUE,TRUE,,,,,,OVC,1800,,,,,,,MVFR,,0.7,-5.9,,,,,,,,,METAR,319.0
KVOK 021756Z 15005KT 10SM SCT110 BKN130 BKN160 BKN190 03/M09 A2999 RMK AO2A SLP172 58014,KVOK,2018-04-02T17:56:00Z,43.92,-90.27,3.0,-9.0,150,5,,10.0,29.991142,1017.2,,,TRUE,,,,,,,SCT,11000,BKN,13000,BKN,16000,BKN,19000,VFR,-1.4,,,,,,,,,,,METAR,277.0
PGUA 021756Z 36008KT 10SM SCT015 BKN030 24/22 A2976 RMK AO2A RAB1659E16 SLP068 P0001 60010 T02360218 10251 20235 57006 $,PGUA,2018-04-02T17:56:00Z,13.57,144.92,23.6,21.8,360,8,,10.0,29.760826,1006.8,,,TRUE,TRUE,,,,,,SCT,1500,BKN,3000,,,,,MVFR,-0.6,25.1,23.5,,,0.01,,0.1,,,,METAR,187.0
RKSG 021756Z 00000KT 10SM OVC031 13/13 A3002 RMK AO2A SLP169 T01330133 10169 20132 58002 PWINO TSNO $,RKSG,2018-04-02T17:56:00Z,36.97,127.02,13.3,13.3,0,0,,10.0,30.02067,1016.9,,,TRUE,TRUE,,TRUE,,TRUE,,OVC,3100,,,,,,,VFR,-0.2,16.9,13.2,,,,,,,,,METAR,16.0
KP53 021756Z AUTO 34006KT M01/M08 A3000 RMK AO1 SLP168 T10061078 10000 21094 51001,KP53,2018-04-02T17:56:00Z,46.42,-86.65,-0.6,-7.8,340,6,,,30.0,1016.8,,TRUE,TRUE,,,,,,,,,,,,,,,,0.1,0.0,-9.4,,,,,,,,,METAR,187.0
KNFL 021756Z 29019G23KT 10SM FEW080 BKN120 BKN150 BKN200 BKN250 19/M01 A2983 RMK AO2 WSHFT 1643 SLP079 ACSL DSNT ALQDS T01941011 10194 20067 51004,KNFL,2018-04-02T17:56:00Z,39.42,-118.7,19.4,-1.1,290,19,23,10.0,29.828741,1007.9,,,TRUE,,,,,,,FEW,8000,BKN,12000,BKN,15000,BKN,20000,VFR,0.4,19.4,6.7,,,,,,,,,SPECI,1199.0
KNYG 021756Z 07009KT 10SM OVC026 09/04 A3013 RMK AO2 SLP203 T00890044 10089 20061 51006,KNYG,2018-04-02T17:56:00Z,38.5,-77.28,8.9,4.4,70,9,,10.0,30.129921,1020.3,,,TRUE,,,,,,,OVC,2600,,,,,,,MVFR,0.6,8.9,6.1,,,,,,,,,SPECI,4.0
KNBC 021756Z 00000KT 10SM CLR 27/15 A3002 RMK AO2 SLP165 FIRST T02720150 10278 20144 58019 $,KNBC,2018-04-02T17:56:00Z,32.47,-80.72,27.2,15.0,0,0,,10.0,30.02067,1016.5,,,TRUE,TRUE,,,,,,CLR,,,,,,,,VFR,-1.9,27.8,14.4,,,,,,,,,SPECI,12.0
KQFR 021756Z AUTO 10003KT 10SM CLR 00/M11 A3031 RMK AO1,KQFR,2018-04-02T17:56:00Z,,,0.0,-11.0,100,3,,10.0,30.31004,,,TRUE,TRUE,,,,,,,CLR,,,,,,,,VFR,,,,,,,,,,,,METAR,
KNID 021756Z 00000KT 10SM SCT250 22/01 A2977 RMK AO2 SLP067 6//// T02220011 10228 20078 50005 PNO $,KNID,2018-04-02T17:56:00Z,35.67,-117.67,22.2,1.1,0,0,,10.0,29.769686,1006.7,,,TRUE,TRUE,,,,,,SCT,25000,,,,,,,VFR,0.5,22.8,7.8,,,,,,,,,SPECI,696.0
KP28 021756Z AUTO 16013G21KT 05/M02 A2974 RMK AO1 SLP083 T00501022 10050 21044 58042,KP28,2018-04-02T17:56:00Z,37.28,-98.55,5.0,-2.2,160,13,21,,29.740158,1008.3,,TRUE,TRUE,,,,,,,,,,,,,,,,-4.2,5.0,-4.4,,,,,,,,,METAR,469.0
KAND 021756Z AUTO 25010KT 10SM CLR 26/07 A2997 RMK AO2 SLP142 T02560072 10256 20106 58008,KAND,2018-04-02T17:56:00Z,34.5,-82.72,25.6,7.2,250,10,,10.0,29.970472,1014.2,,TRUE,TRUE,,,,,,,CLR,,,,,,,,VFR,-0.8,25.6,10.6,,,,,,,,,METAR,239.0
KART 021756Z AUTO 23008G19KT 10SM CLR 04/M08 A3011 RMK AO2 SLP203 T00441078 10050 21044 58003,KART,2018-04-02T17:56:00Z,43.98,-76.03,4.4,-7.8,230,8,19,10.0,30.109253,1020.3,,TRUE,TRUE,,,,,,,CLR,,,,,,,,VFR,-0.3,5.0,-4.4,,,,,,,,,METAR,100.0
KBED 021756Z 29005KT 10SM BKN012 OVC019 02/M02 A3010 RMK AO2 SNE36 SLP209 P0000 60010 T00221017 10022 21011 56017,KBED,2018-04-02T17:56:00Z,42.47,-71.3,2.2,-1.7,290,5,,10.0,30.100393,1020.9,,,TRUE,,,,,,,BKN,1200,OVC,1900,,,,,MVFR,-1.7,2.2,-1.1,,,0.005,,0.1,,,,METAR,50.0
KBIH 021756Z AUTO 30003KT 10SM CLR 19/M09 A2983 RMK AO2 SLP063 T01891089 10189 20017 53001,KBIH,2018-04-02T17:56:00Z,37.37,-118.35,18.9,-8.9,300,3,,10.0,29.828741,1006.3,,TRUE,TRUE,,,,,,,CLR,,,,,,,,VFR,0.1,18.9,1.7,,,,,,,,,METAR,1253.0
KBJJ 021756Z AUTO 21003KT 10SM FEW030 03/M03 A3012 RMK AO2 SLP211 T00331033 10039 21044 58005,KBJJ,2018-04-02T17:56:00Z,40.87,-81.88,3.3,-3.3,210,3,,10.0,30.121063,1021.1,,TRUE,TRUE,,,,,,,FEW,3000,,,,,,,VFR,-0.5,3.9,-4.4,,,,,,,,,METAR,343.0
KCAE 021756Z 27011G15KT 10SM BKN250 28/09 A2997 RMK AO2 SLP148 T02830089 10283 20139 58014,KCAE,2018-04-02T17:56:00Z,33.93,-81.12,28.3,8.9,270,11,15,10.0,29.970472,1014.8,,,TRUE,,,,,,,BKN,25000,,,,,,,VFR,-1.4,28.3,13.9,,,,,,,,,METAR,70.0
KCEC 021756Z AUTO 35013G18KT 10SM CLR 12/01 A3011 RMK AO2 SLP197 T01220011 10122 20083 50011,KCEC,2018-04-02T17:56:00Z,41.77,-124.22,12.2,1.1,350,13,18,10.0,30.109253,1019.7,,TRUE,TRUE,,,,,,,CLR,,,,,,,,VFR,1.1,12.2,8.3,,,,,,,,,METAR,17.0
KBLV 021756Z AUTO 11009KT 10SM OVC009 02/M01 A3002 RMK AO2 SLP173 T00201006 10020 21028 $,KBLV,2018-04-02T17:56:00Z,38.53,-89.83,2.0,-0.6,110,9,,10.0,30.02067,1017.3,,TRUE,TRUE,TRUE,,,,,,OVC,900,,,,,,,IFR,,2.0,-2.8,,,,,,,,,METAR,138.0
KADW 021756Z AUTO 03006KT 10SM OVC019 07/03 A3011 RMK AO2 CIG 018 RWY19L SLP204 T00690026 10071 20040 53004,KADW,2018-04-02T17:56:00Z,38.82,-76.87,6.9,2.6,30,6,,10.0,30.109253,1020.4,,TRUE,TRUE,,,,,,,OVC,1900,,,,,,,MVFR,0.4,7.1,4.0,,,,,,,,,METAR,86.0
ETOU 021756Z AUTO 14003KT 9999 BKN070 OVC090 13/00 A2966 RMK AO2 SLP049 T01290000 10138 20124 57020 $,ETOU,2018-04-02T17:56:00Z,50.03,8.32,12.9,0.0,140,3,,6.21,29.660433,1004.9,,TRUE,TRUE,TRUE,,,,,,BKN,7000,OVC,9000,,,,,VFR,-2.0,13.8,12.4,,,,,,,,,METAR,141.0
KCHS 021756Z 23009KT 10SM FEW060 BKN250 28/11 A3001 RMK AO2 SLP161 T02780111 10278 20144 58019,KCHS,2018-04-02T17:56:00Z,32.9,-80.03,27.8,11.1,230,9,,10.0,30.008858,1016.1,,,TRUE,,,,,,,FEW,6000,BKN,25000,,,,,VFR,-1.9,27.8,14.4,,,,,,,,,METAR,13.0
KNUW 021756Z 28006KT 10SM FEW035 BKN060 BKN250 09/M02 A3009 RMK AO2 SLP188 T00941022 10100 20072 51028 $,KNUW,2018-04-02T17:56:00Z,48.35,-122.65,9.4,-2.2,280,6,,10.0,30.088583,1018.8,,,TRUE,TRUE,,,,,,FEW,3500,BKN,6000,BKN,25000,,,VFR,2.8,10.0,7.2,,,,,,,,,SPECI,14.0
PANV 021756Z AUTO 03008KT 10SM CLR M05/M12 A3057 RMK AO2 SLP374 T10501122 11033 21061 56006 FZRANO,PANV,2018-04-02T17:56:00Z,62.65,-160.18,-5.0,-12.2,30,8,,10.0,30.569881,1037.4,,TRUE,TRUE,,,,TRUE,,,CLR,,,,,,,,VFR,-0.6,-3.3,-6.1,,,,,,,,,METAR,99.0
KSFO 021756Z 25012KT 10SM SCT200 16/09 A2993 RMK AO2 SLP136 T01560094 10156 20111 53006,KSFO,2018-04-02T17:56:00Z,37.62,-122.37,15.6,9.4,250,12,,10.0,29.929134,1013.6,,,TRUE,,,,,,,SCT,20000,,,,,,,VFR,0.6,15.6,11.1,,,,,,,,,METAR,3.0
KSHV 021756Z 18008KT 10SM FEW026 OVC060 24/19 A2991 RMK AO2 SLP125 T02440189 10250 20189 58009,KSHV,2018-04-02T17:56:00Z,32.45,-93.83,24.4,18.9,180,8,,10.0,29.911417,1012.5,,,TRUE,,,,,,,FEW,2600,OVC,6000,,,,,VFR,-0.9,25.0,18.9,,,,,,,,,METAR,83.0
KSLE 021756Z 26004KT 10SM BKN030 BKN036 08/01 A3016 RMK AO2 SLP213 60000 T00780006 10083 20033 51014,KSLE,2018-04-02T17:56:00Z,44.9,-123.0,7.8,0.6,260,4,,10.0,30.159449,1021.3,,,TRUE,,,,,,,BKN,3000,BKN,3600,,,,,MVFR,1.4,8.3,3.3,,,,,0.005,,,,METAR,59.0
KCXY 021756Z VRB03KT 10SM OVC015 06/01 A3014 RMK AO2 SLP209 60000 T00560011 10056 20017 50001,KCXY,2018-04-02T17:56:00Z,40.22,-76.85,5.6,1.1,0,3,,10.0,30.138779,1020.9,,,TRUE,,,,,,,OVC,1500,,,,,,,MVFR,0.1,5.6,1.7,,,,,0.005,,,,METAR,106.0
KDAY 021756Z 09005KT 10SM FEW035 SCT200 SCT250 04/M01 A3010 RMK AO2 SLP200 T00441011 10050 21033 58019,KDAY,2018-04-02T17:56:00Z,39.9,-84.22,4.4,-1.1,90,5,,10.0,30.100393,1020.0,,,TRUE,,,,,,,FEW,3500,SCT,20000,SCT,25000,,,VFR,-1.9,5.0,-3.3,,,,,,,,,METAR,305.0
KDIK 021756Z AUTO 06013KT 10SM OVC015 M07/M09 A2974 RMK AO2 SLP107 T10671094 11067 21072 50012 TSNO,KDIK,2018-04-02T17:56:00Z,46.8,-102.8,-6.7,-9.4,60,13,,10.0,29.740158,1010.7,,TRUE,TRUE,,,TRUE,,,,OVC,1500,,,,,,,MVFR,1.2,-6.7,-7.2,,,,,,,,,METAR,788.0
KDUG 021756Z AUTO 20011G19KT 160V240 10SM CLR 23/M08 A2994 RMK AO2 SLP082 T02331078 10239 20056 58009,KDUG,2018-04-02T17:56:00Z,31.47,-109.58,23.3,-7.8,200,11,19,10.0,29.940945,1008.2,,TRUE,TRUE,,,,,,,CLR,,,,,,,,VFR,-0.9,23.9,5.6,,,,,,,,,METAR,1265.0
KEAU 021756Z 14010KT 10SM OVC075 01/M08 A2995 RMK AO2 SLP155 T00111078 10011 21117 58014,KEAU,2018-04-02T17:56:00Z,44.87,-91.47,1.1,-7.8,140,10,,10.0,29.949802,1015.5,,,TRUE,,,,,,,OVC,7500,,,,,,,VFR,-1.4,1.1,-11.7,,,,,,,,,METAR,276.0
KGRD 021756Z AUTO 21011G18KT 10SM CLR 26/08 A2999 RMK AO2 SLP148 T02560083 10261 20133 58010,KGRD,2018-04-02T17:56:00Z,34.25,-82.15,25.6,8.3,210,11,18,10.0,29.991142,1014.8,,TRUE,TRUE,,,,,,,CLR,,,,,,,,VFR,-1.0,26.1,13.3,,,,,,,,,METAR,185.0
KHPN 021756Z 33006KT 10SM BKN010 BKN015 02/M02 A3011 RMK AO2 SLP201 60010 T00221022 10022 21011 55005,KHPN,2018-04-02T17:56:00Z,41.07,-73.7,2.2,-2.2,330,6,,10.0,30.109253,1020.1,,,TRUE,,,,,,,BKN,1000,BKN,1500,,,,,MVFR,-0.5,2.2,-1.1,,,,,0.1,,,,METAR,121.0
KHWV 021756Z AUTO 36006KT 10SM BKN012 OVC080 03/01 A3011 RMK AO2 SLP195 60026 T00330006 10033 21006 58010,KHWV,2018-04-02T17:56:00Z,40.82,-72.87,3.3,0.6,360,6,,10.0,30.109253,1019.5,,TRUE,TRUE,,,,,,,BKN,1200,OVC,8000,,,,,MVFR,-1.0,3.3,-0.6,,,,,0.26,,,,METAR,21.0
KHYA 021756Z 03006KT 4SM -RA BR OVC005 02/01 A3008 RMK AO2 RAB49SNE49 SLP187 P0000 60025 T00220011 10022 20006 58012,KHYA,2018-04-02T17:56:00Z,41.67,-70.27,2.2,1.1,30,6,,4.0,30.079725,1018.7,,,TRUE,,,,,,-RA BR,OVC,500,,,,,,,IFR,-1.2,2.2,0.6,,,0.005,,0.25,,,,METAR,22.0
KLAS 021756Z 00000KT 10SM FEW250 24/M02 A2973 RMK AO2 SLP049 T02391022 10239 20161 50002,KLAS,2018-04-02T17:56:00Z,36.07,-115.17,23.9,-2.2,0,0,,10.0,29.731298,1004.9,,,TRUE,,,,,,,FEW,25000,,,,,,,VFR,0.2,23.9,16.1,,,,,,,,,METAR,636.0
KLWS 021756Z 27013G20KT 10SM FEW055 OVC085 06/M04 A2990 RMK AO2 SLP131 T00561039 10061 20000 53017,KLWS,2018-04-02T17:56:00Z,46.37,-117.02,5.6,-3.9,270,13,20,10.0,29.899607,1013.1,,,TRUE,,,,,,,FEW,5500,OVC,8500,,,,,VFR,1.7,6.1,0.0,,,,,,,,,METAR,438.0
KLGD 021756Z AUTO 28015G21KT 10SM SCT045 03/M06 A2993 RMK AO2 PK WND 29028/1734 RAB12E36 SLP275 P0000 60000 T00331056 10033 21028 51017,KLGD,2018-04-02T17:56:00Z,45.27,-118.0,3.3,-5.6,280,15,21,10.0,29.929134,1027.5,,TRUE,TRUE,,,,,,,SCT,4500,,,,,,,VFR,1.7,3.3,-2.8,,,0.005,,0.005,,,,METAR,827.0
KRCA 021756Z AUTO 36014KT 10SM OVC011 M01/M03 A2957 RMK AO2 CIG 010 RWY13 SLP042 T10081030 10000 21027 52010 $,KRCA,2018-04-02T17:56:00Z,44.13,-103.08,-0.8,-3.0,360,14,,10.0,29.568897,1004.2,,TRUE,TRUE,TRUE,,,,,,OVC,1100,,,,,,,MVFR,1.0,0.0,-2.7,,,,,,,,,METAR,999.0
KTPH 021756Z AUTO 33013G19KT 10SM CLR 16/M08 A2987 RMK AO2 SLP066 T01561083 10156 20033 52003,KTPH,2018-04-02T17:56:00Z,38.05,-117.08,15.6,-8.3,330,13,19,10.0,29.870079,1006.6,,TRUE,TRUE,,,,,,,CLR,,,,,,,,VFR,0.3,15.6,3.3,,,,,,,,,METAR,1652.0
KUKI 021756Z AUTO 36004KT 10SM CLR 17/06 A2993 RMK AO2 SLP132 T01670056 10167 20083 58004,KUKI,2018-04-02T17:56:00Z,39.12,-123.2,16.7,5.6,360,4,,10.0,29.929134,1013.2,,TRUE,TRUE,,,,,,,CLR,,,,,,,,VFR,-0.4,16.7,8.3,,,,,,,,,METAR,187.0
KCWI 021756Z AUTO 14011G16KT 10SM CLR 03/M08 A3003 RMK AO2 SLP196 T00281078 10028 21083 58024,KCWI,2018-04-02T17:56:00Z,41.82,-90.32,2.8,-7.8,140,11,16,10.0,30.029528,1019.6,,TRUE,TRUE,,,,,,,CLR,,,,,,,,VFR,-2.4,2.8,-8.3,,,,,,,,,SPECI,216.0
KDIJ 021756Z AUTO 19016KT 10SM -RA SCT018 BKN046 OVC095 03/00 A2953 RMK AO2 UPB32E52 SLP995 P0000 60003 T00280000 10044 20006 58001,KDIJ,2018-04-02T17:56:00Z,43.75,-111.1,2.8,0.0,190,16,,10.0,29.530512,999.5,,TRUE,TRUE,,,,,,-RA,SCT,1800,BKN,4600,OVC,9500,,,VFR,-0.1,4.4,0.6,,,0.005,,,,,,SPECI,1899.0
KDWU 021756Z AUTO 13006KT 10SM OVC015 06/03 A3011 RMK AO2 SLP201 T00610028 10061 20022 58010,KDWU,2018-04-02T17:56:00Z,38.55,-82.73,6.1,2.8,130,6,,10.0,30.109253,1020.1,,TRUE,TRUE,,,,,,,OVC,1500,,,,,,,MVFR,-1.0,6.1,2.2,,,,,,,,,SPECI,166.0
KDVL 021756Z AUTO 06016G20KT 10SM CLR M09/M15 A2994 RMK AO2 SLP185 60000 T10941150 11094 21144 50004 FZRANO,KDVL,2018-04-02T17:56:00Z,48.12,-98.92,-9.4,-15.0,60,16,20,10.0,29.940945,1018.5,,TRUE,TRUE,,,,TRUE,,,CLR,,,,,,,,VFR,0.4,-9.4,-14.4,,,,,,,,,SPECI,443.0
KEAR 021756Z AUTO 18017KT 10SM OVC010 01/M03 A2966 RMK AO2 SLP064 60000 T00061028 10011 21067 58006 FZRANO,KEAR,2018-04-02T17:56:00Z,40.72,-99.0,0.6,-2.8,180,17,,10.0,29.660433,1006.4,,TRUE,TRUE,,,,TRUE,,,OVC,1000,,,,,,,MVFR,-0.6,1.1,-6.7,,,,,,,,,SPECI,649.0
KDYR 021756Z AUTO 12004KT 10SM OVC009 09/07 A3000 RMK AO2 RAE02 SLP177 6//// T00890067 10089 20050 58019 PNO $,KDYR,2018-04-02T17:56:00Z,36.0,-89.4,8.9,6.7,120,4,,10.0,30.0,1017.7,,TRUE,TRUE,TRUE,,,,,,OVC,900,,,,,,,IFR,-1.9,8.9,5.0,,,,,,,,,SPECI,103.0
KEEN 021756Z AUTO 20004KT 10SM BKN044 04/M06 A3008 RMK AO2 SLP209 60000 T00391056 10050 21022 58017,KEEN,2018-04-02T17:56:00Z,42.88,-72.27,3.9,-5.6,200,4,,10.0,30.079725,1020.9,,TRUE,TRUE,,,,,,,BKN,4400,,,,,,,VFR,-1.7,5.0,-2.2,,,,,,,,,SPECI,149.0
KEGE 021756Z 25022G35KT 10SM CLR 17/M08 A2963 RMK AO2 PK WND 23038/1721 SLP003 T01671083 10172 20000 56027,KEGE,2018-04-02T17:56:00Z,39.63,-106.92,16.7,-8.3,250,22,35,10.0,29.630905,1000.3,,,TRUE,,,,,,,CLR,,,,,,,,VFR,-2.7,17.2,0.0,,,,,,,,,SPECI,1993.0
KEKQ 021756Z AUTO 35009G15KT 310V030 10SM OVC008 08/07 A3005 RMK AO2 SLP205 6//// T00780067 10083 20050 58009 PNO $,KEKQ,2018-04-02T17:56:00Z,36.85,-84.85,7.8,6.7,350,9,15,10.0,30.050198,1020.5,,TRUE,TRUE,TRUE,,,,,,OVC,800,,,,,,,IFR,-0.9,8.3,5.0,,,,,,,,,SPECI,294.0
KEHR 021756Z AUTO 08008KT 10SM OVC013 06/03 A3005 RMK AO2 SLP188 60059 T00610033 10061 20028 58015 TSNO,KEHR,2018-04-02T17:56:00Z,37.82,-87.67,6.1,3.3,80,8,,10.0,30.050198,1018.8,,TRUE,TRUE,,,TRUE,,,,OVC,1300,,,,,,,MVFR,-1.5,6.1,2.8,,,,,,,,,SPECI,117.0
KEKY 021756Z AUTO 17008KT 130V220 10SM FEW043 23/13 A3001 RMK AO2 SLP174 T02330133 10239 20122 58006,KEKY,2018-04-02T17:56:00Z,33.32,-86.93,23.3,13.3,170,8,,10.0,30.008858,1017.4,,TRUE,TRUE,,,,,,,FEW,4300,,,,,,,VFR,-0.6,23.9,12.2,,,,,,,,,SPECI,213.0
KENV 021756Z AUTO 30022G25KT 10SM OVC090 16/M04 A2964 RMK AO2 WSHFT 1724 SLP015 T01611044 10167 20094 56004,KENV,2018-04-02T17:56:00Z,40.72,-114.02,16.1,-4.4,300,22,25,10.0,29.639763,1001.5,,TRUE,TRUE,,,,,,,OVC,9000,,,,,,,VFR,-0.4,16.7,9.4,,,,,,,,,SPECI,1292.0
K1M4 021756Z AUTO 30004KT 10SM OVC033 21/14 A3001 RMK AO2 SLP178 T02060144 10211 20122 58002,K1M4,2018-04-02T17:56:00Z,34.28,-87.6,20.6,14.4,300,4,,10.0,30.008858,1017.8,,TRUE,TRUE,,,,,,,OVC,3300,,,,,,,VFR,-0.2,21.1,12.2,,,,,,,,,SPECI,284.0
KEUL 021756Z AUTO 29022G28KT 10SM CLR 06/M09 A2994 RMK AO2 PK WND 29036/1708 SLP139 60000 T00561089 10056 20022 51022,KEUL,2018-04-02T17:56:00Z,43.62,-116.62,5.6,-8.9,290,22,28,10.0,29.940945,1013.9,,TRUE,TRUE,,,,,,,CLR,,,,,,,,VFR,2.2,5.6,2.2,,,,,,,,,SPECI,740.0
KESC 021756Z AUTO 18009KT 10SM CLR 00/M08 A3001 RMK AO2 SLP188 T00001078 10011 21117 56010 FZRANO TSNO,KESC,2018-04-02T17:56:00Z,45.75,-87.08,0.0,-7.8,180,9,,10.0,30.008858,1018.8,,TRUE,TRUE,,,TRUE,TRUE,,,CLR,,,,,,,,VFR,-1.0,1.1,-11.7,,,,,,,,,SPECI,187.0
K7N0 021756Z AUTO 21007KT 180V260 10SM CLR 27/17 A3002 RMK AO2 SLP164 T02720172 10278 20194 58005,K7N0,2018-04-02T17:56:00Z,29.95,-90.07,27.2,17.2,210,7,,10.0,30.02067,1016.4,,TRUE,TRUE,,,,,,,CLR,,,,,,,,VFR,-0.5,27.8,19.4,,,,,,,,,SPECI,0.0
KAFJ 021756Z AUTO 00000KT 10SM OVC020 03/M01 A3014 RMK AO2 SLP215 60001 T00331011 10033 20006 58004,KAFJ,2018-04-02T17:56:00Z,40.12,-80.27,3.3,-1.1,0,0,,10.0,30.138779,1021.5,,TRUE,TRUE,,,,,,,OVC,2000,,,,,,,MVFR,-0.4,3.3,0.6,,,,,,,,,SPECI,361.0
KAIZ 021756Z AUTO 13005KT 6SM BR OVC005 01/00 A2995 RMK AO2 SLP150 60000 T00110000 10011 21022 58030 FZRANO,KAIZ,2018-04-02T17:56:00Z,38.1,-92.53,1.1,0.0,130,5,,6.0,29.949802,1015.0,,TRUE,TRUE,,,,TRUE,,BR,OVC,500,,,,,,,IFR,-3.0,1.1,-2.2,,,,,,,,,SPECI,265.0
KAJO 021756Z AUTO 8SM OVC018 14/09 RMK AO2 SLPNO 6//// T01390094 10139 20122 TSNO $,KAJO,2018-04-02T17:56:00Z,33.9,-117.6,13.9,9.4,,,,8.0,,,,TRUE,TRUE,TRUE,,TRUE,,,,OVC,1800,,,,,,,MVFR,,13.9,12.2,,,,,,,,,SPECI,163.0
KASH 021756Z 34004KT 10SM BKN026 02/M03 A3011 RMK AO2 SLP207 60004 T00221028 10033 21017 56018,KASH,2018-04-02T17:56:00Z,42.78,-71.52,2.2,-2.8,340,4,,10.0,30.109253,1020.7,,,TRUE,,,,,,,BKN,2600,,,,,,,MVFR,-1.8,3.3,-1.7,,,,,,,,,SPECI,61.0
KAUO 021756Z AUTO 26007KT 240V300 10SM CLR 22/13 A3005 RMK AO2 SLP191 T02220128 10222 20122 58007,KAUO,2018-04-02T17:56:00Z,32.62,-85.42,22.2,12.8,260,7,,10.0,30.050198,1019.1,,TRUE,TRUE,,,,,,,CLR,,,,,,,,VFR,-0.7,22.2,12.2,,,,,,,,,SPECI,236.0
KAWO 021756Z AUTO 14009KT 10SM SCT013 SCT032 OVC060 05/02 A3007 RMK AO2 SLP187 60000 T00500022 10056 20011 51029,KAWO,2018-04-02T17:56:00Z,48.17,-122.17,5.0,2.2,140,9,,10.0,30.070866,1018.7,,TRUE,TRUE,,,,,,,SCT,1300,SCT,3200,OVC,6000,,,VFR,2.9,5.6,1.1,,,,,,,,,SPECI,42.0
KBHB 021756Z AUTO 17010KT 10SM OVC060 03/M09 A3009 RMK AO2 SLP195 T00331089 10033 21017 56015 $,KBHB,2018-04-02T17:56:00Z,44.45,-68.37,3.3,-8.9,170,10,,10.0,30.088583,1019.5,,TRUE,TRUE,TRUE,,,,,,OVC,6000,,,,,,,VFR,-1.5,3.3,-1.7,,,,,,,,,METAR,26.0
KBID 021756Z AUTO 02009KT 10SM OVC008 03/01 A3010 RMK AO2 SLP196 P0002 60023 T00280006 10028 20000 56017,KBID,2018-04-02T17:56:00Z,41.17,-71.58,2.8,0.6,20,9,,10.0,30.100393,1019.6,,TRUE,TRUE,,,,,,,OVC,800,,,,,,,IFR,-1.7,2.8,0.0,,,0.02,,,,,,SPECI,33.0
KBKX 021756Z AUTO 15016KT 10SM BKN015 OVC047 M01/M04 A2973 RMK AO2 SLP101 60000 T10111039 11006 21039 58013 FZRANO,KBKX,2018-04-02T17:56:00Z,44.28,-96.82,-1.1,-3.9,150,16,,10.0,29.731298,1010.1,,TRUE,TRUE,,,,TRUE,,,BKN,1500,OVC,4700,,,,,MVFR,-1.3,-0.6,-3.9,,,,,,,,,SPECI,502.0
KBLM 021756Z AUTO 35008KT 10SM OVC018 04/M01 A3013 RMK AO2 SLP209 6//// T00391006 10039 20006 53004,KBLM,2018-04-02T17:56:00Z,40.17,-74.12,3.9,-0.6,350,8,,10.0,30.129921,1020.9,,TRUE,TRUE,,,,,,,OVC,1800,,,,,,,MVFR,0.4,3.9,0.6,,,,,,,,,SPECI,48.0
KBMI 021756Z 11009KT 10SM CLR 00/M04 A3006 RMK AO2 PRESFR SLP206 60000 T00001044 10000 21144 58023 $,KBMI,2018-04-02T17:56:00Z,40.47,-88.92,0.0,-4.4,110,9,,10.0,30.059055,1020.6,,,TRUE,TRUE,,,,,,CLR,,,,,,,,VFR,-2.3,0.0,-14.4,,,,,,,,,SPECI,267.0
KBOK 021756Z AUTO VRB05KT 10SM CLR 10/M03 A3012 RMK AO2 SLP216 T01001033 10106 20044 51015,KBOK,2018-04-02T17:56:00Z,42.07,-124.28,10.0,-3.3,0,5,,10.0,30.121063,1021.6,,TRUE,TRUE,,,,,,,CLR,,,,,,,,VFR,1.5,10.6,4.4,,,,,,,,,SPECI,140.0
KCGZ 021756Z AUTO 15005KT 10SM CLR 26/M07 A2981 RMK AO2 SLP084 T02611072 10261 20111 58004 $,KCGZ,2018-04-02T17:56:00Z,32.95,-111.77,26.1,-7.2,150,5,,10.0,29.811024,1008.4,,TRUE,TRUE,TRUE,,,,,,CLR,,,,,,,,VFR,-0.4,26.1,11.1,,,,,,,,,SPECI,446.0
KCIU 021756Z AUTO 23007G16KT 180V260 10SM CLR 00/M12 A2998 RMK AO2 SLP181 6//// T00001117 10017 21094 58002 FZRANO PNO $,KCIU,2018-04-02T17:56:00Z,46.25,-84.47,0.0,-11.7,230,7,16,10.0,29.97933,1018.1,,TRUE,TRUE,TRUE,,,TRUE,,,CLR,,,,,,,,VFR,-0.2,1.7,-9.4,,,,,,,,,SPECI,244.0
KCOE 021756Z AUTO 18010KT 10SM FEW017 SCT080 02/M03 A2982 RMK AO2 UPE1659SNB1659E40 SLP131 P0000 60000 T00171033 10017 21028 52025 FZRANO,KCOE,2018-04-02T17:56:00Z,47.77,-116.82,1.7,-3.3,180,10,,10.0,29.819881,1013.1,,TRUE,TRUE,,,,TRUE,,,FEW,1700,SCT,8000,,,,,VFR,2.5,1.7,-2.8,,,0.005,,,,,,SPECI,707.0
KCVN 021756Z AUTO 26023G28KT 10SM CLR 24/M05 A2978 RMK AO2 PK WND 26028/1755 SLP062 T02391050 10239 21011 58022,KCVN,2018-04-02T17:56:00Z,34.42,-103.07,23.9,-5.0,260,23,28,10.0,29.778543,1006.2,,TRUE,TRUE,,,,,,,CLR,,,,,,,,VFR,-2.2,23.9,-1.1,,,,,,,,,SPECI,1284.0
KFCI 021756Z AUTO 02007G14KT 10SM BKN032 OVC043 12/04 A3008 RMK AO2 SLP203 T01220044 10133 20094 51008 $,KFCI,2018-04-02T17:56:00Z,37.4,-77.52,12.2,4.4,20,7,14,10.0,30.079725,1020.3,,TRUE,TRUE,TRUE,,,,,,BKN,3200,OVC,4300,,,,,VFR,0.8,13.3,9.4,,,,,,,,,SPECI,72.0
KFKL 021756Z AUTO 27006KT 10SM OVC034 03/M04 A3009 RMK AO2 SLP205 T00331044 10033 21017 55006 TSNO,KFKL,2018-04-02T17:56:00Z,41.37,-79.87,3.3,-4.4,270,6,,10.0,30.088583,1020.5,,TRUE,TRUE,,,TRUE,,,,OVC,3400,,,,,,,VFR,-0.6,3.3,-1.7,,,,,,,,,SPECI,469.0
KFLP 021756Z AUTO 13007KT 7SM OVC005 04/03 A2995 RMK AO2 SLP145 60000 T00440033 10044 20022 58026,KFLP,2018-04-02T17:56:00Z,36.28,-92.58,4.4,3.3,130,7,,7.0,29.949802,1014.5,,TRUE,TRUE,,,,,,,OVC,500,,,,,,,IFR,-2.6,4.4,2.2,,,,,,,,,SPECI,219.0
KFNL 021756Z AUTO 00000KT 10SM CLR 14/01 A2949 RMK AO2 SLP965 T01440011 10144 21028 58020,KFNL,2018-04-02T17:56:00Z,40.45,-105.02,14.4,1.1,0,0,,10.0,29.489174,996.5,,TRUE,TRUE,,,,,,,CLR,,,,,,,,VFR,-2.0,14.4,-2.8,,,,,,,,,SPECI,1529.0
KFOD 021756Z AUTO 16011G22KT 10SM CLR 02/M06 A2988 RMK AO2 SLP159 T00221056 10022 21056 56026 FZRANO,KFOD,2018-04-02T17:56:00Z,42.53,-94.17,2.2,-5.6,160,11,22,10.0,29.878937,1015.9,,TRUE,TRUE,,,,TRUE,,,CLR,,,,,,,,VFR,-2.6,2.2,-5.6,,,,,,,,,SPECI,355.0
KLNR 021756Z AUTO 14010KT 10SM OVC100 03/M08 A3002 RMK AO2 SLP169 T00281083 10028 21094 58016,KLNR,2018-04-02T17:56:00Z,43.22,-90.18,2.8,-8.3,140,10,,10.0,30.02067,1016.9,,TRUE,TRUE,,,,,,,OVC,10000,,,,,,,VFR,-1.6,2.8,-9.4,,,,,,,,,METAR,217.0
KLRD 021756Z 13013KT 10SM CLR 31/18 A2975 RMK AO2 SLP072 T03110183 10311 20222 58021 $,KLRD,2018-04-02T17:56:00Z,27.55,-99.47,31.1,18.3,130,13,,10.0,29.749016,1007.2,,,TRUE,TRUE,,,,,,CLR,,,,,,,,VFR,-2.1,31.1,22.2,,,,,,,,,METAR,155.0
KFRM 021756Z AUTO 16019KT 10SM CLR 00/M06 A2987 RMK AO2 SLP132 T00001061 10000 21039 55019 FZRANO,KFRM,2018-04-02T17:56:00Z,43.63,-94.42,0.0,-6.1,160,19,,10.0,29.870079,1013.2,,TRUE,TRUE,,,,TRUE,,,CLR,,,,,,,,VFR,-1.9,0.0,-3.9,,,,,,,,,METAR,354.0
KGAD 021756Z AUTO 17006KT 10SM CLR 26/12 A2998 RMK AO2 SLP153 T02560122 10256 20089 58012,KGAD,2018-04-02T17:56:00Z,33.97,-86.07,25.6,12.2,170,6,,10.0,29.97933,1015.3,,TRUE,TRUE,,,,,,,CLR,,,,,,,,VFR,-1.2,25.6,8.9,,,,,,,,,SPECI,173.0
KGAI 021756Z AUTO VRB04KT 10SM OVC016 07/03 A3011 RMK AO2 SLP229 60000 T00720028 10072 20028 50001,KGAI,2018-04-02T17:56:00Z,39.17,-77.17,7.2,2.8,0,4,,10.0,30.109253,1022.9,,TRUE,TRUE,,,,,,,OVC,1600,,,,,,,MVFR,0.1,7.2,2.8,,,,,0.005,,,,METAR,165.0
KD07 021756Z AUTO 04018KT M04/M04 A2962 RMK AO1 SLP065 T10391044 11022 21039 51011,KD07,2018-04-02T17:56:00Z,45.03,-102.02,-3.9,-4.4,40,18,,,29.619095,1006.5,,TRUE,TRUE,,,,,,,,,,,,,,,,1.1,-2.2,-3.9,,,,,,,,,SPECI,784.0
KGDV 021756Z AUTO 06015KT 10SM OVC025 M03/M11 A2977 RMK AO2 SLP111 T10281106 11028 21056 50015 FZRANO,KGDV,2018-04-02T17:56:00Z,47.12,-104.78,-2.8,-10.6,60,15,,10.0,29.769686,1011.1,,TRUE,TRUE,,,,TRUE,,,OVC,2500,,,,,,,MVFR,1.5,-2.8,-5.6,,,,,,,,,SPECI,749.0
KGBD 021756Z AUTO 18016G22KT 10SM CLR 07/M03 A2971 RMK AO2 SLP071 T00671028 10067 21039 56039,KGBD,2018-04-02T17:56:00Z,38.35,-98.87,6.7,-2.8,180,16,22,10.0,29.71063,1007.1,,TRUE,TRUE,,,,,,,CLR,,,,,,,,VFR,-3.9,6.7,-3.9,,,,,,,,,SPECI,575.0
KLZU 021756Z 22012G16KT 10SM CLR 25/07 A3000 RMK AO2 SLP162 T02500072 10250 20139 58008,KLZU,2018-04-02T17:56:00Z,33.98,-83.97,25.0,7.2,220,12,16,10.0,30.0,1016.2,,,TRUE,,,,,,,CLR,,,,,,,,VFR,-0.8,25.0,13.9,,,,,,,,,SPECI,323.0
KGPZ 021756Z AUTO 32003KT 10SM BKN045 M04/M11 A2994 RMK AO2 SLP164 T10441111 11039 21122 50000 FZRANO,KGPZ,2018-04-02T17:56:00Z,47.22,-93.52,-4.4,-11.1,320,3,,10.0,29.940945,1016.4,,TRUE,TRUE,,,,TRUE,,,BKN,4500,,,,,,,VFR,0.0,-3.9,-12.2,,,,,,,,,METAR,413.0
KGTR 021756Z 17006KT 10SM SCT037 BKN049 24/15 A2998 RMK AO2 SLP152 T02440150 10244 20122 58008,KGTR,2018-04-02T17:56:00Z,33.45,-88.57,24.4,15.0,170,6,,10.0,29.97933,1015.2,,,TRUE,,,,,,,SCT,3700,BKN,4900,,,,,VFR,-0.8,24.4,12.2,,,,,,,,,SPECI,80.0
KGUC 021756Z AUTO 25021G31KT 10SM CLR 14/M11 A2974 RMK AO2 PK WND 29032/1715 SLP020 T01441106 10144 21072 58025,KGUC,2018-04-02T17:56:00Z,38.52,-106.92,14.4,-10.6,250,21,31,10.0,29.740158,1002.0,,TRUE,TRUE,,,,,,,CLR,,,,,,,,VFR,-2.5,14.4,-7.2,,,,,,,,,SPECI,2339.0
KGXY 021756Z AUTO 16005KT 10SM CLR 16/M01 A2949 RMK AO2 SLP982 T01561006 10156 21050 58024,KGXY,2018-04-02T17:56:00Z,40.42,-104.62,15.6,-0.6,160,5,,10.0,29.489174,998.2,,TRUE,TRUE,,,,,,,CLR,,,,,,,,VFR,-2.4,15.6,-5.0,,,,,,,,,SPECI,1420.0
KNXF 021756Z AUTO 16007KT 10SM OVC033 17/11 A2991 RMK AO2 SLP212 T01670111 10167 20144 51004 $,KNXF,2018-04-02T17:56:00Z,33.28,-117.45,16.7,11.1,160,7,,10.0,29.911417,1021.2,,TRUE,TRUE,TRUE,,,,,,OVC,3300,,,,,,,VFR,0.4,16.7,14.4,,,,,,,,,METAR,27.0
KNJK 021756Z 13011KT 10SM FEW220 27/03 A2975 RMK AO2 SLP088 T02670028 10267 20139 50003,KNJK,2018-04-02T17:56:00Z,32.82,-115.67,26.7,2.8,130,11,,10.0,29.749016,1008.8,,,TRUE,,,,,,,FEW,22000,,,,,,,VFR,0.3,26.7,13.9,,,,,,,,,METAR,-13.0
PFSH 021756Z AUTO 02006KT 9SM CLR M14/M16 A3066 RMK AO2 SLP383 T11391161 11122 21144 57013 PWINO FZRANO $,PFSH,2018-04-02T17:56:00Z,64.37,-161.22,-13.9,-16.1,20,6,,9.0,30.661417,1038.3,,TRUE,TRUE,TRUE,,,TRUE,TRUE,,CLR,,,,,,,,VFR,-1.3,-12.2,-14.4,,,,,,,,,SPECI,7.0
PFNO 021756Z AUTO 00000KT 10SM FEW060 M12/M14 A3070 RMK AO2 SLP397 T11221144 11111 21139 58012 FZRANO,PFNO,2018-04-02T17:56:00Z,66.82,-161.02,-12.2,-14.4,0,0,,10.0,30.699802,1039.7,,TRUE,TRUE,,,,TRUE,,,FEW,6000,,,,,,,VFR,-1.2,-11.1,-13.9,,,,,,,,,SPECI,17.0
PFKW 021756Z AUTO 03015KT 10SM CLR M03/M08 A3045 RMK AO2 SLP312 T10331083 11011 21039 56005 FZRANO,PFKW,2018-04-02T17:56:00Z,60.8,-161.43,-3.3,-8.3,30,15,,10.0,30.448818,1031.2,,TRUE,TRUE,,,,TRUE,,,CLR,,,,,,,,VFR,-0.5,-1.1,-3.9,,,,,,,,,SPECI,8.0
PFEL 021756Z AUTO 36003KT 10SM CLR M03/M13 A3066 RMK AO2 SLP385 T10331128 11033 21056 56012 FZRANO,PFEL,2018-04-02T17:56:00Z,64.62,-162.27,-3.3,-12.8,360,3,,10.0,30.661417,1038.5,,TRUE,TRUE,,,,TRUE,,,CLR,,,,,,,,VFR,-1.2,-3.3,-5.6,,,,,,,,,METAR,49.0
PFCL 021756Z AUTO 02016KT 10SM CLR M02/M06 A3037 RMK AO2 SLP278 T10171056 10000 21022 58002 FZRANO TSNO,PFCL,2018-04-02T17:56:00Z,58.83,-158.53,-1.7,-5.6,20,16,,10.0,30.369095,1027.8,,TRUE,TRUE,,,TRUE,TRUE,,,CLR,,,,,,,,VFR,-0.2,0.0,-2.2,,,,,,,,,SPECI,24.0
PFWS 021756Z AUTO 02011KT 10SM CLR M03/M06 A3035 RMK AO2 SLP284 T10281056 11017 21039 56003 FZRANO,PFWS,2018-04-02T17:56:00Z,58.7,-157.0,-2.8,-5.6,20,11,,10.0,30.351377,1028.4,,TRUE,TRUE,,,,TRUE,,,CLR,,,,,,,,VFR,-0.3,-1.7,-3.9,,,,,,,,,SPECI,49.0
PPIT 021756Z AUTO 04021KT 10SM CLR M06/M09 A3049 RMK AO2 PK WND 04028/1733 SLP323 T10611094 11044 21061 56008 FZRANO TSNO,PPIT,2018-04-02T17:56:00Z,60.9,-162.43,-6.1,-9.4,40,21,,10.0,30.490158,1032.3,,TRUE,TRUE,,,TRUE,TRUE,,,CLR,,,,,,,,VFR,-0.8,-4.4,-6.1,,,,,,,,,SPECI,4.0
KM19 021756Z AUTO 08005KT 10SM 06/04 A3000 RMK AO2 SLP166 60000 T00610044 10061 20033 58017 TSNO $,KM19,2018-04-02T17:56:00Z,35.65,-91.17,6.1,4.4,80,5,,10.0,30.0,1016.6,,TRUE,TRUE,TRUE,,TRUE,,,,,,,,,,,,,-1.7,6.1,3.3,,,,,,,,,SPECI,73.0
KMBL 021756Z AUTO 28008KT 10SM CLR 02/M09 A3005 RMK AO2 SLP197 T00221094 10022 21061 58020 FZRANO,KMBL,2018-04-02T17:56:00Z,44.27,-86.25,2.2,-9.4,280,8,,10.0,30.050198,1019.7,,TRUE,TRUE,,,,TRUE,,,CLR,,,,,,,,VFR,-2.0,2.2,-6.1,,,,,,,,,METAR,189.0
KMJX 021756Z AUTO 01010G16KT 10SM 05/01 A3013 RMK AO2 SLP209 60004 T00500011 10050 20011 53004 $,KMJX,2018-04-02T17:56:00Z,39.93,-74.3,5.0,1.1,10,10,16,10.0,30.129921,1020.9,,TRUE,TRUE,TRUE,,,,,,,,,,,,,,,0.4,5.0,1.1,,,,,0.04,,,,METAR,25.0
KMNM 021756Z AUTO 19011KT 10SM CLR 01/M09 A3003 RMK AO2 SLP190 T00061089 10017 21089 56014 FZRANO $,KMNM,2018-04-02T17:56:00Z,45.12,-87.62,0.6,-8.9,190,11,,10.0,30.029528,1019.0,,TRUE,TRUE,TRUE,,,TRUE,,,CLR,,,,,,,,VFR,-1.4,1.7,-8.9,,,,,,,,,METAR,191.0
KMKT 021756Z AUTO 15013KT 10SM OVC045 01/M06 A2989 RMK AO2 SNE29 SLP137 P0000 60000 T00061061 10006 21039 56021 FZRANO,KMKT,2018-04-02T17:56:00Z,44.22,-93.92,0.6,-6.1,150,13,,10.0,29.890747,1013.7,,TRUE,TRUE,,,,TRUE,,,OVC,4500,,,,,,,VFR,-2.1,0.6,-3.9,,,0.005,,0.005,,,,METAR,311.0
KMKY 021756Z AUTO 19007KT 10SM CLR 29/19 A3003 RMK AO2 SLP169 T02890189 10289 20189 58015,KMKY,2018-04-02T17:56:00Z,26.0,-81.67,28.9,18.9,190,7,,10.0,30.029528,1016.9,,TRUE,TRUE,,,,,,,CLR,,,,,,,,VFR,-1.5,28.9,18.9,,,,,,,,,SPECI,2.0
KSGJ 021756Z 11011KT 10SM SCT040 24/19 A3006 RMK AO2 SLP178 T02440194 10261 20167 58010,KSGJ,2018-04-02T17:56:00Z,29.97,-81.32,24.4,19.4,110,11,,10.0,30.059055,1017.8,,,TRUE,,,,,,,SCT,4000,,,,,,,VFR,-1.0,26.1,16.7,,,,,,,,,SPECI,3.0
KMQY 021756Z 00000KT 10SM OVC022 12/08 A3003 RMK AO2 SLP112 T01170083 10117 20083 58007,KMQY,2018-04-02T17:56:00Z,36.02,-86.52,11.7,8.3,0,0,,10.0,30.029528,1011.2,,,TRUE,,,,,,,OVC,2200,,,,,,,MVFR,-0.7,11.7,8.3,,,,,,,,,SPECI,166.0
KSGT 021756Z AUTO VRB03KT 9SM OVC007 09/07 A3000 RMK AO2 SLP159 T00890067 10089 20056 58015,KSGT,2018-04-02T17:56:00Z,34.6,-91.57,8.9,6.7,0,3,,9.0,30.0,1015.9,,TRUE,TRUE,,,,,,,OVC,700,,,,,,,IFR,-1.5,8.9,5.6,,,,,,,,,SPECI,68.0
KSGU 021756Z AUTO 22003KT 10SM CLR 20/M04 A2976 RMK AO2 SLP050 T02001039 10200 20094 58007,KSGU,2018-04-02T17:56:00Z,37.07,-113.52,20.0,-3.9,220,3,,10.0,29.760826,1005.0,,TRUE,TRUE,,,,,,,CLR,,,,,,,,VFR,-0.7,20.0,9.4,,,,,,,,,METAR,896.0
KSKX 021756Z AUTO 26014G28KT 10SM CLR 17/M09 A2985 RMK AO2 PK WND 25030/1744 SLP056 T01671089 10167 21011 58022 $,KSKX,2018-04-02T17:56:00Z,36.45,-105.67,16.7,-8.9,260,14,28,10.0,29.84941,1005.6,,TRUE,TRUE,TRUE,,,,,,CLR,,,,,,,,VFR,-2.2,16.7,-1.1,,,,,,,,,METAR,2161.0
KMTW 021756Z AUTO 16010KT 10SM CLR 01/M11 A3006 RMK AO2 SLP204 T00061111 10017 21072 58012 FZRANO,KMTW,2018-04-02T17:56:00Z,44.12,-87.67,0.6,-11.1,160,10,,10.0,30.059055,1020.4,,TRUE,TRUE,,,,TRUE,,,CLR,,,,,,,,VFR,-1.2,1.7,-7.2,,,,,,,,,METAR,198.0
KMSV 021756Z AUTO 28004KT 10SM SCT026 02/M04 A3007 RMK AO2 SLP198 60017 T00171039 10017 21028 56004 FZRANO,KMSV,2018-04-02T17:56:00Z,41.7,-74.78,1.7,-3.9,280,4,,10.0,30.070866,1019.8,,TRUE,TRUE,,,,TRUE,,,SCT,2600,,,,,,,VFR,-0.4,1.7,-2.8,,,,,0.17,,,,METAR,428.0
KSLG 021756Z AUTO 20007KT 10SM OVC003 08/07 A2987 RMK AO2 SLP121 60000 T00780072 10078 20022 58022,KSLG,2018-04-02T17:56:00Z,36.2,-94.47,7.8,7.2,200,7,,10.0,29.870079,1012.1,,TRUE,TRUE,,,,,,,OVC,300,,,,,,,LIFR,-2.2,7.8,2.2,,,,,,,,,SPECI,300.0
KSMN 021756Z AUTO 31008KT 9SM FEW023 BKN065 OVC080 00/M08 A2971 RMK AO2 RAB11E19SNB19E55 SLP074 P0000 60002 T00001083 10011 21011 53038 FZRANO,KSMN,2018-04-02T17:56:00Z,45.12,-113.87,0.0,-8.3,310,8,,9.0,29.71063,1007.4,,TRUE,TRUE,,,,TRUE,,,FEW,2300,BKN,6500,OVC,8000,,,VFR,3.8,1.1,-1.1,,,0.005,,0.02,,,,METAR,1233.0
KMYR 021756Z 19014KT 10SM CLR 22/15 A3001 RMK AO2 SLP164 T02220150 10261 20139 56014,KMYR,2018-04-02T17:56:00Z,33.67,-78.92,22.2,15.0,190,14,,10.0,30.008858,1016.4,,,TRUE,,,,,,,CLR,,,,,,,,VFR,-1.4,26.1,13.9,,,,,,,,,SPECI,8.0
KMVN 021756Z AUTO 06007KT 7SM OVC006 03/01 A3004 RMK AO2 SLP177 T00280011 10028 21017 58022,KMVN,2018-04-02T17:56:00Z,38.32,-88.87,2.8,1.1,60,7,,7.0,30.041338,1017.7,,TRUE,TRUE,,,,,,,OVC,600,,,,,,,IFR,-2.2,2.8,-1.7,,,,,,,,,METAR,146.0
KSOP 021756Z AUTO 27008KT 10SM FEW050 27/08 A2997 RMK AO2 SLP161 T02720078 10272 20144 58009,KSOP,2018-04-02T17:56:00Z,35.22,-79.4,27.2,7.8,270,8,,10.0,29.970472,1016.1,,TRUE,TRUE,,,,,,,FEW,5000,,,,,,,VFR,-0.9,27.2,14.4,,,,,,,,,SPECI,141.0
KSQI 021756Z AUTO 16007KT 130V200 10SM CLR 03/M08 A3006 RMK AO2 SLP202 6//// T00281083 10033 21078 $,KSQI,2018-04-02T17:56:00Z,41.75,-89.67,2.8,-8.3,160,7,,10.0,30.059055,1020.2,,TRUE,TRUE,TRUE,,,,,,CLR,,,,,,,,VFR,,3.3,-7.8,,,,,,,,,METAR,197.0
KSRC 021756Z AUTO VRB03KT 10SM OVC006 07/07 A3000 RMK AO2 SLP168 6//// T00720067 10072 20044 58017,KSRC,2018-04-02T17:56:00Z,35.22,-91.73,7.2,6.7,0,3,,10.0,30.0,1016.8,,TRUE,TRUE,,,,,,,OVC,600,,,,,,,IFR,-1.7,7.2,4.4,,,,,,,,,SPECI,80.0
KSUE 021756Z AUTO 23007KT 10SM CLR 01/M10 A3003 RMK AO2 SLP196 T00111100 10017 21061 58015 FZRANO,KSUE,2018-04-02T17:56:00Z,44.85,-87.42,1.1,-10.0,230,7,,10.0,30.029528,1019.6,,TRUE,TRUE,,,,TRUE,,,CLR,,,,,,,,VFR,-1.5,1.7,-6.1,,,,,,,,,METAR,221.0
KTVF 021756Z AUTO 06010KT 10SM CLR M06/M13 A2996 RMK AO2 SLP169 T10611133 11061 21117 50002 FZRANO,KTVF,2018-04-02T17:56:00Z,48.07,-96.17,-6.1,-13.3,60,10,,10.0,29.958662,1016.9,,TRUE,TRUE,,,,TRUE,,,CLR,,,,,,,,VFR,0.2,-6.1,-11.7,,,,,,,,,METAR,340.0
KVPZ 021756Z AUTO 17008G17KT 130V210 10SM CLR 06/M06 A3008 RMK AO2 SLP194 T00561061 10061 21061 58021,KVPZ,2018-04-02T17:56:00Z,41.45,-87.0,5.6,-6.1,170,8,17,10.0,30.079725,1019.4,,TRUE,TRUE,,,,,,,CLR,,,,,,,,VFR,-2.1,6.1,-6.1,,,,,,,,,METAR,231.0
KWJF 021756Z 26019KT 10SM CLR 22/05 A2981 RMK AO2 PK WND 27026/1729 SLP084 T02170050 10217 20117 58003,KWJF,2018-04-02T17:56:00Z,34.72,-118.22,21.7,5.0,260,19,,10.0,29.811024,1008.4,,,TRUE,,,,,,,CLR,,,,,,,,VFR,-0.3,21.7,11.7,,,,,,,,,METAR,715.0
KWMC 021756Z AUTO 31015G21KT 10SM BKN050 BKN065 OVC080 11/M02 A2985 RMK AO2 PK WND 30031/1705 RAB1659E31 SLP089 P0000 60000 T01111017 10122 20094 53027,KWMC,2018-04-02T17:56:00Z,40.9,-117.8,11.1,-1.7,310,15,21,10.0,29.84941,1008.9,,TRUE,TRUE,,,,,,,BKN,5000,BKN,6500,OVC,8000,,,VFR,2.7,12.2,9.4,,,0.005,,0.005,,,,METAR,1310.0
KOCH 021756Z AUTO 18014G19KT 10SM 26/19 A2990 RMK AO2 SLP126 T02610189 10261 20189 58016 $,KOCH,2018-04-02T17:56:00Z,31.57,-94.72,26.1,18.9,180,14,19,10.0,29.899607,1012.6,,TRUE,TRUE,TRUE,,,,,,,,,,,,,,,-1.6,26.1,18.9,,,,,,,,,METAR,108.0
KOAJ 021756Z AUTO 25007G16KT 10SM CLR 28/10 A2997 RMK AO2 SLP152 T02830100 10283 20139 58018,KOAJ,2018-04-02T17:56:00Z,34.82,-77.62,28.3,10.0,250,7,16,10.0,29.970472,1015.2,,TRUE,TRUE,,,,,,,CLR,,,,,,,,VFR,-1.8,28.3,13.9,,,,,,,,,SPECI,29.0
KOLU 021756Z AUTO 15013KT 10SM OVC011 00/M04 A2975 RMK AO2 SLP092 T00001044 10006 21056 58013 FZRANO,KOLU,2018-04-02T17:56:00Z,41.45,-97.32,0.0,-4.4,150,13,,10.0,29.749016,1009.2,,TRUE,TRUE,,,,TRUE,,,OVC,1100,,,,,,,MVFR,-1.3,0.6,-5.6,,,,,,,,,METAR,440.0
KOKK 021756Z AUTO 14009KT 10SM CLR 03/M02 A3009 RMK AO2 SLP201 60007 T00281017 10028 21039 58024,KOKK,2018-04-02T17:56:00Z,40.53,-86.07,2.8,-1.7,140,9,,10.0,30.088583,1020.1,,TRUE,TRUE,,,,,,,CLR,,,,,,,,VFR,-2.4,2.8,-3.9,,,,,0.07,,,,METAR,253.0
KUCP 021756Z AUTO VRB04KT 10SM FEW024 OVC032 03/M01 A3013 RMK AO2 SLP230 60000 T00281011 10039 21006 55002,KUCP,2018-04-02T17:56:00Z,41.03,-80.42,2.8,-1.1,0,4,,10.0,30.129921,1023.0,,TRUE,TRUE,,,,,,,FEW,2400,OVC,3200,,,,,VFR,-0.2,3.9,-0.6,,,,,0.005,,,,METAR,327.0
KUDG 021756Z AUTO 22012KT 10SM CLR 28/09 A2997 RMK AO2 SLP153 T02780089 10278 20133 58016,KUDG,2018-04-02T17:56:00Z,34.45,-79.88,27.8,8.9,220,12,,10.0,29.970472,1015.3,,TRUE,TRUE,,,,,,,CLR,,,,,,,,VFR,-1.6,27.8,13.3,,,,,,,,,SPECI,59.0
KVBT 021756Z AUTO 16005KT 10SM OVC004 08/07 A2988 RMK AO2 SLP127 60000 T00780067 10078 20022 58023,KVBT,2018-04-02T17:56:00Z,36.35,-94.22,7.8,6.7,160,5,,10.0,29.878937,1012.7,,TRUE,TRUE,,,,,,,OVC,400,,,,,,,LIFR,-2.3,7.8,2.2,,,,,,,,,SPECI,395.0
KOTG 021756Z AUTO 16016G21KT 10SM BKN020 OVC042 00/M04 A2978 RMK AO2 SLP107 60000 T00001039 10000 21044 58018 FZRANO,KOTG,2018-04-02T17:56:00Z,43.63,-95.57,0.0,-3.9,160,16,21,10.0,29.778543,1010.7,,TRUE,TRUE,,,,TRUE,,,BKN,2000,OVC,4200,,,,,MVFR,-1.8,0.0,-4.4,,,,,0.005,,,,METAR,480.0
KHDN 021756Z AUTO 24020G34KT 10SM FEW095 14/M07 A2960 RMK AO2 PK WND 23034/1750 SLP974 T01441067 10144 20028 58023 TSNO,KHDN,2018-04-02T17:56:00Z,40.47,-107.22,14.4,-6.7,240,20,34,10.0,29.601377,997.4,,TRUE,TRUE,,,TRUE,,,,FEW,9500,,,,,,,VFR,-2.3,14.4,2.8,,,,,,,,,METAR,2012.0
KHEF 021756Z AUTO 36009KT 10SM OVC023 09/03 A3012 RMK AO2 SLP212 6//// T00940033 10094 20039 52001 PNO $,KHEF,2018-04-02T17:56:00Z,38.72,-77.52,9.4,3.3,360,9,,10.0,30.121063,1021.2,,TRUE,TRUE,TRUE,,,,,,OVC,2300,,,,,,,MVFR,0.1,9.4,3.9,,,,,,,,,SPECI,59.0
KHEZ 021756Z AUTO 21008KT 10SM SCT033 SCT048 BKN055 24/17 A2999 RMK AO2 SLP158 T02440172 10256 20156 58007,KHEZ,2018-04-02T17:56:00Z,31.62,-91.3,24.4,17.2,210,8,,10.0,29.991142,1015.8,,TRUE,TRUE,,,,,,,SCT,3300,SCT,4800,BKN,5500,,,VFR,-0.7,25.6,15.6,,,,,,,,,SPECI,83.0
KOWB 021756Z 07005KT 7SM OVC015 07/04 A3005 RMK AO2 SLP189 T00720039 10072 20033 58017,KOWB,2018-04-02T17:56:00Z,37.72,-87.17,7.2,3.9,70,5,,7.0,30.050198,1018.9,,,TRUE,,,,,,,OVC,1500,,,,,,,MVFR,-1.7,7.2,3.3,,,,,,,,,SPECI,124.0
KHND 021756Z 20008KT 10SM CLR 24/M01 A2976 RMK AO2 SLP060 T02441011 10244 20144 50000 $,KHND,2018-04-02T17:56:00Z,35.98,-115.13,24.4,-1.1,200,8,,10.0,29.760826,1006.0,,,TRUE,TRUE,,,,,,CLR,,,,,,,,VFR,0.0,24.4,14.4,,,,,,,,,METAR,749.0
KHYI 021756Z 15013KT 10SM FEW031 29/19 A2983 RMK AO2 SLP091 T02890189 10289 20189 58014 $,KHYI,2018-04-02T17:56:00Z,29.88,-97.87,28.9,18.9,150,13,,10.0,29.828741,1009.1,,,TRUE,TRUE,,,,,,FEW,3100,,,,,,,VFR,-1.4,28.9,18.9,,,,,,,,,METAR,182.0
KHYS 021756Z AUTO 19017G25KT 10SM CLR 07/M03 A2967 RMK AO2 PK WND 20026/1729 SLP061 T00721033 10072 21061 58038 TSNO,KHYS,2018-04-02T17:56:00Z,38.85,-99.27,7.2,-3.3,190,17,25,10.0,29.66929,1006.1,,TRUE,TRUE,,,TRUE,,,,CLR,,,,,,,,VFR,-3.8,7.2,-6.1,,,,,,,,,SPECI,609.0
KISM 021756Z COR 13007KT 10SM BKN035 29/17 A3004 RMK AO2 SLP175 T02890172 10289 20206 58014,KISM,2018-04-02T17:56:00Z,28.28,-81.43,28.9,17.2,130,7,,10.0,30.041338,1017.5,TRUE,,TRUE,,,,,,,BKN,3500,,,,,,,VFR,-1.4,28.9,20.6,,,,,,,,,METAR,25.0
KISO 021756Z 24008KT 10SM CLR 27/07 A2996 RMK AO2,KISO,2018-04-02T17:56:00Z,35.32,-77.62,27.0,7.0,240,8,,10.0,29.958662,,,,TRUE,,,,,,,CLR,,,,,,,,VFR,,,,,,,,,,,,SPECI,29.0
KITH 021756Z 31008KT 10SM FEW050 05/M07 A3008 RMK AO2 SLP195 T00501067 10050 21017 58009,KITH,2018-04-02T17:56:00Z,42.47,-76.45,5.0,-6.7,310,8,,10.0,30.079725,1019.5,,,TRUE,,,,,,,FEW,5000,,,,,,,VFR,-0.9,5.0,-1.7,,,,,,,,,METAR,335.0
KIWD 021756Z AUTO 26010KT 10SM BKN075 M01/M13 A2996 RMK AO2 SLP164 T10061128 10000 21089 50001 FZRANO,KIWD,2018-04-02T17:56:00Z,46.52,-90.12,-0.6,-12.8,260,10,,10.0,29.958662,1016.4,,TRUE,TRUE,,,,TRUE,,,BKN,7500,,,,,,,VFR,0.1,0.0,-8.9,,,,,,,,,METAR,375.0
KVIS 021756Z AUTO VRB04KT 10SM CLR 18/10 A2989 RMK AO2 SLP127 T01830100 10183 20094 51011,KVIS,2018-04-02T17:56:00Z,36.32,-119.4,18.3,10.0,0,4,,10.0,29.890747,1012.7,,TRUE,TRUE,,,,,,,CLR,,,,,,,,VFR,1.1,18.3,9.4,,,,,,,,,METAR,89.0
KWVL 021756Z AUTO VRB04KT 10SM OVC055 03/M10 A3002 RMK AO2 SLP196 T00331100 10033 21017 58015,KWVL,2018-04-02T17:56:00Z,44.52,-69.67,3.3,-10.0,0,4,,10.0,30.02067,1019.6,,TRUE,TRUE,,,,,,,OVC,5500,,,,,,,VFR,-1.5,3.3,-1.7,,,,,,,,,METAR,101.0
KPIB 021756Z AUTO VRB05KT 10SM SCT043 24/16 A3004 RMK AO2 SLP170 T02440156 10244 20150 58003,KPIB,2018-04-02T17:56:00Z,31.47,-89.32,24.4,15.6,0,5,,10.0,30.041338,1017.0,,TRUE,TRUE,,,,,,,SCT,4300,,,,,,,VFR,-0.3,24.4,15.0,,,,,,,,,SPECI,91.0
KPQI 021756Z AUTO VRB04KT 10SM OVC065 01/M13 A3003 RMK AO2 SLP213 T00061128 10006 21050 56020 FZRANO,KPQI,2018-04-02T17:56:00Z,46.67,-68.03,0.6,-12.8,0,4,,10.0,30.029528,1021.3,,TRUE,TRUE,,,,TRUE,,,OVC,6500,,,,,,,VFR,-2.0,0.6,-5.0,,,,,,,,,METAR,146.0
KPTN 021756Z AUTO 20012KT 10SM SCT030 27/20 A3000 RMK AO2 SLP160 T02670200 10267 20167 58002,KPTN,2018-04-02T17:56:00Z,29.72,-91.32,26.7,20.0,200,12,,10.0,30.0,1016.0,,TRUE,TRUE,,,,,,,SCT,3000,,,,,,,VFR,-0.2,26.7,16.7,,,,,,,,,SPECI,3.0
KPTV 021756Z AUTO VRB04KT 10SM CLR 18/09 A2989 RMK AO2 SLP132 T01830089 10189 20078 51007,KPTV,2018-04-02T17:56:00Z,36.02,-119.07,18.3,8.9,0,4,,10.0,29.890747,1013.2,,TRUE,TRUE,,,,,,,CLR,,,,,,,,VFR,0.7,18.9,7.8,,,,,,,,,METAR,135.0
KY50 021756Z AUTO 16010KT 10SM CLR 03/M10 A3002 RMK AO2 SLP194 6//// T00281100 10028 21106 58016 $,KY50,2018-04-02T17:56:00Z,44.03,-89.3,2.8,-10.0,160,10,,10.0,30.02067,1019.4,,TRUE,TRUE,TRUE,,,,,,CLR,,,,,,,,VFR,-1.6,2.8,-10.6,,,,,,,,,METAR,262.0
KPVC 021756Z AUTO 35007KT 10SM -RA BKN008 OVC012 02/01 A3012 RMK AO2 RAB08SNE08 CIG 006V011 SLPNO P0000 6//// T00220006 FZRANO,KPVC,2018-04-02T17:56:00Z,42.07,-70.22,2.2,0.6,350,7,,10.0,30.121063,,,TRUE,TRUE,,,,TRUE,,-RA,BKN,800,OVC,1200,,,,,IFR,,,,,,0.005,,,,,,METAR,2.0
KPVG 021756Z AUTO 06011G17KT 10SM CLR A3006 RMK AO2 SLPNO 6//// 52020 FZRANO $,KPVG,2018-04-02T17:56:00Z,36.78,-76.45,,,60,11,17,10.0,30.059055,,,TRUE,TRUE,TRUE,,,TRUE,,,CLR,,,,,,,,VFR,2.0,,,,,,,,,,,SPECI,7.0
PAAK 021756Z AUTO 07024G29KT 3SM -RA BR OVC010 05/03 A2977 RMK AO2 PK WND 07029/1753 SLP082 P0000 60001 T00500033 10056 20044 58005,PAAK,2018-04-02T17:56:00Z,52.22,-174.2,5.0,3.3,70,24,29,3.0,29.769686,1008.2,,TRUE,TRUE,,,,,,-RA BR,OVC,1000,,,,,,,MVFR,-0.5,5.6,4.4,,,0.005,,,,,,SPECI,17.0
KPVU 021756Z 10004KT 10SM BKN120 OVC180 13/00 A2969 RMK AO2 SLP031 T01330000 10133 20056 58000,KPVU,2018-04-02T17:56:00Z,40.22,-111.72,13.3,0.0,100,4,,10.0,29.68996,1003.1,,,TRUE,,,,,,,BKN,12000,OVC,18000,,,,,VFR,0.0,13.3,5.6,,,,,,,,,METAR,1369.0
KPWG 021756Z AUTO 34007KT 3SM BR OVC004 09/08 A2991 RMK AO2 SLP148 T00890083 10094 20083 58011,KPWG,2018-04-02T17:56:00Z,31.47,-97.32,8.9,8.3,340,7,,3.0,29.911417,1014.8,,TRUE,TRUE,,,,,,BR,OVC,400,,,,,,,LIFR,-1.1,9.4,8.3,,,,,,,,,METAR,180.0
KPWT 021756Z AUTO 21003KT 10SM FEW032 06/M02 A3005 RMK AO2 SLP197 6//// T00611017 10067 21044 51023,KPWT,2018-04-02T17:56:00Z,47.5,-122.75,6.1,-1.7,210,3,,10.0,30.050198,1019.7,,TRUE,TRUE,,,,,,,FEW,3200,,,,,,,VFR,2.3,6.7,-4.4,,,,,,,,,METAR,147.0
KRKD 021756Z AUTO 19009KT 10SM OVC060 03/M08 A3010 RMK AO2 SLP194 60000 T00331078 10033 21006 56011,KRKD,2018-04-02T17:56:00Z,44.07,-69.08,3.3,-7.8,190,9,,10.0,30.100393,1019.4,,TRUE,TRUE,,,,,,,OVC,6000,,,,,,,VFR,-1.1,3.3,-0.6,,,,,0.005,,,,METAR,17.0
PADK 021756Z AUTO 06013KT 10SM BKN017 OVC022 04/04 A2974 RMK AO2 SLP069 60002 T00440039 10044 20033 56013,PADK,2018-04-02T17:56:00Z,51.88,-176.65,4.4,3.9,60,13,,10.0,29.740158,1006.9,,TRUE,TRUE,,,,,,,BKN,1700,OVC,2200,,,,,MVFR,-1.3,4.4,3.3,,,,,,,,,SPECI,4.0
PABV 021756Z AUTO 05014G20KT 10SM CLR 01/M13 A3033 RMK AO2 SLP280 T00111128 10022 20006 58005 FZRANO $,PABV,2018-04-02T17:56:00Z,61.42,-149.52,1.1,-12.8,50,14,20,10.0,30.33071,1028.0,,TRUE,TRUE,TRUE,,,TRUE,,,CLR,,,,,,,,VFR,-0.5,2.2,0.6,,,,,,,,,SPECI,29.0
PAGN 021756Z AUTO 00000KT 10SM BKN070 OVC080 02/M08 A2997 RMK AO2 SLP137 T00221078 10022 21028 58004 FZRANO,PAGN,2018-04-02T17:56:00Z,57.5,-134.58,2.2,-7.8,0,0,,10.0,29.970472,1013.7,,TRUE,TRUE,,,,TRUE,,,BKN,7000,OVC,8000,,,,,VFR,-0.4,2.2,-2.8,,,,,,,,,SPECI,2.0
PAGL 021756Z AUTO 31010KT 10SM CLR M12/M15 A3067 RMK AO2 SLP382 T11171150 11072 21139 56010 FZRANO,PAGL,2018-04-02T17:56:00Z,64.55,-163.03,-11.7,-15.0,310,10,,10.0,30.670275,1038.2,,TRUE,TRUE,,,,TRUE,,,CLR,,,,,,,,VFR,-1.0,-7.2,-13.9,,,,,,,,,SPECI,8.0
PAFM 021756Z AUTO 00000KT 10SM BKN060 OVC080 M11/M15 A3071 RMK AO2 SLP414 T11061150 11100 21122 56013 FZRANO,PAFM,2018-04-02T17:56:00Z,67.1,-157.85,-10.6,-15.0,0,0,,10.0,30.708662,1041.4,,TRUE,TRUE,,,,TRUE,,,BKN,6000,OVC,8000,,,,,VFR,-1.3,-10.0,-12.2,,,,,,,,,SPECI,88.0
PAFE 021756Z AUTO VRB05KT 10SM OVC070 03/M07 A2994 RMK AO2 SLP150 T00331072 10033 21039 56004,PAFE,2018-04-02T17:56:00Z,56.97,-133.92,3.3,-7.2,0,5,,10.0,29.940945,1015.0,,TRUE,TRUE,,,,,,,OVC,7000,,,,,,,VFR,-0.4,3.3,-3.9,,,,,,,,,SPECI,9.0
PAHX 021756Z AUTO 01009KT 10SM CLR M07/M12 A3061 RMK AO2 SLP368 T10671122 11044 21072 58005 FZRANO,PAHX,2018-04-02T17:56:00Z,62.7,-159.57,-6.7,-12.2,10,9,,10.0,30.611221,1036.8,,TRUE,TRUE,,,,TRUE,,,CLR,,,,,,,,VFR,-0.5,-4.4,-7.2,,,,,,,,,SPECI,24.0
PAHP 021756Z AUTO 04009KT 10SM CLR M06/M09 A3060 RMK AO2 PRESRR SLP402 T10561094 11022 21056 55000 FZRANO,PAHP,2018-04-02T17:56:00Z,61.52,-166.15,-5.6,-9.4,40,9,,10.0,30.59941,1040.2,,TRUE,TRUE,,,,TRUE,,,CLR,,,,,,,,VFR,0.0,-2.2,-5.6,,,,,,,,,SPECI,5.0
PAKP 021756Z AUTO 00000KT 10SM CLR M16/M20 A3055 RMK AO2 SLP422 T11611200 11161 21250 58014 FZRANO,PAKP,2018-04-02T17:56:00Z,68.13,-151.73,-16.1,-20.0,0,0,,10.0,30.549213,1042.2,,TRUE,TRUE,,,,TRUE,,,CLR,,,,,,,,VFR,-1.4,-16.1,-25.0,,,,,,,,,SPECI,642.0
PAKK 021756Z AUTO 01005KT 10SM BKN080 M04/M13 A3061 RMK AO2 SLP382 T10441128 11044 21067 56012 FZRANO,PAKK,2018-04-02T17:56:00Z,64.93,-161.15,-4.4,-12.8,10,5,,10.0,30.611221,1038.2,,TRUE,TRUE,,,,TRUE,,,BKN,8000,,,,,,,VFR,-1.2,-4.4,-6.7,,,,,,,,,SPECI,47.0
PAII 021756Z AUTO 04007KT 10SM CLR M02/M04 A3034 RMK AO2 SLP276 T10171044 11017 21033 55000 FZRANO,PAII,2018-04-02T17:56:00Z,58.18,-157.38,-1.7,-4.4,40,7,,10.0,30.339567,1027.6,,TRUE,TRUE,,,,TRUE,,,CLR,,,,,,,,VFR,0.0,-1.7,-3.3,,,,,,,,,SPECI,30.0
KRUT 021756Z AUTO 27006KT 10SM SCT055 03/M09 A3007 RMK AO2 SLP208 T00331094 10039 21017 55007 $,KRUT,2018-04-02T17:56:00Z,43.52,-72.95,3.3,-9.4,270,6,,10.0,30.070866,1020.8,,TRUE,TRUE,TRUE,,,,,,SCT,5500,,,,,,,VFR,-0.7,3.9,-1.7,,,,,,,,,METAR,240.0
KSDY 021756Z AUTO 03012KT 10SM CLR M04/M10 A2984 RMK AO2 SLP138 T10441100 11044 21083 51012 FZRANO,KSDY,2018-04-02T17:56:00Z,47.7,-104.2,-4.4,-10.0,30,12,,10.0,29.840551,1013.8,,TRUE,TRUE,,,,TRUE,,,CLR,,,,,,,,VFR,1.2,-4.4,-8.3,,,,,,,,,METAR,605.0
KSFM 021756Z AUTO 25006KT 10SM 03/M03 A3010 RMK AO2 SLP198 60001 T00281033 10033 21011 57015 $,KSFM,2018-04-02T17:56:00Z,43.38,-70.72,2.8,-3.3,250,6,,10.0,30.100393,1019.8,,TRUE,TRUE,TRUE,,,,,,,,,,,,,,,-1.5,3.3,-1.1,,,,,0.01,,,,METAR,74.0
KSFZ 021756Z AUTO 10SM BKN017 BKN023 BKN100 02/M02 A3009 RMK AO2 RAE05B29E47UPB05E29 SLP138 P0000 60016 T00221022 10028 21011 58013 FZRANO $,KSFZ,2018-04-02T17:56:00Z,41.92,-71.5,2.2,-2.2,,,,10.0,30.088583,1013.8,,TRUE,TRUE,TRUE,,,TRUE,,,BKN,1700,BKN,2300,BKN,10000,,,MVFR,-1.3,2.8,-1.1,,,0.005,,0.16,,,,METAR,134.0
PANA 021756Z AUTO 04013G18KT 10SM CLR M04/M08 A3044 RMK AO2 SLP309 T10441083 11022 21050 55006 FZRANO,PANA,2018-04-02T17:56:00Z,60.68,-161.98,-4.4,-8.3,40,13,18,10.0,30.43996,1030.9,,TRUE,TRUE,,,,TRUE,,,CLR,,,,,,,,VFR,-0.6,-2.2,-5.0,,,,,,,,,SPECI,5.0
PAOH 021756Z AUTO VRB03KT 10SM OVC075 02/M12 A3001 RMK AO2 SLP163 T00221122 10022 21011 57003 FZRANO,PAOH,2018-04-02T17:56:00Z,58.1,-135.45,2.2,-12.2,0,3,,10.0,30.008858,1016.3,,TRUE,TRUE,,,,TRUE,,,OVC,7500,,,,,,,VFR,-0.3,2.2,-1.1,,,,,,,,,SPECI,9.0
PAPN 021756Z AUTO 04009KT 10SM CLR M01/M02 A3029 RMK AO2 SLP258 T10111022 11011 21056 52000 FZRANO,PAPN,2018-04-02T17:56:00Z,57.58,-157.57,-1.1,-2.2,40,9,,10.0,30.28937,1025.8,,TRUE,TRUE,,,,TRUE,,,CLR,,,,,,,,VFR,0.0,-1.1,-5.6,,,,,,,,,METAR,18.0
PAQH 021756Z AUTO 01013KT 10SM CLR M02/M06 A3036 RMK AO2 SLP283 T10171061 11017 21028 58005 PWINO FZRANO,PAQH,2018-04-02T17:56:00Z,59.75,-161.85,-1.7,-6.1,10,13,,10.0,30.360237,1028.3,,TRUE,TRUE,,,,TRUE,TRUE,,CLR,,,,,,,,VFR,-0.5,-1.7,-2.8,,,,,,,,,SPECI,13.0
PAZK 021756Z AUTO 00000KT 10SM FEW047 M10/M15 A3026 RMK AO2 SNE06 SLP325 P0000 60000 T11001150 11094 21133 56004 FZRANO,PAZK,2018-04-02T17:56:00Z,61.93,-147.17,-10.0,-15.0,0,0,,10.0,30.259842,1032.5,,TRUE,TRUE,,,,TRUE,,,FEW,4700,,,,,,,VFR,-0.4,-9.4,-13.3,,,0.005,,,,,,SPECI,1003.0
PASL 021756Z AUTO VRB03KT 10SM CLR M02/M09 A3053 RMK AO2 SLP335 T10171094 11011 21033 56008 FZRANO,PASL,2018-04-02T17:56:00Z,61.72,-157.15,-1.7,-9.4,0,3,,10.0,30.528543,1033.5,,TRUE,TRUE,,,,TRUE,,,CLR,,,,,,,,VFR,-0.8,-1.1,-3.3,,,,,,,,,SPECI,55.0
KJHW 021756Z AUTO 28005KT 10SM CLR 03/M08 A3006 RMK AO2 SLP202 6//// T00331078 10033 21039 $,KJHW,2018-04-02T17:56:00Z,42.13,-79.27,3.3,-7.8,280,5,,10.0,30.059055,1020.2,,TRUE,TRUE,TRUE,,,,,,CLR,,,,,,,,VFR,,3.3,-3.9,,,,,,,,,METAR,525.0
KHME 021755Z AUTO 09010KT //// // ////// 17/03 Q1013,KHME,2018-04-02T17:55:00Z,,,17.0,3.0,90,10,,,29.911417,,,TRUE,,,,,,,,,,,,,,,,,,,,,,,,,,,,METAR,
LIRS 021755Z 16005KT 9999 FEW040 11/07 Q1017 RMK SCT SCT200 VIS MIN 9999 WIND THR03 /////KT WIND THR21 16004KT BLU,LIRS,2018-04-02T17:55:00Z,42.75,11.07,11.0,7.0,160,5,,6.21,30.029528,,,,,,,,,,,FEW,4000,,,,,,,VFR,,,,,,,,,,,,METAR,7.0
LIRM 021755Z /////KT CAVOK 12/12 Q1019,LIRM,2018-04-02T17:55:00Z,41.03,14.07,12.0,12.0,,,,6.21,30.088583,,,,,,,,,,,CAVOK,,,,,,,,VFR,,,,,,,,,,,,METAR,10.0
LICT 021755Z 14008KT CAVOK 12/08 Q1018 RMK SCT SCT200 VIS MIN 9999 WIND THR13 12007KT BLU,LICT,2018-04-02T17:55:00Z,37.92,12.5,12.0,8.0,140,8,,6.21,30.059055,,,,,,,,,,,CAVOK,,,,,,,,VFR,,,,,,,,,,,,METAR,7.0
LICG 021755Z 18015KT 9999 FEW017 14/13 Q1016 RMK SCT SCT200 VIS MIN 9999 WIND THR08 /////KT WIND THR21 19015KT BLU,LICG,2018-04-02T17:55:00Z,36.82,11.97,14.0,13.0,180,15,,6.21,30.0,,,,,,,,,,,FEW,1700,,,,,,,VFR,,,,,,,,,,,,METAR,191.0
LIPF 021755Z 10003KT CAVOK 15/07 Q1015 RMK SCT SCT200 VIS MIN 9999,LIPF,2018-04-02T17:55:00Z,44.82,11.62,15.0,7.0,100,3,,6.21,29.970472,,,,,,,,,,,CAVOK,,,,,,,,VFR,,,,,,,,,,,,METAR,10.0
LIPC 021755Z 13010KT CAVOK 12/06 Q1015 RMK SCT SCT160 VIS MIN 9999 WIND THR11 13010KT WIND THR29 /////KT BLU,LIPC,2018-04-02T17:55:00Z,44.22,12.3,12.0,6.0,130,10,,6.21,29.970472,,,,,,,,,,,CAVOK,,,,,,,,VFR,,,,,,,,,,,,METAR,10.0
LIMS 021755Z 02002KT CAVOK 13/10 Q1014 RMK BKN FEW100 BKN180 VIS MIN 9999 WIND THR30 00000KT BLU,LIMS,2018-04-02T17:55:00Z,44.92,9.72,13.0,10.0,20,2,,6.21,29.940945,,,,,,,,,,,CAVOK,,,,,,,,VFR,,,,,,,,,,,,METAR,138.0
TNCE 021755Z AUTO 07009KT 010V100 //// // ///////// 27/21 Q1013 RE//,TNCE,2018-04-02T17:55:00Z,17.47,-62.97,27.0,21.0,70,9,,,29.911417,,,TRUE,,,,,,,,,,,,,,,,,,,,,,,,,,,,SPECI,39.0
TNCB 021755Z AUTO 10012KT 050V150 //// // FEW022/// 29/22 Q1011 RE//,TNCB,2018-04-02T17:55:00Z,12.13,-68.28,29.0,22.0,100,12,,,29.852362,,,TRUE,,,,,,,,FEW,2200,,,,,,,,,,,,,,,,,,,SPECI,6.0
ORBD 021755Z 17004KT 9999 CLR 20/05 A2991 RMK WND DATA ALSTG ESTMD,ORBD,2018-04-02T17:55:00Z,33.93,44.37,20.0,5.0,170,4,,6.21,29.911417,,,,,,,,,,,CLR,,,,,,,,VFR,,,,,,,,,,,,METAR,49.0
KHUM 021755Z 16010KT 7SM BKN060 26/21 A3000,KHUM,2018-04-02T17:55:00Z,29.57,-90.67,26.0,21.0,160,10,,7.0,30.0,,,,,,,,,,,BKN,6000,,,,,,,VFR,,,,,,,,,,,,METAR,3.0
OPLA 021755Z 07006KT 4000 FU SCT100 26/19 Q1010/A29.85 NOSIG,OPLA,2018-04-02T17:55:00Z,31.52,74.4,26.0,19.0,70,6,,2.49,,,,,,,TRUE,,,,FU,SCT,10000,,,,,,,IFR,,,,,,,,,,,,METAR,217.0
KNBG 021755Z 19007KT 10SM BKN046 BKN055 BKN250 26/20 A3001 RMK AO2 SLP160 T02560200 10261 20133 58003 $,KNBG,2018-04-02T17:55:00Z,29.82,-90.02,25.6,20.0,190,7,,10.0,30.008858,1016.0,,,TRUE,TRUE,,,,,,BKN,4600,BKN,5500,BKN,25000,,,VFR,-0.3,26.1,13.3,,,,,,,,,SPECI,1.0
FJDG 021755Z 10011KT 9999 FEW023 FEW080 SCT250 28/26 A2985 RMK SLP105 8/132 T02790258 10301 20279 403150259 50010,FJDG,2018-04-02T17:55:00Z,-7.32,72.42,27.9,25.8,100,11,,6.21,29.84941,1010.5,,,,,,,,,,FEW,2300,FEW,8000,SCT,25000,,,VFR,1.0,30.1,27.9,31.5,25.9,,,,,,,METAR,3.0
KO22 021755Z AUTO 22003KT 10SM CLR 20/03 A2991 RMK AO1,KO22,2018-04-02T17:55:00Z,38.03,-120.42,20.0,3.0,220,3,,10.0,29.911417,,,TRUE,TRUE,,,,,,,CLR,,,,,,,,VFR,,,,,,,,,,,,SPECI,646.0
KCNW 021755Z 3006KT 1 1/2SM -RA OVC005 09/09 A2991,KCNW,2018-04-02T17:55:00Z,31.63,-97.07,9.0,9.0,,,,1.5,29.911417,,,,,,,,,,-RA,OVC,500,,,,,,,IFR,,,,,,,,,,,,SPECI,156.0
MUHA 021755Z 01006KT 320V050 9000 BKN025 30/18 Q1015,MUHA,2018-04-02T17:55:00Z,22.97,-82.42,30.0,18.0,10,6,,5.59,29.970472,,,,,,,,,,,BKN,2500,,,,,,,MVFR,,,,,,,,,,,,METAR,64.0
PATL 021755Z AUTO VRB03KT 10SM CLR M05/M12 A3055 RMK AO2 SLP365 T10501122 11038 21074 57007,PATL,2018-04-02T17:55:00Z,62.9,-155.97,-5.0,-12.2,0,3,,10.0,30.549213,1036.5,,TRUE,TRUE,,,,,,,CLR,,,,,,,,VFR,-0.7,-3.8,-7.4,,,,,,,,,METAR,294.0
PAIM 021755Z AUTO 32004KT 10SM CLR M08/M21 A3057 RMK AO2 SLP382 T10841211 11091 21136 58015,PAIM,2018-04-02T17:55:00Z,66.0,-153.7,-8.4,-21.1,320,4,,10.0,30.569881,1038.2,,TRUE,TRUE,,,,,,,CLR,,,,,,,,VFR,-1.5,-9.1,-13.6,,,,,,,,,METAR,389.0
KDLF 021755Z 17005KT 10SM BKN016 BKN023 OVC030 23/19 A2980 RMK AO2A DZB1657E12 CIG 016V023 BKN016 V SCT SLP081 60000 T02250189 10225 20197 58006,KDLF,2018-04-02T17:55:00Z,29.37,-100.77,22.5,18.9,170,5,,10.0,29.799213,1008.1,,,TRUE,,,,,,,BKN,1600,BKN,2300,OVC,3000,,,MVFR,-0.6,22.5,19.7,,,,,0.005,,,,METAR,330.0
KVPS 021755Z 19009KT 10SM SCT018 SCT024 BKN033 25/20 A3004 RMK AO2A SLP178 T02460198 10250 20136 55005 $,KVPS,2018-04-02T17:55:00Z,30.47,-86.52,24.6,19.8,190,9,,10.0,30.041338,1017.8,,,TRUE,TRUE,,,,,,SCT,1800,SCT,2400,BKN,3300,,,VFR,-0.5,25.0,13.6,,,,,,,,,METAR,26.0
LIRX 021755Z 17015KT 9999 SCT005 10/09 Q1016 RMK BKN BKN060 VIS MIN 9999 VIS MAR 10 KM,LIRX,2018-04-02T17:55:00Z,42.73,10.38,10.0,9.0,170,15,,6.21,30.0,,,,,,,,,,,SCT,500,,,,,,,VFR,,,,,,,,,,,,SPECI,297.0
LIBV 021755Z 17009KT CAVOK 09/08 Q1018 RMK SKC VIS MIN 9999 WIND THR32 18010KT WIND THR14 18007KT BLU,LIBV,2018-04-02T17:55:00Z,40.77,16.92,9.0,8.0,170,9,,6.21,30.059055,,,,,,,,,,,CAVOK,,,,,,,,VFR,,,,,,,,,,,,SPECI,350.0
KDRA 021755Z AUTO 23010KT 10SM CLR 21/M01 A2978 RMK AO2 SLP047 T02111011 10211 20094 58001,KDRA,2018-04-02T17:55:00Z,36.62,-116.03,21.1,-1.1,230,10,,10.0,29.778543,1004.7,,TRUE,TRUE,,,,,,,CLR,,,,,,,,VFR,-0.1,21.1,9.4,,,,,,,,,SPECI,1006.0
KOMN 021755Z 11008KT 7SM SCT040 SCT060 25/19 A3004,KOMN,2018-04-02T17:55:00Z,29.3,-81.12,25.0,19.0,110,8,,7.0,30.041338,,,,,,,,,,,SCT,4000,SCT,6000,,,,,VFR,,,,,,,,,,,,METAR,9.0
LIRE 021755Z 13006KT CAVOK 12/10 Q1018 RMK SCT SCT220 VIS MIN 9999 WIND THR13 15004KT WIND THR31 13006KT BLU,LIRE,2018-04-02T17:55:00Z,41.63,12.42,12.0,10.0,130,6,,6.21,30.059055,,,,,,,,,,,CAVOK,,,,,,,,VFR,,,,,,,,,,,,METAR,12.0
LIQO 021755Z 18008KT CAVOK 08/04 Q1016 RMK BKN FEW130 BKN200 VAL NIL NC VIS MIN 9999,LIQO,2018-04-02T17:55:00Z,42.37,11.17,8.0,4.0,180,8,,6.21,30.0,,,,,,,,,,,CAVOK,,,,,,,,VFR,,,,,,,,,,,,METAR,632.0
LIQC 021755Z 21004KT CAVOK 15/11 Q1020 RMK SKC QUK 2 QUL 1 SW VIS MAR 15 KM VIS MIN 9999,LIQC,2018-04-02T17:55:00Z,40.55,14.2,15.0,11.0,210,4,,6.21,30.11811,,,,,,,,,,,CAVOK,,,,,,,,VFR,,,,,,,,,,,,METAR,269.0
LIVF 021755Z 20005KT CAVOK 12/M00 Q1015 RMK SCT FEW090 SCT210 MON LIB VAL NIL VIS MIN 9999,LIVF,2018-04-02T17:55:00Z,43.52,12.72,12.0,0.0,200,5,,6.21,29.970472,,,,,,,,,,,CAVOK,,,,,,,,VFR,,,,,,,,,,,,METAR,574.0
LIVE 021755Z 17005KT CAVOK 05/M10 Q1013 RMK BKN BKN110 VIS MIN 9999,LIVE,2018-04-02T17:55:00Z,46.85,10.5,5.0,-10.0,170,5,,6.21,29.911417,,,,,,,,,,,CAVOK,,,,,,,,VFR,,,,,,,,,,,,METAR,1800.0
LIVD 021755Z /////KT CAVOK 08/M05 Q1014 RMK BKN FEW080 BKN220 VIS MIN 9999,LIVD,2018-04-02T17:55:00Z,46.72,12.22,8.0,-5.0,,,,6.21,29.940945,,,,,,,,,,,CAVOK,,,,,,,,VFR,,,,,,,,,,,,METAR,1226.0
LIVC 021755Z 21020KT 9999 BKN040 M00/M06 Q1016 RMK BKN MON LIB VAL NIL VIS MIN 9999,LIVC,2018-04-02T17:55:00Z,44.2,10.68,0.0,-6.0,210,20,,6.21,30.0,,,,,,,,,,,BKN,4000,,,,,,,VFR,,,,,,,,,,,,METAR,2173.0
LIRT 021755Z 34012KT CAVOK 06/01 Q1018 RMK SCT SCT060 MON INVIS VAL INIVS VIS MIN 9999,LIRT,2018-04-02T17:55:00Z,41.03,15.22,6.0,1.0,340,12,,6.21,30.059055,,,,,,,,,,,CAVOK,,,,,,,,VFR,,,,,,,,,,,,METAR,1093.0
LIRK 021755Z AUTO /////KT //// ///// Q////,LIRK,2018-04-02T17:55:00Z,42.47,12.97,,,,,,,,,,TRUE,,,,,,,,,,,,,,,,,,,,,,,,,,,,METAR,1875.0
RJOI 021755Z 31004KT 9999 FEW055 14/10 A3007 RMK SLP182 T01390100 10189 20133 56003,RJOI,2018-04-02T17:55:00Z,34.13,132.22,13.9,10.0,310,4,,6.21,30.070866,1018.2,,,,,,,,,,FEW,5500,,,,,,,VFR,-0.3,18.9,13.3,,,,,,,,,METAR,2.0
PAEH 021755Z 11008KT 10SM CLR 03/M11 A3034 RMK AO2A SLP282 4/002 5//// BWC LOW,PAEH,2018-04-02T17:55:00Z,58.65,-162.07,3.0,-11.0,110,8,,10.0,30.339567,1028.2,,,TRUE,,,,,,,CLR,,,,,,,,VFR,,,,,,,,,,2.0,,METAR,161.0
KVBG 021755Z 36013KT 7SM FEW009 OVC012 14/10 A2994 RMK AO2A CIG 011V014 SLP142 T01410102 10142 20100 51012,KVBG,2018-04-02T17:55:00Z,34.73,-120.58,14.1,10.2,360,13,,7.0,29.940945,1014.2,,,TRUE,,,,,,,FEW,900,OVC,1200,,,,,MVFR,1.2,14.2,10.0,,,,,,,,,SPECI,112.0
LIVO 021755Z 27006G18KT 9999 FEW030 09/02 Q1013 RMK OVC OVC060 VIS MIN 9999,LIVO,2018-04-02T17:55:00Z,46.5,13.57,9.0,2.0,270,6,18,6.21,29.911417,,,,,,,,,,,FEW,3000,,,,,,,VFR,,,,,,,,,,,,METAR,778.0
LIVT 021755Z 00000KT CAVOK 12/09 Q1015 RMK BKN BKN160 QUK / QUL / VIS MAR 20 KM VIS MIN 9999,LIVT,2018-04-02T17:55:00Z,45.68,13.75,12.0,9.0,0,0,,6.21,29.970472,,,,,,,,,,,CAVOK,,,,,,,,VFR,,,,,,,,,,,,METAR,20.0
LIVR 021755Z 12009KT CAVOK 00/M05 Q1015 RMK OVC BKN080 MON LIB VIS MIN 9999,LIVR,2018-04-02T17:55:00Z,46.28,11.77,0.0,-5.0,120,9,,6.21,29.970472,,,,,,,,,,,CAVOK,,,,,,,,VFR,,,,,,,,,,,,METAR,2006.0
LIVP 021755Z 25018KT CAVOK M02/M05 Q1013 RMK OVC FEW080 BKN190 MON LIB VAL NIL VIS MIN 9999,LIVP,2018-04-02T17:55:00Z,46.15,11.03,-2.0,-5.0,250,18,,6.21,29.911417,,,,,,,,,,,CAVOK,,,,,,,,VFR,,,,,,,,,,,,METAR,2129.0
KFTG 021755Z 32006G18KT 10SM FEW100 BKN200 22/M09 A2952,KFTG,2018-04-02T17:55:00Z,39.78,-104.55,22.0,-9.0,320,6,18,10.0,29.518702,,,,,,,,,,,FEW,10000,BKN,20000,,,,,VFR,,,,,,,,,,,,METAR,1675.0
LIBN 021755Z 21004KT CAVOK 14/08 Q1019 RMK SKC VIS MIN 9999 WIND THR14 21003KT WIND THR32 21003KT BLU,LIBN,2018-04-02T17:55:00Z,40.22,18.13,14.0,8.0,210,4,,6.21,30.088583,,,,,,,,,,,CAVOK,,,,,,,,VFR,,,-0.3,,,,,,,,,METAR,61.0
LICF 021755Z 21005KT CAVOK 15/10 Q1019 RMK SKC QUK / QUL / VIS MAR 16 KM MON INVIS VAR RAPID VIS MIN 9999,LICF,2018-04-02T17:55:00Z,38.2,15.55,15.0,10.0,210,5,,6.21,30.088583,,,,,,,,,,,CAVOK,,,,,,,,VFR,,,,,,,,,,,,METAR,51.0
LIBY 021755Z 24004KT CAVOK 14/12 Q1018 RMK SKC QUK / QUL / VIS MAR 15 KM VIS MIN 9999,LIBY,2018-04-02T17:55:00Z,39.82,18.35,14.0,12.0,240,4,,6.21,30.059055,,,,,,,,,,,CAVOK,,,,,,,,VFR,,,,,,,,,,,,METAR,112.0
LIBQ 021755Z 20002KT CAVOK 06/03 Q1018 RMK SKC MON LIB VAL NIL VIS MIN 9999,LIBQ,2018-04-02T17:55:00Z,39.32,16.38,6.0,3.0,200,2,,6.21,30.059055,,,,,,,,,,,CAVOK,,,,,,,,VFR,,,,,,,,,,,,METAR,1720.0
LICZ 021755Z /////KT CAVOK 15/05 Q1019 RMK SKC VIS MIN 9999 WIND THR28 06006KT WIND THR10 07007KT A3011 BLU,LICZ,2018-04-02T17:55:00Z,37.38,14.92,15.0,5.0,,,,6.21,30.088583,,,,,,,,,,,CAVOK,,,,,,,,VFR,,,,,,,,,,,,METAR,22.0
LIMK 021755Z 14006KT 9999 SCT030 09/09 Q1014 RMK BKN SCT070 VAL NIL VIS MIN 9999,LIMK,2018-04-02T17:55:00Z,45.02,7.72,9.0,9.0,140,6,,6.21,29.940945,,,,,,,,,,,SCT,3000,,,,,,,VFR,,,,,,,,,,,,METAR,710.0
LIMH 021755Z /////KT 9999 SCT010 M07/M10 Q1012 RMK SCT MON CLD SCT VAL NIL VIS MIN 9999,LIMH,2018-04-02T17:55:00Z,45.93,7.7,-7.0,-10.0,,,,6.21,29.88189,,,,,,,,,,,SCT,1000,,,,,,,VFR,,,,,,,,,,,,METAR,3488.0
LIED 021755Z 13008KT CAVOK 16/14 Q1013 RMK BKN FEW100 BKN200 VIS MIN 9999 WIND THR35 14008KT WIND THR17 /////KT BLU,LIED,2018-04-02T17:55:00Z,39.35,8.97,16.0,14.0,130,8,,6.21,29.911417,,,,,,,,,,,CAVOK,,,,,,,,VFR,,,,,,,,,,,,METAR,28.0
LIEB 021755Z 20009KT 9999 SCT025 12/11 Q1016 RMK BKN SCT200 QUK 2 QUL 0 VIS MAR 20 KM MON CLD SCT VIS MIN 9999,LIEB,2018-04-02T17:55:00Z,39.93,9.72,12.0,11.0,200,9,,6.21,30.0,,,,,,,,,,,SCT,2500,,,,,,,VFR,,,,,,,,,,,,METAR,156.0
LIMY 021755Z 10008KT CAVOK 11/09 Q1014 RMK BKN BKN070 VAL NIL VIS MIN 9999,LIMY,2018-04-02T17:55:00Z,44.25,7.78,11.0,9.0,100,8,,6.21,29.940945,,,,,,,,,,,CAVOK,,,,,,,,VFR,,,,,,,,,,,,METAR,1742.0
LIMU 021755Z 01002KT 9999 SCT023 12/09 Q1016 RMK BKN SCT060 QUK 1 QUL 1 SE VIS MAR 25 KM VIS MIN 9999,LIMU,2018-04-02T17:55:00Z,43.95,8.17,12.0,9.0,10,2,,6.21,30.0,,,,,,,,,,,SCT,2300,,,,,,,VFR,,,,,,,,,,,,METAR,221.0
LIPS 021755Z 15005KT 9999 SCT100 13/08 Q1014 RMK BKN BKN200 VIS MIN 9999 WIND THR26 14004KT WIND THR08 16003KT BLU,LIPS,2018-04-02T17:55:00Z,45.67,12.08,13.0,8.0,150,5,,6.21,29.940945,,,,,,,,,,,SCT,10000,,,,,,,VFR,,,,,,,,,,,,METAR,41.0
LIPL 021755Z 29005KT CAVOK 15/03 Q1015 RMK BKN SCT120 SCT200 VIS MIN 9999 WIND THR31 28005KT WIND THR13 25005KT BLU,LIPL,2018-04-02T17:55:00Z,45.42,10.27,15.0,3.0,290,5,,6.21,29.970472,,,,,,,,,,,CAVOK,,,,,,,,VFR,,,,,,,,,,,,METAR,92.0
KEGI 021755Z 19012KT 10SM BKN040 BKN160 27/17 A3003 RMK AO2A SLP169 T02660168 10268 20114 57010 $,KEGI,2018-04-02T17:55:00Z,30.63,-86.52,26.6,16.8,190,12,,10.0,30.029528,1016.9,,,TRUE,TRUE,,,,,,BKN,4000,BKN,16000,,,,,VFR,-1.0,26.8,11.4,,,,,,,,,METAR,59.0
KBYS 021755Z AUTO VRB02KT 10SM CLR 25/01 A2978 RMK AO2 SLP060 WND DATA ESTMD T02460006 10184 20125 50001,KBYS,2018-04-02T17:55:00Z,35.28,-116.62,24.6,0.6,0,2,,10.0,29.778543,1006.0,,TRUE,TRUE,,,,,,,CLR,,,,,,,,VFR,0.1,18.4,12.5,,,,,,,,,METAR,716.0
KSDC 021755Z AUTO 01005KT 10SM SCT060 05/M06 A3011 RMK AO2,KSDC,2018-04-02T17:55:00Z,43.23,-77.12,5.0,-6.0,10,5,,10.0,30.109253,,,TRUE,TRUE,,,,,,,SCT,6000,,,,,,,VFR,,,,,,,,,,,,SPECI,129.0
PATC 021755Z AUTO 00000KT 10SM CLR M06/M10 A3065 RMK AO2 SLP386 T10581102 11025 21062 57010 $,PATC,2018-04-02T17:55:00Z,65.57,-167.92,-5.8,-10.2,0,0,,10.0,30.649607,1038.6,,TRUE,TRUE,TRUE,,,,,,CLR,,,,,,,,VFR,-1.0,-2.5,-6.2,,,,,,,,,METAR,83.0
PASV 021755Z AUTO 08001KT 10SM CLR M07/M10 A3032 RMK AO2 SLP300 T10661102 11032 21078 57005,PASV,2018-04-02T17:55:00Z,61.1,-155.57,-6.6,-10.2,80,1,,10.0,30.318897,1030.0,,TRUE,TRUE,,,,,,,CLR,,,,,,,,VFR,-0.5,-3.2,-7.8,,,,,,,,,METAR,484.0
RKSO 021755Z 10005KT 7SM BKN030 13/12 A3001 RMK AO2A SLP165 58003 $,RKSO,2018-04-02T17:55:00Z,37.07,127.02,13.0,12.0,100,5,,7.0,30.008858,1016.5,,,TRUE,TRUE,,,,,,BKN,3000,,,,,,,MVFR,-0.3,,,,,,,,,,,METAR,12.0
KWHP 021755Z 00000KT 7SM OVC020 13/08 A2993,KWHP,2018-04-02T17:55:00Z,34.25,-118.42,13.0,8.0,0,0,,7.0,29.929134,,,,,,,,,,,OVC,2000,,,,,,,MVFR,,,,,,,,,,,,METAR,306.0
KLLJ 021755Z AUTO 30022G32KT 10SM FEW080 02/M16 A2962 RMK AO2 PK WND 31032/1740 WSHFT 1722 SLP016 60001 T00221161 10056 20011 53021,KLLJ,2018-04-02T17:55:00Z,44.52,-114.22,2.2,-16.1,300,22,32,10.0,29.619095,1001.6,,TRUE,TRUE,,,,,,,FEW,8000,,,,,,,VFR,2.1,5.6,1.1,,,,,,,,,SPECI,1536.0
KWWD 021755Z AUTO 01009KT 10SM OVC019 07/02 A3010 RMK AO2 SLP194 60000 T00670022 10072 20033 51006,KWWD,2018-04-02T17:55:00Z,39.02,-74.92,6.7,2.2,10,9,,10.0,30.100393,1019.4,,TRUE,TRUE,,,,,,,OVC,1900,,,,,,,MVFR,0.6,7.2,3.3,,,,,,,,,SPECI,7.0
KTOA 021755Z VRB05KT 10SM BKN020 OVC025 17/11 A2990,KTOA,2018-04-02T17:55:00Z,33.78,-118.32,17.0,11.0,0,5,,10.0,29.899607,,,,,,,,,,,BKN,2000,OVC,2500,,,,,MVFR,,,,,,,,,,,,METAR,31.0
TXKF 021755Z 18004KT 140V240 9999 FEW021 BKN300 21/16 Q1020 ,TXKF,2018-04-02T17:55:00Z,32.37,-64.68,21.0,16.0,180,4,,6.21,30.11811,,,,,,,,,,,FEW,2100,BKN,30000,,,,,VFR,,,,,,,,,,,,METAR,6.0
KNFG 021755Z 11004KT 10SM SCT024 OVC033 16/11 A2990 RMK AO2 SLP125 T01610106 10161 20133 51004,KNFG,2018-04-02T17:55:00Z,33.28,-117.33,16.1,10.6,110,4,,10.0,29.899607,1012.5,,,TRUE,,,,,,,SCT,2400,OVC,3300,,,,,VFR,0.4,16.1,13.3,,,,,,,,,METAR,24.0
NZCM 021755Z AUTO 06006KT 9999 OVC065 M15/M21 A2974 RMK AO2 SLP076 T11471207 11139 21161 58002 $,NZCM,2018-04-02T17:55:00Z,-77.85,166.67,-14.7,-20.7,60,6,,6.21,29.740158,1007.6,,TRUE,TRUE,TRUE,,,,,,OVC,6500,,,,,,,VFR,-0.2,-13.9,-16.1,,,,,,,,,SPECI,8.0
KDLH 021755Z VRB05KT 10SM BKN055 OVC070 M02/M11 A2991 RMK AO2 SLP153 T10171111 11011 21094 50002,KDLH,2018-04-02T17:55:00Z,46.85,-92.2,-1.7,-11.1,0,5,,10.0,29.911417,1015.3,,,TRUE,,,,,,,BKN,5500,OVC,7000,,,,,VFR,0.2,-1.1,-9.4,,,,,,,,,METAR,435.0
KEAT 021755Z AUTO 31015G22KT 10SM CLR 07/M07 A2988 RMK AO2 SLP125 T00671072 10072 20000 53026,KEAT,2018-04-02T17:55:00Z,47.4,-120.2,6.7,-7.2,310,15,22,10.0,29.878937,1012.5,,TRUE,TRUE,,,,,,,CLR,,,,,,,,VFR,2.6,7.2,0.0,,,,,,,,,SPECI,377.0
KAAT 021755Z AUTO 29013G21KT 10SM CLR 07/M06 A2998 RMK AO2 SLP148 T00721061 10072 20011 53027,KAAT,2018-04-02T17:55:00Z,41.48,-120.57,7.2,-6.1,290,13,21,10.0,29.97933,1014.8,,TRUE,TRUE,,,,,,,CLR,,,,,,,,VFR,2.7,7.2,1.1,,,,,,,,,SPECI,1331.0
KADM 021755Z 00000KT 10SM OVC009 07/05 A2990,KADM,2018-04-02T17:55:00Z,34.28,-97.02,7.0,5.0,0,0,,10.0,29.899607,,,,,,,,,,,OVC,900,,,,,,,IFR,,,,,,,,,,,,METAR,232.0
KANJ 021755Z AUTO 32008KT 10SM CLR 02/M11 A2997 RMK AO2 SLP157 T00221111 10022 21117 58005,KANJ,2018-04-02T17:55:00Z,46.47,-84.37,2.2,-11.1,320,8,,10.0,29.970472,1015.7,,TRUE,TRUE,,,,,,,CLR,,,,,,,,VFR,-0.5,2.2,-11.7,,,,,,,,,SPECI,218.0
KAST 021755Z AUTO 30012KT 10SM SCT039 BKN055 09/02 A3012 RMK AO2 SLP199 60001 T00940022 10094 20033 51019,KAST,2018-04-02T17:55:00Z,46.15,-123.88,9.4,2.2,300,12,,10.0,30.121063,1019.9,,TRUE,TRUE,,,,,,,SCT,3900,BKN,5500,,,,,VFR,1.9,9.4,3.3,,,,,,,,,SPECI,3.0
KCAO 021755Z AUTO 24019G27KT 10SM CLR 22/M07 A2963 RMK AO2 PK WND 24027/1755 SLP006 T02221067 10228 20028 58022,KCAO,2018-04-02T17:55:00Z,36.45,-103.15,22.2,-6.7,240,19,27,10.0,29.630905,1000.6,,TRUE,TRUE,,,,,,,CLR,,,,,,,,VFR,-2.2,22.8,2.8,,,,,,,,,SPECI,1514.0
KCMA 021755Z 00000KT 6SM HZ OVC023 16/09 A2990 RMK AO2 SLP134 T01560089 10156 20139 51005,KCMA,2018-04-02T17:55:00Z,34.22,-119.1,15.6,8.9,0,0,,6.0,29.899607,1013.4,,,TRUE,,,,,,HZ,OVC,2300,,,,,,,MVFR,0.5,15.6,13.9,,,,,,,,,SPECI,23.0
KCNK 021755Z AUTO 15017KT 10SM OVC011 00/M03 A2975 RMK AO2 SLP088 T00001033 10006 21044 58026,KCNK,2018-04-02T17:55:00Z,39.55,-97.65,0.0,-3.3,150,17,,10.0,29.749016,1008.8,,TRUE,TRUE,,,,,,,OVC,1100,,,,,,,MVFR,-2.6,0.6,-4.4,,,,,,,,,SPECI,447.0
KLIC 021755Z AUTO 25009G23KT 10SM CLR 21/M11 A2954 RMK AO2 SLP969 T02061111 10211 21078 58015,KLIC,2018-04-02T17:55:00Z,39.27,-103.67,20.6,-11.1,250,9,23,10.0,29.53937,996.9,,TRUE,TRUE,,,,,,,CLR,,,,,,,,VFR,-1.5,21.1,-7.8,,,,,,,,,METAR,1630.0
KNKX 021755Z 18004KT 10SM OVC023 18/10 A2990 RMK AO2 SLP122 T01780100 10183 20156 50006,KNKX,2018-04-02T17:55:00Z,32.87,-117.13,17.8,10.0,180,4,,10.0,29.899607,1012.2,,,TRUE,,,,,,,OVC,2300,,,,,,,MVFR,0.6,18.3,15.6,,,,,,,,,METAR,146.0
KMKG 021755Z 23011KT 10SM FEW045 BKN250 03/M08 A3009 RMK AO2 SLP197 T00331083 10039 21061 56017,KMKG,2018-04-02T17:55:00Z,43.17,-86.23,3.3,-8.3,230,11,,10.0,30.088583,1019.7,,,TRUE,,,,,,,FEW,4500,BKN,25000,,,,,VFR,-1.7,3.9,-6.1,,,,,,,,,METAR,191.0
KUGN 021755Z 13009KT 10SM CLR 02/M08 A3007 RMK AO2 SLP196 T00171083 10022 21078 56016,KUGN,2018-04-02T17:55:00Z,42.42,-87.87,1.7,-8.3,130,9,,10.0,30.070866,1019.6,,,TRUE,,,,,,,CLR,,,,,,,,VFR,-1.6,2.2,-7.8,,,,,,,,,METAR,222.0
KINL 021755Z AUTO VRB05KT 10SM CLR M08/M15 A2997 RMK AO2 SLP174 T10781150 11078 21106 50004,KINL,2018-04-02T17:55:00Z,48.57,-93.4,-7.8,-15.0,0,5,,10.0,29.970472,1017.4,,TRUE,TRUE,,,,,,,CLR,,,,,,,,VFR,0.4,-7.8,-10.6,,,,,,,,,METAR,360.0
KIRK 021755Z AUTO 15011KT 10SM OVC010 M02/M03 A2997 RMK AO2 SLP167 T10221033 11022 21128 58027,KIRK,2018-04-02T17:55:00Z,40.1,-92.55,-2.2,-3.3,150,11,,10.0,29.970472,1016.7,,TRUE,TRUE,,,,,,,OVC,1000,,,,,,,MVFR,-2.7,-2.2,-12.8,,,,,,,,,SPECI,293.0
KPHP 021755Z AUTO 04014G21KT 10SM FEW031 BKN110 04/M04 A2957 RMK AO2 SLP025 T00391039 10044 21022 50006,KPHP,2018-04-02T17:55:00Z,44.05,-101.6,3.9,-3.9,40,14,21,10.0,29.568897,1002.5,,TRUE,TRUE,,,,,,,FEW,3100,BKN,11000,,,,,VFR,0.6,4.4,-2.2,,,,,,,,,METAR,672.0
KRNO 021755Z 31009G18KT 10SM BKN060 BKN110 BKN160 BKN220 14/01 A2988 RMK AO2 SLP084 ACSL ALQDS CLDS TPG MTNS DSNT SW T01440006 10144 20094 53005,KRNO,2018-04-02T17:55:00Z,39.5,-119.77,14.4,0.6,310,9,18,10.0,29.878937,1008.4,,,TRUE,,,,,,,BKN,6000,BKN,11000,BKN,16000,BKN,22000,VFR,0.5,14.4,9.4,,,,,,,,,METAR,1342.0
KSCK 021755Z 27011KT 10SM CLR 19/12 A2988 RMK AO2 SLP119 T01940117 10194 20117 50007,KSCK,2018-04-02T17:55:00Z,37.88,-121.22,19.4,11.7,270,11,,10.0,29.878937,1011.9,,,TRUE,,,,,,,CLR,,,,,,,,VFR,0.7,19.4,11.7,,,,,,,,,METAR,10.0
KGXA 021755Z AUTO 25013G21KT 10SM FEW180 20/03 A2981 RMK AO2 SLP047 WND DATA ESTMD T02010027 50000,KGXA,2018-04-02T17:55:00Z,34.57,-117.67,20.1,2.7,250,13,21,10.0,29.811024,1004.7,,TRUE,TRUE,,,,,,,FEW,18000,,,,,,,VFR,0.0,,,,,,,,,,,METAR,923.0
PACZ 021755Z AUTO 07014KT 10SM CLR 01/M12 A3053 RMK AO2 SLP345 T00061119 10043 21009 57004,PACZ,2018-04-02T17:55:00Z,61.78,-166.03,0.6,-11.9,70,14,,10.0,30.528543,1034.5,,TRUE,TRUE,,,,,,,CLR,,,,,,,,VFR,-0.4,4.3,-0.9,,,,,,,,,METAR,146.0
KQZF 021755Z AUTO VRB02KT 9SM CLR 34/M10 A2977 RMK AO2 SLP054 WND DATA ESTMD T03361103 10384 20236 52011 $,KQZF,2018-04-02T17:55:00Z,,,33.6,-10.3,0,2,,9.0,29.769686,1005.4,,TRUE,TRUE,TRUE,,,,,,CLR,,,,,,,,VFR,1.1,38.4,23.6,,,,,,,,,METAR,
PAED 021755Z 33013KT 10SM CLR 00/M11 A3032 RMK SLP265 4/007 T00001114 10003 21020 57005,PAED,2018-04-02T17:55:00Z,61.25,-149.8,0.0,-11.4,330,13,,10.0,30.318897,1026.5,,,,,,,,,,CLR,,,,,,,,VFR,-0.5,0.3,-2.0,,,,,,,7.0,,SPECI,59.0
PALU 021755Z AUTO 23014G21KT 10SM CLR M03/M11 A3063 RMK AO2 PK WND 20026/1701 SLP371 T10291114 11027 21052 57007,PALU,2018-04-02T17:55:00Z,68.88,-166.1,-2.9,-11.4,230,14,21,10.0,30.628937,1037.1,,TRUE,TRUE,,,,,,,CLR,,,,,,,,VFR,-0.7,-2.7,-5.2,,,,,,,,,METAR,3.0
KJQF 021755Z 25005KT 10SM CLR 26/04 A2998,KJQF,2018-04-02T17:55:00Z,35.38,-80.72,26.0,4.0,250,5,,10.0,29.97933,,,,,,,,,,,CLR,,,,,,,,VFR,,,,,,,,,,,,METAR,210.0
KH78 021755Z 18004KT 12SM FEW035 29/22 A2884 RMK SEAS 1-2,KH78,2018-04-02T17:55:00Z,28.18,-88.48,29.0,22.0,180,4,,12.0,28.839567,,,,,,,,,,,FEW,3500,,,,,,,VFR,,,,,,,,,,,,SPECI,43.0
KMWN 021754Z 28017G21KT 100SM SCT010 M10/M14 RMK 60000 4/006 931000 11094 21160,KMWN,2018-04-02T17:54:00Z,44.27,-71.3,-10.0,-14.0,280,17,21,99.0,,,,,,,,,,,,SCT,1000,,,,,,,VFR,,-9.4,-16.0,,,,,,,6.0,,SPECI,1910.0
PTTP 021754Z 12003KT 15SM SCT018 SCT130 OVC300 25/24 A2979 RMK SLP086 60002 8/171 T02500241 10260 20250 55002,PTTP,2018-04-02T17:54:00Z,6.97,158.22,25.0,24.1,120,3,,15.0,29.790354,1008.6,,,,,,,,,,SCT,1800,SCT,13000,OVC,30000,,,VFR,-0.2,26.0,25.0,,,,,0.02,,,,METAR,2.0
KMTP 021754Z AUTO 03008KT 04/01 A3011 RMK AO1 SLP195 60030 T00390011 10039 20011 56013 $,KMTP,2018-04-02T17:54:00Z,41.07,-71.92,3.9,1.1,30,8,,,30.109253,1019.5,,TRUE,TRUE,TRUE,,,,,,,,,,,,,,,-1.3,3.9,1.1,,,,,,,,,SPECI,2.0
KOLM 021754Z 27011G16KT 10SM SCT039 08/M01 A3006 RMK AO2 SLP181 T00831006 10083 20011 51020,KOLM,2018-04-02T17:54:00Z,46.97,-122.9,8.3,-0.6,270,11,16,10.0,30.059055,1018.1,,,TRUE,,,,,,,SCT,3900,,,,,,,VFR,2.0,8.3,1.1,,,,,,,,,SPECI,58.0
KOLS 021754Z AUTO 19016G20KT 10SM CLR 24/M06 A2993 RMK AO2 SLP084 T02391061 10244 20067 58003,KOLS,2018-04-02T17:54:00Z,31.42,-110.85,23.9,-6.1,190,16,20,10.0,29.929134,1008.4,,TRUE,TRUE,,,,,,,CLR,,,,,,,,VFR,-0.3,24.4,6.7,,,,,,,,,SPECI,1184.0
PKMR 021754Z COR 12004KT 15SM FEW015 SCT050 BKN300 27/21 A2978 RMK SLP086 8/801 T02720214 10275 20267 53007,PKMR,2018-04-02T17:54:00Z,7.08,171.38,27.2,21.4,120,4,,15.0,29.778543,1008.6,TRUE,,,,,,,,,FEW,1500,SCT,5000,BKN,30000,,,VFR,0.7,27.5,26.7,,,,,,,,,METAR,4.0
K1V4 021754Z AUTO 04/M12 A3003 RMK AO1 SLP179 T00441122 10050 21028 56012,K1V4,2018-04-02T17:54:00Z,44.42,-72.02,4.4,-12.2,,,,,30.029528,1017.9,,TRUE,TRUE,,,,,,,,,,,,,,,,-1.2,5.0,-2.8,,,,,,,,,METAR,210.0
KORH 021754Z 29007KT 10SM OVC019 01/M03 A3006 RMK AO2 SNE18 SLP193 P0000 60019 T00061033 10006 21028 56016,KORH,2018-04-02T17:54:00Z,42.27,-71.87,0.6,-3.3,290,7,,10.0,30.059055,1019.3,,,TRUE,,,,,,,OVC,1900,,,,,,,MVFR,-1.6,0.6,-2.8,,,0.005,,,,,,SPECI,304.0
KDSM 021754Z 16019KT 10SM FEW034 FEW150 OVC250 04/M05 A2990 RMK AO2 PK WND 13026/1733 SLP134 T00391050 10039 21067 58032,KDSM,2018-04-02T17:54:00Z,41.53,-93.67,3.9,-5.0,160,19,,10.0,29.899607,1013.4,,,TRUE,,,,,,,FEW,3400,FEW,15000,OVC,25000,,,VFR,-3.2,3.9,-6.7,,,,,,,,,SPECI,295.0
KDYL 021754Z AUTO 36004KT 10SM OVC016 03/00 A3012 RMK AO2 SLP204 60023 T00330000 10033 20000 58001,KDYL,2018-04-02T17:54:00Z,40.33,-75.12,3.3,0.0,360,4,,10.0,30.121063,1020.4,,TRUE,TRUE,,,,,,,OVC,1600,,,,,,,MVFR,-0.1,3.3,0.0,,,,,,,,,SPECI,117.0
KDSV 021754Z AUTO 00000KT 10SM CLR 07/M09 A3007 RMK AO2 SLP198 T00721089 10078 21028 58010,KDSV,2018-04-02T17:54:00Z,42.57,-77.72,7.2,-8.9,0,0,,10.0,30.070866,1019.8,,TRUE,TRUE,,,,,,,CLR,,,,,,,,VFR,-1.0,7.8,-2.8,,,,,,,,,SPECI,198.0
KECG 021754Z 02014KT 10SM FEW045 20/12 A3000 RMK AO2 SLP157 T02000117 10244 20161 53009,KECG,2018-04-02T17:54:00Z,36.27,-76.18,20.0,11.7,20,14,,10.0,30.0,1015.7,,,TRUE,,,,,,,FEW,4500,,,,,,,VFR,0.9,24.4,16.1,,,,,,,,,SPECI,11.0
KEUG 021754Z 08004KT 10SM SCT035 BKN047 07/02 A3018 RMK AO2 SLP223 T00720022 10078 20000 51013,KEUG,2018-04-02T17:54:00Z,44.13,-123.22,7.2,2.2,80,4,,10.0,30.180119,1022.3,,,TRUE,,,,,,,SCT,3500,BKN,4700,,,,,VFR,1.3,7.8,0.0,,,,,,,,,SPECI,114.0
KEVV 021754Z 06006KT 10SM OVC016 06/03 A3005 RMK AO2 SLP179 T00610033 10067 20022 58020,KEVV,2018-04-02T17:54:00Z,38.05,-87.52,6.1,3.3,60,6,,10.0,30.050198,1017.9,,,TRUE,,,,,,,OVC,1600,,,,,,,MVFR,-2.0,6.7,2.2,,,,,,,,,SPECI,117.0
KEWN 021754Z 26008KT 220V280 10SM CLR 28/11 A2997 RMK AO2 SLP147 T02780111 10278 20156 56017,KEWN,2018-04-02T17:54:00Z,35.07,-77.05,27.8,11.1,260,8,,10.0,29.970472,1014.7,,,TRUE,,,,,,,CLR,,,,,,,,VFR,-1.7,27.8,15.6,,,,,,,,,SPECI,3.0
KFIG 021754Z AUTO 20006KT 10SM SCT033 04/M02 A3006 RMK AO2 SLP193 T00441022 10050 21017 58012,KFIG,2018-04-02T17:54:00Z,41.05,-78.42,4.4,-2.2,200,6,,10.0,30.059055,1019.3,,TRUE,TRUE,,,,,,,SCT,3300,,,,,,,VFR,-1.2,5.0,-1.7,,,,,,,,,SPECI,462.0
PAKN 021754Z 01007KT 10SM CLR M02/M06 A3029 RMK AO2 SLP260 T10171056 11017 21044 56004,PAKN,2018-04-02T17:54:00Z,58.68,-156.65,-1.7,-5.6,10,7,,10.0,30.28937,1026.0,,,TRUE,,,,,,,CLR,,,,,,,,VFR,-0.4,-1.7,-4.4,,,,,,,,,SPECI,17.0
KLBT 021754Z AUTO 23012G17KT 10SM CLR 28/09 A2996 RMK AO2 SLP144 T02780094 10278 20150 58015,KLBT,2018-04-02T17:54:00Z,34.6,-79.07,27.8,9.4,230,12,17,10.0,29.958662,1014.4,,TRUE,TRUE,,,,,,,CLR,,,,,,,,VFR,-1.5,27.8,15.0,,,,,,,,,SPECI,37.0
KLEX 021754Z 05009KT 10SM OVC012 07/04 A3007 RMK AO2 SLP185 T00720039 10072 20028 58008,KLEX,2018-04-02T17:54:00Z,38.03,-84.6,7.2,3.9,50,9,,10.0,30.070866,1018.5,,,TRUE,,,,,,,OVC,1200,,,,,,,MVFR,-0.8,7.2,2.8,,,,,,,,,SPECI,300.0
KLWM 021754Z 29006KT 10SM OVC019 03/M02 A3013 RMK AO2 SNE07 SLP203 P0000 60001 T00281022 10028 20000 56016,KLWM,2018-04-02T17:54:00Z,42.72,-71.13,2.8,-2.2,290,6,,10.0,30.129921,1020.3,,,TRUE,,,,,,,OVC,1900,,,,,,,MVFR,-1.6,2.8,0.0,,,0.005,,,,,,SPECI,54.0
KLNK 021754Z 13012KT 10SM OVC011 M01/M05 A2982 RMK AO2 SLP112 60000 T10111050 11011 21061 56025,KLNK,2018-04-02T17:54:00Z,40.85,-96.77,-1.1,-5.0,130,12,,10.0,29.819881,1011.2,,,TRUE,,,,,,,OVC,1100,,,,,,,MVFR,-2.5,-1.1,-6.1,,,,,,,,,SPECI,364.0
KLYH 021754Z 06009KT 10SM SCT026 OVC110 15/07 A3003 RMK AO2 SLP167 6//// T01500067 10150 20094 50003 $,KLYH,2018-04-02T17:54:00Z,37.32,-79.2,15.0,6.7,60,9,,10.0,30.029528,1016.7,,,TRUE,TRUE,,,,,,SCT,2600,OVC,11000,,,,,VFR,0.3,15.0,9.4,,,,,,,,,SPECI,295.0
KMEM 021754Z 14005KT 10SM OVC014 12/08 A2998 RMK AO2 SLP150 60000 T01170078 10117 20072 58016,KMEM,2018-04-02T17:54:00Z,35.07,-89.98,11.7,7.8,140,5,,10.0,29.97933,1015.0,,,TRUE,,,,,,,OVC,1400,,,,,,,MVFR,-1.6,11.7,7.2,,,,,,,,,SPECI,86.0
KMFI 021754Z AUTO 15006KT 10SM BKN070 01/M08 A2997 RMK AO2 SLP167 T00061078 10011 21100 58005 TSNO,KMFI,2018-04-02T17:54:00Z,44.63,-90.18,0.6,-7.8,150,6,,10.0,29.970472,1016.7,,TRUE,TRUE,,,TRUE,,,,BKN,7000,,,,,,,VFR,-0.5,1.1,-10.0,,,,,,,,,SPECI,389.0
KMKC 021754Z 12008KT 5SM HZ OVC007 M01/M03 A2991 RMK AO2 SLP135 60000 T10061033 11006 21044 58028,KMKC,2018-04-02T17:54:00Z,39.12,-94.6,-0.6,-3.3,120,8,,5.0,29.911417,1013.5,,,TRUE,,,,,,HZ,OVC,700,,,,,,,IFR,-2.8,-0.6,-4.4,,,,,,,,,SPECI,227.0
KMIV 021754Z AUTO 01010G14KT 10SM OVC016 06/01 A3011 RMK AO2 SLP196 60000 T00560011 10056 20022 51009,KMIV,2018-04-02T17:54:00Z,39.37,-75.08,5.6,1.1,10,10,14,10.0,30.109253,1019.6,,TRUE,TRUE,,,,,,,OVC,1600,,,,,,,MVFR,0.9,5.6,2.2,,,,,,,,,SPECI,23.0
KMGJ 021754Z AUTO 00000KT 10SM 03/M03 A3011 RMK AO2 SLP200 6//// T00281028 56015 $,KMGJ,2018-04-02T17:54:00Z,41.52,-74.27,2.8,-2.8,0,0,,10.0,30.109253,1020.0,,TRUE,TRUE,TRUE,,,,,,,,,,,,,,,-1.5,,,,,,,,,,,SPECI,108.0
KMOT 021754Z 06011KT 10SM CLR M09/M15 A2992 RMK AO2 SLP168 T10941150 11094 21144 52006,KMOT,2018-04-02T17:54:00Z,48.25,-101.27,-9.4,-15.0,60,11,,10.0,29.920275,1016.8,,,TRUE,,,,,,,CLR,,,,,,,,VFR,0.6,-9.4,-14.4,,,,,,,,,SPECI,519.0
KMRY 021754Z 22008KT 10SM OVC013 13/09 A2997 RMK AO2 SLP160 T01330094 10133 20117 51007,KMRY,2018-04-02T17:54:00Z,36.58,-121.85,13.3,9.4,220,8,,10.0,29.970472,1016.0,,,TRUE,,,,,,,OVC,1300,,,,,,,MVFR,0.7,13.3,11.7,,,,,,,,,SPECI,66.0
KMVL 021754Z AUTO VRB05KT 10SM SCT060 03/M10 A3007 RMK AO2 SLP191 T00331100 10039 21039 56008,KMVL,2018-04-02T17:54:00Z,44.53,-72.62,3.3,-10.0,0,5,,10.0,30.070866,1019.1,,TRUE,TRUE,,,,,,,SCT,6000,,,,,,,VFR,-0.8,3.9,-3.9,,,,,,,,,SPECI,234.0
KSBN 021754Z 15009KT 10SM CLR 04/M09 A3009 RMK AO2 SLP197 T00391089 10039 21067 58020 $,KSBN,2018-04-02T17:54:00Z,41.7,-86.32,3.9,-8.9,150,9,,10.0,30.088583,1019.7,,,TRUE,TRUE,,,,,,CLR,,,,,,,,VFR,-2.0,3.9,-6.7,,,,,,,,,SPECI,237.0
KSJN 021754Z AUTO 25022G27KT 10SM CLR 19/M15 A2989 RMK AO2 PK WND 24027/1753 SLP054 T01891150 10194 20017 58013 TSNO,KSJN,2018-04-02T17:54:00Z,34.52,-109.38,18.9,-15.0,250,22,27,10.0,29.890747,1005.4,,TRUE,TRUE,,,TRUE,,,,CLR,,,,,,,,VFR,-1.3,19.4,1.7,,,,,,,,,SPECI,1745.0
KSLC 021754Z 17009KT 10SM FEW080 BKN110 OVC170 17/M01 A2962 RMK AO2 SLP994 VIRGA DSNT ALQDS ACSL DSNT S T01721006 10172 20122 58009,KSLC,2018-04-02T17:54:00Z,40.77,-111.97,17.2,-0.6,170,9,,10.0,29.619095,999.4,,,TRUE,,,,,,,FEW,8000,BKN,11000,OVC,17000,,,VFR,-0.9,17.2,12.2,,,,,,,,,SPECI,1286.0
KSUS 021754Z 10007KT 10SM OVC013 02/M01 A3000 RMK AO2 SLPNO 6//// T00171011,KSUS,2018-04-02T17:54:00Z,38.65,-90.65,1.7,-1.1,100,7,,10.0,30.0,,,,TRUE,,,,,,,OVC,1300,,,,,,,MVFR,,,,,,,,,,,,SPECI,141.0
KTAD 021754Z AUTO VRB04KT 10SM CLR 22/M08 A2963 RMK AO2 SLP980 T02171083 10217 20028 58020,KTAD,2018-04-02T17:54:00Z,37.27,-104.33,21.7,-8.3,0,4,,10.0,29.630905,998.0,,TRUE,TRUE,,,,,,,CLR,,,,,,,,VFR,-2.0,21.7,2.8,,,,,,,,,SPECI,1756.0
KSYR 021754Z VRB03KT 10SM FEW055 06/M08 A3010 RMK AO2 SLP194 T00561078 10061 21011 58009,KSYR,2018-04-02T17:54:00Z,43.12,-76.1,5.6,-7.8,0,3,,10.0,30.100393,1019.4,,,TRUE,,,,,,,FEW,5500,,,,,,,VFR,-0.9,6.1,-1.1,,,,,,,,,METAR,127.0
KTQE 021754Z AUTO 15016KT 10SM OVC020 00/M05 A2981 RMK AO2 PRESFR SLP103 T00001050 10000 21056 58026,KTQE,2018-04-02T17:54:00Z,41.77,-96.18,0.0,-5.0,150,16,,10.0,29.811024,1010.3,,TRUE,TRUE,,,,,,,OVC,2000,,,,,,,MVFR,-2.6,0.0,-5.6,,,,,,,,,SPECI,312.0
KUZA 021754Z AUTO 26009G19KT CLR 26/06 A2997 RMK AO2 SLP138 T02610061 10267 20150 58006 $,KUZA,2018-04-02T17:54:00Z,34.98,-81.05,26.1,6.1,260,9,19,,29.970472,1013.8,,TRUE,TRUE,TRUE,,,,,,CLR,,,,,,,,,-0.6,26.7,15.0,,,,,,,,,SPECI,202.0
KVAY 021754Z AUTO 01009KT 10SM OVC016 04/02 A3013 RMK AO2 SLP203 60007 I6000 T00440017 10044 20006 55001,KVAY,2018-04-02T17:54:00Z,39.93,-74.83,4.4,1.7,10,9,,10.0,30.129921,1020.3,,TRUE,TRUE,,,,,,,OVC,1600,,,,,,,MVFR,-0.1,4.4,0.6,,,,,,,,,SPECI,15.0
KVSF 021754Z AUTO VRB03KT 10SM SCT065 05/M10 A3006 RMK AO2 SLP184 T00501100 10061 21011 56018,KVSF,2018-04-02T17:54:00Z,43.35,-72.52,5.0,-10.0,0,3,,10.0,30.059055,1018.4,,TRUE,TRUE,,,,,,,SCT,6500,,,,,,,VFR,-1.8,6.1,-1.1,,,,,,,,,SPECI,175.0
KVTA 021754Z AUTO 00000KT 10SM OVC018 04/M01 A3011 RMK AO2 SLP204 T00391011 10039 20000 58008,KVTA,2018-04-02T17:54:00Z,40.02,-82.47,3.9,-1.1,0,0,,10.0,30.109253,1020.4,,TRUE,TRUE,,,,,,,OVC,1800,,,,,,,MVFR,-0.8,3.9,0.0,,,,,,,,,SPECI,268.0
KWLD 021754Z AUTO 16009KT 10SM OVC017 04/00 A2983 RMK AO2 SLP110 T00390000 10044 21022 58035,KWLD,2018-04-02T17:54:00Z,37.17,-97.03,3.9,0.0,160,9,,10.0,29.828741,1011.0,,TRUE,TRUE,,,,,,,OVC,1700,,,,,,,MVFR,-3.5,4.4,-2.2,,,,,,,,,SPECI,350.0
KWAL 021754Z AUTO 01010KT 10SM OVC016 09/04 A3009 RMK AO2 SLP184 60000 T00940044 10122 20083 $,KWAL,2018-04-02T17:54:00Z,37.93,-75.47,9.4,4.4,10,10,,10.0,30.088583,1018.4,,TRUE,TRUE,TRUE,,,,,,OVC,1600,,,,,,,MVFR,,12.2,8.3,,,,,,,,,SPECI,14.0
PAHN 021754Z AUTO 29011G18KT 10SM BKN075 OVC120 02/M13 A3013 RMK AO2 SLP206 T00171128 10022 21022 58005 TSNO,PAHN,2018-04-02T17:54:00Z,59.25,-135.52,1.7,-12.8,290,11,18,10.0,30.129921,1020.6,,TRUE,TRUE,,,TRUE,,,,BKN,7500,OVC,12000,,,,,VFR,-0.5,2.2,-2.2,,,,,,,,,SPECI,5.0
PHOG 021754Z 23017G26KT 10SM FEW040 26/21 A2988 RMK AO2 PK WND 21026/1750 SLP122 T02560211 10256 20217 51006 $,PHOG,2018-04-02T17:54:00Z,20.9,-156.43,25.6,21.1,230,17,26,10.0,29.878937,1012.2,,,TRUE,TRUE,,,,,,FEW,4000,,,,,,,VFR,0.6,25.6,21.7,,,,,,,,,SPECI,12.0
PGSN 021754Z 35005KT 10SM FEW010 23/23 A2974 RMK AO2 RAB20E34 SLP093 P0000 60000 T02330233 10250 20233 58000 $,PGSN,2018-04-02T17:54:00Z,15.12,145.72,23.3,23.3,350,5,,10.0,29.740158,1009.3,,,TRUE,TRUE,,,,,,FEW,1000,,,,,,,VFR,0.0,25.0,23.3,,,0.005,,0.005,,,,METAR,65.0
KUIN 021754Z AUTO 12011KT 10SM CLR 00/M04 A2999 RMK AO2 SLP163 T00001044 10000 21128 58038,KUIN,2018-04-02T17:54:00Z,39.95,-91.2,0.0,-4.4,120,11,,10.0,29.991142,1016.3,,TRUE,TRUE,,,,,,,CLR,,,,,,,,VFR,-3.8,0.0,-12.8,,,,,,,,,SPECI,234.0
KCRW 021754Z VRB03KT 10SM OVC008 06/04 A3009 RMK AO2 SLP192 T00560039 10061 20033 58003,KCRW,2018-04-02T17:54:00Z,38.38,-81.58,5.6,3.9,0,3,,10.0,30.088583,1019.2,,,TRUE,,,,,,,OVC,800,,,,,,,IFR,-0.3,6.1,3.3,,,,,,,,,SPECI,309.0
KCOU 021754Z 13010KT 5SM BR OVC006 M01/M03 A2995 RMK AO2 PRESFR SLP151 T10111028 11011 21044 58033,KCOU,2018-04-02T17:54:00Z,38.82,-92.22,-1.1,-2.8,130,10,,5.0,29.949802,1015.1,,,TRUE,,,,,,BR,OVC,600,,,,,,,IFR,-3.3,-1.1,-4.4,,,,,,,,,SPECI,271.0
KCOS 021754Z 20009G14KT 10SM FEW100 BKN230 20/M09 A2958 RMK AO2 SLP982 T02001089 10200 20022 58022,KCOS,2018-04-02T17:54:00Z,38.82,-104.68,20.0,-8.9,200,9,14,10.0,29.58071,998.2,,,TRUE,,,,,,,FEW,10000,BKN,23000,,,,,VFR,-2.2,20.0,2.2,,,,,,,,,SPECI,1856.0
KCEU 021754Z AUTO 20007KT 160V250 10SM CLR 25/06 A2997 RMK AO2 SLP141 T02500061 10250 20133 58008,KCEU,2018-04-02T17:54:00Z,34.67,-82.88,25.0,6.1,200,7,,10.0,29.970472,1014.1,,TRUE,TRUE,,,,,,,CLR,,,,,,,,VFR,-0.8,25.0,13.3,,,,,,,,,SPECI,268.0
KCAR 021754Z AUTO VRB03KT 10SM OVC060 01/M14 A3001 RMK AO2 SLP173 T00061139 10006 21050 56018,KCAR,2018-04-02T17:54:00Z,46.87,-68.02,0.6,-13.9,0,3,,10.0,30.008858,1017.3,,TRUE,TRUE,,,,,,,OVC,6000,,,,,,,VFR,-1.8,0.6,-5.0,,,,,,,,,SPECI,191.0
KIZG 021754Z AUTO 00000KT 10SM CLR 06/M09 A3004 RMK AO2 SLP177 T00611089 10061 21011 58020,KIZG,2018-04-02T17:54:00Z,43.98,-70.95,6.1,-8.9,0,0,,10.0,30.041338,1017.7,,TRUE,TRUE,,,,,,,CLR,,,,,,,,VFR,-2.0,6.1,-1.1,,,,,,,,,METAR,135.0
KPLN 021754Z AUTO 25013G17KT 10SM CLR 01/M10 A3003 RMK AO2 SLP180 T00061100 10006 21128 58001,KPLN,2018-04-02T17:54:00Z,45.57,-84.8,0.6,-10.0,250,13,17,10.0,30.029528,1018.0,,TRUE,TRUE,,,,,,,CLR,,,,,,,,VFR,-0.1,0.6,-12.8,,,,,,,,,METAR,217.0
KJAN 021754Z VRB04KT 10SM SCT042 SCT049 24/17 A2999 RMK AO2 SLP151 T02440167 10244 20139 58009,KJAN,2018-04-02T17:54:00Z,32.32,-90.08,24.4,16.7,0,4,,10.0,29.991142,1015.1,,,TRUE,,,,,,,SCT,4200,SCT,4900,,,,,VFR,-0.9,24.4,13.9,,,,,,,,,SPECI,91.0
KISW 021754Z AUTO 24010KT 10SM SCT070 03/M12 A3000 RMK AO2 SLP173 T00281122 10028 21106 58010 TSNO,KISW,2018-04-02T17:54:00Z,44.37,-89.83,2.8,-12.2,240,10,,10.0,30.0,1017.3,,TRUE,TRUE,,,TRUE,,,,SCT,7000,,,,,,,VFR,-1.0,2.8,-10.6,,,,,,,,,SPECI,307.0
KIPT 021754Z 26004KT 10SM BKN049 05/M05 A3011 RMK AO2 SLP199 60001 I6000 T00501050 10050 20000 58004,KIPT,2018-04-02T17:54:00Z,41.25,-76.92,5.0,-5.0,260,4,,10.0,30.109253,1019.9,,,TRUE,,,,,,,BKN,4900,,,,,,,VFR,-0.4,5.0,0.0,,,,,,,,,SPECI,164.0
KINT 021754Z 24005G15KT 10SM SCT110 24/07 A2997 RMK AO2 SLP138 T02390067 10244 20144 58004,KINT,2018-04-02T17:54:00Z,36.13,-80.22,23.9,6.7,240,5,15,10.0,29.970472,1013.8,,,TRUE,,,,,,,SCT,11000,,,,,,,VFR,-0.4,24.4,14.4,,,,,,,,,SPECI,291.0
KDEC 021754Z 11011KT 10SM BKN014 03/M01 A3004 RMK AO2 SLP181 T00281011 10028 21106 58026,KDEC,2018-04-02T17:54:00Z,39.83,-88.85,2.8,-1.1,110,11,,10.0,30.041338,1018.1,,,TRUE,,,,,,,BKN,1400,,,,,,,MVFR,-2.6,2.8,-10.6,,,,,,,,,SPECI,207.0
KDDH 021754Z AUTO 34007KT 10SM BKN041 03/M07 A3008 RMK AO2 SLP196 60002 T00281072 10039 21028 56009,KDDH,2018-04-02T17:54:00Z,42.9,-73.25,2.8,-7.2,340,7,,10.0,30.079725,1019.6,,TRUE,TRUE,,,,,,,BKN,4100,,,,,,,VFR,-0.9,3.9,-2.8,,,,,,,,,SPECI,244.0
MMTG 021754Z 17010G20KT 8SM FEW020 32/13 A2990 RMK 8/100 FU W,MMTG,2018-04-02T17:54:00Z,16.57,-93.03,32.0,13.0,170,10,20,8.0,29.899607,,,,,,,,,,,FEW,2000,,,,,,,VFR,,,,,,,,,,,,METAR,528.0
KDMH 021754Z AUTO 07/03 A3014 RMK AO1 SLP207 60001 T00720028 10072 20044 51004,KDMH,2018-04-02T17:54:00Z,39.28,-76.62,7.2,2.8,,,,,30.138779,1020.7,,TRUE,TRUE,,,,,,,,,,,,,,,,0.4,7.2,4.4,,,,,0.01,,,,METAR,5.0
KNAK 021754Z AUTO 01007KT 10SM OVC016 07/04 A3013 RMK AO2 SLP204 T00670039 10072 20056 51007,KNAK,2018-04-02T17:54:00Z,38.98,-76.48,6.7,3.9,10,7,,10.0,30.129921,1020.4,,TRUE,TRUE,,,,,,,OVC,1600,,,,,,,MVFR,0.7,7.2,5.6,,,,,,,,,SPECI,2.0
K12N 021754Z AUTO 35003KT 03/M03 A3011 RMK AO1 SLP206 60009 T00281033 10039 21011 56009,K12N,2018-04-02T17:54:00Z,41.02,-74.73,2.8,-3.3,350,3,,,30.109253,1020.6,,TRUE,TRUE,,,,,,,,,,,,,,,,-0.9,3.9,-1.1,,,,,,,,,SPECI,177.0
KBKB 021754Z AUTO 20003KT 10SM FEW033 SCT041 SCT060 25/18 A2992 RMK AO2 SLP157 T02500183 10267 20183 58016,KBKB,2018-04-02T17:54:00Z,31.0,-92.92,25.0,18.3,200,3,,10.0,29.920275,1015.7,,TRUE,TRUE,,,,,,,FEW,3300,SCT,4100,SCT,6000,,,VFR,-1.6,26.7,18.3,,,,,,,,,METAR,94.0
PGUM 021754Z 03006KT 10SM SCT019 SCT029 SCT040 25/24 A2976 RMK AO2 SLP068 60052 T02500244 10256 20239 56006,PGUM,2018-04-02T17:54:00Z,13.48,144.8,25.0,24.4,30,6,,10.0,29.760826,1006.8,,,TRUE,,,,,,,SCT,1900,SCT,2900,SCT,4000,,,VFR,-0.6,25.6,23.9,,,,,0.52,,,,METAR,91.0
KPHF 021754Z 06012KT 10SM SCT028 13/07 A3005 RMK AO2 SLP176 60000 T01330067 10161 20128 51015,KPHF,2018-04-02T17:54:00Z,37.13,-76.5,13.3,6.7,60,12,,10.0,30.050198,1017.6,,,TRUE,,,,,,,SCT,2800,,,,,,,VFR,1.5,16.1,12.8,,,,,,,,,SPECI,12.0
KPHL 021754Z 03011G19KT 10SM OVC018 05/01 A3013 RMK AO2 SLP204 60002 T00500006 10050 20011 55002,KPHL,2018-04-02T17:54:00Z,39.87,-75.23,5.0,0.6,30,11,19,10.0,30.129921,1020.4,,,TRUE,,,,,,,OVC,1800,,,,,,,MVFR,-0.2,5.0,1.1,,,,,,,,,SPECI,18.0
KPIA 021754Z 11010KT 10SM CLR 02/M06 A3005 RMK AO2 SLP185 I6001 T00171056 10017 21100 58026 $,KPIA,2018-04-02T17:54:00Z,40.67,-89.68,1.7,-5.6,110,10,,10.0,30.050198,1018.5,,,TRUE,TRUE,,,,,,CLR,,,,,,,,VFR,-2.6,1.7,-10.0,,,,,,,,,SPECI,205.0
KPNE 021754Z 02009KT 10SM OVC018 05/01 A3015 RMK AO2 SLP210 60007 I6001 T00500006 10056 20017 53000,KPNE,2018-04-02T17:54:00Z,40.08,-75.02,5.0,0.6,20,9,,10.0,30.15059,1021.0,,,TRUE,,,,,,,OVC,1800,,,,,,,MVFR,0.0,5.6,1.7,,,,,,,,,SPECI,28.0
KPSF 021754Z AUTO 31008KT 10SM OVC033 02/M06 A3005 RMK AO2 SLP185 60004 T00221061 10022 21033 58010,KPSF,2018-04-02T17:54:00Z,42.43,-73.28,2.2,-6.1,310,8,,10.0,30.050198,1018.5,,TRUE,TRUE,,,,,,,OVC,3300,,,,,,,VFR,-1.0,2.2,-3.3,,,,,,,,,SPECI,355.0
KPTW 021754Z AUTO 00000KT 10SM OVC016 03/00 A3014 RMK AO2 SLP207 60004 T00280000 10028 20000 58003,KPTW,2018-04-02T17:54:00Z,40.23,-75.55,2.8,0.0,0,0,,10.0,30.138779,1020.7,,TRUE,TRUE,,,,,,,OVC,1600,,,,,,,MVFR,-0.3,2.8,0.0,,,,,,,,,SPECI,92.0
KRBL 021754Z AUTO 36011G18KT 10SM CLR 20/03 A2991 RMK AO2 SLP124 T02000033 10200 20122 51012,KRBL,2018-04-02T17:54:00Z,40.15,-122.25,20.0,3.3,360,11,18,10.0,29.911417,1012.4,,TRUE,TRUE,,,,,,,CLR,,,,,,,,VFR,1.2,20.0,12.2,,,,,,,,,SPECI,104.0
KRDG 021754Z 10SM BKN022 04/01 A3012 RMK AO2 SLP207 60000 T00440006 10044 20006 56003,KRDG,2018-04-02T17:54:00Z,40.37,-75.97,4.4,0.6,,,,10.0,30.121063,1020.7,,,TRUE,,,,,,,BKN,2200,,,,,,,MVFR,-0.3,4.4,0.6,,,,,,,,,SPECI,109.0
KRFD 021754Z 15009KT 10SM SCT130 OVC250 02/M09 A3008 RMK AO2 SLP194 T00221094 10028 21078 58012,KRFD,2018-04-02T17:54:00Z,42.2,-89.1,2.2,-9.4,150,9,,10.0,30.079725,1019.4,,,TRUE,,,,,,,SCT,13000,OVC,25000,,,,,VFR,-1.2,2.8,-7.8,,,,,,,,,SPECI,221.0
KRIC 021754Z 03010G18KT 10SM FEW026 BKN036 BKN100 BKN300 12/05 A3008 RMK AO2 SLP190 T01220050 10128 20094 51009,KRIC,2018-04-02T17:54:00Z,37.52,-77.32,12.2,5.0,30,10,18,10.0,30.079725,1019.0,,,TRUE,,,,,,,FEW,2600,BKN,3600,BKN,10000,BKN,30000,VFR,0.9,12.8,9.4,,,,,,,,,SPECI,50.0
KRKS 021754Z AUTO 26022G36KT 10SM CLR 11/M05 A2957 RMK AO2 PK WND 27036/1746 SLP969 T01061050 10117 20050 58016,KRKS,2018-04-02T17:54:00Z,41.6,-109.07,10.6,-5.0,260,22,36,10.0,29.568897,996.9,,TRUE,TRUE,,,,,,,CLR,,,,,,,,VFR,-1.6,11.7,5.0,,,,,,,,,SPECI,2060.0
KROA 021754Z 03007KT 10SM BKN049 OVC110 17/09 A3001 RMK AO2 SLP158 T01720089 10172 20111 58000,KROA,2018-04-02T17:54:00Z,37.32,-79.97,17.2,8.9,30,7,,10.0,30.008858,1015.8,,,TRUE,,,,,,,BKN,4900,OVC,11000,,,,,VFR,0.0,17.2,11.1,,,,,,,,,SPECI,362.0
KROC 021754Z 00000KT 10SM FEW055 06/M07 A3008 RMK AO2 SLP195 T00611072 10078 21011 58012,KROC,2018-04-02T17:54:00Z,43.12,-77.68,6.1,-7.2,0,0,,10.0,30.079725,1019.5,,,TRUE,,,,,,,FEW,5500,,,,,,,VFR,-1.2,7.8,-1.1,,,,,,,,,SPECI,178.0
KCQT 021754Z AUTO 00000KT 10SM BKN030 17/09 A2989 RMK AO2 T01720089,KCQT,2018-04-02T17:54:00Z,34.02,-118.28,17.2,8.9,0,0,,10.0,29.890747,,,TRUE,TRUE,,,,,,,BKN,3000,,,,,,,MVFR,,,,,,,,,,,,SPECI,56.0
KACY 021754Z 02010G18KT 10SM OVC016 06/03 A3011 RMK AO2 SLP195 60000 T00560028 10056 20028 53006 $,KACY,2018-04-02T17:54:00Z,39.45,-74.57,5.6,2.8,20,10,18,10.0,30.109253,1019.5,,,TRUE,TRUE,,,,,,OVC,1600,,,,,,,MVFR,0.6,5.6,2.8,,,,,,,,,SPECI,23.0
KAKH 021754Z AUTO 22007G15KT 190V280 10SM FEW110 26/07 A2995 RMK AO2 SLP137 T02610072 10267 20156 58008,KAKH,2018-04-02T17:54:00Z,35.2,-81.15,26.1,7.2,220,7,15,10.0,29.949802,1013.7,,TRUE,TRUE,,,,,,,FEW,11000,,,,,,,VFR,-0.8,26.7,15.6,,,,,,,,,SPECI,243.0
KAKQ 021754Z AUTO 02007KT 320V070 10SM CLR 17/07 A3004 RMK AO2 SLP172 60001 T01670072 10167 20122 51008,KAKQ,2018-04-02T17:54:00Z,36.98,-77.0,16.7,7.2,20,7,,10.0,30.041338,1017.2,,TRUE,TRUE,,,,,,,CLR,,,,,,,,VFR,0.8,16.7,12.2,,,,,,,,,SPECI,34.0
KAKR 021754Z AUTO 21004KT 10SM FEW036 05/M04 A3010 RMK AO2 SLP202 T00501039 10056 21006 58008 $,KAKR,2018-04-02T17:54:00Z,41.03,-81.47,5.0,-3.9,210,4,,10.0,30.100393,1020.2,,TRUE,TRUE,TRUE,,,,,,FEW,3600,,,,,,,VFR,-0.8,5.6,-0.6,,,,,,,,,SPECI,363.0
KALO 021754Z 13014G20KT 10SM CLR 02/M08 A2993 RMK AO2 SLP146 T00171083 10017 21078 58037,KALO,2018-04-02T17:54:00Z,42.55,-92.4,1.7,-8.3,130,14,20,10.0,29.929134,1014.6,,,TRUE,,,,,,,CLR,,,,,,,,VFR,-3.7,1.7,-7.8,,,,,,,,,SPECI,264.0
KAPC 021754Z VRB03KT 10SM CLR 16/09 A2991 RMK AO2 SLP119 T01610094 10161 20061 50005,KAPC,2018-04-02T17:54:00Z,38.2,-122.28,16.1,9.4,0,3,,10.0,29.911417,1011.9,,,TRUE,,,,,,,CLR,,,,,,,,VFR,0.5,16.1,6.1,,,,,,,,,SPECI,13.0
KAPN 021754Z AUTO 27008KT 10SM CLR 04/M12 A3001 RMK AO2 SLP172 T00391122 10039 21061 58019,KAPN,2018-04-02T17:54:00Z,45.07,-83.57,3.9,-12.2,270,8,,10.0,30.008858,1017.2,,TRUE,TRUE,,,,,,,CLR,,,,,,,,VFR,-1.9,3.9,-6.1,,,,,,,,,SPECI,210.0
KAUW 021754Z AUTO 21003KT 10SM SCT070 M01/M11 A2997 RMK AO2 SLP172 T10061111 11006 21128 56007,KAUW,2018-04-02T17:54:00Z,44.93,-89.62,-0.6,-11.1,210,3,,10.0,29.970472,1017.2,,TRUE,TRUE,,,,,,,SCT,7000,,,,,,,VFR,-0.7,-0.6,-12.8,,,,,,,,,SPECI,362.0
KAVL 021754Z 29005KT 10SM BKN070 24/08 A2998 RMK AO2 SLP129 T02390078 10244 20083 56006,KAVL,2018-04-02T17:54:00Z,35.43,-82.53,23.9,7.8,290,5,,10.0,29.97933,1012.9,,,TRUE,,,,,,,BKN,7000,,,,,,,VFR,-0.6,24.4,8.3,,,,,,,,,SPECI,670.0
KBFL 021754Z 33007KT 10SM CLR 22/07 A2987 RMK AO2 SLP111 T02170072 10217 20128 51006,KBFL,2018-04-02T17:54:00Z,35.43,-119.05,21.7,7.2,330,7,,10.0,29.870079,1011.1,,,TRUE,,,,,,,CLR,,,,,,,,VFR,0.6,21.7,12.8,,,,,,,,,SPECI,151.0
KBTV 021754Z 26006KT 10SM SCT070 06/M11 A3008 RMK AO2 SLP190 T00561111 10056 21017 56010,KBTV,2018-04-02T17:54:00Z,44.47,-73.15,5.6,-11.1,260,6,,10.0,30.079725,1019.0,,,TRUE,,,,,,,SCT,7000,,,,,,,VFR,-1.0,5.6,-1.7,,,,,,,,,SPECI,105.0
KBUF 021754Z 23014KT 10SM FEW040 FEW250 04/M06 A3009 RMK AO2 SLP198 T00391061 10044 21017 58006,KBUF,2018-04-02T17:54:00Z,42.93,-78.73,3.9,-6.1,230,14,,10.0,30.088583,1019.8,,,TRUE,,,,,,,FEW,4000,FEW,25000,,,,,VFR,-0.6,4.4,-1.7,,,,,,,,,SPECI,211.0
KBUY 021754Z AUTO 26015G19KT 10SM CLR 28/06 A2994 RMK AO2 SLP132 T02780061 10278 20144 58009,KBUY,2018-04-02T17:54:00Z,36.05,-79.47,27.8,6.1,260,15,19,10.0,29.940945,1013.2,,TRUE,TRUE,,,,,,,CLR,,,,,,,,VFR,-0.9,27.8,14.4,,,,,,,,,SPECI,180.0
KBWI 021754Z 02006KT 10SM OVC017 07/03 A3012 RMK AO2 SLP199 60000 T00670028 10067 20039 50002,KBWI,2018-04-02T17:54:00Z,39.17,-76.68,6.7,2.8,20,6,,10.0,30.121063,1019.9,,,TRUE,,,,,,,OVC,1700,,,,,,,MVFR,0.2,6.7,3.9,,,,,,,,,SPECI,59.0
KFWA 021754Z 11007KT 10SM BKN250 03/M07 A3012 RMK AO2 SLP206 T00281067 10033 21050 58016,KFWA,2018-04-02T17:54:00Z,40.98,-85.18,2.8,-6.7,110,7,,10.0,30.121063,1020.6,,,TRUE,,,,,,,BKN,25000,,,,,,,VFR,-1.6,3.3,-5.0,,,,,,,,,SPECI,248.0
KFZY 021754Z AUTO 00000KT 10SM CLR 06/M07 A3010 RMK AO2 SLP199 T00561072 10061 21017 58006,KFZY,2018-04-02T17:54:00Z,43.35,-76.38,5.6,-7.2,0,0,,10.0,30.100393,1019.9,,TRUE,TRUE,,,,,,,CLR,,,,,,,,VFR,-0.6,6.1,-1.7,,,,,,,,,SPECI,138.0
KGCK 021754Z 18018G27KT 10SM CLR 16/M01 A2958 RMK AO2 PK WND 18027/1747 SLP018 T01561006 10156 21050 58034,KGCK,2018-04-02T17:54:00Z,37.92,-100.72,15.6,-0.6,180,18,27,10.0,29.58071,1001.8,,,TRUE,,,,,,,CLR,,,,,,,,VFR,-3.4,15.6,-5.0,,,,,,,,,SPECI,877.0
KGCN 021754Z 23016G26KT 10SM CLR 16/M09 A2993 RMK AO2 PK WND 22026/1752 SLP084 T01611089 10161 21056 58006,KGCN,2018-04-02T17:54:00Z,35.95,-112.15,16.1,-8.9,230,16,26,10.0,29.929134,1008.4,,,TRUE,,,,,,,CLR,,,,,,,,VFR,-0.6,16.1,-5.6,,,,,,,,,SPECI,2016.0
KGED 021754Z AUTO 02009KT 10SM OVC016 07/02 A3011 RMK AO2 SLP196 T00720022 10072 20044 53008,KGED,2018-04-02T17:54:00Z,38.68,-75.37,7.2,2.2,20,9,,10.0,30.109253,1019.6,,TRUE,TRUE,,,,,,,OVC,1600,,,,,,,MVFR,0.8,7.2,4.4,,,,,,,,,SPECI,19.0
KGEU 021754Z 10003KT 10SM SCT150 26/M06 A2980,KGEU,2018-04-02T17:54:00Z,33.53,-112.3,26.0,-6.0,100,3,,10.0,29.799213,,,,,,,,,,,SCT,15000,,,,,,,VFR,,,,,,,,,,,,METAR,325.0
KGSO 021754Z 25012G17KT 10SM FEW070 SCT120 BKN160 OVC250 24/07 A2995 RMK AO2 SLP133 T02440072 10250 20139 58005,KGSO,2018-04-02T17:54:00Z,36.1,-79.95,24.4,7.2,250,12,17,10.0,29.949802,1013.3,,,TRUE,,,,,,,FEW,7000,SCT,12000,BKN,16000,OVC,25000,VFR,-0.5,25.0,13.9,,,,,,,,,SPECI,275.0
KHWD 021754Z COR 24007KT 10SM FEW013 15/08 A2993 RMK AO2 SLP146 T01500083 10156 20117 51005,KHWD,2018-04-02T17:54:00Z,37.67,-122.12,15.0,8.3,240,7,,10.0,29.929134,1014.6,TRUE,,TRUE,,,,,,,FEW,1300,,,,,,,VFR,0.5,15.6,11.7,,,,,,,,,SPECI,21.0
KILN 021754Z AUTO 13006KT 10SM OVC012 02/01 A3010 RMK AO2 SLP216 T00220006 10028 21011 58009,KILN,2018-04-02T17:54:00Z,39.43,-83.8,2.2,0.6,130,6,,10.0,30.100393,1021.6,,TRUE,TRUE,,,,,,,OVC,1200,,,,,,,MVFR,-0.9,2.8,-1.1,,,,,,,,,SPECI,322.0
KIMT 021754Z AUTO 21007KT 10SM FEW110 01/M11 A2996 RMK AO2 SLP164 T00061106 10006 21133 55005,KIMT,2018-04-02T17:54:00Z,45.82,-88.12,0.6,-10.6,210,7,,10.0,29.958662,1016.4,,TRUE,TRUE,,,,,,,FEW,11000,,,,,,,VFR,-0.5,0.6,-13.3,,,,,,,,,SPECI,349.0
KIND 021754Z 11009KT 10SM SCT027 SCT250 04/M02 A3008 RMK AO2 SLP192 T00441017 10050 21011 58020,KIND,2018-04-02T17:54:00Z,39.72,-86.3,4.4,-1.7,110,9,,10.0,30.079725,1019.2,,,TRUE,,,,,,,SCT,2700,SCT,25000,,,,,VFR,-2.0,5.0,-1.1,,,,,,,,,SPECI,241.0
K6R6 021753Z AUTO 11008KT 23/18 A2981 RMK AO1 SLP063 T02280178 10233 20172 58009,K6R6,2018-04-02T17:53:00Z,30.05,-102.22,22.8,17.8,110,8,,,29.811024,1006.3,,TRUE,TRUE,,,,,,,,,,,,,,,,-0.9,23.3,17.2,,,,,,,,,SPECI,701.0
MMUN 021753Z 14015KT 7SM SCT015TCU 28/19 A2998 RMK SLP155 57007 964 8/200,MMUN,2018-04-02T17:53:00Z,21.02,-86.85,28.0,19.0,140,15,,7.0,29.97933,1015.5,,,,,,,,,,SCT,1500,,,,,,,VFR,-0.7,,,,,,,,,,,METAR,10.0
KRTN 021753Z AUTO 26021G28KT 10SM CLR 21/M10 A2968 RMK AO2 PK WND 24032/1733 WSHFT 1722 SLP994 T02111100 10217 21044 58026,KRTN,2018-04-02T17:53:00Z,36.73,-104.5,21.1,-10.0,260,21,28,10.0,29.681103,999.4,,TRUE,TRUE,,,,,,,CLR,,,,,,,,VFR,-2.6,21.7,-4.4,,,,,,,,,SPECI,1936.0
KOXB 021753Z AUTO 03014G19KT 10SM OVC013 06/03 A3011 RMK AO2 SLP194 60001 T00560028 10067 20050 53018,KOXB,2018-04-02T17:53:00Z,38.32,-75.12,5.6,2.8,30,14,19,10.0,30.109253,1019.4,,TRUE,TRUE,,,,,,,OVC,1300,,,,,,,MVFR,1.8,6.7,5.0,,,,,,,,,SPECI,3.0
KOWD 021753Z VRB04KT 8SM -SN OVC018 04/00 A3012 RMK AO2 SLP198 P0000 60010 T00390000 10039 20006 56016,KOWD,2018-04-02T17:53:00Z,42.18,-71.17,3.9,0.0,0,4,,8.0,30.121063,1019.8,,,TRUE,,,,,,-SN,OVC,1800,,,,,,,MVFR,-1.6,3.9,0.6,,,0.005,,,,,,SPECI,19.0
KOVS 021753Z AUTO VRB03KT 9SM OVC095 02/M08 A3001 RMK AO2 SLP173 T00221083 10022 21094 58018,KOVS,2018-04-02T17:53:00Z,43.15,-90.68,2.2,-8.3,0,3,,9.0,30.008858,1017.3,,TRUE,TRUE,,,,,,,OVC,9500,,,,,,,VFR,-1.8,2.2,-9.4,,,,,,,,,SPECI,202.0
KOVE 021753Z AUTO 33005KT 10SM CLR 19/10 A2991 RMK AO2 SLP128 T01940100 10194 20128 51012,KOVE,2018-04-02T17:53:00Z,39.5,-121.62,19.4,10.0,330,5,,10.0,29.911417,1012.8,,TRUE,TRUE,,,,,,,CLR,,,,,,,,VFR,1.2,19.4,12.8,,,,,,,,,SPECI,58.0
KOTM 021753Z AUTO 15013KT 10SM CLR 03/M08 A2994 RMK AO2 SLP148 T00331078 10033 21089 58037,KOTM,2018-04-02T17:53:00Z,41.1,-92.45,3.3,-7.8,150,13,,10.0,29.940945,1014.8,,TRUE,TRUE,,,,,,,CLR,,,,,,,,VFR,-3.7,3.3,-8.9,,,,,,,,,SPECI,256.0
KRWL 021753Z AUTO 26027G37KT 10SM -RA SCT065 12/M04 A2954 RMK AO2 PK WND 26041/1736 SLP943 P0000 60000 T01171039 10122 20056 58008,KRWL,2018-04-02T17:53:00Z,41.78,-107.2,11.7,-3.9,260,27,37,10.0,29.53937,994.3,,TRUE,TRUE,,,,,,-RA,SCT,6500,,,,,,,VFR,-0.8,12.2,5.6,,,0.005,,,,,,SPECI,2077.0
KRWI 021753Z AUTO 22007KT 180V270 10SM CLR 27/09 A2995 RMK AO2 SLP139 T02720094 10272 20156 58012,KRWI,2018-04-02T17:53:00Z,35.85,-77.9,27.2,9.4,220,7,,10.0,29.949802,1013.9,,TRUE,TRUE,,,,,,,CLR,,,,,,,,VFR,-1.2,27.2,15.6,,,,,,,,,METAR,47.0
KRWF 021753Z AUTO 14015KT 10SM FEW023 BKN038 OVC075 M01/M05 A2987 RMK AO2 SNE32 SLP129 P0000 60000 T10111050 11006 21033 56005,KRWF,2018-04-02T17:53:00Z,44.55,-95.08,-1.1,-5.0,140,15,,10.0,29.870079,1012.9,,TRUE,TRUE,,,,,,,FEW,2300,BKN,3800,OVC,7500,,,VFR,-0.5,-0.6,-3.3,,,0.005,,,,,,SPECI,311.0
KRVS 021753Z 00000KT 3SM BR OVC005 02/01 A2990 RMK AO2 SLP133 T00220011 10028 20006 58021,KRVS,2018-04-02T17:53:00Z,36.05,-95.98,2.2,1.1,0,0,,3.0,29.899607,1013.3,,,TRUE,,,,,,BR,OVC,500,,,,,,,IFR,-2.1,2.8,0.6,,,,,,,,,METAR,200.0
KRUE 021753Z AUTO 10007KT 8SM OVC006 07/05 A2996 RMK AO2 SLP143 T00670050 10067 20039 58018,KRUE,2018-04-02T17:53:00Z,35.25,-93.1,6.7,5.0,100,7,,8.0,29.958662,1014.3,,TRUE,TRUE,,,,,,,OVC,600,,,,,,,IFR,-1.8,6.7,3.9,,,,,,,,,METAR,115.0
KRXE 021753Z AUTO 21029G37KT 10SM -RA BKN022 OVC036 04/01 A2950 RMK AO2 PK WND 22037/1753 RAB50 SLP983 P0000 60000 T00440011 10067 20044 51008,KRXE,2018-04-02T17:53:00Z,43.83,-111.8,4.4,1.1,210,29,37,10.0,29.500984,998.3,,TRUE,TRUE,,,,,,-RA,BKN,2200,OVC,3600,,,,,MVFR,0.8,6.7,4.4,,,0.005,,,,,,SPECI,1480.0
KSAF 021753Z 27019G29KT 10SM CLR 18/M12 A2984 RMK AO2 PK WND 27029/1748 SLP032 T01831117 10183 20039 58016,KSAF,2018-04-02T17:53:00Z,35.62,-106.1,18.3,-11.7,270,19,29,10.0,29.840551,1003.2,,,TRUE,,,,,,,CLR,,,,,,,,VFR,-1.6,18.3,3.9,,,,,,,,,SPECI,1930.0
KSAC 021753Z VRB03KT 10SM CLR 17/11 A2989 RMK AO2 SLP121 T01720106 10172 20100 51009,KSAC,2018-04-02T17:53:00Z,38.5,-121.5,17.2,10.6,0,3,,10.0,29.890747,1012.1,,,TRUE,,,,,,,CLR,,,,,,,,VFR,0.9,17.2,10.0,,,,,,,,,SPECI,11.0
KSFB 021753Z 16006KT 10SM SCT048 BKN055 28/16 A3003 RMK AO2 SLP169 T02830161 10294 20194 58013,KSFB,2018-04-02T17:53:00Z,28.77,-81.22,28.3,16.1,160,6,,10.0,30.029528,1016.9,,,TRUE,,,,,,,SCT,4800,BKN,5500,,,,,VFR,-1.3,29.4,19.4,,,,,,,,,METAR,17.0
KSDM 021753Z 15005KT 10SM OVC022 16/10 A2991 RMK AO2 SLP125 T01610100 10161 20139 50006,KSDM,2018-04-02T17:53:00Z,32.58,-117.0,16.1,10.0,150,5,,10.0,29.911417,1012.5,,,TRUE,,,,,,,OVC,2200,,,,,,,MVFR,0.6,16.1,13.9,,,,,,,,,SPECI,159.0
KSDL 021753Z VRB06KT 10SM CLR 26/M05 A2981 RMK AO2 SLP071 T02561050 10256 20167 58001,KSDL,2018-04-02T17:53:00Z,33.62,-111.92,25.6,-5.0,0,6,,10.0,29.811024,1007.1,,,TRUE,,,,,,,CLR,,,,,,,,VFR,-0.1,25.6,16.7,,,,,,,,,SPECI,447.0
KSBM 021753Z AUTO 17009KT 10SM CLR 02/M07 A3005 RMK AO2 SLP185 T00221072 10022 21072 58013 TSNO,KSBM,2018-04-02T17:53:00Z,43.78,-87.85,2.2,-7.2,170,9,,10.0,30.050198,1018.5,,TRUE,TRUE,,,TRUE,,,,CLR,,,,,,,,VFR,-1.3,2.2,-7.2,,,,,,,,,SPECI,232.0
KSBA 021753Z 19004KT 10SM OVC017 14/11 A2992 RMK AO2 SLP130 T01390106 10139 20117 53005,KSBA,2018-04-02T17:53:00Z,34.43,-119.85,13.9,10.6,190,4,,10.0,29.920275,1013.0,,,TRUE,,,,,,,OVC,1700,,,,,,,MVFR,0.5,13.9,11.7,,,,,,,,,SPECI,3.0
KSAV 021753Z 27009KT 10SM FEW048 SCT180 28/10 A3002 RMK AO2 SLP165 T02780100 10283 20139 58019,KSAV,2018-04-02T17:53:00Z,32.12,-81.2,27.8,10.0,270,9,,10.0,30.02067,1016.5,,,TRUE,,,,,,,FEW,4800,SCT,18000,,,,,VFR,-1.9,28.3,13.9,,,,,,,,,SPECI,14.0
KSHN 021753Z AUTO 24015KT 10SM CLR 09/00 A3002 RMK AO2 SLP171 T00890000 10089 20011 51018,KSHN,2018-04-02T17:53:00Z,47.23,-123.13,8.9,0.0,240,15,,10.0,30.02067,1017.1,,TRUE,TRUE,,,,,,,CLR,,,,,,,,VFR,1.8,8.9,1.1,,,,,,,,,SPECI,82.0
KSGR 021753Z 19013KT 10SM FEW034 28/19 A2989 RMK AO2 SLP124 T02830194 10283 20217 58012,KSGR,2018-04-02T17:53:00Z,29.62,-95.65,28.3,19.4,190,13,,10.0,29.890747,1012.4,,,TRUE,,,,,,,FEW,3400,,,,,,,VFR,-1.2,28.3,21.7,,,,,,,,,SPECI,2.0
KSSF 021753Z 16011G21KT 10SM SCT036 28/19 A2979 RMK AO2 SLP078 T02830194 10289 20211 58018,KSSF,2018-04-02T17:53:00Z,29.33,-98.47,28.3,19.4,160,11,21,10.0,29.790354,1007.8,,,TRUE,,,,,,,SCT,3600,,,,,,,VFR,-1.8,28.9,21.1,,,,,,,,,SPECI,176.0
KSRQ 021753Z 24010KT 10SM CLR 26/20 A3003 RMK AO2 SLP170 T02610200 10267 20189 58006,KSRQ,2018-04-02T17:53:00Z,27.4,-82.57,26.1,20.0,240,10,,10.0,30.029528,1017.0,,,TRUE,,,,,,,CLR,,,,,,,,VFR,-0.6,26.7,18.9,,,,,,,,,METAR,18.0
KSPW 021753Z AUTO 15019G27KT 10SM OVC021 01/M04 A2982 RMK AO2 PK WND 17028/1657 PRESFR SLP115 T00111044 10028 21039 56020,KSPW,2018-04-02T17:53:00Z,43.17,-95.22,1.1,-4.4,150,19,27,10.0,29.819881,1011.5,,TRUE,TRUE,,,,,,,OVC,2100,,,,,,,MVFR,-2.0,2.8,-3.9,,,,,,,,,SPECI,403.0
KSPG 021753Z 26009KT 10SM CLR 26/18 A3003 RMK AO2 SLP169 T02560183 10267 20211 58009,KSPG,2018-04-02T17:53:00Z,27.77,-82.63,25.6,18.3,260,9,,10.0,30.029528,1016.9,,,TRUE,,,,,,,CLR,,,,,,,,VFR,-0.9,26.7,21.1,,,,,,,,,METAR,2.0
KSPB 021753Z AUTO 15004KT 10SM FEW021 SCT043 BKN060 07/03 A3014 RMK AO2 RAB40E49 SLP206 P0000 60000 T00720028 10072 21006 51018,KSPB,2018-04-02T17:53:00Z,45.77,-122.87,7.2,2.8,150,4,,10.0,30.138779,1020.6,,TRUE,TRUE,,,,,,,FEW,2100,SCT,4300,BKN,6000,,,VFR,1.8,7.2,-0.6,,,0.005,,,,,,SPECI,14.0
KSNY 021753Z AUTO 00000KT 10SM CLR 14/03 A2949 RMK AO2 SLP976 T01390033 10139 21044 58014,KSNY,2018-04-02T17:53:00Z,41.1,-102.98,13.9,3.3,0,0,,10.0,29.489174,997.6,,TRUE,TRUE,,,,,,,CLR,,,,,,,,VFR,-1.4,13.9,-4.4,,,,,,,,,SPECI,1307.0
KSNS 021753Z 26010KT 10SM OVC016 14/10 A2995 RMK AO2 SLP151 T01440100 10144 20122 50007,KSNS,2018-04-02T17:53:00Z,36.67,-121.6,14.4,10.0,260,10,,10.0,29.949802,1015.1,,,TRUE,,,,,,,OVC,1600,,,,,,,MVFR,0.7,14.4,12.2,,,,,,,,,SPECI,30.0
KSMQ 021753Z AUTO 00000KT 10SM OVC024 03/M01 A3012 RMK AO2 SLP202 60010 T00331006 10039 20000 55006,KSMQ,2018-04-02T17:53:00Z,40.62,-74.67,3.3,-0.6,0,0,,10.0,30.121063,1020.2,,TRUE,TRUE,,,,,,,OVC,2400,,,,,,,MVFR,-0.6,3.9,0.0,,,,,,,,,SPECI,30.0
KSMF 021753Z 00000KT 10SM FEW250 17/11 A2988 RMK AO2 SLP119 T01670106 10167 20083 51010,KSMF,2018-04-02T17:53:00Z,38.7,-121.6,16.7,10.6,0,0,,10.0,29.878937,1011.9,,,TRUE,,,,,,,FEW,25000,,,,,,,VFR,1.0,16.7,8.3,,,,,,,,,SPECI,6.0
KSLN 021753Z 14014KT 10SM OVC017 03/M02 A2978 RMK AO2 SLP093 T00331017 10033 21028 56030,KSLN,2018-04-02T17:53:00Z,38.78,-97.65,3.3,-1.7,140,14,,10.0,29.778543,1009.3,,,TRUE,,,,,,,OVC,1700,,,,,,,MVFR,-3.0,3.3,-2.8,,,,,,,,,METAR,385.0
KSJC 021753Z 00000KT 10SM BKN075 BKN110 17/09 A2993 RMK AO2 SLP135 T01670094 10167 20094 50004,KSJC,2018-04-02T17:53:00Z,37.37,-121.92,16.7,9.4,0,0,,10.0,29.929134,1013.5,,,TRUE,,,,,,,BKN,7500,BKN,11000,,,,,VFR,0.4,16.7,9.4,,,,,,,,,SPECI,24.0
KSIY 021753Z AUTO 03018KT 10SM CLR 07/M13 A3007 RMK AO2 SLP193 60000 T00671128 10094 20033 51022,KSIY,2018-04-02T17:53:00Z,41.77,-122.47,6.7,-12.8,30,18,,10.0,30.070866,1019.3,,TRUE,TRUE,,,,,,,CLR,,,,,,,,VFR,2.2,9.4,3.3,,,,,,,,,SPECI,807.0
KSSI 021753Z AUTO 13008KT 10SM CLR 25/19 A3005 RMK AO2 SLP176 T02500189 10256 20156 58012,KSSI,2018-04-02T17:53:00Z,31.15,-81.38,25.0,18.9,130,8,,10.0,30.050198,1017.6,,TRUE,TRUE,,,,,,,CLR,,,,,,,,VFR,-1.2,25.6,15.6,,,,,,,,,METAR,6.0
MMCP 021753Z 09014KT 7SM FEW030 32/18 A2986 RMK SLP112 57022 980 8/100,MMCP,2018-04-02T17:53:00Z,19.82,-90.5,32.0,18.0,90,14,,7.0,29.861221,1011.2,,,,,,,,,,FEW,3000,,,,,,,VFR,-2.2,,,,,,,,,,,METAR,5.0
KRIW 021753Z AUTO 27022G26KT 10SM FEW095 13/M08 A2940 RMK AO2 PK WND 26032/1738 SLP927 T01281083 10133 20006 56013 $,KRIW,2018-04-02T17:53:00Z,43.07,-108.47,12.8,-8.3,270,22,26,10.0,29.40059,992.7,,TRUE,TRUE,TRUE,,,,,,FEW,9500,,,,,,,VFR,-1.3,13.3,0.6,,,,,,,,,SPECI,1697.0
KRIL 021753Z AUTO 27023G33KT 10SM CLR 19/M07 A2963 RMK AO2 PK WND 26038/1715 SLP987 T01891072 10189 20022 58023,KRIL,2018-04-02T17:53:00Z,39.53,-107.73,18.9,-7.2,270,23,33,10.0,29.630905,998.7,,TRUE,TRUE,,,,,,,CLR,,,,,,,,VFR,-2.3,18.9,2.2,,,,,,,,,SPECI,1678.0
KCQC 021753Z AUTO 28027G44KT 10SM CLR 17/M13 A2990 RMK AO2 PK WND 28044/1753 SLP050 T01671133 10172 20039 58007,KCQC,2018-04-02T17:53:00Z,35.0,-105.67,16.7,-13.3,280,27,44,10.0,29.899607,1005.0,,TRUE,TRUE,,,,,,,CLR,,,,,,,,VFR,-0.7,17.2,3.9,,,,,,,,,SPECI,2160.0
KHJO 021753Z AUTO 31008KT 10SM CLR 21/08 A2989 RMK AO2 SLP121 T02060083 10211 20094 51008,KHJO,2018-04-02T17:53:00Z,36.32,-119.62,20.6,8.3,310,8,,10.0,29.890747,1012.1,,TRUE,TRUE,,,,,,,CLR,,,,,,,,VFR,0.8,21.1,9.4,,,,,,,,,SPECI,74.0
KHIO 021753Z VRB04KT 10SM BKN023 08/02 A3015 RMK AO2 SLP210 60001 T00780022 10078 20011 51018,KHIO,2018-04-02T17:53:00Z,45.55,-122.95,7.8,2.2,0,4,,10.0,30.15059,1021.0,,,TRUE,,,,,,,BKN,2300,,,,,,,MVFR,1.8,7.8,1.1,,,,,,,,,SPECI,68.0
KPAE 021753Z 19005KT 10SM SCT025 BKN055 06/00 A3005 RMK AO2 SLP180 60000 T00560000 10056 20017 51028,KPAE,2018-04-02T17:53:00Z,47.92,-122.28,5.6,0.0,190,5,,10.0,30.050198,1018.0,,,TRUE,,,,,,,SCT,2500,BKN,5500,,,,,VFR,2.8,5.6,1.7,,,,,,,,,SPECI,180.0
KNUI 021753Z AUTO 01008G16KT 8SM OVC017 07/03 A3011 RMK AO2 SLP195 60000 T00720028 10078 20061 51015 $,KNUI,2018-04-02T17:53:00Z,38.15,-76.43,7.2,2.8,10,8,16,8.0,30.109253,1019.5,,TRUE,TRUE,TRUE,,,,,,OVC,1700,,,,,,,MVFR,1.5,7.8,6.1,,,,,,,,,SPECI,7.0
KPTK 021753Z VRB03KT 10SM FEW200 BKN250 04/M08 A3007 RMK AO2 SLP194 T00391083 10039 21056 58011,KPTK,2018-04-02T17:53:00Z,42.67,-83.42,3.9,-8.3,0,3,,10.0,30.070866,1019.4,,,TRUE,,,,,,,FEW,20000,BKN,25000,,,,,VFR,-1.1,3.9,-5.6,,,,,,,,,SPECI,299.0
KPUC 021753Z AUTO 27019G28KT 10SM CLR 17/M08 A2966 RMK AO2 PK WND 26028/1753 SLP011 T01721083 10178 20033 58010,KPUC,2018-04-02T17:53:00Z,39.62,-110.75,17.2,-8.3,270,19,28,10.0,29.660433,1001.1,,TRUE,TRUE,,,,,,,CLR,,,,,,,,VFR,-1.0,17.8,3.3,,,,,,,,,SPECI,2091.0
KPUB 021753Z 17004KT 10SM CLR 18/M03 A2956 RMK AO2 SLP986 T01781028 10178 21056 58022,KPUB,2018-04-02T17:53:00Z,38.28,-104.5,17.8,-2.8,170,4,,10.0,29.56004,998.6,,,TRUE,,,,,,,CLR,,,,,,,,VFR,-2.2,17.8,-5.6,,,,,,,,,SPECI,1420.0
KHUL 021753Z AUTO 31009KT 10SM BKN065 02/M13 A3001 RMK AO2 SLP170 T00221133 56021,KHUL,2018-04-02T17:53:00Z,46.12,-67.8,2.2,-13.3,310,9,,10.0,30.008858,1017.0,,TRUE,TRUE,,,,,,,BKN,6500,,,,,,,VFR,-2.1,,,,,,,,,,,METAR,150.0
KGGW 021753Z AUTO 07016KT 10SM OVC055 M05/M12 A2981 RMK AO2 SLP130 T10501117 11050 21083 50009,KGGW,2018-04-02T17:53:00Z,48.22,-106.62,-5.0,-11.7,70,16,,10.0,29.811024,1013.0,,TRUE,TRUE,,,,,,,OVC,5500,,,,,,,VFR,0.9,-5.0,-8.3,,,,,,,,,METAR,694.0
KGFL 021753Z AUTO 14010KT 10SM BKN055 04/M05 A3009 RMK AO2 SLP198 T00441050 10044 21017 58012,KGFL,2018-04-02T17:53:00Z,43.33,-73.62,4.4,-5.0,140,10,,10.0,30.088583,1019.8,,TRUE,TRUE,,,,,,,BKN,5500,,,,,,,VFR,-1.2,4.4,-1.7,,,,,,,,,METAR,103.0
KFNB 021753Z AUTO 14013KT 4SM BR OVC006 M03/M06 A2985 RMK AO2 SLP121 T10331056 11033 21067 58030,KFNB,2018-04-02T17:53:00Z,40.07,-95.58,-3.3,-5.6,140,13,,4.0,29.84941,1012.1,,TRUE,TRUE,,,,,,BR,OVC,600,,,,,,,IFR,-3.0,-3.3,-6.7,,,,,,,,,METAR,300.0
KFLD 021753Z AUTO 19007KT 10SM CLR 03/M10 A3003 RMK AO2 UPB38E46SNB1656E13 SLP178 P0000 60000 T00281100 10033 21072 58018,KFLD,2018-04-02T17:53:00Z,43.77,-88.48,2.8,-10.0,190,7,,10.0,30.029528,1017.8,,TRUE,TRUE,,,,,,,CLR,,,,,,,,VFR,-1.8,3.3,-7.2,,,0.005,,0.005,,,,METAR,240.0
PTKR 021753Z 36003KT 15SM FEW017 FEW110 OVC280 26/24 A2977 RMK SLP082 8/277 T02610243 10267 20256 57017,PTKR,2018-04-02T17:53:00Z,7.33,134.48,26.1,24.3,360,3,,15.0,29.769686,1008.2,,,,,,,,,,FEW,1700,FEW,11000,OVC,28000,,,VFR,-1.7,26.7,25.6,,,,,,,,,METAR,30.0
KUNV 021753Z 00000KT 10SM SCT030 OVC036 03/M03 A3008,KUNV,2018-04-02T17:53:00Z,40.85,-77.83,3.0,-3.0,0,0,,10.0,30.079725,,,,,,,,,,,SCT,3000,OVC,3600,,,,,VFR,,,,,,,,,,,,METAR,378.0
KSWO 021753Z VRB06KT 5SM BR OVC006 02/01 A2986 RMK AO2 SLP114 T00220006 10022 21006 58031,KSWO,2018-04-02T17:53:00Z,36.17,-97.08,2.2,0.6,0,6,,5.0,29.861221,1011.4,,,TRUE,,,,,,BR,OVC,600,,,,,,,IFR,-3.1,2.2,-0.6,,,,,,,,,METAR,290.0
KSTS 021753Z 34009KT 10SM FEW250 19/08 A2989 RMK AO2 SLP117 T01890078 10189 20083 50002,KSTS,2018-04-02T17:53:00Z,38.5,-122.82,18.9,7.8,340,9,,10.0,29.890747,1011.7,,,TRUE,,,,,,,FEW,25000,,,,,,,VFR,0.2,18.9,8.3,,,,,,,,,SPECI,39.0
KTCC 021753Z AUTO 25022G32KT 10SM CLR 26/M07 A2968 RMK AO2 PK WND 26032/1710 SLP019 T02611072 10261 21033 58026,KTCC,2018-04-02T17:53:00Z,35.18,-103.6,26.1,-7.2,250,22,32,10.0,29.681103,1001.9,,TRUE,TRUE,,,,,,,CLR,,,,,,,,VFR,-2.6,26.1,-3.3,,,,,,,,,SPECI,1235.0
KTCL 021753Z 19008KT 10SM BKN037 BKN047 24/17 A2999 RMK AO2 SLP154 T02440167 10244 20106 58010,KTCL,2018-04-02T17:53:00Z,33.22,-87.62,24.4,16.7,190,8,,10.0,29.991142,1015.4,,,TRUE,,,,,,,BKN,3700,BKN,4700,,,,,VFR,-1.0,24.4,10.6,,,,,,,,,METAR,49.0
KTDZ 021753Z AUTO 00000KT 10SM CLR 04/M09 A3014 RMK AO2 SLP211 T00391089 10039 21039 58011,KTDZ,2018-04-02T17:53:00Z,41.57,-83.48,3.9,-8.9,0,0,,10.0,30.138779,1021.1,,TRUE,TRUE,,,,,,,CLR,,,,,,,,VFR,-1.1,3.9,-3.9,,,,,,,,,SPECI,189.0
KMFE 021753Z 16020G28KT 10SM CLR 33/21 A2978 RMK AO2 PK WND 14037/1732 SLP082 T03280206 10328 20239 58009,KMFE,2018-04-02T17:53:00Z,26.18,-98.25,32.8,20.6,160,20,28,10.0,29.778543,1008.2,,,TRUE,,,,,,,CLR,,,,,,,,VFR,-0.9,32.8,23.9,,,,,,,,,SPECI,38.0
KMTO 021753Z AUTO 14010KT 10SM BKN013 02/00 A3004 RMK AO2 SLP180 T00220000 10033 21056 58024,KMTO,2018-04-02T17:53:00Z,39.47,-88.27,2.2,0.0,140,10,,10.0,30.041338,1018.0,,TRUE,TRUE,,,,,,,BKN,1300,,,,,,,MVFR,-2.4,3.3,-5.6,,,,,,,,,SPECI,214.0
KSEA 021753Z 16008KT 10SM FEW020 SCT030 08/01 A3006 RMK AO2 SLP188 T00780006 10078 20022 51024,KSEA,2018-04-02T17:53:00Z,47.45,-122.32,7.8,0.6,160,8,,10.0,30.059055,1018.8,,,TRUE,,,,,,,FEW,2000,SCT,3000,,,,,VFR,2.4,7.8,2.2,,,,,,,,,SPECI,136.0
PACD 021753Z 16021G27KT 10SM CLR 02/00 A3012 RMK AO2 PK WND 16027/1723 SLP200 T00220000 10022 20011 56007 $,PACD,2018-04-02T17:53:00Z,55.2,-162.72,2.2,0.0,160,21,27,10.0,30.121063,1020.0,,,TRUE,TRUE,,,,,,CLR,,,,,,,,VFR,-0.7,2.2,1.1,,,,,,,,,SPECI,30.0
KBFM 021753Z 15010KT 10SM -RA SCT034 BKN050 BKN060 24/21 A3004 RMK AO2 RAB46 SLP171 P0000 60000 T02440211 10244 20172 58009,KBFM,2018-04-02T17:53:00Z,30.62,-88.07,24.4,21.1,150,10,,10.0,30.041338,1017.1,,,TRUE,,,,,,-RA,SCT,3400,BKN,5000,BKN,6000,,,VFR,-0.9,24.4,17.2,,,0.005,,,,,,SPECI,20.0
KBAF 021753Z 00000KT 10SM OVC033 02/M03 A3010 RMK AO2 SLP200 60012 T00221028 10022 21017 58018,KBAF,2018-04-02T17:53:00Z,42.17,-72.72,2.2,-2.8,0,0,,10.0,30.100393,1020.0,,,TRUE,,,,,,,OVC,3300,,,,,,,VFR,-1.8,2.2,-1.7,,,,,0.12,,,,METAR,83.0
KLSE 021753Z 18008KT 10SM BKN070 OVC090 02/M08 A2998 RMK AO2 PRESFR SLP164 T00221083 10033 21044 58018,KLSE,2018-04-02T17:53:00Z,43.88,-91.25,2.2,-8.3,180,8,,10.0,29.97933,1016.4,,,TRUE,,,,,,,BKN,7000,OVC,9000,,,,,VFR,-1.8,3.3,-4.4,,,,,,,,,METAR,199.0
KLKV 021753Z AUTO 31007KT 270V340 10SM CLR 04/M12 A2996 RMK AO2 SLP618 60000 T00391117 10044 20011 51019,KLKV,2018-04-02T17:53:00Z,42.17,-120.4,3.9,-11.7,310,7,,10.0,29.958662,961.8,,TRUE,TRUE,,,,,,,CLR,,,,,,,,VFR,1.9,4.4,1.1,,,,,0.005,,,,METAR,1441.0
KUIL 021753Z AUTO 29014G21KT 10SM FEW041 08/M02 A3006 RMK AO2 SLP179 T00781017 10078 20017 51020 $,KUIL,2018-04-02T17:53:00Z,47.93,-124.55,7.8,-1.7,290,14,21,10.0,30.059055,1017.9,,TRUE,TRUE,TRUE,,,,,,FEW,4100,,,,,,,VFR,2.0,7.8,1.7,,,,,,,,,SPECI,54.0
KUAO 021753Z 14004KT 10SM BKN015 BKN031 08/03 A3017 RMK AO2 SLP216 60003 T00780028 10078 20033 51015,KUAO,2018-04-02T17:53:00Z,45.25,-122.77,7.8,2.8,140,4,,10.0,30.171259,1021.6,,,TRUE,,,,,,,BKN,1500,BKN,3100,,,,,MVFR,1.5,7.8,3.3,,,,,,,,,SPECI,59.0
KTYS 021753Z 00000KT 10SM FEW050 OVC060 18/10 A2999 RMK AO2 SLP148 T01780100 10178 20144 58004,KTYS,2018-04-02T17:53:00Z,35.82,-83.98,17.8,10.0,0,0,,10.0,29.991142,1014.8,,,TRUE,,,,,,,FEW,5000,OVC,6000,,,,,VFR,-0.4,17.8,14.4,,,,,,,,,METAR,302.0
KTVR 021753Z AUTO 17008KT 10SM FEW020 FEW027 23/19 A2998 RMK AO2 SLP158 T02280194 10228 20156 58015,KTVR,2018-04-02T17:53:00Z,32.35,-91.03,22.8,19.4,170,8,,10.0,29.97933,1015.8,,TRUE,TRUE,,,,,,,FEW,2000,FEW,2700,,,,,VFR,-1.5,22.8,15.6,,,,,,,,,METAR,26.0
KTVL 021753Z AUTO 20010G15KT 10SM CLR 11/M02 A2994 RMK AO2 SLP109 T01111022 10111 20044 50002,KTVL,2018-04-02T17:53:00Z,38.9,-120.0,11.1,-2.2,200,10,15,10.0,29.940945,1010.9,,TRUE,TRUE,,,,,,,CLR,,,,,,,,VFR,0.2,11.1,4.4,,,,,,,,,SPECI,1924.0
KTVC 021753Z 27008KT 10SM BKN220 03/M11 A3003 RMK AO2 SLP178 T00331111 10039 21061 58010,KTVC,2018-04-02T17:53:00Z,44.73,-85.57,3.3,-11.1,270,8,,10.0,30.029528,1017.8,,,TRUE,,,,,,,BKN,22000,,,,,,,VFR,-1.0,3.9,-6.1,,,,,,,,,SPECI,190.0
KTUS 021753Z 20012G17KT 10SM CLR 26/M07 A2987 RMK AO2 SLP076 T02611067 10261 20117 58009,KTUS,2018-04-02T17:53:00Z,32.13,-110.95,26.1,-6.7,200,12,17,10.0,29.870079,1007.6,,,TRUE,,,,,,,CLR,,,,,,,,VFR,-0.9,26.1,11.7,,,,,,,,,SPECI,776.0
KTTN 021753Z 35007KT 10SM BKN017 OVC022 04/00 A3013 RMK AO2 SLP198 60015 I6000 T00440000 10044 20006 55001,KTTN,2018-04-02T17:53:00Z,40.28,-74.82,4.4,0.0,350,7,,10.0,30.129921,1019.8,,,TRUE,,,,,,,BKN,1700,OVC,2200,,,,,MVFR,-0.1,4.4,0.6,,,,,,,,,SPECI,59.0
KTTD 021753Z 25005KT 10SM BKN024 OVC031 08/02 A3016 RMK AO2 SLP212 60000 T00780022 10078 20039 51022,KTTD,2018-04-02T17:53:00Z,45.55,-122.42,7.8,2.2,250,5,,10.0,30.159449,1021.2,,,TRUE,,,,,,,BKN,2400,OVC,3100,,,,,MVFR,2.2,7.8,3.9,,,,,,,,,SPECI,14.0
KTRL 021753Z AUTO VRB03KT 10SM OVC010 12/07 A2992 RMK AO2 SLP129 60000 T01170072 10117 20061 56015,KTRL,2018-04-02T17:53:00Z,32.72,-96.27,11.7,7.2,0,3,,10.0,29.920275,1012.9,,TRUE,TRUE,,,,,,,OVC,1000,,,,,,,MVFR,-1.5,11.7,6.1,,,,,,,,,SPECI,145.0
KTRI 021753Z 28003KT 10SM SCT040 BKN075 OVC090 15/12 A3002 RMK AO2 RAB00E29 SLP149 P0001 60022 T01500122 10150 20117 58004,KTRI,2018-04-02T17:53:00Z,36.48,-82.4,15.0,12.2,280,3,,10.0,30.02067,1014.9,,,TRUE,,,,,,,SCT,4000,BKN,7500,OVC,9000,,,VFR,-0.4,15.0,11.7,,,0.01,,0.22,,,,METAR,474.0
KTPA 021753Z 22008KT 10SM SCT030 BKN250 27/19 A3005 RMK AO2 SLP175 CU BLDG W T02720189 10272 20211 58008,KTPA,2018-04-02T17:53:00Z,27.97,-82.53,27.2,18.9,220,8,,10.0,30.050198,1017.5,,,TRUE,,,,,,,SCT,3000,BKN,25000,,,,,VFR,-0.8,27.2,21.1,,,,,,,,,METAR,11.0
KTOR 021753Z AUTO 26013G19KT 10SM CLR 14/02 A2943 RMK AO2 SLP959 T01440017 10144 21028 57013,KTOR,2018-04-02T17:53:00Z,42.07,-104.15,14.4,1.7,260,13,19,10.0,29.430119,995.9,,TRUE,TRUE,,,,,,,CLR,,,,,,,,VFR,-1.3,14.4,-2.8,,,,,,,,,SPECI,1277.0
KTOP 021753Z 12010KT 5SM BR OVC008 00/M02 A2987 RMK AO2 SLP122 T00001017 10000 21039 58022,KTOP,2018-04-02T17:53:00Z,39.07,-95.63,0.0,-1.7,120,10,,5.0,29.870079,1012.2,,,TRUE,,,,,,BR,OVC,800,,,,,,,IFR,-2.2,0.0,-3.9,,,,,,,,,METAR,268.0
KTOI 021753Z AUTO 25006KT 10SM SCT038 24/14 A3004 RMK AO2 SLP170 T02390144 10239 20111 58010,KTOI,2018-04-02T17:53:00Z,31.85,-86.02,23.9,14.4,250,6,,10.0,30.041338,1017.0,,TRUE,TRUE,,,,,,,SCT,3800,,,,,,,VFR,-1.0,23.9,11.1,,,,,,,,,SPECI,118.0
KTMB 021753Z 10008KT 10SM SCT036 29/17 A3004 RMK AO2 SLP170 T02890172 10294 20217 58011,KTMB,2018-04-02T17:53:00Z,25.65,-80.43,28.9,17.2,100,8,,10.0,30.041338,1017.0,,,TRUE,,,,,,,SCT,3600,,,,,,,VFR,-1.1,29.4,21.7,,,,,,,,,METAR,2.0
KTLH 021753Z VRB06KT 10SM SCT038 BKN050 26/14 A3005 RMK AO2 SLP173 T02610144 10261 20100 58010,KTLH,2018-04-02T17:53:00Z,30.4,-84.35,26.1,14.4,0,6,,10.0,30.050198,1017.3,,,TRUE,,,,,,,SCT,3800,BKN,5000,,,,,VFR,-1.0,26.1,10.0,,,,,,,,,METAR,19.0
KTKI 021753Z 10003KT 10SM OVC007 08/07 A2992 RMK AO2 SLP142 T00780067 10078 20044 58016,KTKI,2018-04-02T17:53:00Z,33.18,-96.58,7.8,6.7,100,3,,10.0,29.920275,1014.2,,,TRUE,,,,,,,OVC,700,,,,,,,IFR,-1.6,7.8,4.4,,,,,,,,,SPECI,179.0
KTIW 021753Z VRB06KT 10SM SCT018 07/01 A3007 RMK AO2 SLP184 T00670011 10072 20011 51025 $,KTIW,2018-04-02T17:53:00Z,47.27,-122.58,6.7,1.1,0,6,,10.0,30.070866,1018.4,,,TRUE,TRUE,,,,,,SCT,1800,,,,,,,VFR,2.5,7.2,1.1,,,,,,,,,SPECI,89.0
KUTS 021753Z AUTO 19011G22KT 10SM FEW035 BKN044 27/18 A2988 RMK AO2 SLP115 T02670178 10272 20200 58015,KUTS,2018-04-02T17:53:00Z,30.75,-95.58,26.7,17.8,190,11,22,10.0,29.878937,1011.5,,TRUE,TRUE,,,,,,,FEW,3500,BKN,4400,,,,,VFR,-1.5,27.2,20.0,,,,,,,,,SPECI,104.0
KVCB 021753Z AUTO 00000KT CLR 20/11 A2990 RMK AO2 SLP125 T02000106 10200 20078 51009 $,KVCB,2018-04-02T17:53:00Z,38.38,-121.95,20.0,10.6,0,0,,,29.899607,1012.5,,TRUE,TRUE,TRUE,,,,,,CLR,,,,,,,,,0.9,20.0,7.8,,,,,,,,,SPECI,33.0
KVEL 021753Z AUTO 19021G29KT 10SM CLR 19/M07 A2956 RMK AO2 PK WND 19032/1738 WSHFT 1716 SLP966 T01941067 10194 20000 58027,KVEL,2018-04-02T17:53:00Z,40.45,-109.52,19.4,-6.7,190,21,29,10.0,29.56004,996.6,,TRUE,TRUE,,,,,,,CLR,,,,,,,,VFR,-2.7,19.4,0.0,,,,,,,,,SPECI,1604.0
KVGT 021753Z VRB03KT 10SM CLR 23/M04 A2973 RMK AO2 SLP067 T02281044 10228 20128 50002,KVGT,2018-04-02T17:53:00Z,36.22,-115.2,22.8,-4.4,0,3,,10.0,29.731298,1006.7,,,TRUE,,,,,,,CLR,,,,,,,,VFR,0.2,22.8,12.8,,,,,,,,,SPECI,671.0
KVPC 021753Z AUTO VRB04KT 10SM CLR 25/03 A2999 RMK AO2 SLP147 T02500028 10256 20094 58010,KVPC,2018-04-02T17:53:00Z,34.13,-84.85,25.0,2.8,0,4,,10.0,29.991142,1014.7,,TRUE,TRUE,,,,,,,CLR,,,,,,,,VFR,-1.0,25.6,9.4,,,,,,,,,METAR,222.0
KVLD 021753Z VRB04KT 10SM SCT046 26/14 A3005 RMK AO2 SLP182 T02560139 10267 20100 58012,KVLD,2018-04-02T17:53:00Z,30.78,-83.27,25.6,13.9,0,4,,10.0,30.050198,1018.2,,,TRUE,,,,,,,SCT,4600,,,,,,,VFR,-1.2,26.7,10.0,,,,,,,,,METAR,62.0
KYIP 021753Z 19006KT 10SM CLR 05/M08 A3011 RMK AO2 SLP201 T00501078 10056 21044 58013,KYIP,2018-04-02T17:53:00Z,42.23,-83.53,5.0,-7.8,190,6,,10.0,30.109253,1020.1,,,TRUE,,,,,,,CLR,,,,,,,,VFR,-1.3,5.6,-4.4,,,,,,,,,SPECI,215.0
KXNA 021753Z 18005KT 2SM BR OVC004 08/07 A2987 RMK AO2 SLP117 60000 T00780072 10078 20022 58025,KXNA,2018-04-02T17:53:00Z,36.28,-94.3,7.8,7.2,180,5,,2.0,29.870079,1011.7,,,TRUE,,,,,,BR,OVC,400,,,,,,,LIFR,-2.5,7.8,2.2,,,,,0.005,,,,METAR,392.0
KWST 021753Z AUTO 35005KT 10SM BKN015 OVC095 05/01 A3010 RMK AO2 SLP193 60022 T00500006 10050 20000 56009,KWST,2018-04-02T17:53:00Z,41.35,-71.8,5.0,0.6,350,5,,10.0,30.100393,1019.3,,TRUE,TRUE,,,,,,,BKN,1500,OVC,9500,,,,,MVFR,-0.9,5.0,0.0,,,,,,,,,SPECI,21.0
KWRL 021753Z AUTO VRB03KT 10SM OVC016 03/M01 A2949 RMK AO2 SNE03 SLP004 P0000 60000 T00281006 10028 21039 58001,KWRL,2018-04-02T17:53:00Z,43.97,-107.95,2.8,-0.6,0,3,,10.0,29.489174,1000.4,,TRUE,TRUE,,,,,,,OVC,1600,,,,,,,MVFR,-0.1,2.8,-3.9,,,0.005,,,,,,SPECI,1271.0
KVUO 021753Z AUTO 27004KT 10SM FEW025 BKN049 OVC060 07/02 A3015 RMK AO2 SLP211 T00720017 10072 20028 53018,KVUO,2018-04-02T17:53:00Z,45.62,-122.65,7.2,1.7,270,4,,10.0,30.15059,1021.1,,TRUE,TRUE,,,,,,,FEW,2500,BKN,4900,OVC,6000,,,VFR,1.8,7.2,2.8,,,,,,,,,SPECI,8.0
KVRB 021753Z 12011KT 10SM SCT045 28/17 A3005 RMK AO2 SLP173 T02830172 10289 20183 58012,KVRB,2018-04-02T17:53:00Z,27.65,-80.42,28.3,17.2,120,11,,10.0,30.050198,1017.3,,,TRUE,,,,,,,SCT,4500,,,,,,,VFR,-1.2,28.9,18.3,,,,,,,,,METAR,10.0
PABI 021753Z 25005KT 10SM CLR M09/M14 A3052 RMK AO2 SLP373 T10941144 11094 21150 58005,PABI,2018-04-02T17:53:00Z,64.0,-145.72,-9.4,-14.4,250,5,,10.0,30.519686,1037.3,,,TRUE,,,,,,,CLR,,,,,,,,VFR,-0.5,-9.4,-15.0,,,,,,,,,SPECI,386.0
PABE 021753Z 03017KT 10SM CLR M06/M10 A3046 RMK AO2 SLP318 T10561100 11033 21056 55004,PABE,2018-04-02T17:53:00Z,60.78,-161.83,-5.6,-10.0,30,17,,10.0,30.46063,1031.8,,,TRUE,,,,,,,CLR,,,,,,,,VFR,-0.4,-3.3,-5.6,,,,,,,,,METAR,41.0
PAAQ 021753Z 02029G39KT 10SM CLR 00/M11 A3029 RMK AO2 PK WND 02040/1723 SLP262 T00001106 10006 21006 58011,PAAQ,2018-04-02T17:53:00Z,61.6,-149.08,0.0,-10.6,20,29,39,10.0,30.28937,1026.2,,,TRUE,,,,,,,CLR,,,,,,,,VFR,-1.1,0.6,-0.6,,,,,,,,,METAR,73.0
KZZV 021753Z AUTO 08003KT 10SM OVC020 04/M01 A3012 RMK AO2 SLP205 T00441006 10044 20006 58010,KZZV,2018-04-02T17:53:00Z,39.95,-81.9,4.4,-0.6,80,3,,10.0,30.121063,1020.5,,TRUE,TRUE,,,,,,,OVC,2000,,,,,,,MVFR,-1.0,4.4,0.6,,,,,,,,,SPECI,268.0
KYKM 021753Z 33011KT 10SM FEW070 11/M07 A2993 RMK AO2 SLP139 T01061067 10106 21011 51017,KYKM,2018-04-02T17:53:00Z,46.57,-120.53,10.6,-6.7,330,11,,10.0,29.929134,1013.9,,,TRUE,,,,,,,FEW,7000,,,,,,,VFR,1.7,10.6,-1.1,,,,,,,,,SPECI,324.0
KRHI 021753Z AUTO VRB06KT 10SM SCT110 00/M09 A2995 RMK AO2 SLP169 T00001094 10000 21150 56006,KRHI,2018-04-02T17:53:00Z,45.63,-89.48,0.0,-9.4,0,6,,10.0,29.949802,1016.9,,TRUE,TRUE,,,,,,,SCT,11000,,,,,,,VFR,-0.6,0.0,-15.0,,,,,,,,,SPECI,485.0
KRDD 021753Z 01009G18KT 10SM CLR 20/01 A2989 RMK AO2 SLP119 T02000006 10200 20106 51008,KRDD,2018-04-02T17:53:00Z,40.52,-122.3,20.0,0.6,10,9,18,10.0,29.890747,1011.9,,,TRUE,,,,,,,CLR,,,,,,,,VFR,0.8,20.0,10.6,,,,,,,,,SPECI,155.0
KRBG 021753Z AUTO 00000KT 10SM BKN039 OVC047 08/00 A3019 RMK AO2 SLP224 T00780000 10078 20022 51010,KRBG,2018-04-02T17:53:00Z,43.23,-123.35,7.8,0.0,0,0,,10.0,30.188976,1022.4,,TRUE,TRUE,,,,,,,BKN,3900,OVC,4700,,,,,VFR,1.0,7.8,2.2,,,,,,,,,SPECI,154.0
KRBD 021753Z 33004KT 7SM OVC011 09/06 A2990 RMK AO2 SLP126 T00890056 10094 20061 58014,KRBD,2018-04-02T17:53:00Z,32.68,-96.87,8.9,5.6,330,4,,7.0,29.899607,1012.6,,,TRUE,,,,,,,OVC,1100,,,,,,,MVFR,-1.4,9.4,6.1,,,,,,,,,SPECI,203.0
KRAL 021753Z 00000KT 7SM OVC017 13/09 A2991 RMK AO2 SLP117 T01330094 10133 20117 50004,KRAL,2018-04-02T17:53:00Z,33.95,-117.45,13.3,9.4,0,0,,7.0,29.911417,1011.7,,,TRUE,,,,,,,OVC,1700,,,,,,,MVFR,0.4,13.3,11.7,,,,,,,,,SPECI,252.0
KRAC 021753Z AUTO 16011KT 10SM CLR 02/M08 A3009 RMK AO2 SLP196 T00221078 10028 21061 58013,KRAC,2018-04-02T17:53:00Z,42.77,-87.82,2.2,-7.8,160,11,,10.0,30.088583,1019.6,,TRUE,TRUE,,,,,,,CLR,,,,,,,,VFR,-1.3,2.8,-6.1,,,,,,,,,SPECI,203.0
KPWA 021753Z 16010KT 10SM OVC016 07/01 A2984 RMK AO2 SLP109 T00670011 10072 20006 58029,KPWA,2018-04-02T17:53:00Z,35.53,-97.65,6.7,1.1,160,10,,10.0,29.840551,1010.9,,,TRUE,,,,,,,OVC,1600,,,,,,,MVFR,-2.9,7.2,0.6,,,,,,,,,METAR,397.0
PAPB 021753Z AUTO 06021G27KT 10SM CLR 03/01 A3015 RMK AO2 PK WND 07029/1736 SLP199 T00280006 10033 20022 56005 TSNO,PAPB,2018-04-02T17:53:00Z,56.58,-169.67,2.8,0.6,60,21,27,10.0,30.15059,1019.9,,TRUE,TRUE,,,TRUE,,,,CLR,,,,,,,,VFR,-0.5,3.3,2.2,,,,,,,,,METAR,35.0
PAKW 021753Z AUTO VRB04KT 10SM OVC075 06/M05 A2987 RMK AO2 SLP115 T00561050 10056 21022 56011 TSNO,PAKW,2018-04-02T17:53:00Z,55.58,-133.07,5.6,-5.0,0,4,,10.0,29.870079,1011.5,,TRUE,TRUE,,,TRUE,,,,OVC,7500,,,,,,,VFR,-1.1,5.6,-2.2,,,,,,,,,METAR,15.0
PADQ 021753Z 28014KT 10SM CLR 05/M04 A3027 RMK AO2 SLP251 T00501039 10050 20006 58006,PADQ,2018-04-02T17:53:00Z,57.75,-152.5,5.0,-3.9,280,14,,10.0,30.268702,1025.1,,,TRUE,,,,,,,CLR,,,,,,,,VFR,-0.6,5.0,0.6,,,,,,,,,METAR,34.0
KPDX 021753Z 25006KT 10SM SCT025 BKN035 BKN055 07/01 A3016 RMK AO2 SLP212 60000 T00720011 10078 20028 51020,KPDX,2018-04-02T17:53:00Z,45.6,-122.62,7.2,1.1,250,6,,10.0,30.159449,1021.2,,,TRUE,,,,,,,SCT,2500,BKN,3500,BKN,5500,,,VFR,2.0,7.8,2.8,,,,,0.005,,,,METAR,7.0
KRKP 021753Z AUTO 14016G25KT 6SM HZ BKN013 OVC020 25/21 A2985 RMK AO2 SLP110 T02500211 10256 20228 56014,KRKP,2018-04-02T17:53:00Z,28.08,-97.05,25.0,21.1,140,16,25,6.0,29.84941,1011.0,,TRUE,TRUE,,,,,,HZ,BKN,1300,OVC,2000,,,,,MVFR,-1.4,25.6,22.8,,,,,,,,,SPECI,6.0
KOQT 021753Z AUTO 20004KT 10SM OVC032 18/11 A3000 RMK AO2 SLP154 T01780106 10178 20128 58007,KOQT,2018-04-02T17:53:00Z,36.02,-84.23,17.8,10.6,200,4,,10.0,30.0,1015.4,,TRUE,TRUE,,,,,,,OVC,3200,,,,,,,VFR,-0.7,17.8,12.8,,,,,,,,,METAR,277.0
KCWA 021753Z 17007KT 10SM SCT070 BKN250 00/M09 A3000,KCWA,2018-04-02T17:53:00Z,44.78,-89.67,0.0,-9.0,170,7,,10.0,30.0,,,,,,,,,,,SCT,7000,BKN,25000,,,,,VFR,,,,,,,,,,,,METAR,389.0
TISX 021753Z 12010KT 10SM FEW028 BKN089 29/21 A2993 RMK AO2 SLP135 T02940206 10294 20256 56019,TISX,2018-04-02T17:53:00Z,17.7,-64.8,29.4,20.6,120,10,,10.0,29.929134,1013.5,,,TRUE,,,,,,,FEW,2800,BKN,8900,,,,,VFR,-1.9,29.4,25.6,,,,,,,,,METAR,19.0
TIST 021753Z 13009KT 10SM CLR 27/21 A2992 RMK AO2 SLP133 T02720206 10272 20239 $,TIST,2018-04-02T17:53:00Z,18.33,-64.98,27.2,20.6,130,9,,10.0,29.920275,1013.3,,,TRUE,TRUE,,,,,,CLR,,,,,,,,VFR,,27.2,23.9,,,,,,,,,METAR,7.0
PAOR 021753Z 31010KT 10SM SCT040 BKN065 BKN070 M07/M15 A3039 RMK AO2 SLP335 4/006 T10671150 11067 21100 58003,PAOR,2018-04-02T17:53:00Z,62.97,-141.93,-6.7,-15.0,310,10,,10.0,30.389763,1033.5,,,TRUE,,,,,,,SCT,4000,BKN,6500,BKN,7000,,,VFR,-0.3,-6.7,-10.0,,,,,,,6.0,,METAR,523.0
PAOT 021753Z 10003KT 1SM R09/P6000FT BR FEW002 M14/M14 A3068 RMK AO2 SLP389 VIS SE-S 1/2 I6000 T11391144 11106 21156 58010,PAOT,2018-04-02T17:53:00Z,66.87,-162.58,-13.9,-14.4,100,3,,1.0,30.679134,1038.9,,,TRUE,,,,,,BR,FEW,200,,,,,,,IFR,-1.0,-10.6,-15.6,,,,,,,,,METAR,3.0
PASC 021753Z 25006KT 10SM CLR M24/M27 A3077 RMK AO2 SLP423 T12391267 11239 21256 58011,PASC,2018-04-02T17:53:00Z,70.2,-148.47,-23.9,-26.7,250,6,,10.0,30.77067,1042.3,,,TRUE,,,,,,,CLR,,,,,,,,VFR,-1.1,-23.9,-25.6,,,,,,,,,SPECI,15.0
PASI 021753Z 08008KT 10SM FEW120 04/M09 A2992 RMK AO2 SLP130 60000 T00391094 10044 21011 56006,PASI,2018-04-02T17:53:00Z,57.07,-135.35,3.9,-9.4,80,8,,10.0,29.920275,1013.0,,,TRUE,,,,,,,FEW,12000,,,,,,,VFR,-0.6,4.4,-1.1,,,,,0.005,,,,METAR,5.0
PASN 021753Z AUTO 06017G25KT 10SM CLR 02/01 A3020 RMK AO2 PK WND 07028/1709 SLP228 T00220006 10022 20006 56010 TSNO,PASN,2018-04-02T17:53:00Z,57.15,-170.22,2.2,0.6,60,17,25,10.0,30.200787,1022.8,,TRUE,TRUE,,,TRUE,,,,CLR,,,,,,,,VFR,-1.0,2.2,0.6,,,,,,,,,METAR,29.0
PATK 021753Z 00000KT 10SM CLR 00/M14 A3039 RMK AO2 SLP298 T00001144 10000 21050 58009,PATK,2018-04-02T17:53:00Z,62.3,-150.1,0.0,-14.4,0,0,,10.0,30.389763,1029.8,,,TRUE,,,,,,,CLR,,,,,,,,VFR,-0.9,0.0,-5.0,,,,,,,,,METAR,109.0
PASO 021753Z AUTO 03009G15KT 10SM CLR 02/M09 A3032 RMK AO2 SLP269 I6000 T00171089 10017 21039 58005 TSNO,PASO,2018-04-02T17:53:00Z,59.45,-151.7,1.7,-8.9,30,9,15,10.0,30.318897,1026.9,,TRUE,TRUE,,,TRUE,,,,CLR,,,,,,,,VFR,-0.5,1.7,-3.9,,,,,,,,,METAR,9.0
KP68 021753Z AUTO 26022G31KT 12/M05 A2980 RMK AO1 PK WND 26031/1750 SLP053 T01221050 10133 20028 56011,KP68,2018-04-02T17:53:00Z,39.6,-116.0,12.2,-5.0,260,22,31,,29.799213,1005.3,,TRUE,TRUE,,,,,,,,,,,,,,,,-1.1,13.3,2.8,,,,,,,,,SPECI,1809.0
KPBF 021753Z AUTO 00000KT 10SM OVC005 09/07 A2999 RMK AO2 SLP156 T00890072 10094 20061 58014,KPBF,2018-04-02T17:53:00Z,34.18,-91.93,8.9,7.2,0,0,,10.0,29.991142,1015.6,,TRUE,TRUE,,,,,,,OVC,500,,,,,,,IFR,-1.4,9.4,6.1,,,,,,,,,METAR,62.0
KPBG 021753Z AUTO 14011KT 10SM FEW075 04/M08 A3008 RMK AO2 RAE1656B12E41 SLP187 P0000 60000 T00441078 10056 21028 58011,KPBG,2018-04-02T17:53:00Z,44.65,-73.47,4.4,-7.8,140,11,,10.0,30.079725,1018.7,,TRUE,TRUE,,,,,,,FEW,7500,,,,,,,VFR,-1.1,5.6,-2.8,,,0.005,,,,,,SPECI,72.0
KLBB 021753Z 22013KT 7SM FEW200 16/08 A2980 RMK AO2 SLP073 HZ ALQDS 60000 T01560083 10156 20044 58024,KLBB,2018-04-02T17:53:00Z,33.67,-101.82,15.6,8.3,220,13,,7.0,29.799213,1007.3,,,TRUE,,,,,,,FEW,20000,,,,,,,VFR,-2.4,15.6,4.4,,,,,,,,,SPECI,993.0
KLBF 021753Z AUTO 18012KT 10SM CLR 02/M03 A2957 RMK AO2 SLP033 T00171033 10017 21056 58019,KLBF,2018-04-02T17:53:00Z,41.12,-100.67,1.7,-3.3,180,12,,10.0,29.568897,1003.3,,TRUE,TRUE,,,,,,,CLR,,,,,,,,VFR,-1.9,1.7,-5.6,,,,,,,,,SPECI,847.0
KLBX 021753Z AUTO 17013KT 10SM FEW029 SCT035 28/20 A2991 RMK AO2 SLP128 T02780200 10278 20222 58009,KLBX,2018-04-02T17:53:00Z,29.12,-95.47,27.8,20.0,170,13,,10.0,29.911417,1012.8,,TRUE,TRUE,,,,,,,FEW,2900,SCT,3500,,,,,VFR,-0.9,27.8,22.2,,,,,,,,,SPECI,6.0
KLCH 021753Z 22009G17KT 10SM FEW026 SCT033 BKN055 26/19 A2996 RMK AO2 SLP153 T02610189 10267 20189 58004,KLCH,2018-04-02T17:53:00Z,30.13,-93.22,26.1,18.9,220,9,17,10.0,29.958662,1015.3,,,TRUE,,,,,,,FEW,2600,SCT,3300,BKN,5500,,,VFR,-0.4,26.7,18.9,,,,,,,,,METAR,4.0
KLEB 021753Z 26009KT 10SM CLR 06/M11 A3005 RMK AO2 SLP181 T00611106 10067 21006 56016,KLEB,2018-04-02T17:53:00Z,43.63,-72.3,6.1,-10.6,260,9,,10.0,30.050198,1018.1,,,TRUE,,,,,,,CLR,,,,,,,,VFR,-1.6,6.7,-0.6,,,,,,,,,SPECI,171.0
KLEE 021753Z VRB04KT 10SM CLR 29/19 A3005 RMK AO2 SLP175 T02890189 10289 20206 58011,KLEE,2018-04-02T17:53:00Z,28.82,-81.82,28.9,18.9,0,4,,10.0,30.050198,1017.5,,,TRUE,,,,,,,CLR,,,,,,,,VFR,-1.1,28.9,20.6,,,,,,,,,METAR,23.0
KLFK 021753Z AUTO 20008KT 10SM FEW028 26/19 A2990 RMK AO2 SLP121 T02560189 10261 20194 58015,KLFK,2018-04-02T17:53:00Z,31.23,-94.75,25.6,18.9,200,8,,10.0,29.899607,1012.1,,TRUE,TRUE,,,,,,,FEW,2800,,,,,,,VFR,-1.5,26.1,19.4,,,,,,,,,SPECI,88.0
KLFT 021753Z 16006KT 10SM BKN055 BKN070 26/20 A2998 RMK AO2 SLP152 60000 T02610200 10261 20172 58006,KLFT,2018-04-02T17:53:00Z,30.2,-92.0,26.1,20.0,160,6,,10.0,29.97933,1015.2,,,TRUE,,,,,,,BKN,5500,BKN,7000,,,,,VFR,-0.6,26.1,17.2,,,,,0.005,,,,METAR,11.0
KLGB 021753Z 19005KT 10SM SCT026 OVC033 18/11 A2990 RMK AO2 SLP123 T01780106 10183 20156 50001,KLGB,2018-04-02T17:53:00Z,33.82,-118.15,17.8,10.6,190,5,,10.0,29.899607,1012.3,,,TRUE,,,,,,,SCT,2600,OVC,3300,,,,,VFR,0.1,18.3,15.6,,,,,,,,,SPECI,10.0
KLHQ 021753Z AUTO 05004KT 10SM OVC018 04/00 A3011 RMK AO2 SLP204 T00440000 10044 21006 58012,KLHQ,2018-04-02T17:53:00Z,39.75,-82.67,4.4,0.0,50,4,,10.0,30.109253,1020.4,,TRUE,TRUE,,,,,,,OVC,1800,,,,,,,MVFR,-1.2,4.4,-0.6,,,,,,,,,SPECI,260.0
KLHX 021753Z AUTO 28009KT 10SM CLR 24/M05 A2954 RMK AO2 SLP970 T02391050 10239 21039 58029,KLHX,2018-04-02T17:53:00Z,38.05,-103.52,23.9,-5.0,280,9,,10.0,29.53937,997.0,,TRUE,TRUE,,,,,,,CLR,,,,,,,,VFR,-2.9,23.9,-3.9,,,,,,,,,SPECI,1277.0
KLIT 021753Z 10007KT 7SM BR OVC006 07/06 A2999 RMK AO2 SLP157 60000 T00720061 10078 20039 58019,KLIT,2018-04-02T17:53:00Z,34.73,-92.23,7.2,6.1,100,7,,7.0,29.991142,1015.7,,,TRUE,,,,,,BR,OVC,600,,,,,,,IFR,-1.9,7.8,3.9,,,,,0.005,,,,METAR,79.0
KLMT 021753Z 34010KT 10SM CLR 04/M12 A3000 RMK AO2 SLP156 T00391122 10044 20017 52021,KLMT,2018-04-02T17:53:00Z,42.15,-121.72,3.9,-12.2,340,10,,10.0,30.0,1015.6,,,TRUE,,,,,,,CLR,,,,,,,,VFR,2.1,4.4,1.7,,,,,,,,,SPECI,1246.0
KLND 021753Z AUTO 24033G47KT 10SM CLR 12/M03 A2939 RMK AO2 PK WND 24047/1751 SLP919 T01221033 10122 20044 58014,KLND,2018-04-02T17:53:00Z,42.82,-108.73,12.2,-3.3,240,33,47,10.0,29.388779,991.9,,TRUE,TRUE,,,,,,,CLR,,,,,,,,VFR,-1.4,12.2,4.4,,,,,,,,,SPECI,1694.0
KLNS 021753Z 12004KT 10SM OVC017 04/01 A3013 RMK AO2 SLP204 60001 T00390006 10044 20006 56000 $,KLNS,2018-04-02T17:53:00Z,40.12,-76.3,3.9,0.6,120,4,,10.0,30.129921,1020.4,,,TRUE,TRUE,,,,,,OVC,1700,,,,,,,MVFR,0.0,4.4,0.6,,,,,,,,,SPECI,125.0
KLOL 021753Z AUTO 28013KT 8SM BKN080 OVC090 14/M01 A2984 RMK AO2 PK WND 28027/1725 SLP085 T01441011 10144 20067 53008,KLOL,2018-04-02T17:53:00Z,40.07,-118.57,14.4,-1.1,280,13,,8.0,29.840551,1008.5,,TRUE,TRUE,,,,,,,BKN,8000,OVC,9000,,,,,VFR,0.8,14.4,6.7,,,,,,,,,SPECI,1189.0
KLOU 021753Z 09008KT 10SM OVC017 07/04 A3007 RMK AO2 SLP185 T00720039 10078 20033 58016,KLOU,2018-04-02T17:53:00Z,38.22,-85.67,7.2,3.9,90,8,,10.0,30.070866,1018.5,,,TRUE,,,,,,,OVC,1700,,,,,,,MVFR,-1.6,7.8,3.3,,,,,,,,,METAR,164.0
KLOZ 021753Z AUTO 01006KT 10SM OVC008 08/06 A3005 RMK AO2 SLP177 60001 T00780056 10078 20044 58001,KLOZ,2018-04-02T17:53:00Z,37.08,-84.07,7.8,5.6,10,6,,10.0,30.050198,1017.7,,TRUE,TRUE,,,,,,,OVC,800,,,,,,,IFR,-0.1,7.8,4.4,,,,,0.01,,,,METAR,362.0
KLPR 021753Z AUTO 31008KT 230V350 10SM CLR 04/M07 A3013 RMK AO2 SLP208 T00441067 10050 21017 58008,KLPR,2018-04-02T17:53:00Z,41.35,-82.18,4.4,-6.7,310,8,,10.0,30.129921,1020.8,,TRUE,TRUE,,,,,,,CLR,,,,,,,,VFR,-0.8,5.0,-1.7,,,,,,,,,SPECI,241.0
KLUK 021753Z 05008KT 10SM OVC020 04/01 A3013 RMK AO2 SLP205 T00440011 10044 20011 58012,KLUK,2018-04-02T17:53:00Z,39.1,-84.42,4.4,1.1,50,8,,10.0,30.129921,1020.5,,,TRUE,,,,,,,OVC,2000,,,,,,,MVFR,-1.2,4.4,1.1,,,,,,,,,SPECI,155.0
KLVJ 021753Z AUTO 19010KT 10SM SCT032 BKN043 BKN050 27/19 A2992 RMK AO2 SLP131 T02670194 10272 20206 58008,KLVJ,2018-04-02T17:53:00Z,29.52,-95.25,26.7,19.4,190,10,,10.0,29.920275,1013.1,,TRUE,TRUE,,,,,,,SCT,3200,BKN,4300,BKN,5000,,,VFR,-0.8,27.2,20.6,,,,,,,,,SPECI,12.0
KLVK 021753Z 28003KT 10SM CLR 15/11 A2991 RMK AO2 SLP129 T01500106 10150 20089 50004,KLVK,2018-04-02T17:53:00Z,37.7,-121.82,15.0,10.6,280,3,,10.0,29.911417,1012.9,,,TRUE,,,,,,,CLR,,,,,,,,VFR,0.4,15.0,8.9,,,,,,,,,SPECI,117.0
KLVS 021753Z AUTO 26024G34KT 10SM CLR 18/M14 A2980 RMK AO2 PK WND 26035/1731 SLP016 T01831139 10189 20028 58013,KLVS,2018-04-02T17:53:00Z,35.65,-105.13,18.3,-13.9,260,24,34,10.0,29.799213,1001.6,,TRUE,TRUE,,,,,,,CLR,,,,,,,,VFR,-1.3,18.9,2.8,,,,,,,,,SPECI,2091.0
KLWD 021753Z AUTO 14013G20KT 10SM BKN020 OVC025 M01/M06 A2988 RMK AO2 PRESFR SLP131 T10111056 11011 21100 58033,KLWD,2018-04-02T17:53:00Z,40.63,-93.9,-1.1,-5.6,140,13,20,10.0,29.878937,1013.1,,TRUE,TRUE,,,,,,,BKN,2000,OVC,2500,,,,,MVFR,-3.3,-1.1,-10.0,,,,,,,,,SPECI,346.0
KMIE 021753Z 12008KT 10SM CLR 03/M05 A3009 RMK AO2 SLP194 T00281050 10033 21033 58022,KMIE,2018-04-02T17:53:00Z,40.23,-85.4,2.8,-5.0,120,8,,10.0,30.088583,1019.4,,,TRUE,,,,,,,CLR,,,,,,,,VFR,-2.2,3.3,-3.3,,,,,,,,,SPECI,285.0
KMIW 021753Z AUTO 14018KT 10SM CLR 01/M08 A2990 RMK AO2 SLP138 T00111078 10011 21089 58038,KMIW,2018-04-02T17:53:00Z,42.12,-92.92,1.1,-7.8,140,18,,10.0,29.899607,1013.8,,TRUE,TRUE,,,,,,,CLR,,,,,,,,VFR,-3.8,1.1,-8.9,,,,,,,,,SPECI,296.0
KMKL 021753Z 09003KT 10SM OVC016 12/08 A3000 RMK AO2 SLP157 T01170078 10117 20067 58013,KMKL,2018-04-02T17:53:00Z,35.6,-88.92,11.7,7.8,90,3,,10.0,30.0,1015.7,,,TRUE,,,,,,,OVC,1600,,,,,,,MVFR,-1.3,11.7,6.7,,,,,,,,,METAR,128.0
KMLB 021753Z 12012KT 10SM SCT034 26/18 A3004 RMK AO2 SLP172 T02610183 10278 20194 58009,KMLB,2018-04-02T17:53:00Z,28.1,-80.65,26.1,18.3,120,12,,10.0,30.041338,1017.2,,,TRUE,,,,,,,SCT,3400,,,,,,,VFR,-0.9,27.8,19.4,,,,,,,,,METAR,11.0
KMLC 021753Z AUTO VRB03KT 3SM BR OVC002 07/07 A2990 RMK AO2 SLP126 T00670067 10067 20017 58019,KMLC,2018-04-02T17:53:00Z,34.88,-95.78,6.7,6.7,0,3,,3.0,29.899607,1012.6,,TRUE,TRUE,,,,,,BR,OVC,200,,,,,,,LIFR,-1.9,6.7,1.7,,,,,,,,,METAR,232.0
KMLS 021753Z AUTO 06012KT 1SM -SN BR FEW007 BKN024 OVC033 M03/M04 A2970 RMK AO2 SLP083 P0000 60000 T10281044 11028 21044 53003,KMLS,2018-04-02T17:53:00Z,46.43,-105.88,-2.8,-4.4,60,12,,1.0,29.698818,1008.3,,TRUE,TRUE,,,,,,-SN BR,FEW,700,BKN,2400,OVC,3300,,,IFR,0.3,-2.8,-4.4,,,0.005,,,,,,SPECI,801.0
KMLT 021753Z AUTO VRB06KT 10SM FEW065 03/M12 A3005 RMK AO2 SLP185 T00281122 10028 21039 56018,KMLT,2018-04-02T17:53:00Z,45.65,-68.7,2.8,-12.2,0,6,,10.0,30.050198,1018.5,,TRUE,TRUE,,,,,,,FEW,6500,,,,,,,VFR,-1.8,2.8,-3.9,,,,,,,,,SPECI,123.0
KPNS 021753Z 19014G19KT 10SM SCT023 26/19 A3004 RMK AO2 SLP172 T02610189 10267 20172 58005,KPNS,2018-04-02T17:53:00Z,30.48,-87.18,26.1,18.9,190,14,19,10.0,30.041338,1017.2,,,TRUE,,,,,,,SCT,2300,,,,,,,VFR,-0.5,26.7,17.2,,,,,,,,,METAR,38.0
KPOF 021753Z AUTO 06006KT 10SM OVC009 04/03 A3001 RMK AO2 SLP167 T00440033 10044 20017 58017,KPOF,2018-04-02T17:53:00Z,36.77,-90.32,4.4,3.3,60,6,,10.0,30.008858,1016.7,,TRUE,TRUE,,,,,,,OVC,900,,,,,,,IFR,-1.7,4.4,1.7,,,,,,,,,METAR,99.0
KPOU 021753Z 00000KT 10SM BKN027 BKN031 03/M03 A3013 RMK AO2 SLP200 60009 T00281033 10033 21017 55008,KPOU,2018-04-02T17:53:00Z,41.63,-73.88,2.8,-3.3,0,0,,10.0,30.129921,1020.0,,,TRUE,,,,,,,BKN,2700,BKN,3100,,,,,MVFR,-0.8,3.3,-1.7,,,,,,,,,SPECI,46.0
KMMK 021753Z AUTO 34005KT 10SM BKN021 OVC026 02/M03 A3012 RMK AO2 SNE03 SLP200 P0000 60016 T00221028 10028 21011 58016,KMMK,2018-04-02T17:53:00Z,41.52,-72.83,2.2,-2.8,340,5,,10.0,30.121063,1020.0,,TRUE,TRUE,,,,,,,BKN,2100,OVC,2600,,,,,MVFR,-1.6,2.8,-1.1,,,0.005,,,,,,SPECI,31.0
KMLU 021753Z 09005KT 10SM SCT028 BKN050 22/18 A2996 RMK AO2 SLP144 T02170183 10217 20172 58014,KMLU,2018-04-02T17:53:00Z,32.52,-92.03,21.7,18.3,90,5,,10.0,29.958662,1014.4,,,TRUE,,,,,,,SCT,2800,BKN,5000,,,,,VFR,-1.4,21.7,17.2,,,,,,,,,METAR,29.0
KMMV 021753Z AUTO 00000KT 10SM FEW026 SCT032 07/02 A3016 RMK AO2 SLP212 60000 T00670022 10072 20006 51017,KMMV,2018-04-02T17:53:00Z,45.2,-123.13,6.7,2.2,0,0,,10.0,30.159449,1021.2,,TRUE,TRUE,,,,,,,FEW,2600,SCT,3200,,,,,VFR,1.7,7.2,0.6,,,,,,,,,SPECI,48.0
KMNN 021753Z AUTO 14004KT 10SM CLR 04/M03 A3011 RMK AO2 SLP208 T00391033 10039 21061 58011,KMNN,2018-04-02T17:53:00Z,40.62,-83.07,3.9,-3.3,140,4,,10.0,30.109253,1020.8,,TRUE,TRUE,,,,,,,CLR,,,,,,,,VFR,-1.1,3.9,-6.1,,,,,,,,,SPECI,301.0
KMOD 021753Z 33008KT 10SM CLR 19/09 A2988 RMK AO2 SLP118 T01890089 10189 20111 51008,KMOD,2018-04-02T17:53:00Z,37.62,-120.95,18.9,8.9,330,8,,10.0,29.878937,1011.8,,,TRUE,,,,,,,CLR,,,,,,,,VFR,0.8,18.9,11.1,,,,,,,,,SPECI,29.0
KTCS 021753Z AUTO VRB04KT 10SM CLR 23/M16 A2987 RMK AO2 SLP043 T02281161 10228 20089 58013,KTCS,2018-04-02T17:53:00Z,33.23,-107.27,22.8,-16.1,0,4,,10.0,29.870079,1004.3,,TRUE,TRUE,,,,,,,CLR,,,,,,,,VFR,-1.3,22.8,8.9,,,,,,,,,SPECI,1469.0
KHKS 021753Z VRB06KT 10SM FEW035 BKN045 24/17 A2999 RMK AO2 SLP150 T02440167 10244 20139 58010,KHKS,2018-04-02T17:53:00Z,32.33,-90.22,24.4,16.7,0,6,,10.0,29.991142,1015.0,,,TRUE,,,,,,,FEW,3500,BKN,4500,,,,,VFR,-1.0,24.4,13.9,,,,,,,,,METAR,108.0
KHKY 021753Z VRB05KT 10SM FEW070 24/08 A2995 RMK AO2 SLP123 T02440078 10256 20128 58008,KHKY,2018-04-02T17:53:00Z,35.75,-81.38,24.4,7.8,0,5,,10.0,29.949802,1012.3,,,TRUE,,,,,,,FEW,7000,,,,,,,VFR,-0.8,25.6,12.8,,,,,,,,,METAR,354.0
KHLC 021753Z AUTO 19017G23KT 10SM CLR 09/M02 A2962 RMK AO2 PK WND 16026/1714 SLP041 T00941017 10100 21061 58037,KHLC,2018-04-02T17:53:00Z,39.37,-99.83,9.4,-1.7,190,17,23,10.0,29.619095,1004.1,,TRUE,TRUE,,,,,,,CLR,,,,,,,,VFR,-3.7,10.0,-6.1,,,,,,,,,METAR,669.0
KHLG 021753Z 00000KT 10SM OVC023 03/M01 A3011 RMK AO2 SLP209 T00331011 58006,KHLG,2018-04-02T17:53:00Z,40.17,-80.65,3.3,-1.1,0,0,,10.0,30.109253,1020.9,,,TRUE,,,,,,,OVC,2300,,,,,,,MVFR,-0.6,,,,,,,,,,,SPECI,372.0
KDCU 021753Z AUTO 00000KT 10SM OVC044 19/13 A3000 RMK AO2 SLP154 T01940128 10200 20100 58005,KDCU,2018-04-02T17:53:00Z,34.65,-86.95,19.4,12.8,0,0,,10.0,30.0,1015.4,,TRUE,TRUE,,,,,,,OVC,4400,,,,,,,VFR,-0.5,20.0,10.0,,,,,,,,,METAR,176.0
KDBQ 021753Z 14013KT 10SM BKN110 00/M09 A3000 RMK AO2 SLP173 T00001089 10000 21083 58019,KDBQ,2018-04-02T17:53:00Z,42.4,-90.7,0.0,-8.9,140,13,,10.0,30.0,1017.3,,,TRUE,,,,,,,BKN,11000,,,,,,,VFR,-1.9,0.0,-8.3,,,,,,,,,SPECI,326.0
KDAN 021753Z AUTO 03011KT 10SM -RA FEW017 BKN095 BKN110 19/10 A2997 RMK AO2 RAB28 SLP141 P0000 60000 T01890100 10217 20128 58001,KDAN,2018-04-02T17:53:00Z,36.57,-79.33,18.9,10.0,30,11,,10.0,29.970472,1014.1,,TRUE,TRUE,,,,,,-RA,FEW,1700,BKN,9500,BKN,11000,,,VFR,-0.1,21.7,12.8,,,0.005,,0.005,,,,METAR,175.0
KDAL 021753Z VRB03KT 8SM OVC012 09/06 A2991 RMK AO2 PRESFR SLP127 60000 T00890056 10089 20056 58019,KDAL,2018-04-02T17:53:00Z,32.85,-96.85,8.9,5.6,0,3,,8.0,29.911417,1012.7,,,TRUE,,,,,,,OVC,1200,,,,,,,MVFR,-1.9,8.9,5.6,,,,,,,,,SPECI,158.0
KDAB 021753Z 10007KT 10SM SCT030 SCT070 SCT100 BKN250 27/20 A3005 RMK AO2 SLP173 T02670200 10272 20189 58012 $,KDAB,2018-04-02T17:53:00Z,29.18,-81.07,26.7,20.0,100,7,,10.0,30.050198,1017.3,,,TRUE,TRUE,,,,,,SCT,3000,SCT,7000,SCT,10000,BKN,25000,VFR,-1.2,27.2,18.9,,,,,,,,,SPECI,9.0
KCYS 021753Z 26029G40KT 10SM FEW100 18/M07 A2951 RMK AO2 PK WND 25040/1749 SLP939 T01831067 10183 21011 58015,KCYS,2018-04-02T17:53:00Z,41.15,-104.8,18.3,-6.7,260,29,40,10.0,29.509842,993.9,,,TRUE,,,,,,,FEW,10000,,,,,,,VFR,-1.5,18.3,-1.1,,,,,,,,,SPECI,1868.0
KCXO 021753Z 20009G20KT 10SM FEW038 FEW050 28/19 A2990 RMK AO2 RAB33E48 SLP122 P0000 60000 T02780189 10278 20183 58015,KCXO,2018-04-02T17:53:00Z,30.35,-95.42,27.8,18.9,200,9,20,10.0,29.899607,1012.2,,,TRUE,,,,,,,FEW,3800,FEW,5000,,,,,VFR,-1.5,27.8,18.3,,,0.005,,,,,,SPECI,75.0
KDEN 021753Z 00000KT 10SM FEW080 FEW120 BKN220 21/M07 A2950 RMK AO2 SLP940 T02111067 10211 21006 58016,KDEN,2018-04-02T17:53:00Z,39.85,-104.65,21.1,-6.7,0,0,,10.0,29.500984,994.0,,,TRUE,,,,,,,FEW,8000,FEW,12000,BKN,22000,,,VFR,-1.6,21.1,-0.6,,,,,,,,,SPECI,1640.0
KHOT 021753Z AUTO 07004KT 8SM OVC007 09/07 A2997 RMK AO2 SLP147 T00890072 10089 20056 58011,KHOT,2018-04-02T17:53:00Z,34.48,-93.1,8.9,7.2,70,4,,8.0,29.970472,1014.7,,TRUE,TRUE,,,,,,,OVC,700,,,,,,,IFR,-1.1,8.9,5.6,,,,,,,,,METAR,162.0
KHOU 021753Z 18010KT 10SM SCT030 SCT250 27/21 A2990 RMK AO2 SLP130 T02720206 10272 20200 58012,KHOU,2018-04-02T17:53:00Z,29.63,-95.28,27.2,20.6,180,10,,10.0,29.899607,1013.0,,,TRUE,,,,,,,SCT,3000,SCT,25000,,,,,VFR,-1.2,27.2,20.0,,,,,,,,,SPECI,36.0
KHQM 021753Z AUTO 25011KT 9SM SCT032 BKN040 OVC055 08/03 A3008 RMK AO2 RAE1655 SLP189 P0000 60001 T00830028 10083 20056 51021,KHQM,2018-04-02T17:53:00Z,46.97,-123.93,8.3,2.8,250,11,,9.0,30.079725,1018.9,,TRUE,TRUE,,,,,,,SCT,3200,BKN,4000,OVC,5500,,,VFR,2.1,8.3,5.6,,,0.005,,,,,,SPECI,7.0
KHRI 021753Z AUTO 26021G29KT 10SM CLR 09/M02 A2998 RMK AO2 PK WND 24031/1743 SLP153 T00891022 10089 20017 53017,KHRI,2018-04-02T17:53:00Z,45.83,-119.27,8.9,-2.2,260,21,29,10.0,29.97933,1015.3,,TRUE,TRUE,,,,,,,CLR,,,,,,,,VFR,1.7,8.9,1.7,,,,,,,,,SPECI,195.0
KDFI 021753Z AUTO VRB05KT 10SM CLR 03/M08 A3012 RMK AO2 SLP207 T00331083 10039 21056 58013,KDFI,2018-04-02T17:53:00Z,41.33,-84.43,3.3,-8.3,0,5,,10.0,30.121063,1020.7,,TRUE,TRUE,,,,,,,CLR,,,,,,,,VFR,-1.3,3.9,-5.6,,,,,,,,,SPECI,219.0
KDEW 021753Z AUTO 23010KT 10SM BKN060 BKN100 03/M09 A2980 RMK AO2 SLP104 T00331094 10039 21039 52024,KDEW,2018-04-02T17:53:00Z,47.97,-117.43,3.3,-9.4,230,10,,10.0,29.799213,1010.4,,TRUE,TRUE,,,,,,,BKN,6000,BKN,10000,,,,,VFR,2.4,3.9,-3.9,,,,,,,,,SPECI,674.0
KDET 021753Z 19011KT 10SM CLR 04/M08 A3012 RMK AO2 SLP205 T00391083 10039 21039 58010,KDET,2018-04-02T17:53:00Z,42.4,-83.02,3.9,-8.3,190,11,,10.0,30.121063,1020.5,,,TRUE,,,,,,,CLR,,,,,,,,VFR,-1.0,3.9,-3.9,,,,,,,,,SPECI,190.0
KDEQ 021753Z AUTO 07005KT 6SM BR OVC006 12/11 A2992 RMK AO2 SLP131 T01170106 10117 20094 58009,KDEQ,2018-04-02T17:53:00Z,34.05,-94.4,11.7,10.6,70,5,,6.0,29.920275,1013.1,,TRUE,TRUE,,,,,,BR,OVC,600,,,,,,,IFR,-0.9,11.7,9.4,,,,,,,,,METAR,106.0
KHRO 021753Z AUTO 15012KT 5SM BR OVC003 06/06 A2990 RMK AO2 SLP130 T00560056 10056 20011 58026,KHRO,2018-04-02T17:53:00Z,36.27,-93.15,5.6,5.6,150,12,,5.0,29.899607,1013.0,,TRUE,TRUE,,,,,,BR,OVC,300,,,,,,,LIFR,-2.6,5.6,1.1,,,,,,,,,METAR,417.0
KHSI 021753Z AUTO 17010KT 10SM OVC017 00/M03 A2968 RMK AO2 SLP073 T00001028 10000 21067 58007,KHSI,2018-04-02T17:53:00Z,40.6,-98.43,0.0,-2.8,170,10,,10.0,29.681103,1007.3,,TRUE,TRUE,,,,,,,OVC,1700,,,,,,,MVFR,-0.7,0.0,-6.7,,,,,,,,,SPECI,591.0
KDHT 021753Z AUTO 22018G25KT 10SM CLR 24/M03 A2964 RMK AO2 SLP013 T02441033 10244 21039 58033,KDHT,2018-04-02T17:53:00Z,36.02,-102.55,24.4,-3.3,220,18,25,10.0,29.639763,1001.3,,TRUE,TRUE,,,,,,,CLR,,,,,,,,VFR,-3.3,24.4,-3.9,,,,,,,,,SPECI,1217.0
KDHN 021753Z 28009KT 10SM BKN036 24/14 A3007 RMK AO2 SLP178 T02440144 10250 20150 58015,KDHN,2018-04-02T17:53:00Z,31.32,-85.45,24.4,14.4,280,9,,10.0,30.070866,1017.8,,,TRUE,,,,,,,BKN,3600,,,,,,,VFR,-1.5,25.0,15.0,,,,,,,,,METAR,113.0
KDGW 021753Z AUTO 27034G42KT 10SM CLR 17/M02 A2939 RMK AO2 PK WND 26046/1715 SLP921 T01721022 10172 20039 58019,KDGW,2018-04-02T17:53:00Z,42.8,-105.38,17.2,-2.2,270,34,42,10.0,29.388779,992.1,,TRUE,TRUE,,,,,,,CLR,,,,,,,,VFR,-1.9,17.2,3.9,,,,,,,,,SPECI,1499.0
KDFW 021753Z 00000KT 10SM OVC010 08/06 A2990 RMK AO2 SLP123 60000 T00830056 10089 20056 58016,KDFW,2018-04-02T17:53:00Z,32.9,-97.02,8.3,5.6,0,0,,10.0,29.899607,1012.3,,,TRUE,,,,,,,OVC,1000,,,,,,,MVFR,-1.6,8.9,5.6,,,,,,,,,SPECI,174.0
KGSP 021753Z 23010KT 10SM CLR 25/07 A2996 RMK AO2 SLP137 T02500072 10250 20122 58007,KGSP,2018-04-02T17:53:00Z,34.9,-82.22,25.0,7.2,230,10,,10.0,29.958662,1013.7,,,TRUE,,,,,,,CLR,,,,,,,,VFR,-0.7,25.0,12.2,,,,,,,,,METAR,287.0
KGSH 021753Z AUTO 16008KT 10SM CLR 04/M08 A3008 RMK AO2 SLP195 T00441078 10050 21056 58020,KGSH,2018-04-02T17:53:00Z,41.53,-85.78,4.4,-7.8,160,8,,10.0,30.079725,1019.5,,TRUE,TRUE,,,,,,,CLR,,,,,,,,VFR,-2.0,5.0,-5.6,,,,,,,,,SPECI,252.0
KGRR 021753Z VRB05KT 10SM FEW050 BKN250 04/M08 A3007 RMK AO2 SLP190 T00391078 10044 21067 58017,KGRR,2018-04-02T17:53:00Z,42.88,-85.52,3.9,-7.8,0,5,,10.0,30.070866,1019.0,,,TRUE,,,,,,,FEW,5000,BKN,25000,,,,,VFR,-1.7,4.4,-6.7,,,,,,,,,SPECI,237.0
KGRI 021753Z 16013KT 10SM OVC010 M01/M04 A2970 RMK AO2 SLP084 6//// T10111044 11011 21067,KGRI,2018-04-02T17:53:00Z,40.97,-98.32,-1.1,-4.4,160,13,,10.0,29.698818,1008.4,,,TRUE,,,,,,,OVC,1000,,,,,,,MVFR,,-1.1,-6.7,,,,,,,,,SPECI,561.0
KHSV 021753Z 29004KT 10SM BKN042 OVC250 21/14 A2999 RMK AO2 SLP150 T02110144 10217 20106 58006,KHSV,2018-04-02T17:53:00Z,34.65,-86.78,21.1,14.4,290,4,,10.0,29.991142,1015.0,,,TRUE,,,,,,,BKN,4200,OVC,25000,,,,,VFR,-0.6,21.7,10.6,,,,,,,,,METAR,191.0
KHTL 021753Z AUTO 27005KT 10SM CLR 02/M11 A3003 RMK AO2 SLP184 T00221111 10022 21050 58013,KHTL,2018-04-02T17:53:00Z,44.35,-84.67,2.2,-11.1,270,5,,10.0,30.029528,1018.4,,TRUE,TRUE,,,,,,,CLR,,,,,,,,VFR,-1.3,2.2,-5.0,,,,,,,,,SPECI,351.0
KDLN 021753Z AUTO 19010KT 10SM CLR M01/M06 A2955 RMK AO2 SNE26 SLP015 P0000 60008 T10111061 11011 21022 51017,KDLN,2018-04-02T17:53:00Z,45.25,-112.55,-1.1,-6.1,190,10,,10.0,29.551182,1001.5,,TRUE,TRUE,,,,,,,CLR,,,,,,,,VFR,1.7,-1.1,-2.2,,,0.005,,,,,,SPECI,1591.0
KDKK 021753Z AUTO 26009KT 10SM CLR 03/M02 A3012 RMK AO2 SLP208 T00281022 10028 21028 58003,KDKK,2018-04-02T17:53:00Z,42.5,-79.28,2.8,-2.2,260,9,,10.0,30.121063,1020.8,,TRUE,TRUE,,,,,,,CLR,,,,,,,,VFR,-0.3,2.8,-2.8,,,,,,,,,SPECI,202.0
KHUF 021753Z 15009KT 10SM OVC015 03/00 A3008 RMK AO2 SLP192 T00280000 10028 21017 58019,KHUF,2018-04-02T17:53:00Z,39.45,-87.3,2.8,0.0,150,9,,10.0,30.079725,1019.2,,,TRUE,,,,,,,OVC,1500,,,,,,,MVFR,-1.9,2.8,-1.7,,,,,,,,,SPECI,179.0
KLWV 021753Z AUTO 09009KT 10SM OVC012 04/01 A3009 RMK AO2 SLP191 T00390011 10039 21006 58016,KLWV,2018-04-02T17:53:00Z,38.77,-87.6,3.9,1.1,90,9,,10.0,30.088583,1019.1,,TRUE,TRUE,,,,,,,OVC,1200,,,,,,,MVFR,-1.6,3.9,-0.6,,,,,,,,,SPECI,131.0
KLXT 021753Z AUTO 12008KT 4SM BR OVC006 M02/M02 A2991 RMK AO2 SLP139 I6002 T10171017 11017 21050 58025,KLXT,2018-04-02T17:53:00Z,38.97,-94.37,-1.7,-1.7,120,8,,4.0,29.911417,1013.9,,TRUE,TRUE,,,,,,BR,OVC,600,,,,,,,IFR,-2.5,-1.7,-5.0,,,,,,,,,METAR,306.0
KLXV 021753Z AUTO 25014G29KT 10SM BKN100 08/M12 A2976 RMK AO2 PK WND 30031/1741 SLP967 T00831122 10083 21017 58008,KLXV,2018-04-02T17:53:00Z,39.23,-106.32,8.3,-12.2,250,14,29,10.0,29.760826,996.7,,TRUE,TRUE,,,,,,,BKN,10000,,,,,,,VFR,-0.8,8.3,-1.7,,,,,,,,,SPECI,3028.0
KMAE 021753Z AUTO 30010KT 10SM CLR 19/12 A2989 RMK AO2 SLP119 T01890117 10189 20094 51010,KMAE,2018-04-02T17:53:00Z,36.98,-120.12,18.9,11.7,300,10,,10.0,29.890747,1011.9,,TRUE,TRUE,,,,,,,CLR,,,,,,,,VFR,1.0,18.9,9.4,,,,,,,,,SPECI,77.0
KMAF 021753Z VRB04KT 10SM CLR 13/07 A2985 RMK AO2 SLP086 T01330067 10139 20072 56014,KMAF,2018-04-02T17:53:00Z,31.95,-102.2,13.3,6.7,0,4,,10.0,29.84941,1008.6,,,TRUE,,,,,,,CLR,,,,,,,,VFR,-1.4,13.9,7.2,,,,,,,,,SPECI,874.0
KMAI 021753Z AUTO 10SM SCT028 SCT034 24/17 A3004 RMK AO2 SLP170 T02440167 10250 20150 58015,KMAI,2018-04-02T17:53:00Z,30.83,-85.18,24.4,16.7,,,,10.0,30.041338,1017.0,,TRUE,TRUE,,,,,,,SCT,2800,SCT,3400,,,,,VFR,-1.5,25.0,15.0,,,,,,,,,METAR,32.0
KDMN 021753Z AUTO 25012G23KT 10SM CLR 23/M09 A2992 RMK AO2 SLP077 T02331094 10233 20061 58008,KDMN,2018-04-02T17:53:00Z,32.27,-107.72,23.3,-9.4,250,12,23,10.0,29.920275,1007.7,,TRUE,TRUE,,,,,,,CLR,,,,,,,,VFR,-0.8,23.3,6.1,,,,,,,,,SPECI,1311.0
KDLS 021753Z AUTO 28020G29KT 10SM SCT050 SCT060 09/M02 A3006 RMK AO2 PK WND 28029/1743 SLP179 T00891017 10089 20022 51010,KDLS,2018-04-02T17:53:00Z,45.62,-121.17,8.9,-1.7,280,20,29,10.0,30.059055,1017.9,,TRUE,TRUE,,,,,,,SCT,5000,SCT,6000,,,,,VFR,1.0,8.9,2.2,,,,,,,,,SPECI,71.0
KMBS 021753Z 22010KT 10SM CLR 04/M09 A3007 RMK AO2 SLP191 T00441094 10050 21056 58018,KMBS,2018-04-02T17:53:00Z,43.53,-84.08,4.4,-9.4,220,10,,10.0,30.070866,1019.1,,,TRUE,,,,,,,CLR,,,,,,,,VFR,-1.8,5.0,-5.6,,,,,,,,,SPECI,202.0
KDNL 021753Z AUTO 21010G15KT 10SM CLR 27/09 A3001 RMK AO2 SLP156 T02670094 10272 20139 58011,KDNL,2018-04-02T17:53:00Z,33.47,-82.03,26.7,9.4,210,10,15,10.0,30.008858,1015.6,,TRUE,TRUE,,,,,,,CLR,,,,,,,,VFR,-1.1,27.2,13.9,,,,,,,,,METAR,130.0
KDRO 021753Z AUTO 26017G24KT 10SM CLR 17/M09 A2982 RMK AO2 SLP056 T01671089 10167 21050 58020,KDRO,2018-04-02T17:53:00Z,37.15,-107.77,16.7,-8.9,260,17,24,10.0,29.819881,1005.6,,TRUE,TRUE,,,,,,,CLR,,,,,,,,VFR,-2.0,16.7,-5.0,,,,,,,,,SPECI,2035.0
KMCE 021753Z AUTO 33014G17KT 10SM CLR 19/09 A2988 RMK AO2 SLP117 T01940089 10194 20089 51010,KMCE,2018-04-02T17:53:00Z,37.28,-120.5,19.4,8.9,330,14,17,10.0,29.878937,1011.7,,TRUE,TRUE,,,,,,,CLR,,,,,,,,VFR,1.0,19.4,8.9,,,,,,,,,SPECI,47.0
KMCI 021753Z 14011KT 3SM -FZDZ BR OVC006 M02/M03 A2989 RMK AO2 SFC VIS 4 FZDZB53SNE53 SLP132 P0000 60000 I1000 I6000 T10171033 11017 21056 58023,KMCI,2018-04-02T17:53:00Z,39.3,-94.73,-1.7,-3.3,140,11,,3.0,29.890747,1013.2,,,TRUE,,,,,,-FZDZ BR,OVC,600,,,,,,,IFR,-2.3,-1.7,-5.6,,,0.005,,0.005,,,,METAR,320.0
KMCK 021753Z AUTO 18012G20KT 10SM CLR 09/M03 A2956 RMK AO2 SLP024 T00941033 10094 21061 58029,KMCK,2018-04-02T17:53:00Z,40.2,-100.58,9.4,-3.3,180,12,20,10.0,29.56004,1002.4,,TRUE,TRUE,,,,,,,CLR,,,,,,,,VFR,-2.9,9.4,-6.1,,,,,,,,,SPECI,782.0
KMCN 021753Z 22008G15KT 10SM CLR 26/08 A3001 RMK AO2 SLP158 T02610078 10272 20100 57013,KMCN,2018-04-02T17:53:00Z,32.68,-83.65,26.1,7.8,220,8,15,10.0,30.008858,1015.8,,,TRUE,,,,,,,CLR,,,,,,,,VFR,-1.3,27.2,10.0,,,,,,,,,METAR,109.0
KMCO 021753Z 20008KT 10SM SCT043 BKN100 BKN250 28/16 A3004 RMK AO2 SLP170 T02830161 10294 20200 58013 $,KMCO,2018-04-02T17:53:00Z,28.42,-81.33,28.3,16.1,200,8,,10.0,30.041338,1017.0,,,TRUE,TRUE,,,,,,SCT,4300,BKN,10000,BKN,25000,,,VFR,-1.3,29.4,20.0,,,,,,,,,SPECI,29.0
KMCW 021753Z AUTO 15016G23KT 10SM CLR M01/M06 A2989 RMK AO2 SLP134 T10061056 11006 21067 58031,KMCW,2018-04-02T17:53:00Z,43.15,-93.33,-0.6,-5.6,150,16,23,10.0,29.890747,1013.4,,TRUE,TRUE,,,,,,,CLR,,,,,,,,VFR,-3.1,-0.6,-6.7,,,,,,,,,SPECI,369.0
KMDW 021753Z 21006KT 10SM FEW130 SCT200 OVC250 06/M11 A3007 RMK AO2 SLP191 T00561106 10056 21050 58023,KMDW,2018-04-02T17:53:00Z,41.78,-87.75,5.6,-10.6,210,6,,10.0,30.070866,1019.1,,,TRUE,,,,,,,FEW,13000,SCT,20000,OVC,25000,,,VFR,-2.3,5.6,-5.0,,,,,,,,,SPECI,188.0
KDTO 021753Z 06003KT 10SM OVC008 07/05 A2991 RMK AO2 SLP129 T00670050 10067 20039 58019,KDTO,2018-04-02T17:53:00Z,33.2,-97.2,6.7,5.0,60,3,,10.0,29.911417,1012.9,,,TRUE,,,,,,,OVC,800,,,,,,,IFR,-1.9,6.7,3.9,,,,,,,,,SPECI,196.0
KDTN 021753Z 17010KT 10SM FEW032 FEW050 BKN065 24/18 A2991 RMK AO2 SLP126 T02440178 10256 20194 58009,KDTN,2018-04-02T17:53:00Z,32.55,-93.75,24.4,17.8,170,10,,10.0,29.911417,1012.6,,,TRUE,,,,,,,FEW,3200,FEW,5000,BKN,6500,,,VFR,-0.9,25.6,19.4,,,,,,,,,METAR,53.0
KMFR 021753Z 00000KT 10SM FEW060 07/M04 A3015 RMK AO2 SLP211 T00721039 10072 20028 52012,KMFR,2018-04-02T17:53:00Z,42.38,-122.87,7.2,-3.9,0,0,,10.0,30.15059,1021.1,,,TRUE,,,,,,,FEW,6000,,,,,,,VFR,1.2,7.2,2.8,,,,,,,,,SPECI,396.0
KMGM 021753Z 21011KT 10SM CLR 24/14 A3003 RMK AO2 SLP167 T02390144 10239 20106 58011,KMGM,2018-04-02T17:53:00Z,32.3,-86.4,23.9,14.4,210,11,,10.0,30.029528,1016.7,,,TRUE,,,,,,,CLR,,,,,,,,VFR,-1.1,23.9,10.6,,,,,,,,,METAR,63.0
KMGW 021753Z 00000KT 10SM OVC016 04/01 A3010 RMK AO2 SLP203 T00390006 10044 20006 58008,KMGW,2018-04-02T17:53:00Z,39.65,-79.92,3.9,0.6,0,0,,10.0,30.100393,1020.3,,,TRUE,,,,,,,OVC,1600,,,,,,,MVFR,-0.8,4.4,0.6,,,,,,,,,SPECI,378.0
KAAF 021753Z AUTO 18009KT 10SM CLR 24/19 A3008 RMK AO2 SLP185 T02390194 10239 20178 50002,KAAF,2018-04-02T17:53:00Z,29.73,-85.03,23.9,19.4,180,9,,10.0,30.079725,1018.5,,TRUE,TRUE,,,,,,,CLR,,,,,,,,VFR,0.2,23.9,17.8,,,,,,,,,METAR,5.0
KAFW 021753Z 00000KT 10SM OVC007 07/05 A2990 RMK AO2 SLP132 60000 T00670050 10072 20044 58019,KAFW,2018-04-02T17:53:00Z,32.97,-97.32,6.7,5.0,0,0,,10.0,29.899607,1013.2,,,TRUE,,,,,,,OVC,700,,,,,,,IFR,-1.9,7.2,4.4,,,,,,,,,SPECI,233.0
KAEX 021753Z 16010G14KT 9SM FEW029 BKN060 26/18 A2994 RMK AO2 SLP141 T02560183 10256 20183 58013,KAEX,2018-04-02T17:53:00Z,31.33,-92.57,25.6,18.3,160,10,14,9.0,29.940945,1014.1,,,TRUE,,,,,,,FEW,2900,BKN,6000,,,,,VFR,-1.3,25.6,18.3,,,,,,,,,METAR,27.0
KADG 021753Z AUTO VRB06KT 10SM CLR 04/M08 A3012 RMK AO2 SLP209 T00391083 10039 21067 58015 TSNO,KADG,2018-04-02T17:53:00Z,41.87,-84.08,3.9,-8.3,0,6,,10.0,30.121063,1020.9,,TRUE,TRUE,,,TRUE,,,,CLR,,,,,,,,VFR,-1.5,3.9,-6.7,,,,,,,,,SPECI,241.0
KACV 021753Z AUTO 32013KT 10SM CLR 12/07 A3007 RMK AO2 SLP186 60001 T01220067 10122 20089 52005,KACV,2018-04-02T17:53:00Z,40.98,-124.1,12.2,6.7,320,13,,10.0,30.070866,1018.6,,TRUE,TRUE,,,,,,,CLR,,,,,,,,VFR,0.5,12.2,8.9,,,,,,,,,SPECI,67.0
KACK 021753Z 06006KT 10SM OVC006 02/02 A3007 RMK AO2 UPB16E35SNB05E16 PRESFR SLP184 P0000 60030 T00170017 10022 20006 58017 $,KACK,2018-04-02T17:53:00Z,41.25,-70.07,1.7,1.7,60,6,,10.0,30.070866,1018.4,,,TRUE,TRUE,,,,,,OVC,600,,,,,,,IFR,-1.7,2.2,0.6,,,0.005,,,,,,SPECI,16.0
KABY 021753Z 23007KT 10SM BKN027 23/15 A3008 RMK AO2 SLP183 T02280150 10228 20139 58012,KABY,2018-04-02T17:53:00Z,31.53,-84.2,22.8,15.0,230,7,,10.0,30.079725,1018.3,,,TRUE,,,,,,,BKN,2700,,,,,,,MVFR,-1.2,22.8,13.9,,,,,,,,,METAR,58.0
KMGY 021753Z AUTO 15006KT 10SM OVC023 05/M01 A3010 RMK AO2 SLP198 T00501011 10056 21011 56013,KMGY,2018-04-02T17:53:00Z,39.6,-84.23,5.0,-1.1,150,6,,10.0,30.100393,1019.8,,TRUE,TRUE,,,,,,,OVC,2300,,,,,,,MVFR,-1.3,5.6,-1.1,,,,,,,,,SPECI,289.0
KMHE 021753Z AUTO 14016G25KT 10SM OVC032 03/M04 A2965 RMK AO2 PK WND 15029/1701 SLP054 60000 T00281039 10033 21022 56031,KMHE,2018-04-02T17:53:00Z,43.77,-98.02,2.8,-3.9,140,16,25,10.0,29.648623,1005.4,,TRUE,TRUE,,,,,,,OVC,3200,,,,,,,VFR,-3.1,3.3,-2.2,,,,,,,,,SPECI,397.0
KMHT 021753Z 26005KT 10SM SCT024 BKN035 03/M05 A3009 RMK AO2 SLP206 60004 T00331050 10039 21006 58017,KMHT,2018-04-02T17:53:00Z,42.93,-71.43,3.3,-5.0,260,5,,10.0,30.088583,1020.6,,,TRUE,,,,,,,SCT,2400,BKN,3500,,,,,VFR,-1.7,3.9,-0.6,,,,,,,,,SPECI,81.0
KMIA 021753Z 12010KT 10SM SCT035 SCT250 28/18 A3004 RMK AO2 SLP171 T02780183 10283 20222 58011,KMIA,2018-04-02T17:53:00Z,25.8,-80.28,27.8,18.3,120,10,,10.0,30.041338,1017.1,,,TRUE,,,,,,,SCT,3500,SCT,25000,,,,,VFR,-1.1,28.3,22.2,,,,,,,,,METAR,3.0
KAGS 021753Z 24009KT 10SM CLR 27/09 A2999 RMK AO2 SLP155 T02670094 10272 20078 58013,KAGS,2018-04-02T17:53:00Z,33.37,-81.97,26.7,9.4,240,9,,10.0,29.991142,1015.5,,,TRUE,,,,,,,CLR,,,,,,,,VFR,-1.3,27.2,7.8,,,,,,,,,METAR,44.0
KMWL 021753Z AUTO 00000KT 10SM OVC011 07/04 A2990 RMK AO2 SLP122 60000 T00720039 10072 20039 56021,KMWL,2018-04-02T17:53:00Z,32.78,-98.07,7.2,3.9,0,0,,10.0,29.899607,1012.2,,TRUE,TRUE,,,,,,,OVC,1100,,,,,,,MVFR,-2.1,7.2,3.9,,,,,,,,,SPECI,284.0
KMYF 021753Z 18005KT 10SM BKN022 OVC027 16/10 A2991 RMK AO2 SLP126 T01560100 10156 20144 50006,KMYF,2018-04-02T17:53:00Z,32.82,-117.13,15.6,10.0,180,5,,10.0,29.911417,1012.6,,,TRUE,,,,,,,BKN,2200,OVC,2700,,,,,MVFR,0.6,15.6,14.4,,,,,,,,,SPECI,136.0
KMYV 021753Z AUTO 32005KT 10SM CLR 19/11 A2990 RMK AO2 SLP128 T01890106 10189 20100 51011,KMYV,2018-04-02T17:53:00Z,39.1,-121.57,18.9,10.6,320,5,,10.0,29.899607,1012.8,,TRUE,TRUE,,,,,,,CLR,,,,,,,,VFR,1.1,18.9,10.0,,,,,,,,,SPECI,21.0
KNEW 021753Z 04009KT 9SM BKN040 BKN047 OVC060 22/20 A3002 RMK AO2 SLP157 T02220200 10244 20183 58003,KNEW,2018-04-02T17:53:00Z,30.05,-90.03,22.2,20.0,40,9,,9.0,30.02067,1015.7,,,TRUE,,,,,,,BKN,4000,BKN,4700,OVC,6000,,,VFR,-0.3,24.4,18.3,,,,,,,,,METAR,3.0
KOAK 021753Z 20004KT 10SM FEW015 FEW120 SCT200 15/11 A2994 RMK AO2 SLP139 T01500106 10150 20094 53008,KOAK,2018-04-02T17:53:00Z,37.72,-122.23,15.0,10.6,200,4,,10.0,29.940945,1013.9,,,TRUE,,,,,,,FEW,1500,FEW,12000,SCT,20000,,,VFR,0.8,15.0,9.4,,,,,,,,,SPECI,26.0
KALI 021753Z AUTO 16019G25KT 10SM CLR 31/18 A2977 RMK AO2 PK WND 16028/1730 SLP079 T03110178 10311 20222,KALI,2018-04-02T17:53:00Z,27.73,-98.02,31.1,17.8,160,19,25,10.0,29.769686,1007.9,,TRUE,TRUE,,,,,,,CLR,,,,,,,,VFR,,31.1,22.2,,,,,,,,,SPECI,53.0
KAKO 021753Z AUTO 26014KT 10SM CLR 22/M04 A2949 RMK AO2 SLP956 T02171039 10222 21006 58017,KAKO,2018-04-02T17:53:00Z,40.17,-103.22,21.7,-3.9,260,14,,10.0,29.489174,995.6,,TRUE,TRUE,,,,,,,CLR,,,,,,,,VFR,-1.7,22.2,-0.6,,,,,,,,,SPECI,1421.0
KAIA 021753Z AUTO 00000KT 10SM CLR 12/01 A2944 RMK AO2 SLP971 T01220006 10122 21028 58010,KAIA,2018-04-02T17:53:00Z,42.05,-102.8,12.2,0.6,0,0,,10.0,29.438976,997.1,,TRUE,TRUE,,,,,,,CLR,,,,,,,,VFR,-1.0,12.2,-2.8,,,,,,,,,SPECI,1196.0
KODO 021753Z AUTO 17006KT 10SM CLR 17/08 A2985 RMK AO2 SLP083 T01670083 10167 20067 58012,KODO,2018-04-02T17:53:00Z,31.92,-102.4,16.7,8.3,170,6,,10.0,29.84941,1008.3,,TRUE,TRUE,,,,,,,CLR,,,,,,,,VFR,-1.2,16.7,6.7,,,,,,,,,SPECI,902.0
KODX 021753Z AUTO 17016G25KT 10SM BKN022 03/M03 A2962 RMK AO2 PK WND 17029/1711 SLP053 T00281033 10033 21044 58022,KODX,2018-04-02T17:53:00Z,41.62,-98.95,2.8,-3.3,170,16,25,10.0,29.619095,1005.3,,TRUE,TRUE,,,,,,,BKN,2200,,,,,,,MVFR,-2.2,3.3,-4.4,,,,,,,,,SPECI,631.0
KOGB 021753Z AUTO 23011KT 10SM CLR 26/09 A3000 RMK AO2 SLP158 T02610089 10267 20111 58017,KOGB,2018-04-02T17:53:00Z,33.47,-80.85,26.1,8.9,230,11,,10.0,30.0,1015.8,,TRUE,TRUE,,,,,,,CLR,,,,,,,,VFR,-1.7,26.7,11.1,,,,,,,,,METAR,59.0
KOGD 021753Z 22007KT 10SM OVC090 14/00 A2960 RMK AO2 SLP993 T01390000 10139 20094 57011,KOGD,2018-04-02T17:53:00Z,41.2,-112.02,13.9,0.0,220,7,,10.0,29.601377,999.3,,,TRUE,,,,,,,OVC,9000,,,,,,,VFR,-1.1,13.9,9.4,,,,,,,,,SPECI,1353.0
KGVL 021753Z AUTO 23010KT 10SM CLR 24/07 A3001 RMK AO2 SLP151 T02390072 10244 20122 58007,KGVL,2018-04-02T17:53:00Z,34.27,-83.83,23.9,7.2,230,10,,10.0,30.008858,1015.1,,TRUE,TRUE,,,,,,,CLR,,,,,,,,VFR,-0.7,24.4,12.2,,,,,,,,,METAR,386.0
KGUY 021753Z AUTO 23/01 A2958 RMK AO2 SLP000 6//// T02280011 10228 21006 58037 PWINO PNO $,KGUY,2018-04-02T17:53:00Z,36.68,-101.5,22.8,1.1,,,,,29.58071,1000.0,,TRUE,TRUE,TRUE,,,,TRUE,,,,,,,,,,,-3.7,22.8,-0.6,,,,,,,,,METAR,948.0
KGUP 021753Z AUTO 23018G26KT 10SM CLR 17/M11 A2991 RMK AO2 PK WND 23028/1732 SLP010 T01721106 10178 21033 58010,KGUP,2018-04-02T17:53:00Z,35.52,-108.8,17.2,-10.6,230,18,26,10.0,29.911417,1001.0,,TRUE,TRUE,,,,,,,CLR,,,,,,,,VFR,-1.0,17.8,-3.3,,,,,,,,,SPECI,1971.0
KPQL 021753Z 24007KT 200V280 10SM FEW025 26/17 A3003 RMK AO2 SLP170 T02610172 10261 20144 58002,KPQL,2018-04-02T17:53:00Z,30.47,-88.53,26.1,17.2,240,7,,10.0,30.029528,1017.0,,,TRUE,,,,,,,FEW,2500,,,,,,,VFR,-0.2,26.1,14.4,,,,,,,,,METAR,6.0
KPRB 021753Z AUTO 30009KT 10SM FEW014 13/09 A2993 RMK AO2 SLP131 T01330094 10139 20078 51006,KPRB,2018-04-02T17:53:00Z,35.67,-120.63,13.3,9.4,300,9,,10.0,29.929134,1013.1,,TRUE,TRUE,,,,,,,FEW,1400,,,,,,,VFR,0.6,13.9,7.8,,,,,,,,,SPECI,245.0
KPRC 021753Z 18011G19KT 10SM CLR 19/M08 A2991 RMK AO2 SLP066 T01891083 10189 20044 58001,KPRC,2018-04-02T17:53:00Z,34.65,-112.42,18.9,-8.3,180,11,19,10.0,29.911417,1006.6,,,TRUE,,,,,,,CLR,,,,,,,,VFR,-0.1,18.9,4.4,,,,,,,,,SPECI,1524.0
KPSC 021753Z 27014G21KT 10SM CLR 09/M06 A2997 RMK AO2 SLP150 T00891056 10100 20011 53020,KPSC,2018-04-02T17:53:00Z,46.27,-119.12,8.9,-5.6,270,14,21,10.0,29.970472,1015.0,,,TRUE,,,,,,,CLR,,,,,,,,VFR,2.0,10.0,1.1,,,,,,,,,SPECI,121.0
KPSP 021753Z 34011KT 10SM CLR 25/06 A2976 RMK AO2 SLP074 T02500056 10256 20150 51007,KPSP,2018-04-02T17:53:00Z,33.82,-116.5,25.0,5.6,340,11,,10.0,29.760826,1007.4,,,TRUE,,,,,,,CLR,,,,,,,,VFR,0.7,25.6,15.0,,,,,,,,,SPECI,135.0
KPSX 021753Z AUTO 15017G20KT 10SM -RA BKN019 BKN024 26/22 A2989 RMK AO2 RAB47 SLP120 P0000 60000 T02610217 10261 20228 58007 $,KPSX,2018-04-02T17:53:00Z,28.72,-96.25,26.1,21.7,150,17,20,10.0,29.890747,1012.0,,TRUE,TRUE,TRUE,,,,,-RA,BKN,1900,BKN,2400,,,,,MVFR,-0.7,26.1,22.8,,,0.005,,,,,,SPECI,5.0
KOMK 021753Z AUTO 02015G20KT 10SM CLR 07/M07 A2987 RMK AO2 SLP122 T00721067 10072 21011 51029,KOMK,2018-04-02T17:53:00Z,48.47,-119.52,7.2,-6.7,20,15,20,10.0,29.870079,1012.2,,TRUE,TRUE,,,,,,,CLR,,,,,,,,VFR,2.9,7.2,-1.1,,,,,,,,,SPECI,395.0
KONO 021753Z AUTO 29022G31KT 10SM FEW065 07/M09 A2996 RMK AO2 PK WND 30031/1753 SLP150 60000 T00721094 10072 20011 51019 TSNO,KONO,2018-04-02T17:53:00Z,44.02,-117.02,7.2,-9.4,290,22,31,10.0,29.958662,1015.0,,TRUE,TRUE,,,TRUE,,,,FEW,6500,,,,,,,VFR,1.9,7.2,1.1,,,,,,,,,SPECI,667.0
KHYR 021753Z AUTO VRB04KT 10SM BKN047 01/M09 A2994 RMK AO2 SLP158 T00061089 10011 21161 58003,KHYR,2018-04-02T17:53:00Z,46.02,-91.45,0.6,-8.9,0,4,,10.0,29.940945,1015.8,,TRUE,TRUE,,,,,,,BKN,4700,,,,,,,VFR,-0.3,1.1,-16.1,,,,,,,,,SPECI,370.0
KHWO 021753Z 09008KT 10SM SCT039 29/18 A3005 RMK AO2 SLP175 60000 T02940183 10300 20211 58011,KHWO,2018-04-02T17:53:00Z,26.0,-80.23,29.4,18.3,90,8,,10.0,30.050198,1017.5,,,TRUE,,,,,,,SCT,3900,,,,,,,VFR,-1.1,30.0,21.1,,,,,0.005,,,,METAR,2.0
KHAO 021753Z AUTO 10006KT 10SM OVC021 05/01 A3012 RMK AO2 SLP205 T00500006 10050 20000 58013,KHAO,2018-04-02T17:53:00Z,39.37,-84.52,5.0,0.6,100,6,,10.0,30.121063,1020.5,,TRUE,TRUE,,,,,,,OVC,2100,,,,,,,MVFR,-1.3,5.0,0.0,,,,,,,,,SPECI,188.0
KGZH 021753Z AUTO 22007KT 10SM FEW035 BKN043 24/15 A3003 RMK AO2 SLP167 T02440150 10256 20117 58014,KGZH,2018-04-02T17:53:00Z,31.42,-87.05,24.4,15.0,220,7,,10.0,30.029528,1016.7,,TRUE,TRUE,,,,,,,FEW,3500,BKN,4300,,,,,VFR,-1.4,25.6,11.7,,,,,,,,,METAR,78.0
KONT 021753Z 00000KT 7SM OVC021 14/08 A2990 RMK AO2 SLP123 T01390083 10139 20122 50003,KONT,2018-04-02T17:53:00Z,34.05,-117.58,13.9,8.3,0,0,,7.0,29.899607,1012.3,,,TRUE,,,,,,,OVC,2100,,,,,,,MVFR,0.3,13.9,12.2,,,,,,,,,SPECI,274.0
KOPF 021753Z 11009KT 070V140 10SM SCT042 28/17 A3004 RMK AO2 SLP174 T02830172 10289 20211 58011,KOPF,2018-04-02T17:53:00Z,25.92,-80.28,28.3,17.2,110,9,,10.0,30.041338,1017.4,,,TRUE,,,,,,,SCT,4200,,,,,,,VFR,-1.1,28.9,21.1,,,,,,,,,METAR,16.0
KAMA 021753Z 22019G25KT 10SM CLR 24/M01 A2970 RMK AO2 PK WND 23027/1705 SLP029 T02441006 10244 20022 58028,KAMA,2018-04-02T17:53:00Z,35.22,-101.72,24.4,-0.6,220,19,25,10.0,29.698818,1002.9,,,TRUE,,,,,,,CLR,,,,,,,,VFR,-2.8,24.4,2.2,,,,,,,,,SPECI,1093.0
KALW 021753Z 24013KT 10SM BKN037 BKN110 06/M02 A2996 RMK AO2 SLP150 T00561022 10061 20006 52014,KALW,2018-04-02T17:53:00Z,46.1,-118.28,5.6,-2.2,240,13,,10.0,29.958662,1015.0,,,TRUE,,,,,,,BKN,3700,BKN,11000,,,,,VFR,1.4,6.1,0.6,,,,,,,,,SPECI,363.0
KAOH 021753Z AUTO 16004KT 10SM CLR 03/M07 A3012 RMK AO2 SLP208 T00281067 10033 21056 58007,KAOH,2018-04-02T17:53:00Z,40.7,-84.02,2.8,-6.7,160,4,,10.0,30.121063,1020.8,,TRUE,TRUE,,,,,,,CLR,,,,,,,,VFR,-0.7,3.3,-5.6,,,,,,,,,SPECI,296.0
KANB 021753Z AUTO 25010KT 10SM CLR 25/09 A2999 RMK AO2 SLP153 T02500094 10250 20094 58010,KANB,2018-04-02T17:53:00Z,33.58,-85.85,25.0,9.4,250,10,,10.0,29.991142,1015.3,,TRUE,TRUE,,,,,,,CLR,,,,,,,,VFR,-1.0,25.0,9.4,,,,,,,,,METAR,183.0
KAMW 021753Z AUTO 15015KT 10SM CLR 02/M06 A2989 RMK AO2 SLP129 T00221061 10022 21078 58035,KAMW,2018-04-02T17:53:00Z,41.98,-93.62,2.2,-6.1,150,15,,10.0,29.890747,1012.9,,TRUE,TRUE,,,,,,,CLR,,,,,,,,VFR,-3.5,2.2,-7.8,,,,,,,,,SPECI,279.0
KAMG 021753Z AUTO 22008KT 190V260 10SM CLR 27/09 A3003 RMK AO2 SLP168 T02720094 10272 20133 58016,KAMG,2018-04-02T17:53:00Z,31.53,-82.5,27.2,9.4,220,8,,10.0,30.029528,1016.8,,TRUE,TRUE,,,,,,,CLR,,,,,,,,VFR,-1.6,27.2,13.3,,,,,,,,,METAR,59.0
KHZY 021753Z AUTO 27005KT 10SM CLR 05/M06 A3012 RMK AO2 SLP205 T00501061 10056 21006 56009,KHZY,2018-04-02T17:53:00Z,41.78,-80.7,5.0,-6.1,270,5,,10.0,30.121063,1020.5,,TRUE,TRUE,,,,,,,CLR,,,,,,,,VFR,-0.9,5.6,-0.6,,,,,,,,,SPECI,276.0
KIAG 021753Z 20013G19KT 10SM CLR 06/M04 A3008 RMK AO2 SLP199 T00611044 10061 21006 58009 $,KIAG,2018-04-02T17:53:00Z,43.12,-78.93,6.1,-4.4,200,13,19,10.0,30.079725,1019.9,,,TRUE,TRUE,,,,,,CLR,,,,,,,,VFR,-0.9,6.1,-0.6,,,,,,,,,SPECI,182.0
KIAH 021753Z 17009KT 10SM SCT038 SCT055 BKN250 28/19 A2989 RMK AO2 SLP123 T02830189 10283 20217 58015,KIAH,2018-04-02T17:53:00Z,30.0,-95.37,28.3,18.9,170,9,,10.0,29.890747,1012.3,,,TRUE,,,,,,,SCT,3800,SCT,5500,BKN,25000,,,VFR,-1.5,28.3,21.7,,,,,,,,,SPECI,36.0
KICT 021753Z 16015G20KT 10SM OVC015 04/M01 A2979 RMK AO2 PRESFR SLP097 T00391006 10039 21028 58020,KICT,2018-04-02T17:53:00Z,37.65,-97.43,3.9,-0.6,160,15,20,10.0,29.790354,1009.7,,,TRUE,,,,,,,OVC,1500,,,,,,,MVFR,-2.0,3.9,-2.8,,,,,,,,,METAR,407.0
KICR 021753Z AUTO 10SM CLR 09/M05 A2952 RMK AO2 SLP005 T00941050 10094 21006 58015,KICR,2018-04-02T17:53:00Z,43.38,-99.85,9.4,-5.0,,,,10.0,29.518702,1000.5,,TRUE,TRUE,,,,,,,CLR,,,,,,,,VFR,-1.5,9.4,-0.6,,,,,,,,,SPECI,621.0
KIDA 021753Z 22028G41KT 10SM BKN020 BKN028 06/01 A2956 RMK AO2 PK WND 22041/1741 SLP004 T00560006 10067 20044 53006,KIDA,2018-04-02T17:53:00Z,43.52,-112.07,5.6,0.6,220,28,41,10.0,29.56004,1000.4,,,TRUE,,,,,,,BKN,2000,BKN,2800,,,,,MVFR,0.6,6.7,4.4,,,,,,,,,SPECI,1453.0
KILM 021753Z AUTO 25008G17KT 10SM CLR 28/10 A2997 RMK AO2 SLP150 T02780100 10283 20156 58019,KILM,2018-04-02T17:53:00Z,34.27,-77.9,27.8,10.0,250,8,17,10.0,29.970472,1015.0,,TRUE,TRUE,,,,,,,CLR,,,,,,,,VFR,-1.9,28.3,15.6,,,,,,,,,METAR,9.0
KIML 021753Z AUTO 14009KT 10SM CLR 10/M04 A2952 RMK AO2 SLP005 T01001039 10100 21044 56024,KIML,2018-04-02T17:53:00Z,40.52,-101.62,10.0,-3.9,140,9,,10.0,29.518702,1000.5,,TRUE,TRUE,,,,,,,CLR,,,,,,,,VFR,-2.4,10.0,-4.4,,,,,,,,,SPECI,998.0
KIPL 021753Z AUTO 12009KT 10SM CLR 26/04 A2973 RMK AO2 SLP067 T02610044 10261 20150 50004,KIPL,2018-04-02T17:53:00Z,32.83,-115.58,26.1,4.4,120,9,,10.0,29.731298,1006.7,,TRUE,TRUE,,,,,,,CLR,,,,,,,,VFR,0.4,26.1,15.0,,,,,,,,,SPECI,-17.0
KINK 021753Z AUTO 20005KT 10SM CLR 21/06 A2981 RMK AO2 SLP064 T02110056 10211 20067 58022,KINK,2018-04-02T17:53:00Z,31.78,-103.2,21.1,5.6,200,5,,10.0,29.811024,1006.4,,TRUE,TRUE,,,,,,,CLR,,,,,,,,VFR,-2.2,21.1,6.7,,,,,,,,,SPECI,855.0
KITR 021753Z AUTO 24017G30KT 10SM CLR 26/M06 A2950 RMK AO2 PK WND 26030/1745 SLP962 T02561061 10261 21061 58023,KITR,2018-04-02T17:53:00Z,39.23,-102.28,25.6,-6.1,240,17,30,10.0,29.500984,996.2,,TRUE,TRUE,,,,,,,CLR,,,,,,,,VFR,-2.3,26.1,-6.1,,,,,,,,,SPECI,1279.0
KIWI 021753Z AUTO 20005KT 10SM BKN034 OVC045 02/M04 A3012 RMK AO2 SLP199 T00221039 10033 21006 56011,KIWI,2018-04-02T17:53:00Z,43.97,-69.72,2.2,-3.9,200,5,,10.0,30.121063,1019.9,,TRUE,TRUE,,,,,,,BKN,3400,OVC,4500,,,,,VFR,-1.1,3.3,-0.6,,,,,,,,,SPECI,20.0
KIXD 021753Z 13009KT 3SM BR OVC005 M01/M02 A2989 RMK AO2 SLP132 I6001 T10061017 11006 21044 58022,KIXD,2018-04-02T17:53:00Z,38.82,-94.88,-0.6,-1.7,130,9,,3.0,29.890747,1013.2,,,TRUE,,,,,,BR,OVC,500,,,,,,,IFR,-2.2,-0.6,-4.4,,,,,,,,,METAR,342.0
KARA 021753Z 19012G17KT 10SM SCT033 SCT040 27/17 A2999 RMK AO2 SLP154 6//// T02670172 10272 20172 58009 PNO,KARA,2018-04-02T17:53:00Z,30.03,-91.88,26.7,17.2,190,12,17,10.0,29.991142,1015.4,,,TRUE,,,,,,,SCT,3300,SCT,4000,,,,,VFR,-0.9,27.2,17.2,,,,,,,,,METAR,18.0
KAPF 021753Z 25010KT 10SM FEW065 27/21 A3003 RMK AO2 SLP168 T02670206 10283 20200 58010,KAPF,2018-04-02T17:53:00Z,26.15,-81.77,26.7,20.6,250,10,,10.0,30.029528,1016.8,,,TRUE,,,,,,,FEW,6500,,,,,,,VFR,-1.0,28.3,20.0,,,,,,,,,METAR,3.0
KAPA 021753Z 25012G22KT 10SM FEW080 FEW120 BKN220 21/M08 A2952 RMK AO2 PK WND 25030/1738 SLP957 T02061083 10211 20056 58014,KAPA,2018-04-02T17:53:00Z,39.57,-104.85,20.6,-8.3,250,12,22,10.0,29.518702,995.7,,,TRUE,,,,,,,FEW,8000,FEW,12000,BKN,22000,,,VFR,-1.4,21.1,5.6,,,,,,,,,SPECI,1775.0
KJBR 021753Z AUTO 07008KT 7SM OVC006 07/06 A3000 RMK AO2 SLP158 60000 T00670061 10067 20033 58021 $,KJBR,2018-04-02T17:53:00Z,35.83,-90.65,6.7,6.1,70,8,,7.0,30.0,1015.8,,TRUE,TRUE,TRUE,,,,,,OVC,600,,,,,,,IFR,-2.1,6.7,3.3,,,,,0.005,,,,METAR,79.0
KASE 021753Z 27011G26KT 10SM CLR 13/M11 A2970 RMK AO2 PK WND 25026/1746 SLP974 T01331111 10144 20006 58014,KASE,2018-04-02T17:53:00Z,39.23,-106.87,13.3,-11.1,270,11,26,10.0,29.698818,997.4,,,TRUE,,,,,,,CLR,,,,,,,,VFR,-1.4,14.4,0.6,,,,,,,,,SPECI,2354.0
KASD 021753Z AUTO VRB06KT 10SM FEW039 BKN050 OVC060 26/16 A3002 RMK AO2 SLP164 T02560161 10267 20139 58002,KASD,2018-04-02T17:53:00Z,30.35,-89.82,25.6,16.1,0,6,,10.0,30.02067,1016.4,,TRUE,TRUE,,,,,,,FEW,3900,BKN,5000,OVC,6000,,,VFR,-0.2,26.7,13.9,,,,,,,,,METAR,9.0
KARB 021753Z 18007KT 10SM CLR 04/M08 A3010 RMK AO2 SLP202 T00391078 10039 21083 58011,KARB,2018-04-02T17:53:00Z,42.22,-83.73,3.9,-7.8,180,7,,10.0,30.100393,1020.2,,,TRUE,,,,,,,CLR,,,,,,,,VFR,-1.1,3.9,-8.3,,,,,,,,,SPECI,251.0
KJEF 021753Z 11008KT 6SM BR OVC007 M01/M02 A2998 RMK AO2 SLP147 I6000 T10061022 11006 21033 58030,KJEF,2018-04-02T17:53:00Z,38.6,-92.15,-0.6,-2.2,110,8,,6.0,29.97933,1014.7,,,TRUE,,,,,,BR,OVC,700,,,,,,,IFR,-3.0,-0.6,-3.3,,,,,,,,,METAR,168.0
KJER 021753Z AUTO 24029G40KT 10SM OVC075 03/M15 A2978 RMK AO2 PK WND 23041/1733 SLP085 60001 T00331150 10072 20017 53025 TSNO,KJER,2018-04-02T17:53:00Z,42.72,-114.45,3.3,-15.0,240,29,40,10.0,29.778543,1008.5,,TRUE,TRUE,,,TRUE,,,,OVC,7500,,,,,,,VFR,2.5,7.2,1.7,,,,,,,,,SPECI,1222.0
KJLN 021753Z 15006KT 2SM BR OVC003 04/04 A2989 RMK AO2 SLP126 T00440044 10044 21006 58021,KJLN,2018-04-02T17:53:00Z,37.15,-94.5,4.4,4.4,150,6,,2.0,29.890747,1012.6,,,TRUE,,,,,,BR,OVC,300,,,,,,,LIFR,-2.1,4.4,-0.6,,,,,,,,,METAR,299.0
KLAA 021753Z AUTO 28007KT 10SM CLR 22/M03 A2952 RMK AO2 SLP974 T02221033 10222 21078 58032,KLAA,2018-04-02T17:53:00Z,38.07,-102.68,22.2,-3.3,280,7,,10.0,29.518702,997.4,,TRUE,TRUE,,,,,,,CLR,,,,,,,,VFR,-3.2,22.2,-7.8,,,,,,,,,SPECI,1119.0
KLAN 021753Z 22009KT 10SM CLR 04/M07 A3008 RMK AO2 SLP196 T00441072 10050 21056 58013,KLAN,2018-04-02T17:53:00Z,42.78,-84.58,4.4,-7.2,220,9,,10.0,30.079725,1019.6,,,TRUE,,,,,,,CLR,,,,,,,,VFR,-1.3,5.0,-5.6,,,,,,,,,SPECI,264.0
KLAR 021753Z AUTO 27030G41KT 10SM FEW090 12/M07 A2953 RMK AO2 PK WND 27041/1747 SLP928 T01221072 10128 20022 58009,KLAR,2018-04-02T17:53:00Z,41.32,-105.67,12.2,-7.2,270,30,41,10.0,29.530512,992.8,,TRUE,TRUE,,,,,,,FEW,9000,,,,,,,VFR,-0.9,12.8,2.2,,,,,,,,,SPECI,2216.0
KLAX 021753Z 14003KT 10SM BKN033 18/09 A2990 RMK AO2 SLP123 BKN V SCT T01830089 10183 20144 50001,KLAX,2018-04-02T17:53:00Z,33.93,-118.38,18.3,8.9,140,3,,10.0,29.899607,1012.3,,,TRUE,,,,,,,BKN,3300,,,,,,,VFR,0.1,18.3,14.4,,,,,,,,,SPECI,46.0
KHBG 021753Z AUTO VRB05KT 10SM FEW040 BKN055 24/14 A3003 RMK AO2 SLP167 T02390144 10250 20133 58006,KHBG,2018-04-02T17:53:00Z,31.27,-89.25,23.9,14.4,0,5,,10.0,30.029528,1016.7,,TRUE,TRUE,,,,,,,FEW,4000,BKN,5500,,,,,VFR,-0.6,25.0,13.3,,,,,,,,,METAR,44.0
KHBR 021753Z AUTO 20012KT 10SM OVC020 07/01 A2985 RMK AO2 SLP111 T00720011 10072 20000 58028,KHBR,2018-04-02T17:53:00Z,34.98,-99.05,7.2,1.1,200,12,,10.0,29.84941,1011.1,,TRUE,TRUE,,,,,,,OVC,2000,,,,,,,MVFR,-2.8,7.2,0.0,,,,,,,,,METAR,473.0
KHFD 021753Z VRB03KT 10SM FEW018 BKN026 02/M02 A3013 RMK AO2 SNE00 SLP202 P0000 60016 T00221022 10028 21006 56014,KHFD,2018-04-02T17:53:00Z,41.73,-72.65,2.2,-2.2,0,3,,10.0,30.129921,1020.2,,,TRUE,,,,,,,FEW,1800,BKN,2600,,,,,MVFR,-1.4,2.8,-0.6,,,0.005,,,,,,SPECI,4.0
KAUS 021753Z 13006KT 10SM FEW029 SCT037 BKN150 26/19 A2983 RMK AO2 SLP092 T02560194 10256 20144 58024 $,KAUS,2018-04-02T17:53:00Z,30.18,-97.68,25.6,19.4,130,6,,10.0,29.828741,1009.2,,,TRUE,TRUE,,,,,,FEW,2900,SCT,3700,BKN,15000,,,VFR,-2.4,25.6,14.4,,,,,,,,,SPECI,166.0
KAUG 021753Z AUTO VRB06KT 10SM OVC050 03/M08 A3008 RMK AO2 SLP190 T00331083 10039 21011 56013,KAUG,2018-04-02T17:53:00Z,44.32,-69.8,3.3,-8.3,0,6,,10.0,30.079725,1019.0,,TRUE,TRUE,,,,,,,OVC,5000,,,,,,,VFR,-1.3,3.9,-1.1,,,,,,,,,SPECI,109.0
KASX 021753Z AUTO 00000KT 10SM OVC085 01/M14 A2997 RMK AO2 SLP163 T00061139 10006 21106 58002,KASX,2018-04-02T17:53:00Z,46.55,-90.92,0.6,-13.9,0,0,,10.0,29.970472,1016.3,,TRUE,TRUE,,,,,,,OVC,8500,,,,,,,VFR,-0.2,0.6,-10.6,,,,,,,,,SPECI,251.0
KAZO 021753Z 18006KT 10SM CLR 04/M08 A3008 RMK AO2 SLP196 T00441078 10044 21061 58017,KAZO,2018-04-02T17:53:00Z,42.23,-85.55,4.4,-7.8,180,6,,10.0,30.079725,1019.6,,,TRUE,,,,,,,CLR,,,,,,,,VFR,-1.7,4.4,-6.1,,,,,,,,,SPECI,272.0
KOLF 021753Z AUTO 07016KT 10SM FEW043 OVC075 M03/M12 A2985 RMK AO2 SLP139 T10331117 11033 21083 50010,KOLF,2018-04-02T17:53:00Z,48.1,-105.58,-3.3,-11.7,70,16,,10.0,29.84941,1013.9,,TRUE,TRUE,,,,,,,FEW,4300,OVC,7500,,,,,VFR,1.0,-3.3,-8.3,,,,,,,,,METAR,604.0
KPKB 021753Z 01005KT 10SM OVC018 06/01 A3013 RMK AO2 SLP210 T00560011 10056 20011 58007,KPKB,2018-04-02T17:53:00Z,39.35,-81.42,5.6,1.1,10,5,,10.0,30.129921,1021.0,,,TRUE,,,,,,,OVC,1800,,,,,,,MVFR,-0.7,5.6,1.1,,,,,,,,,SPECI,262.0
KPMP 021753Z 13011KT 10SM SCT030 27/19 A3004 RMK AO2 SLP174 T02720194 10278 20222 58011,KPMP,2018-04-02T17:53:00Z,26.25,-80.12,27.2,19.4,130,11,,10.0,30.041338,1017.4,,,TRUE,,,,,,,SCT,3000,,,,,,,VFR,-1.1,27.8,22.2,,,,,,,,,METAR,6.0
KPMD 021753Z AUTO 26013G31KT 230V300 10SM CLR 21/06 A2983 RMK AO2 PK WND 23032/1716 SLP080 T02060056 10206 20133 50000,KPMD,2018-04-02T17:53:00Z,34.63,-118.08,20.6,5.6,260,13,31,10.0,29.828741,1008.0,,TRUE,TRUE,,,,,,,CLR,,,,,,,,VFR,0.0,20.6,13.3,,,,,,,,,SPECI,780.0
KOSU 021753Z VRB04KT 10SM SCT030 06/M01 A3009 RMK AO2 SLP197 T00611011 10061 21017 58015,KOSU,2018-04-02T17:53:00Z,40.08,-83.08,6.1,-1.1,0,4,,10.0,30.088583,1019.7,,,TRUE,,,,,,,SCT,3000,,,,,,,VFR,-1.5,6.1,-1.7,,,,,,,,,SPECI,280.0
KOSH 021753Z 20008KT 160V220 10SM CLR 03/M09 A3002 RMK AO2 SLP182 T00281094 10028 21056 56017,KOSH,2018-04-02T17:53:00Z,43.97,-88.55,2.8,-9.4,200,8,,10.0,30.02067,1018.2,,,TRUE,,,,,,,CLR,,,,,,,,VFR,-1.7,2.8,-5.6,,,,,,,,,SPECI,248.0
KORL 021753Z 21008KT 10SM BKN060 29/17 A3003 RMK AO2 SLP174 T02940172 10300 20206 58013,KORL,2018-04-02T17:53:00Z,28.55,-81.33,29.4,17.2,210,8,,10.0,30.029528,1017.4,,,TRUE,,,,,,,BKN,6000,,,,,,,VFR,-1.3,30.0,20.6,,,,,,,,,METAR,37.0
KBCE 021753Z AUTO 23016G23KT 10SM CLR 14/M08 A2985 RMK AO2 PK WND 24030/1727 SLP008 T01441083 10150 20000 58008,KBCE,2018-04-02T17:53:00Z,37.7,-112.15,14.4,-8.3,230,16,23,10.0,29.84941,1000.8,,TRUE,TRUE,,,,,,,CLR,,,,,,,,VFR,-0.8,15.0,0.0,,,,,,,,,SPECI,2312.0
KBBW 021753Z AUTO 19016KT 10SM SCT019 03/M01 A2959 RMK AO2 SLP041 T00281006 10028 21056 58015,KBBW,2018-04-02T17:53:00Z,41.43,-99.63,2.8,-0.6,190,16,,10.0,29.589567,1004.1,,TRUE,TRUE,,,,,,,SCT,1900,,,,,,,VFR,-1.5,2.8,-5.6,,,,,,,,,SPECI,776.0
KHGR 021753Z 04005KT 10SM BKN021 BKN027 OVC047 07/02 A3011 RMK AO2 SLP211 T00720017 10078 20017 50000,KHGR,2018-04-02T17:53:00Z,39.7,-77.73,7.2,1.7,40,5,,10.0,30.109253,1021.1,,,TRUE,,,,,,,BKN,2100,BKN,2700,OVC,4700,,,MVFR,0.0,7.8,1.7,,,,,,,,,SPECI,224.0
KPIR 021753Z AUTO 04018G22KT 10SM OVC033 04/M04 A2957 RMK AO2 SLP028 T00391039 10044 21022 56007 $,KPIR,2018-04-02T17:53:00Z,44.38,-100.28,3.9,-3.9,40,18,22,10.0,29.568897,1002.8,,TRUE,TRUE,TRUE,,,,,,OVC,3300,,,,,,,VFR,-0.7,4.4,-2.2,,,,,,,,,SPECI,526.0
KSFF 021753Z AUTO 24012G18KT 10SM FEW060 04/M07 A2983,KSFF,2018-04-02T17:53:00Z,47.68,-117.32,4.0,-7.0,240,12,18,10.0,29.828741,,,TRUE,,,,,,,,FEW,6000,,,,,,,VFR,,,,,,,,,,,,METAR,609.0
KTWF 021753Z 25025G33KT 10SM SCT050 OVC065 00/M06 A2982 RMK AO2 PK WND 26033/1752 SLP095 60010 T00001061 10072 21006 51043,KTWF,2018-04-02T17:53:00Z,42.48,-114.48,0.0,-6.1,250,25,33,10.0,29.819881,1009.5,,,TRUE,,,,,,,SCT,5000,OVC,6500,,,,,VFR,4.3,7.2,-0.6,,,,,0.1,,,,METAR,1266.0
KBDE 021753Z AUTO 35008KT 10SM CLR M08/M17 A2997 RMK AO2 SLP172 T10781167 11078 21122 57000,KBDE,2018-04-02T17:53:00Z,48.73,-94.62,-7.8,-16.7,350,8,,10.0,29.970472,1017.2,,TRUE,TRUE,,,,,,,CLR,,,,,,,,VFR,0.0,-7.8,-12.2,,,,,,,,,SPECI,329.0
KBEH 021753Z AUTO 19009KT 10SM CLR 05/M09 A3008 RMK AO2 SLP193 T00501094 10050 21078 58021,KBEH,2018-04-02T17:53:00Z,42.13,-86.42,5.0,-9.4,190,9,,10.0,30.079725,1019.3,,TRUE,TRUE,,,,,,,CLR,,,,,,,,VFR,-2.1,5.0,-7.8,,,,,,,,,SPECI,191.0
KBFD 021753Z AUTO 00000KT 10SM SCT044 04/M07 A3003 RMK AO2 SLP185 T00391072 10044 21028 58008,KBFD,2018-04-02T17:53:00Z,41.8,-78.63,3.9,-7.2,0,0,,10.0,30.029528,1018.5,,TRUE,TRUE,,,,,,,SCT,4400,,,,,,,VFR,-0.8,4.4,-2.8,,,,,,,,,SPECI,647.0
KBGM 021753Z VRB05KT 10SM SCT040 03/M07 A3005 RMK AO2 SLP191 60001 T00281067 10028 21039 58005,KBGM,2018-04-02T17:53:00Z,42.22,-75.98,2.8,-6.7,0,5,,10.0,30.050198,1019.1,,,TRUE,,,,,,,SCT,4000,,,,,,,VFR,-0.5,2.8,-3.9,,,,,,,,,SPECI,490.0
KBFI 021753Z 15009KT 10SM CLR 12/01 A3007 RMK AO2 SLP184 T01170011 10117 20017 51023 $,KBFI,2018-04-02T17:53:00Z,47.55,-122.32,11.7,1.1,150,9,,10.0,30.070866,1018.4,,,TRUE,TRUE,,,,,,CLR,,,,,,,,VFR,2.3,11.7,1.7,,,,,,,,,SPECI,4.0
KBFF 021753Z AUTO 12003KT 10SM CLR 11/04 A2946 RMK AO2 SLP973 T01060039 10106 21022 58014,KBFF,2018-04-02T17:53:00Z,41.87,-103.58,10.6,3.9,120,3,,10.0,29.459646,997.3,,TRUE,TRUE,,,,,,,CLR,,,,,,,,VFR,-1.4,10.6,-2.2,,,,,,,,,SPECI,1203.0
KBGR 021753Z VRB04KT 10SM BKN065 BKN200 04/M11 A3008 RMK AO2 SLP186 T00391106 10039 21017 56018,KBGR,2018-04-02T17:53:00Z,44.8,-68.82,3.9,-10.6,0,4,,10.0,30.079725,1018.6,,,TRUE,,,,,,,BKN,6500,BKN,20000,,,,,VFR,-1.8,3.9,-1.7,,,,,,,,,SPECI,57.0
KBHM 021753Z 20006KT 10SM FEW055 BKN250 25/12 A3002 RMK AO2 SLP157 T02500122 10256 20122 58008,KBHM,2018-04-02T17:53:00Z,33.57,-86.75,25.0,12.2,200,6,,10.0,30.02067,1015.7,,,TRUE,,,,,,,FEW,5500,BKN,25000,,,,,VFR,-0.8,25.6,12.2,,,,,,,,,METAR,197.0
KBIV 021753Z AUTO VRB06KT 10SM CLR 05/M07 A3008 RMK AO2 SLP195 T00501072 10050 21061 58019,KBIV,2018-04-02T17:53:00Z,42.75,-86.1,5.0,-7.2,0,6,,10.0,30.079725,1019.5,,TRUE,TRUE,,,,,,,CLR,,,,,,,,VFR,-1.9,5.0,-6.1,,,,,,,,,SPECI,208.0
KBKE 021753Z AUTO 30019G27KT 10SM BKN060 03/M11 A2990 RMK AO2 PK WND 31027/1745 SLP138 T00331111 10033 21044 53019,KBKE,2018-04-02T17:53:00Z,44.85,-117.82,3.3,-11.1,300,19,27,10.0,29.899607,1013.8,,TRUE,TRUE,,,,,,,BKN,6000,,,,,,,VFR,1.9,3.3,-4.4,,,,,,,,,SPECI,1024.0
KBKL 021753Z 35006KT 10SM CLR 02/M04 A3014 RMK AO2 SLP211 T00221044 10022 20000 58006,KBKL,2018-04-02T17:53:00Z,41.53,-81.67,2.2,-4.4,350,6,,10.0,30.138779,1021.1,,,TRUE,,,,,,,CLR,,,,,,,,VFR,-0.6,2.2,0.0,,,,,,,,,SPECI,184.0
KBKV 021753Z 12004KT 10SM FEW042 SCT060 BKN090 29/19 A3004 RMK AO2 SLP170 T02890189 10300 20178 58013,KBKV,2018-04-02T17:53:00Z,28.47,-82.45,28.9,18.9,120,4,,10.0,30.041338,1017.0,,,TRUE,,,,,,,FEW,4200,SCT,6000,BKN,9000,,,VFR,-1.3,30.0,17.8,,,,,,,,,METAR,20.0
KBLI 021753Z VRB03KT 10SM SCT026 SCT035 BKN060 07/01 A3002 RMK AO2 SLP175 T00670011 10072 20006 53026,KBLI,2018-04-02T17:53:00Z,48.8,-122.53,6.7,1.1,0,3,,10.0,30.02067,1017.5,,,TRUE,,,,,,,SCT,2600,SCT,3500,BKN,6000,,,VFR,2.6,7.2,0.6,,,,,,,,,SPECI,50.0
KBMG 021753Z 12007KT 10SM OVC012 03/00 A3007 RMK AO2 SLP189 T00280000 10028 21011 58016 $,KBMG,2018-04-02T17:53:00Z,39.15,-86.62,2.8,0.0,120,7,,10.0,30.070866,1018.9,,,TRUE,TRUE,,,,,,OVC,1200,,,,,,,MVFR,-1.6,2.8,-1.1,,,,,,,,,SPECI,257.0
KBMQ 021753Z AUTO 02007KT 10SM OVC019 18/14 A2987 RMK AO2 SLP103 60000 T01830144 10211 20111 58011,KBMQ,2018-04-02T17:53:00Z,30.73,-98.23,18.3,14.4,20,7,,10.0,29.870079,1010.3,,TRUE,TRUE,,,,,,,OVC,1900,,,,,,,MVFR,-1.1,21.1,11.1,,,,,,,,,SPECI,389.0
KBNO 021753Z AUTO 27020G27KT 10SM BKN049 01/M11 A2996 RMK AO2 PK WND 28029/1657 SLP152 T00111106 10011 21039 51019,KBNO,2018-04-02T17:53:00Z,43.6,-118.95,1.1,-10.6,270,20,27,10.0,29.958662,1015.2,,TRUE,TRUE,,,,,,,BKN,4900,,,,,,,VFR,1.9,1.1,-3.9,,,,,,,,,SPECI,1264.0
KBOI 021753Z 33022G30KT 10SM CLR 04/M09 A2990 RMK AO2 PK WND 32035/1719 SLP125 60000 T00441089 10067 20017 51037,KBOI,2018-04-02T17:53:00Z,43.57,-116.23,4.4,-8.9,330,22,30,10.0,29.899607,1012.5,,,TRUE,,,,,,,CLR,,,,,,,,VFR,3.7,6.7,1.7,,,,,,,,,SPECI,875.0
KBPI 021753Z AUTO 28035G47KT 10SM CLR 08/M03 A2951 RMK AO2 PK WND 27048/1707 SLP946 T00781028 10100 20017 56016,KBPI,2018-04-02T17:53:00Z,42.58,-110.1,7.8,-2.8,280,35,47,10.0,29.509842,994.6,,TRUE,TRUE,,,,,,,CLR,,,,,,,,VFR,-1.6,10.0,1.7,,,,,,,,,SPECI,2117.0
KTUP 021753Z 00000KT 10SM OVC019 18/12 A2999 RMK AO2 SLP154 T01830117 10183 20106 58004,KTUP,2018-04-02T17:53:00Z,34.27,-88.77,18.3,11.7,0,0,,10.0,29.991142,1015.4,,,TRUE,,,,,,,OVC,1900,,,,,,,MVFR,-0.4,18.3,10.6,,,,,,,,,METAR,105.0
KNQX 021753Z 08010KT 10SM SCT025 27/19 A3003 RMK AO2 SLP167 T02720194 10278 20228 58008,KNQX,2018-04-02T17:53:00Z,24.57,-81.67,27.2,19.4,80,10,,10.0,30.029528,1016.7,,,TRUE,,,,,,,SCT,2500,,,,,,,VFR,-0.8,27.8,22.8,,,,,,,,,METAR,2.0
KBPK 021753Z AUTO 15007KT 6SM BR OVC003 04/04 A2994 RMK AO2 SLP142 T00390039 10039 20011 58021,KBPK,2018-04-02T17:53:00Z,36.37,-92.47,3.9,3.9,150,7,,6.0,29.940945,1014.2,,TRUE,TRUE,,,,,,BR,OVC,300,,,,,,,LIFR,-2.1,3.9,1.1,,,,,,,,,METAR,280.0
KBRL 021753Z AUTO 12011KT 10SM CLR 01/M07 A3000 RMK AO2 SLP168 T00061067 10017 21083 58033,KBRL,2018-04-02T17:53:00Z,40.77,-91.13,0.6,-6.7,120,11,,10.0,30.0,1016.8,,TRUE,TRUE,,,,,,,CLR,,,,,,,,VFR,-3.3,1.7,-8.3,,,,,,,,,SPECI,211.0
KBRO 021753Z 16023G35KT 10SM BKN033 31/20 A2983 RMK AO2 PK WND 16035/1732 SLP099 T03060200 10306 20233 58007,KBRO,2018-04-02T17:53:00Z,25.92,-97.42,30.6,20.0,160,23,35,10.0,29.828741,1009.9,,,TRUE,,,,,,,BKN,3300,,,,,,,VFR,-0.7,30.6,23.3,,,,,,,,,SPECI,7.0
PAVL 021753Z AUTO 10005KT 10SM CLR M13/M18 A3068 RMK AO2 SLP388 6//// T11331178 11111 21156 56013 TSNO PNO $,PAVL,2018-04-02T17:53:00Z,67.73,-164.55,-13.3,-17.8,100,5,,10.0,30.679134,1038.8,,TRUE,TRUE,TRUE,,TRUE,,,,CLR,,,,,,,,VFR,-1.3,-11.1,-15.6,,,,,,,,,METAR,3.0
PATO 021753Z AUTO 00000KT 10SM CLR M02/M07 A3031 RMK AO2 SLP266 I6001 T10221067 11017 21094 58003 TSNO,PATO,2018-04-02T17:53:00Z,60.78,-148.85,-2.2,-6.7,0,0,,10.0,30.31004,1026.6,,TRUE,TRUE,,,TRUE,,,,CLR,,,,,,,,VFR,-0.3,-1.7,-9.4,,,,,,,,,METAR,31.0
PAWD 021753Z AUTO 36014G23KT 10SM CLR 02/M09 A3028 RMK AO2 SLP254 T00171094 10028 20000 58003 TSNO,PAWD,2018-04-02T17:53:00Z,60.12,-149.42,1.7,-9.4,360,14,23,10.0,30.280512,1025.4,,TRUE,TRUE,,,TRUE,,,,CLR,,,,,,,,VFR,-0.3,2.8,0.0,,,,,,,,,METAR,23.0
PHJR 021753Z 20007KT 10SM FEW022 BKN050 OVC060 24/22 A2989 RMK AO2 RAB25E34 SLP128 P0000 6//// T02440222 10250 20222 51007 $,PHJR,2018-04-02T17:53:00Z,21.32,-158.07,24.4,22.2,200,7,,10.0,29.890747,1012.8,,,TRUE,TRUE,,,,,,FEW,2200,BKN,5000,OVC,6000,,,VFR,0.7,25.0,22.2,,,0.005,,,,,,METAR,15.0
PAYA 021753Z AUTO 05011KT 10SM CLR 04/M16 A3009 RMK AO2 SLP191 T00441156 10044 21011 58004 TSNO,PAYA,2018-04-02T17:53:00Z,59.52,-139.67,4.4,-15.6,50,11,,10.0,30.088583,1019.1,,TRUE,TRUE,,,TRUE,,,,CLR,,,,,,,,VFR,-0.4,4.4,-1.1,,,,,,,,,METAR,11.0
PAWI 021753Z AUTO 08009KT 10SM OVC049 M13/M16 A3069 RMK AO2 SLP395 T11331156 11133 21156 56008 TSNO,PAWI,2018-04-02T17:53:00Z,70.62,-159.85,-13.3,-15.6,80,9,,10.0,30.690945,1039.5,,TRUE,TRUE,,,TRUE,,,,OVC,4900,,,,,,,VFR,-0.8,-13.3,-15.6,,,,,,,,,METAR,27.0
PABR 021753Z 10006KT 10SM FEW001 OVC080 M18/M19 A3075 RMK AO2 SLP415 T11781194 11178 21217 58009 $,PABR,2018-04-02T17:53:00Z,71.28,-156.77,-17.8,-19.4,100,6,,10.0,30.75,1041.5,,,TRUE,TRUE,,,,,,FEW,100,OVC,8000,,,,,VFR,-0.9,-17.8,-21.7,,,,,,,,,METAR,7.0
KBTM 021753Z AUTO 33011KT 10SM FEW027 BKN038 OVC055 M04/M11 A2960 RMK AO2 PK WND 34026/1704 SNE46 SLP054 P0000 60001 T10391106 11011 21050 51012,KBTM,2018-04-02T17:53:00Z,45.97,-112.5,-3.9,-10.6,330,11,,10.0,29.601377,1005.4,,TRUE,TRUE,,,,,,,FEW,2700,BKN,3800,OVC,5500,,,VFR,1.2,-1.1,-5.0,,,0.005,,,,,,SPECI,1688.0
KBTL 021753Z 20007KT 10SM CLR 04/M07 A3008 RMK AO2 SLP195 T00441072 10050 21056 58018,KBTL,2018-04-02T17:53:00Z,42.32,-85.23,4.4,-7.2,200,7,,10.0,30.079725,1019.5,,,TRUE,,,,,,,CLR,,,,,,,,VFR,-1.8,5.0,-5.6,,,,,,,,,SPECI,290.0
KBUR 021753Z 18004KT 10SM OVC021 14/10 A2989 RMK AO2 SLP114 T01390100 10144 20128 50003,KBUR,2018-04-02T17:53:00Z,34.2,-118.37,13.9,10.0,180,4,,10.0,29.890747,1011.4,,,TRUE,,,,,,,OVC,2100,,,,,,,MVFR,0.3,14.4,12.8,,,,,,,,,SPECI,217.0
KBVO 021753Z AUTO 13003KT 3SM BR OVC005 02/01 A2990 RMK AO2 SLP127 60000 T00220006 10022 21006 58023,KBVO,2018-04-02T17:53:00Z,36.77,-96.02,2.2,0.6,130,3,,3.0,29.899607,1012.7,,TRUE,TRUE,,,,,,BR,OVC,500,,,,,,,IFR,-2.3,2.2,-0.6,,,,,0.005,,,,METAR,210.0
KBVY 021753Z 28007KT 10SM OVC017 03/M01 A3011 RMK AO2 SNE30 SLP193 P0000 60005 T00281006 10028 21006 56017,KBVY,2018-04-02T17:53:00Z,42.58,-70.92,2.8,-0.6,280,7,,10.0,30.109253,1019.3,,,TRUE,,,,,,,OVC,1700,,,,,,,MVFR,-1.7,2.8,-0.6,,,0.005,,,,,,SPECI,28.0
KBWG 021753Z AUTO 06006KT 10SM OVC010 08/07 A3004 RMK AO2 SLP171 60003 T00830067 10089 20050 58013,KBWG,2018-04-02T17:53:00Z,36.97,-86.42,8.3,6.7,60,6,,10.0,30.041338,1017.1,,TRUE,TRUE,,,,,,,OVC,1000,,,,,,,MVFR,-1.3,8.9,5.0,,,,,0.03,,,,METAR,168.0
KBYI 021753Z AUTO 25020G36KT 9SM -SN FEW027 OVC060 02/M05 A2977 RMK AO2 PK WND 26038/1655 RAB08E45UPB15E19SNE08B42 SLP084 P0000 60006 T00171050 10083 20006 53035,KBYI,2018-04-02T17:53:00Z,42.55,-113.77,1.7,-5.0,250,20,36,9.0,29.769686,1008.4,,TRUE,TRUE,,,,,,-SN,FEW,2700,OVC,6000,,,,,VFR,3.5,8.3,0.6,,,0.005,,,,,,SPECI,1264.0
KCAG 021753Z AUTO 26018G28KT 10SM CLR 15/M06 A2959 RMK AO2 PK WND 26028/1749 SLP981 T01501056 10156 20006 58019,KCAG,2018-04-02T17:53:00Z,40.5,-107.52,15.0,-5.6,260,18,28,10.0,29.589567,998.1,,TRUE,TRUE,,,,,,,CLR,,,,,,,,VFR,-1.9,15.6,0.6,,,,,,,,,SPECI,1887.0
KCCR 021753Z 28006KT 10SM CLR 18/09 A2991 RMK AO2 SLP115 T01830089 10183 20117 51005,KCCR,2018-04-02T17:53:00Z,38.0,-122.05,18.3,8.9,280,6,,10.0,29.911417,1011.5,,,TRUE,,,,,,,CLR,,,,,,,,VFR,0.5,18.3,11.7,,,,,,,,,SPECI,11.0
KCDC 021753Z AUTO 21019G24KT 10SM CLR 18/M07 A2978 RMK AO2 SLP025 T01781067 10189 20061 58009,KCDC,2018-04-02T17:53:00Z,37.7,-113.1,17.8,-6.7,210,19,24,10.0,29.778543,1002.5,,TRUE,TRUE,,,,,,,CLR,,,,,,,,VFR,-0.9,18.9,6.1,,,,,,,,,SPECI,1714.0
KCDR 021753Z AUTO 06007KT 10SM CLR 08/M01 A2948 RMK AO2 SLP997 T00781006 10083 20000 58016,KCDR,2018-04-02T17:53:00Z,42.83,-103.1,7.8,-0.6,60,7,,10.0,29.480314,999.7,,TRUE,TRUE,,,,,,,CLR,,,,,,,,VFR,-1.6,8.3,0.0,,,,,,,,,SPECI,1010.0
KCDS 021753Z AUTO 18012KT 10SM OVC021 11/01 A2982 RMK AO2 SLP096 T01060006 10106 20017 58030,KCDS,2018-04-02T17:53:00Z,34.43,-100.28,10.6,0.6,180,12,,10.0,29.819881,1009.6,,TRUE,TRUE,,,,,,,OVC,2100,,,,,,,MVFR,-3.0,10.6,1.7,,,,,,,,,SPECI,594.0
KPIL 021753Z AUTO 17024G35KT 5SM HZ SCT032 30/19 A2980 RMK AO2 PK WND 17038/1731 SLP092 T03000189 10300 20233 58012,KPIL,2018-04-02T17:53:00Z,26.17,-97.33,30.0,18.9,170,24,35,5.0,29.799213,1009.2,,TRUE,TRUE,,,,,,HZ,SCT,3200,,,,,,,MVFR,-1.2,30.0,23.3,,,,,,,,,SPECI,5.0
KCDW 021753Z AUTO 00000KT 10SM OVC021 03/M02 A3014 RMK AO2 SLP212 60004 T00281022 10028 21006 55008 $,KCDW,2018-04-02T17:53:00Z,40.88,-74.28,2.8,-2.2,0,0,,10.0,30.138779,1021.2,,TRUE,TRUE,TRUE,,,,,,OVC,2100,,,,,,,MVFR,-0.8,2.8,-0.6,,,,,,,,,SPECI,64.0
KCEW 021753Z AUTO 25009G16KT 10SM SCT048 BKN055 26/14 A3004 RMK AO2 SLP168 T02610144 10272 20122 58013,KCEW,2018-04-02T17:53:00Z,30.78,-86.52,26.1,14.4,250,9,16,10.0,30.041338,1016.8,,TRUE,TRUE,,,,,,,SCT,4800,BKN,5500,,,,,VFR,-1.3,27.2,12.2,,,,,,,,,METAR,55.0
KCEZ 021753Z AUTO 25018G23KT 10SM CLR 19/M13 A2981 RMK AO2 SLP045 T01891128 10189 21011 58015,KCEZ,2018-04-02T17:53:00Z,37.3,-108.63,18.9,-12.8,250,18,23,10.0,29.811024,1004.5,,TRUE,TRUE,,,,,,,CLR,,,,,,,,VFR,-1.5,18.9,-1.1,,,,,,,,,SPECI,1797.0
KCHA 021753Z 22007KT 190V250 10SM SCT050 SCT150 BKN200 24/11 A2997 RMK AO2 SLP141 T02440111 10244 20156 58010,KCHA,2018-04-02T17:53:00Z,35.03,-85.2,24.4,11.1,220,7,,10.0,29.970472,1014.1,,,TRUE,,,,,,,SCT,5000,SCT,15000,BKN,20000,,,VFR,-1.0,24.4,15.6,,,,,,,,,METAR,210.0
KCGI 021753Z 05007KT 10SM OVC010 05/02 A3002 RMK AO2 SLP166 T00500022 10050 20017 58020,KCGI,2018-04-02T17:53:00Z,37.23,-89.58,5.0,2.2,50,7,,10.0,30.02067,1016.6,,,TRUE,,,,,,,OVC,1000,,,,,,,MVFR,-2.0,5.0,1.7,,,,,,,,,METAR,102.0
KCLL 021753Z 16017KT 10SM CLR 26/19 A2985 RMK AO2 SLP105 T02560189 10256 20161 58020,KCLL,2018-04-02T17:53:00Z,30.58,-96.37,25.6,18.9,160,17,,10.0,29.84941,1010.5,,,TRUE,,,,,,,CLR,,,,,,,,VFR,-2.0,25.6,16.1,,,,,,,,,SPECI,96.0
KCLM 021753Z AUTO 31011G20KT 250V350 10SM CLR 09/M03 A3003 RMK AO2 SLP170 T00891028 10089 20017 51021,KCLM,2018-04-02T17:53:00Z,48.12,-123.5,8.9,-2.8,310,11,20,10.0,30.029528,1017.0,,TRUE,TRUE,,,,,,,CLR,,,,,,,,VFR,2.1,8.9,1.7,,,,,,,,,SPECI,85.0
KCMX 021753Z AUTO 30008KT 6SM -SN BKN025 OVC032 M03/M09 A2996 RMK AO2 SLP162 P0000 60000 T10331089 11033 21050 51007,KCMX,2018-04-02T17:53:00Z,47.17,-88.48,-3.3,-8.9,300,8,,6.0,29.958662,1016.2,,TRUE,TRUE,,,,,,-SN,BKN,2500,OVC,3200,,,,,MVFR,0.7,-3.3,-5.0,,,0.005,,,,,,SPECI,326.0
KCNM 021753Z AUTO 16010KT 10SM CLR 22/03 A2980 RMK AO2 SLP047 T02220033 10222 20072 58021,KCNM,2018-04-02T17:53:00Z,32.33,-104.25,22.2,3.3,160,10,,10.0,29.799213,1004.7,,TRUE,TRUE,,,,,,,CLR,,,,,,,,VFR,-2.1,22.2,7.2,,,,,,,,,SPECI,985.0
KCNO 021753Z 14004KT 6SM HZ OVC024 15/09 A2992 RMK AO2 SLP129 T01500089 10156 20128 50003,KCNO,2018-04-02T17:53:00Z,33.98,-117.62,15.0,8.9,140,4,,6.0,29.920275,1012.9,,,TRUE,,,,,,HZ,OVC,2400,,,,,,,MVFR,0.3,15.6,12.8,,,,,,,,,SPECI,207.0
KCNY 021753Z AUTO 25023G30KT 7SM CLR 23/M09 A2960 RMK AO2 PK WND 25034/1739 SLP975 T02281094 10228 20100 58019,KCNY,2018-04-02T17:53:00Z,38.77,-109.75,22.8,-9.4,250,23,30,7.0,29.601377,997.5,,TRUE,TRUE,,,,,,,CLR,,,,,,,,VFR,-1.9,22.8,10.0,,,,,,,,,SPECI,1390.0
KCOT 021753Z AUTO 16010G20KT 10SM SCT039 29/19 A2976 RMK AO2 SLP070 T02940189 10294 20217 58016,KCOT,2018-04-02T17:53:00Z,28.45,-99.22,29.4,18.9,160,10,20,10.0,29.760826,1007.0,,TRUE,TRUE,,,,,,,SCT,3900,,,,,,,VFR,-1.6,29.4,21.7,,,,,,,,,SPECI,140.0
KSDB 021753Z AUTO 35014G19KT 10SM CLR 14/06 A2993 RMK AO2 SLP097 T01390056 10144 20078 51006 $,KSDB,2018-04-02T17:53:00Z,34.75,-118.72,13.9,5.6,350,14,19,10.0,29.929134,1009.7,,TRUE,TRUE,TRUE,,,,,,CLR,,,,,,,,VFR,0.6,14.4,7.8,,,,,,,,,SPECI,1377.0
KP92 021753Z AUTO VRB04KT 26/21 RMK AO1 SLPNO T02560206 10256 20189 $,KP92,2018-04-02T17:53:00Z,29.57,-91.53,25.6,20.6,0,4,,,,,,TRUE,TRUE,TRUE,,,,,,,,,,,,,,,,25.6,18.9,,,,,,,,,METAR,1.0
KCRE 021753Z 19011KT 10SM CLR 21/15 A3001 RMK AO1 SLP161 T02110150 10222 20150 58011,KCRE,2018-04-02T17:53:00Z,33.82,-78.72,21.1,15.0,190,11,,10.0,30.008858,1016.1,,,TRUE,,,,,,,CLR,,,,,,,,VFR,-1.1,22.2,15.0,,,,,,,,,METAR,10.0
KCRG 021753Z 10009KT 10SM SCT034 25/20 A3005 RMK AO2 SLP174 T02500200 10278 20156 58010,KCRG,2018-04-02T17:53:00Z,30.33,-81.52,25.0,20.0,100,9,,10.0,30.050198,1017.4,,,TRUE,,,,,,,SCT,3400,,,,,,,VFR,-1.0,27.8,15.6,,,,,,,,,METAR,13.0
KCRQ 021753Z AUTO 21005KT 10SM OVC022 16/11 A2989 RMK AO2 SLP121 T01560111 10156 20144 51005,KCRQ,2018-04-02T17:53:00Z,33.13,-117.28,15.6,11.1,210,5,,10.0,29.890747,1012.1,,TRUE,TRUE,,,,,,,OVC,2200,,,,,,,MVFR,0.5,15.6,14.4,,,,,,,,,SPECI,99.0
KCRS 021753Z AUTO 07005KT 8SM OVC008 11/08 A2991 RMK AO2 SLP128 60000 T01110078 10111 20078 58013,KCRS,2018-04-02T17:53:00Z,32.03,-96.4,11.1,7.8,70,5,,8.0,29.911417,1012.8,,TRUE,TRUE,,,,,,,OVC,800,,,,,,,IFR,-1.3,11.1,7.8,,,,,,,,,SPECI,133.0
KCSM 021753Z 18018KT 10SM OVC026 06/00 A2980 RMK AO2 SLP098 T00560000 10056 21017 58030,KCSM,2018-04-02T17:53:00Z,35.35,-99.2,5.6,0.0,180,18,,10.0,29.799213,1009.8,,,TRUE,,,,,,,OVC,2600,,,,,,,MVFR,-3.0,5.6,-1.7,,,,,,,,,METAR,588.0
KCSV 021753Z AUTO 23007KT 10SM BKN018 16/11 A3001 RMK AO2 SLP152 T01560106 10161 20089 58007,KCSV,2018-04-02T17:53:00Z,35.95,-85.08,15.6,10.6,230,7,,10.0,30.008858,1015.2,,TRUE,TRUE,,,,,,,BKN,1800,,,,,,,MVFR,-0.7,16.1,8.9,,,,,,,,,METAR,570.0
KCUB 021753Z AUTO 22007KT 10SM CLR 27/09 A2999 RMK AO2 SLP153 T02720094 10272 20122 58015,KCUB,2018-04-02T17:53:00Z,33.97,-81.0,27.2,9.4,220,7,,10.0,29.991142,1015.3,,TRUE,TRUE,,,,,,,CLR,,,,,,,,VFR,-1.5,27.2,12.2,,,,,,,,,METAR,56.0
KCUT 021753Z AUTO 11007KT 10SM SCT036 05/M02 A2945 RMK AO2 SLP975 T00501022 10056 21006 56003,KCUT,2018-04-02T17:53:00Z,43.73,-103.62,5.0,-2.2,110,7,,10.0,29.450787,997.5,,TRUE,TRUE,,,,,,,SCT,3600,,,,,,,VFR,-0.3,5.6,-0.6,,,,,,,,,SPECI,1725.0
KDTW 021753Z 18005KT 10SM BKN240 05/M09 A3012 RMK AO2 SLP206 T00501089 10050 21039 58012,KDTW,2018-04-02T17:53:00Z,42.23,-83.33,5.0,-8.9,180,5,,10.0,30.121063,1020.6,,,TRUE,,,,,,,BKN,24000,,,,,,,VFR,-1.2,5.0,-3.9,,,,,,,,,SPECI,195.0
KDUJ 021753Z AUTO 23007KT 10SM BKN031 03/M02 A3005 RMK AO2 SLP193 T00281022 10033 21017 58006 TSNO,KDUJ,2018-04-02T17:53:00Z,41.17,-78.9,2.8,-2.2,230,7,,10.0,30.050198,1019.3,,TRUE,TRUE,,,TRUE,,,,BKN,3100,,,,,,,VFR,-0.6,3.3,-1.7,,,,,,,,,SPECI,554.0
KDVT 021753Z 13008KT 10SM CLR 25/M09 A2979 RMK AO2 SLP066 T02501089 10250 20161 50000,KDVT,2018-04-02T17:53:00Z,33.68,-112.07,25.0,-8.9,130,8,,10.0,29.790354,1006.6,,,TRUE,,,,,,,CLR,,,,,,,,VFR,0.0,25.0,16.1,,,,,,,,,SPECI,443.0
KDWH 021753Z 20009G17KT 10SM SCT037 BKN049 27/18 A2989 RMK AO2 SLP120 T02720183 10278 20200 58014,KDWH,2018-04-02T17:53:00Z,30.07,-95.55,27.2,18.3,200,9,17,10.0,29.890747,1012.0,,,TRUE,,,,,,,SCT,3700,BKN,4900,,,,,VFR,-1.4,27.8,20.0,,,,,,,,,SPECI,46.0
KDXR 021753Z VRB04KT 10SM BKN013 OVC021 02/M02 A3012 RMK AO2 SLP202 60012 T00171022 10017 21011 58008 $,KDXR,2018-04-02T17:53:00Z,41.37,-73.48,1.7,-2.2,0,4,,10.0,30.121063,1020.2,,,TRUE,TRUE,,,,,,BKN,1300,OVC,2100,,,,,MVFR,-0.8,1.7,-1.1,,,,,,,,,SPECI,139.0
KECP 021753Z 15010KT 10SM SCT018 BKN024 BKN034 23/19 A3005 RMK AO2 SLP186 T02330189 10244 20150 58004,KECP,2018-04-02T17:53:00Z,30.35,-85.8,23.3,18.9,150,10,,10.0,30.050198,1018.6,,,TRUE,,,,,,,SCT,1800,BKN,2400,BKN,3400,,,MVFR,-0.4,24.4,15.0,,,,,,,,,METAR,21.0
KEEO 021753Z AUTO 24018G28KT 10SM CLR 16/M09 A2962 RMK AO2 PK WND 24036/1728 SLP974 T01611094 10161 20111 58019,KEEO,2018-04-02T17:53:00Z,40.05,-107.88,16.1,-9.4,240,18,28,10.0,29.619095,997.4,,TRUE,TRUE,,,,,,,CLR,,,,,,,,VFR,-1.9,16.1,11.1,,,,,,,,,SPECI,1930.0
KEET 021753Z AUTO 18009G14KT 10SM CLR 24/15 A3001 RMK AO2 SLP157 T02390150 10244 20106 58007,KEET,2018-04-02T17:53:00Z,33.18,-86.78,23.9,15.0,180,9,14,10.0,30.008858,1015.7,,TRUE,TRUE,,,,,,,CLR,,,,,,,,VFR,-0.7,24.4,10.6,,,,,,,,,METAR,173.0
KELM 021753Z 27007KT 10SM CLR 07/M05 A3007 RMK AO2 SLP191 T00671050 10067 21011 58009,KELM,2018-04-02T17:53:00Z,42.15,-76.9,6.7,-5.0,270,7,,10.0,30.070866,1019.1,,,TRUE,,,,,,,CLR,,,,,,,,VFR,-0.9,6.7,-1.1,,,,,,,,,SPECI,302.0
KELN 021753Z AUTO 30030G39KT 10SM CLR 07/M06 A2988 RMK AO2 PK WND 30040/1741 SLP129 T00671061 10067 21033 50017,KELN,2018-04-02T17:53:00Z,47.03,-120.53,6.7,-6.1,300,30,39,10.0,29.878937,1012.9,,TRUE,TRUE,,,,,,,CLR,,,,,,,,VFR,1.7,6.7,-3.3,,,,,,,,,SPECI,519.0
KELY 021753Z AUTO 24011G19KT 10SM FEW120 13/M07 A2980 RMK AO2 SLP038 T01281067 10133 21017 58007,KELY,2018-04-02T17:53:00Z,39.3,-114.85,12.8,-6.7,240,11,19,10.0,29.799213,1003.8,,TRUE,TRUE,,,,,,,FEW,12000,,,,,,,VFR,-0.7,13.3,-1.7,,,,,,,,,SPECI,1906.0
KEMP 021753Z AUTO 15011KT 8SM OVC005 00/M01 A2982 RMK AO2 SLP114 I6001 T00001011 10000 21044 58035,KEMP,2018-04-02T17:53:00Z,38.33,-96.2,0.0,-1.1,150,11,,8.0,29.819881,1011.4,,TRUE,TRUE,,,,,,,OVC,500,,,,,,,IFR,-3.5,0.0,-4.4,,,,,,,,,METAR,367.0
KENW 021753Z 14009KT 10SM CLR 03/M10 A3007 RMK AO2 SLP190 T00331100 10039 21067 56015,KENW,2018-04-02T17:53:00Z,42.6,-87.93,3.3,-10.0,140,9,,10.0,30.070866,1019.0,,,TRUE,,,,,,,CLR,,,,,,,,VFR,-1.5,3.9,-6.7,,,,,,,,,SPECI,219.0
KEPH 021753Z AUTO 33016G19KT 10SM BKN120 08/M08 A2987 RMK AO2 WSHFT 1656 SLP122 T00781078 10078 21017 53022,KEPH,2018-04-02T17:53:00Z,47.3,-119.52,7.8,-7.8,330,16,19,10.0,29.870079,1012.2,,TRUE,TRUE,,,,,,,BKN,12000,,,,,,,VFR,2.2,7.8,-1.7,,,,,,,,,SPECI,383.0
KEQY 021753Z AUTO 25013G19KT 10SM CLR 27/06 A2995 RMK AO2 SLP143 T02720056 10272 20139 58008,KEQY,2018-04-02T17:53:00Z,35.02,-80.62,27.2,5.6,250,13,19,10.0,29.949802,1014.3,,TRUE,TRUE,,,,,,,CLR,,,,,,,,VFR,-0.8,27.2,13.9,,,,,,,,,METAR,212.0
KESF 021753Z AUTO VRB06KT 10SM FEW034 BKN060 27/18 A2996 RMK AO2 SLP141 T02670183 10267 20183 58013,KESF,2018-04-02T17:53:00Z,31.4,-92.28,26.7,18.3,0,6,,10.0,29.958662,1014.1,,TRUE,TRUE,,,,,,,FEW,3400,BKN,6000,,,,,VFR,-1.3,26.7,18.3,,,,,,,,,METAR,28.0
KEVW 021753Z AUTO 24035G44KT 10SM BKN065 BKN075 09/M04 A2961 RMK AO2 PK WND 24045/1743 SLP978 T00891044 10106 20044 58018,KEVW,2018-04-02T17:53:00Z,41.27,-111.03,8.9,-4.4,240,35,44,10.0,29.610237,997.8,,TRUE,TRUE,,,,,,,BKN,6500,BKN,7500,,,,,VFR,-1.8,10.6,4.4,,,,,,,,,SPECI,2177.0
KEYE 021753Z AUTO A3007 RMK AO2 SLPNO 10044 21017 58021 PWINO FZRANO $,KEYE,2018-04-02T17:53:00Z,39.83,-86.3,,,,,,,30.070866,,,TRUE,TRUE,TRUE,,,TRUE,TRUE,,,,,,,,,,,-2.1,4.4,-1.7,,,,,,,,,SPECI,248.0
KEYW 021753Z 09009KT 10SM CLR 27/20 A3003 RMK AO2 SLP169 T02720200 10278 20233 58007,KEYW,2018-04-02T17:53:00Z,24.55,-81.75,27.2,20.0,90,9,,10.0,30.029528,1016.9,,,TRUE,,,,,,,CLR,,,,,,,,VFR,-0.7,27.8,23.3,,,,,,,,,METAR,5.0
KFAT 021753Z 31006KT 10SM FEW120 BKN200 20/10 A2988 RMK AO2 SLP115 T02000100 10200 20122 51009,KFAT,2018-04-02T17:53:00Z,36.78,-119.72,20.0,10.0,310,6,,10.0,29.878937,1011.5,,,TRUE,,,,,,,FEW,12000,BKN,20000,,,,,VFR,0.9,20.0,12.2,,,,,,,,,SPECI,104.0
KFAY 021753Z 25010KT 10SM CLR 28/08 A2995 RMK AO2 SLP136 T02780083 10278 20150 57014,KFAY,2018-04-02T17:53:00Z,34.98,-78.88,27.8,8.3,250,10,,10.0,29.949802,1013.6,,,TRUE,,,,,,,CLR,,,,,,,,VFR,-1.4,27.8,15.0,,,,,,,,,METAR,55.0
KFDY 021753Z AUTO VRB04KT 10SM CLR 04/M09 A3012 RMK AO2 SLP204 I6000 T00391094 10039 21039 58007 $,KFDY,2018-04-02T17:53:00Z,41.02,-83.67,3.9,-9.4,0,4,,10.0,30.121063,1020.4,,TRUE,TRUE,TRUE,,,,,,CLR,,,,,,,,VFR,-0.7,3.9,-3.9,,,,,,,,,SPECI,247.0
KFFC 021753Z AUTO 26007KT 10SM CLR 25/04 A3001 RMK AO2 SLP158 T02500044 10261 20094 58009,KFFC,2018-04-02T17:53:00Z,33.35,-84.57,25.0,4.4,260,7,,10.0,30.008858,1015.8,,TRUE,TRUE,,,,,,,CLR,,,,,,,,VFR,-0.9,26.1,9.4,,,,,,,,,METAR,262.0
KFFT 021753Z AUTO 07008KT 10SM OVC013 07/02 A3007 RMK AO2 SLP185 T00670022 10067 20028 58010,KFFT,2018-04-02T17:53:00Z,38.18,-84.9,6.7,2.2,70,8,,10.0,30.070866,1018.5,,TRUE,TRUE,,,,,,,OVC,1300,,,,,,,MVFR,-1.0,6.7,2.8,,,,,,,,,METAR,236.0
KFHR 021753Z AUTO 26006KT 10SM FEW050 08/M04 A3005 RMK AO2 SLP174 T00831044 10089 20033 53023,KFHR,2018-04-02T17:53:00Z,48.52,-123.03,8.3,-4.4,260,6,,10.0,30.050198,1017.4,,TRUE,TRUE,,,,,,,FEW,5000,,,,,,,VFR,2.3,8.9,3.3,,,,,,,,,SPECI,32.0
KFLL 021753Z 13010KT 10SM FEW025 FEW035 28/20 A3003 RMK AO2 SLP170 T02780200 10278 20222 58010,KFLL,2018-04-02T17:53:00Z,26.07,-80.15,27.8,20.0,130,10,,10.0,30.029528,1017.0,,,TRUE,,,,,,,FEW,2500,FEW,3500,,,,,VFR,-1.0,27.8,22.2,,,,,,,,,SPECI,3.0
KFLO 021753Z 23012KT 10SM CLR 28/09 A2997 RMK AO2 SLP147 T02780089 10278 20139 58015,KFLO,2018-04-02T17:53:00Z,34.18,-79.73,27.8,8.9,230,12,,10.0,29.970472,1014.7,,,TRUE,,,,,,,CLR,,,,,,,,VFR,-1.5,27.8,13.9,,,,,,,,,METAR,44.0
KFMN 021753Z 27011G21KT 10SM CLR 19/M11 A2979 RMK AO2 SLP051 T01941106 10194 21011 58020,KFMN,2018-04-02T17:53:00Z,36.75,-108.23,19.4,-10.6,270,11,21,10.0,29.790354,1005.1,,,TRUE,,,,,,,CLR,,,,,,,,VFR,-2.0,19.4,-1.1,,,,,,,,,SPECI,1685.0
KFMY 021753Z VRB05KT 10SM FEW050 29/16 A3002 RMK AO2 SLP168 T02940161 10294 20206 58015,KFMY,2018-04-02T17:53:00Z,26.58,-81.87,29.4,16.1,0,5,,10.0,30.02067,1016.8,,,TRUE,,,,,,,FEW,5000,,,,,,,VFR,-1.5,29.4,20.6,,,,,,,,,METAR,4.0
KFNT 021753Z 23007KT 10SM CLR 04/M08 A3008 RMK AO2 SLP196 T00441078 10044 21061 58014,KFNT,2018-04-02T17:53:00Z,42.97,-83.75,4.4,-7.8,230,7,,10.0,30.079725,1019.6,,,TRUE,,,,,,,CLR,,,,,,,,VFR,-1.4,4.4,-6.1,,,,,,,,,SPECI,233.0
KFOE 021753Z 13010KT 5SM BR OVC006 00/M02 A2985 RMK AO2 PRESFR SLP117 I6000 T00001017 10000 21039 58025,KFOE,2018-04-02T17:53:00Z,38.93,-95.65,0.0,-1.7,130,10,,5.0,29.84941,1011.7,,,TRUE,,,,,,BR,OVC,600,,,,,,,IFR,-2.5,0.0,-3.9,,,,,,,,,METAR,320.0
KFOK 021753Z 01009KT 10SM OVC010 03/M01 A3011 RMK AO2 SLP198 60028 T00281006 10028 20000 55008,KFOK,2018-04-02T17:53:00Z,40.85,-72.62,2.8,-0.6,10,9,,10.0,30.109253,1019.8,,,TRUE,,,,,,,OVC,1000,,,,,,,MVFR,-0.8,2.8,0.0,,,,,,,,,SPECI,33.0
KFPR 021753Z 12011KT 10SM CLR 28/17 A3004 RMK AO2 SLP172 T02780172 10278 20167 58014,KFPR,2018-04-02T17:53:00Z,27.5,-80.38,27.8,17.2,120,11,,10.0,30.041338,1017.2,,,TRUE,,,,,,,CLR,,,,,,,,VFR,-1.4,27.8,16.7,,,,,,,,,METAR,13.0
KFSM 021753Z 09010KT 7SM OVC003 07/07 A2990 RMK AO2 SLP127 T00720067 10072 20056 58022,KFSM,2018-04-02T17:53:00Z,35.33,-94.37,7.2,6.7,90,10,,7.0,29.899607,1012.7,,,TRUE,,,,,,,OVC,300,,,,,,,LIFR,-2.2,7.2,5.6,,,,,,,,,METAR,140.0
KFST 021753Z AUTO 00000KT 10SM CLR 25/08 A2984 RMK AO2 SLP059 T02500078 10250 20083 58016,KFST,2018-04-02T17:53:00Z,30.92,-102.92,25.0,7.8,0,0,,10.0,29.840551,1005.9,,TRUE,TRUE,,,,,,,CLR,,,,,,,,VFR,-1.6,25.0,8.3,,,,,,,,,SPECI,918.0
KFTW 021753Z 07003KT 10SM OVC007 08/06 A2991 RMK AO2 SLP127 60000 T00780056 10078 20050 58017,KFTW,2018-04-02T17:53:00Z,32.83,-97.37,7.8,5.6,70,3,,10.0,29.911417,1012.7,,,TRUE,,,,,,,OVC,700,,,,,,,IFR,-1.7,7.8,5.0,,,,,,,,,SPECI,214.0
KFTY 021753Z 22008KT 10SM CLR 26/06 A2999 RMK AO2 SLP150 T02560061 10256 20117 58010,KFTY,2018-04-02T17:53:00Z,33.78,-84.52,25.6,6.1,220,8,,10.0,29.991142,1015.0,,,TRUE,,,,,,,CLR,,,,,,,,VFR,-1.0,25.6,11.7,,,,,,,,,METAR,263.0
KFVE 021753Z AUTO 28008KT 10SM OVC055 M01/M13 A2999 RMK AO2 SLP169 T10061128 11006 21067 56013,KFVE,2018-04-02T17:53:00Z,47.28,-68.3,-0.6,-12.8,280,8,,10.0,29.991142,1016.9,,TRUE,TRUE,,,,,,,OVC,5500,,,,,,,VFR,-1.3,-0.6,-6.7,,,,,,,,,SPECI,301.0
KFXE 021753Z 13010KT 10SM SCT034 28/18 A3004 RMK AO2 SLP174 T02830178 10283 20217 58012,KFXE,2018-04-02T17:53:00Z,26.2,-80.18,28.3,17.8,130,10,,10.0,30.041338,1017.4,,,TRUE,,,,,,,SCT,3400,,,,,,,VFR,-1.2,28.3,21.7,,,,,,,,,METAR,6.0
KFYV 021753Z 19004KT 10SM OVC008 09/08 A2987 RMK AO2 SLP116 T00940083 10094 20033 58021,KFYV,2018-04-02T17:53:00Z,36.02,-94.17,9.4,8.3,190,4,,10.0,29.870079,1011.6,,,TRUE,,,,,,,OVC,800,,,,,,,IFR,-2.1,9.4,3.3,,,,,,,,,METAR,379.0
KGAG 021753Z AUTO 20018G25KT CLR 11/00 A2971 RMK AO2 SLP065 T01110000 10111 21039 58037,KGAG,2018-04-02T17:53:00Z,36.3,-99.77,11.1,0.0,200,18,25,,29.71063,1006.5,,TRUE,TRUE,,,,,,,CLR,,,,,,,,,-3.7,11.1,-3.9,,,,,,,,,METAR,668.0
KGEG 021753Z 23014G22KT 10SM SCT045 SCT080 BKN170 03/M06 A2981 RMK AO2 SLP109 T00281061 10028 21028 53025,KGEG,2018-04-02T17:53:00Z,47.62,-117.53,2.8,-6.1,230,14,22,10.0,29.811024,1010.9,,,TRUE,,,,,,,SCT,4500,SCT,8000,BKN,17000,,,VFR,2.5,2.8,-2.8,,,,,,,,,SPECI,735.0
KGEY 021753Z AUTO 32007KT 4SM -SN BR SCT009 BKN016 OVC027 02/01 A2949 RMK AO2 SLP004 P0000 6//// T00170011 10017 20000,KGEY,2018-04-02T17:53:00Z,44.52,-108.08,1.7,1.1,320,7,,4.0,29.489174,1000.4,,TRUE,TRUE,,,,,,-SN BR,SCT,900,BKN,1600,OVC,2700,,,MVFR,,1.7,0.0,,,0.005,,,,,,SPECI,1191.0
KGFK 021753Z 03015KT 10SM SCT170 BKN220 M09/M14 A2998 RMK AO2 SLP172 4/005 933010 T10891139 11089 21122 58001,KGFK,2018-04-02T17:53:00Z,47.95,-97.18,-8.9,-13.9,30,15,,10.0,29.97933,1017.2,,,TRUE,,,,,,,SCT,17000,BKN,22000,,,,,VFR,-0.1,-8.9,-12.2,,,,,,,5.0,,SPECI,258.0
KGGG 021753Z 13004KT 10SM BKN049 23/19 A2990 RMK AO2 SLP120 T02280194 10228 20128 58014,KGGG,2018-04-02T17:53:00Z,32.38,-94.72,22.8,19.4,130,4,,10.0,29.899607,1012.0,,,TRUE,,,,,,,BKN,4900,,,,,,,VFR,-1.4,22.8,12.8,,,,,,,,,SPECI,107.0
KGIF 021753Z AUTO VRB03KT 10SM FEW044 27/18 A3005 RMK AO2 SLP174 T02720178 10278 20206 58013,KGIF,2018-04-02T17:53:00Z,28.07,-81.75,27.2,17.8,0,3,,10.0,30.050198,1017.4,,TRUE,TRUE,,,,,,,FEW,4400,,,,,,,VFR,-1.3,27.8,20.6,,,,,,,,,METAR,43.0
KGJT 021753Z 26016G24KT 10SM CLR 21/M08 A2962 RMK AO2 PK WND 26026/1736 SLP979 T02111078 10211 20061 58020,KGJT,2018-04-02T17:53:00Z,39.12,-108.52,21.1,-7.8,260,16,24,10.0,29.619095,997.9,,,TRUE,,,,,,,CLR,,,,,,,,VFR,-2.0,21.1,6.1,,,,,,,,,SPECI,1475.0
KGKJ 021753Z AUTO 00000KT 10SM FEW041 04/M06 A3008 RMK AO2 SLP200 T00391056 10050 21006 58005,KGKJ,2018-04-02T17:53:00Z,41.63,-80.22,3.9,-5.6,0,0,,10.0,30.079725,1020.0,,TRUE,TRUE,,,,,,,FEW,4100,,,,,,,VFR,-0.5,5.0,-0.6,,,,,,,,,SPECI,428.0
KGLD 021753Z AUTO 18016G23KT 10SM CLR 16/M03 A2950 RMK AO2 SLP986 T01611028 10161 21061 58020,KGLD,2018-04-02T17:53:00Z,39.37,-101.7,16.1,-2.8,180,16,23,10.0,29.500984,998.6,,TRUE,TRUE,,,,,,,CLR,,,,,,,,VFR,-2.0,16.1,-6.1,,,,,,,,,METAR,1113.0
KGLH 021753Z 04003KT 10SM OVC010 14/11 A2998 RMK AO2 SLP159 T01440106 10144 20089 58008,KGLH,2018-04-02T17:53:00Z,33.5,-90.98,14.4,10.6,40,3,,10.0,29.97933,1015.9,,,TRUE,,,,,,,OVC,1000,,,,,,,MVFR,-0.8,14.4,8.9,,,,,,,,,METAR,45.0
KGLR 021753Z AUTO 27007G15KT 10SM CLR 00/M13 A2999 RMK AO2 SLP176 T00001128 10000 21111 58006,KGLR,2018-04-02T17:53:00Z,45.02,-84.68,0.0,-12.8,270,7,15,10.0,29.991142,1017.6,,TRUE,TRUE,,,,,,,CLR,,,,,,,,VFR,-0.6,0.0,-11.1,,,,,,,,,SPECI,407.0
KGMU 021753Z 22012KT 10SM CLR 26/07 A2997 RMK AO2 SLP140 T02560072 10256 20156 58006,KGMU,2018-04-02T17:53:00Z,34.85,-82.35,25.6,7.2,220,12,,10.0,29.970472,1014.0,,,TRUE,,,,,,,CLR,,,,,,,,VFR,-0.6,25.6,15.6,,,,,,,,,METAR,315.0
KGNV 021753Z VRB03KT 10SM SCT040 SCT050 SCT080 28/17 A3007 RMK AO2 SLP180 T02830167 10283 20150 58011,KGNV,2018-04-02T17:53:00Z,29.7,-82.28,28.3,16.7,0,3,,10.0,30.070866,1018.0,,,TRUE,,,,,,,SCT,4000,SCT,5000,SCT,8000,,,VFR,-1.1,28.3,15.0,,,,,,,,,METAR,45.0
KGPT 021753Z 17008KT 10SM CLR 26/18 A3002 RMK AO2 SLP166 T02560183 10256 20156 50000,KGPT,2018-04-02T17:53:00Z,30.42,-89.08,25.6,18.3,170,8,,10.0,30.02067,1016.6,,,TRUE,,,,,,,CLR,,,,,,,,VFR,0.0,25.6,15.6,,,,,,,,,METAR,14.0
KGRB 021753Z 23007KT 10SM CLR 02/M08 A3004 RMK AO2 SLP181 T00221078 10022 21061 58012,KGRB,2018-04-02T17:53:00Z,44.48,-88.13,2.2,-7.8,230,7,,10.0,30.041338,1018.1,,,TRUE,,,,,,,CLR,,,,,,,,VFR,-1.2,2.2,-6.1,,,,,,,,,SPECI,208.0
KMPO 021753Z AUTO VRB04KT 10SM OVC023 01/M03 A3004 RMK AO2 SLP193 60003 T00111033 10017 21022 56004,KMPO,2018-04-02T17:53:00Z,41.13,-75.38,1.1,-3.3,0,4,,10.0,30.041338,1019.3,,TRUE,TRUE,,,,,,,OVC,2300,,,,,,,MVFR,-0.4,1.7,-2.2,,,,,,,,,SPECI,577.0
KMRB 021753Z 33005KT 10SM OVC022 07/02 A3011 RMK AO2 SLP200 T00670022 10072 20017 58000,KMRB,2018-04-02T17:53:00Z,39.4,-77.98,6.7,2.2,330,5,,10.0,30.109253,1020.0,,,TRUE,,,,,,,OVC,2200,,,,,,,MVFR,0.0,7.2,1.7,,,,,,,,,SPECI,164.0
KMSL 021753Z AUTO VRB03KT 10SM CLR 20/12 A3000 RMK AO2 SLP154 T02000122 10211 20111 58006,KMSL,2018-04-02T17:53:00Z,34.75,-87.6,20.0,12.2,0,3,,10.0,30.0,1015.4,,TRUE,TRUE,,,,,,,CLR,,,,,,,,VFR,-0.6,21.1,11.1,,,,,,,,,METAR,164.0
KMSN 021753Z 20007KT 10SM BKN110 OVC200 02/M11 A3004 RMK AO2 SLP181 T00171106 10022 21083 58013,KMSN,2018-04-02T17:53:00Z,43.13,-89.35,1.7,-10.6,200,7,,10.0,30.041338,1018.1,,,TRUE,,,,,,,BKN,11000,OVC,20000,,,,,VFR,-1.3,2.2,-8.3,,,,,,,,,SPECI,261.0
KMSS 021753Z AUTO 22015G21KT 10SM BKN060 06/M07 A3009 RMK AO2 SLP195 T00561067 10056 21028 58012 TSNO,KMSS,2018-04-02T17:53:00Z,44.93,-74.85,5.6,-6.7,220,15,21,10.0,30.088583,1019.5,,TRUE,TRUE,,,TRUE,,,,BKN,6000,,,,,,,VFR,-1.2,5.6,-2.8,,,,,,,,,SPECI,66.0
KMSY 021753Z VRB06KT 10SM SCT037 BKN050 27/19 A3001 RMK AO2 SLP164 T02670189 10272 20178 58004,KMSY,2018-04-02T17:53:00Z,30.0,-90.25,26.7,18.9,0,6,,10.0,30.008858,1016.4,,,TRUE,,,,,,,SCT,3700,BKN,5000,,,,,VFR,-0.4,27.2,17.8,,,,,,,,,METAR,5.0
KMTH 021753Z AUTO 09009KT 10SM CLR 28/18 A3003 RMK AO2 SLP167 T02830183 10294 20244 58010,KMTH,2018-04-02T17:53:00Z,24.73,-81.05,28.3,18.3,90,9,,10.0,30.029528,1016.7,,TRUE,TRUE,,,,,,,CLR,,,,,,,,VFR,-1.0,29.4,24.4,,,,,,,,,METAR,2.0
KMTJ 021753Z AUTO 27020G25KT 10SM CLR 19/M13 A2971 RMK AO2 SLP999 T01941128 10194 20100 58017,KMTJ,2018-04-02T17:53:00Z,38.5,-107.9,19.4,-12.8,270,20,25,10.0,29.71063,999.9,,TRUE,TRUE,,,,,,,CLR,,,,,,,,VFR,-1.7,19.4,10.0,,,,,,,,,SPECI,1750.0
PABT 021753Z 31004KT 10SM FEW090 BKN110 M10/M19 A3063 RMK AO2 SLP392 4/036 T11001189 11089 21111 58013,PABT,2018-04-02T17:53:00Z,66.92,-151.52,-10.0,-18.9,310,4,,10.0,30.628937,1039.2,,,TRUE,,,,,,,FEW,9000,BKN,11000,,,,,VFR,-1.3,-8.9,-11.1,,,,,,,36.0,,METAR,195.0
PACV 021753Z 36015G22KT 10SM CLR 04/M17 A3022 RMK AO2 SLP232 T00391172 10039 20022 58003,PACV,2018-04-02T17:53:00Z,60.5,-145.47,3.9,-17.2,360,15,22,10.0,30.221457,1023.2,,,TRUE,,,,,,,CLR,,,,,,,,VFR,-0.3,3.9,2.2,,,,,,,,,METAR,12.0
PADE 021753Z AUTO 26004KT 10SM CLR M12/M16 A3065 RMK AO2 SLP378 T11221156 11067 21139 56016 TSNO $,PADE,2018-04-02T17:53:00Z,66.07,-162.77,-12.2,-15.6,260,4,,10.0,30.649607,1037.8,,TRUE,TRUE,TRUE,,TRUE,,,,CLR,,,,,,,,VFR,-1.6,-6.7,-13.9,,,,,,,,,METAR,5.0
PAEN 021753Z 02019G25KT 10SM CLR 00/M09 A3035 RMK AO2 PK WND 02026/1748 SLP280 T00001094 10006 21028 58007,PAEN,2018-04-02T17:53:00Z,60.57,-151.25,0.0,-9.4,20,19,25,10.0,30.351377,1028.0,,,TRUE,,,,,,,CLR,,,,,,,,VFR,-0.7,0.6,-2.8,,,,,,,,,METAR,27.0
PAFA 021753Z 09003KT 10SM CLR M10/M18 A3059 RMK AO2 SLP370 T11001178 11094 21189 58008,PAFA,2018-04-02T17:53:00Z,64.8,-147.85,-10.0,-17.8,90,3,,10.0,30.590551,1037.0,,,TRUE,,,,,,,CLR,,,,,,,,VFR,-0.8,-9.4,-18.9,,,,,,,,,METAR,132.0
PAGK 021753Z AUTO 01016G22KT 10SM CLR M04/M16 A3035 RMK AO2 SLP313 T10391161 11039 21083 58007 TSNO,PAGK,2018-04-02T17:53:00Z,62.15,-145.45,-3.9,-16.1,10,16,22,10.0,30.351377,1031.3,,TRUE,TRUE,,,TRUE,,,,CLR,,,,,,,,VFR,-0.7,-3.9,-8.3,,,,,,,,,METAR,481.0
PAGY 021753Z AUTO 05016G22KT 10SM BKN070 01/M13 A3017 RMK AO2 SLP215 T00061128 10006 20000 56003 TSNO,PAGY,2018-04-02T17:53:00Z,59.47,-135.3,0.6,-12.8,50,16,22,10.0,30.171259,1021.5,,TRUE,TRUE,,,TRUE,,,,BKN,7000,,,,,,,VFR,-0.3,0.6,0.0,,,,,,,,,METAR,5.0
PAHO 021753Z 08012KT 10SM CLR 02/M09 A3033 RMK AO2 SLP271 T00221094 10022 21006 58004,PAHO,2018-04-02T17:53:00Z,59.63,-151.47,2.2,-9.4,80,12,,10.0,30.33071,1027.1,,,TRUE,,,,,,,CLR,,,,,,,,VFR,-0.4,2.2,-0.6,,,,,,,,,METAR,28.0
PAIL 021753Z 01007KT 10SM CLR M01/M07 A3038 RMK AO2 SLP291 4/007 T10111067 11006 21033 56001,PAIL,2018-04-02T17:53:00Z,59.75,-154.92,-1.1,-6.7,10,7,,10.0,30.380905,1029.1,,,TRUE,,,,,,,CLR,,,,,,,,VFR,-0.1,-0.6,-3.3,,,,,,,7.0,,METAR,49.0
PAJN 021753Z 08007KT 030V100 10SM FEW070 BKN110 OVC200 02/M12 A3001 RMK AO2 SLP163 T00171122 10022 21006 58001,PAJN,2018-04-02T17:53:00Z,58.35,-134.58,1.7,-12.2,80,7,,10.0,30.008858,1016.3,,,TRUE,,,,,,,FEW,7000,BKN,11000,OVC,20000,,,VFR,-0.1,2.2,-0.6,,,,,,,,,METAR,5.0
PAKT 021753Z 00000KT 10SM FEW036 FEW060 OVC080 03/M02 A2990 RMK AO2 SLP127 HARBOR WIND 09009KT T00281017 10033 20006 56005,PAKT,2018-04-02T17:53:00Z,55.35,-131.7,2.8,-1.7,0,0,,10.0,29.899607,1012.7,,,TRUE,,,,,,,FEW,3600,FEW,6000,OVC,8000,,,VFR,-0.5,3.3,0.6,,,,,,,,,METAR,28.0
PAKV 021753Z AUTO 00000KT 10SM CLR M12/M16 A3069 RMK AO2 UPB38E52 SLP399 P0000 60000 T11171156 11117 21161 58013 TSNO,PAKV,2018-04-02T17:53:00Z,64.33,-158.75,-11.7,-15.6,0,0,,10.0,30.690945,1039.9,,TRUE,TRUE,,,TRUE,,,,CLR,,,,,,,,VFR,-1.3,-11.7,-16.1,,,0.005,,0.005,,,,METAR,61.0
PALH 021753Z 35011KT 10SM CLR M01/M09 A3034 RMK AO2 SLP275 T10061094 10000 21022 58002,PALH,2018-04-02T17:53:00Z,61.18,-149.97,-0.6,-9.4,350,11,,10.0,30.339567,1027.5,,,TRUE,,,,,,,CLR,,,,,,,,VFR,-0.2,0.0,-2.2,,,,,,,,,METAR,22.0
PAMC 021753Z AUTO 36005KT 10SM CLR M04/M13 A3056 RMK AO2 SLP357 T10391128 11039 21067 56009 TSNO,PAMC,2018-04-02T17:53:00Z,62.97,-155.62,-3.9,-12.8,360,5,,10.0,30.561024,1035.7,,TRUE,TRUE,,,TRUE,,,,CLR,,,,,,,,VFR,-0.9,-3.9,-6.7,,,,,,,,,METAR,103.0
PAMR 021753Z 33011KT 10SM CLR 00/M11 A3032 RMK AO2 SLP269 T00001111 10006 21011 58003,PAMR,2018-04-02T17:53:00Z,61.22,-149.85,0.0,-11.1,330,11,,10.0,30.318897,1026.9,,,TRUE,,,,,,,CLR,,,,,,,,VFR,-0.3,0.6,-1.1,,,,,,,,,METAR,41.0
PANC 021753Z 34011KT 10SM CLR M01/M09 A3034 RMK AO2 SLP276 4/013 T10061094 11006 21017 58004,PANC,2018-04-02T17:53:00Z,61.17,-150.0,-0.6,-9.4,340,11,,10.0,30.339567,1027.6,,,TRUE,,,,,,,CLR,,,,,,,,VFR,-0.4,-0.6,-1.7,,,,,,,13.0,,METAR,38.0
PANN 021753Z AUTO 00000KT 10SM CLR M12/M16 A3059 RMK AO2 SLP370 I6000 T11171156 11117 21200 58005 TSNO,PANN,2018-04-02T17:53:00Z,64.55,-149.08,-11.7,-15.6,0,0,,10.0,30.590551,1037.0,,TRUE,TRUE,,,TRUE,,,,CLR,,,,,,,,VFR,-0.5,-11.7,-20.0,,,,,,,,,METAR,110.0
PANT 021753Z AUTO VRB06KT 10SM FEW026 BKN070 05/M01 A2988 RMK AO2 SLP119 T00501011 10050 21017 56008 TSNO $,PANT,2018-04-02T17:53:00Z,55.03,-131.57,5.0,-1.1,0,6,,10.0,29.878937,1011.9,,TRUE,TRUE,TRUE,,TRUE,,,,FEW,2600,BKN,7000,,,,,VFR,-0.8,5.0,-1.7,,,,,,,,,METAR,36.0
PAOM 021753Z 00000KT 10SM CLR M11/M14 A3066 RMK AO2 SLP382 T11061139 11106 21144 58007,PAOM,2018-04-02T17:53:00Z,64.5,-165.43,-10.6,-13.9,0,0,,10.0,30.661417,1038.2,,,TRUE,,,,,,,CLR,,,,,,,,VFR,-0.7,-10.6,-14.4,,,,,,,,,METAR,11.0
PHNL 021753Z VRB06KT 10SM -RA FEW022 SCT035 BKN050 24/22 A2988 RMK AO2 RAB36 SLP117 P0000 60028 T02390217 10250 20222 51009,PHNL,2018-04-02T17:53:00Z,21.33,-157.92,23.9,21.7,0,6,,10.0,29.878937,1011.7,,,TRUE,,,,,,-RA,FEW,2200,SCT,3500,BKN,5000,,,VFR,0.9,25.0,22.2,,,0.005,,,,,,SPECI,4.0
PHTO 021753Z 29006KT 10SM CLR 24/18 A2991 RMK AO2 SLP127 T02390183 10239 20206 53007,PHTO,2018-04-02T17:53:00Z,19.72,-155.05,23.9,18.3,290,6,,10.0,29.911417,1012.7,,,TRUE,,,,,,,CLR,,,,,,,,VFR,0.7,23.9,20.6,,,,,,,,,SPECI,12.0
PHKO 021753Z 16003KT 10SM BKN140 26/19 A2990 RMK AO2 SLP126 T02560189 10256 20233 51010,PHKO,2018-04-02T17:53:00Z,19.73,-156.05,25.6,18.9,160,3,,10.0,29.899607,1012.6,,,TRUE,,,,,,,BKN,14000,,,,,,,VFR,1.0,25.6,23.3,,,,,,,,,SPECI,27.0
KRQE 021753Z AUTO 25016G29KT 10SM CLR 17/M12 A2991 RMK AO2 PK WND 25031/1712 SLP041 T01671117 10178 20017 56007 TSNO,KRQE,2018-04-02T17:53:00Z,35.65,-109.07,16.7,-11.7,250,16,29,10.0,29.911417,1004.1,,TRUE,TRUE,,,TRUE,,,,CLR,,,,,,,,VFR,-0.7,17.8,1.7,,,,,,,,,SPECI,2055.0
KRNT 021753Z 18008KT 10SM FEW080 08/M01 A3007 RMK AO2 SLP188 T00831006 10083 20033 51021,KRNT,2018-04-02T17:53:00Z,47.5,-122.22,8.3,-0.6,180,8,,10.0,30.070866,1018.8,,,TRUE,,,,,,,FEW,8000,,,,,,,VFR,2.1,8.3,3.3,,,,,,,,,SPECI,21.0
KRNM 021753Z 00000KT 10SM OVC020 13/09 A2991 RMK AO2 SLP123 T01330089 10139 20111 50005,KRNM,2018-04-02T17:53:00Z,33.03,-116.92,13.3,8.9,0,0,,10.0,29.911417,1012.3,,,TRUE,,,,,,,OVC,2000,,,,,,,MVFR,0.5,13.9,11.1,,,,,,,,,SPECI,427.0
KNIP 021753Z 11005KT 10SM SCT045 BKN055 BKN250 27/17 A3005 RMK AO2 SLP170 T02720172 10272 20167 58012,KNIP,2018-04-02T17:53:00Z,30.22,-81.67,27.2,17.2,110,5,,10.0,30.050198,1017.0,,,TRUE,,,,,,,SCT,4500,BKN,5500,BKN,25000,,,VFR,-1.2,27.2,16.7,,,,,,,,,METAR,7.0
KHHR 021753Z 16005KT 10SM OVC033 17/09 A2990 RMK AO2 SLP125 T01720089 10178 20144 50001,KHHR,2018-04-02T17:53:00Z,33.92,-118.33,17.2,8.9,160,5,,10.0,29.899607,1012.5,,,TRUE,,,,,,,OVC,3300,,,,,,,VFR,0.1,17.8,14.4,,,,,,,,,SPECI,18.0
KHIB 021753Z AUTO 34003KT 10SM BKN049 BKN055 M04/M11 A2992 RMK AO2 SLP158 T10441111 11044 21156 50004,KHIB,2018-04-02T17:53:00Z,47.38,-92.83,-4.4,-11.1,340,3,,10.0,29.920275,1015.8,,TRUE,TRUE,,,,,,,BKN,4900,BKN,5500,,,,,VFR,0.4,-4.4,-15.6,,,,,,,,,SPECI,412.0
KPBI 021753Z 12010KT 10SM SCT031 SCT038 27/18 A3005 RMK AO2 SLP175 T02720178 10278 20222 58010,KPBI,2018-04-02T17:53:00Z,26.68,-80.1,27.2,17.8,120,10,,10.0,30.050198,1017.5,,,TRUE,,,,,,,SCT,3100,SCT,3800,,,,,VFR,-1.0,27.8,22.2,,,,,,,,,SPECI,6.0
KPIH 021753Z 24032G41KT 10SM SCT016 BKN040 BKN080 06/02 A2965 RMK AO2 PK WND 24041/1749 RAB1657E07 SLP032 P0000 60001 T00610017 10078 20039 51014,KPIH,2018-04-02T17:53:00Z,42.92,-112.57,6.1,1.7,240,32,41,10.0,29.648623,1003.2,,,TRUE,,,,,,,SCT,1600,BKN,4000,BKN,8000,,,VFR,1.4,7.8,3.9,,,0.005,,,,,,SPECI,1359.0
KPIE 021753Z 25007KT 220V290 10SM BKN034 OVC043 28/19 A3004 RMK AO2 SLP173 T02830189 10283 20189 58009,KPIE,2018-04-02T17:53:00Z,27.92,-82.68,28.3,18.9,250,7,,10.0,30.041338,1017.3,,,TRUE,,,,,,,BKN,3400,OVC,4300,,,,,VFR,-0.9,28.3,18.9,,,,,,,,,METAR,4.0
KPGD 021753Z 30006KT 10SM FEW044 SCT060 SCT070 29/17 A3004 RMK AO2 SLP173 T02890167 10294 20200 58015,KPGD,2018-04-02T17:53:00Z,26.92,-82.0,28.9,16.7,300,6,,10.0,30.041338,1017.3,,,TRUE,,,,,,,FEW,4400,SCT,6000,SCT,7000,,,VFR,-1.5,29.4,20.0,,,,,,,,,METAR,7.0
KPGA 021753Z AUTO 11003KT 10SM CLR 21/M07 A2975 RMK AO2 SLP023 T02061072 10206 20094 58012 TSNO,KPGA,2018-04-02T17:53:00Z,36.92,-111.45,20.6,-7.2,110,3,,10.0,29.749016,1002.3,,TRUE,TRUE,,,TRUE,,,,CLR,,,,,,,,VFR,-1.2,20.6,9.4,,,,,,,,,SPECI,1307.0
KPEO 021753Z AUTO VRB03KT 10SM CLR 06/M08 A3008 RMK AO2 SLP194 T00561083 10061 21017 58008,KPEO,2018-04-02T17:53:00Z,42.65,-77.05,5.6,-8.3,0,3,,10.0,30.079725,1019.4,,TRUE,TRUE,,,,,,,CLR,,,,,,,,VFR,-0.8,6.1,-1.7,,,,,,,,,SPECI,256.0
KPDT 021753Z 26024G34KT 10SM FEW046 06/M05 A2995 RMK AO2 PK WND 26034/1750 SLP144 T00611050 10067 20006 51023,KPDT,2018-04-02T17:53:00Z,45.7,-118.83,6.1,-5.0,260,24,34,10.0,29.949802,1014.4,,,TRUE,,,,,,,FEW,4600,,,,,,,VFR,2.3,6.7,0.6,,,,,,,,,SPECI,462.0
KPDK 021753Z 21013KT 10SM CLR 25/07 A3000 RMK AO2 SLP149 T02500067 10250 20122 58008,KPDK,2018-04-02T17:53:00Z,33.88,-84.3,25.0,6.7,210,13,,10.0,30.0,1014.9,,,TRUE,,,,,,,CLR,,,,,,,,VFR,-0.8,25.0,12.2,,,,,,,,,METAR,302.0
KRMG 021753Z AUTO 21011KT 10SM CLR 25/09 A2997 RMK AO2 SLP143 T02500089 10250 20094 58010,KRMG,2018-04-02T17:53:00Z,34.35,-85.17,25.0,8.9,210,11,,10.0,29.970472,1014.3,,TRUE,TRUE,,,,,,,CLR,,,,,,,,VFR,-1.0,25.0,9.4,,,,,,,,,METAR,193.0
KRME 021753Z VRB04G18KT 10SM SCT055 04/M08 A3012 RMK AO2 SLP202 T00441078 10050 21028 56009,KRME,2018-04-02T17:53:00Z,43.22,-75.4,4.4,-7.8,0,4,18,10.0,30.121063,1020.2,,,TRUE,,,,,,,SCT,5500,,,,,,,VFR,-0.9,5.0,-2.8,,,,,,,,,SPECI,154.0
KRSL 021753Z AUTO 16019G26KT 10SM CLR 07/M02 A2968 RMK AO2 PK WND 15026/1712 SLP065 T00671022 10067 21056 58039,KRSL,2018-04-02T17:53:00Z,38.87,-98.82,6.7,-2.2,160,19,26,10.0,29.681103,1006.5,,TRUE,TRUE,,,,,,,CLR,,,,,,,,VFR,-3.9,6.7,-5.6,,,,,,,,,METAR,567.0
KRSW 021753Z 12008KT 100V160 10SM BKN055 BKN070 29/16 A3003 RMK AO2 SLP166 T02890156 10294 20194 58014,KRSW,2018-04-02T17:53:00Z,26.53,-81.75,28.9,15.6,120,8,,10.0,30.029528,1016.6,,,TRUE,,,,,,,BKN,5500,BKN,7000,,,,,VFR,-1.4,29.4,19.4,,,,,,,,,METAR,10.0
KREO 021752Z AUTO 31023G30KT 04/M14 A2992 RMK AO1 PK WND 30032/1741 SLP134 60002 T00391139 10106 20017 51033,KREO,2018-04-02T17:52:00Z,42.58,-117.87,3.9,-13.9,310,23,30,,29.920275,1013.4,,TRUE,TRUE,,,,,,,,,,,,,,,,3.3,10.6,1.7,,,,,,,,,SPECI,1235.0
MUCU 021752Z 20008KT 9000 FEW020 SCT070 28/17 Q1014,MUCU,2018-04-02T17:52:00Z,19.97,-75.83,28.0,17.0,200,8,,5.59,29.940945,,,,,,,,,,,FEW,2000,SCT,7000,,,,,VFR,,,,,,,,,,,,METAR,76.0
MMCN 021752Z 21009KT 10SM SKC 30/01 A2983 RMK SLP102 HZY,MMCN,2018-04-02T17:52:00Z,27.4,-109.83,30.0,1.0,210,9,,10.0,29.828741,1010.2,,,,,,,,,,SKC,,,,,,,,VFR,,,,,,,,,,,,METAR,43.0
KIJD 021752Z AUTO 00000KT 10SM SCT015 OVC023 03/M01 A3011 RMK AO2 SNE20 SLP198 P0000 60016 T00281011 10028 21006 56018,KIJD,2018-04-02T17:52:00Z,41.75,-72.18,2.8,-1.1,0,0,,10.0,30.109253,1019.8,,TRUE,TRUE,,,,,,,SCT,1500,OVC,2300,,,,,MVFR,-1.8,2.8,-0.6,,,0.005,,0.16,,,,METAR,75.0
KIEN 021752Z AUTO 06005KT 10SM CLR 09/M01 A2948 RMK AO2 SLP988 T00941011 10094 20000 58012,KIEN,2018-04-02T17:52:00Z,43.03,-102.52,9.4,-1.1,60,5,,10.0,29.480314,998.8,,TRUE,TRUE,,,,,,,CLR,,,,,,,,VFR,-1.2,9.4,0.0,,,,,,,,,METAR,998.0
KIAD 021752Z 35005KT 10SM BKN020 BKN033 08/03 A3011 RMK AO2 SLP196 60000 T00830033 10083 20033 50000,KIAD,2018-04-02T17:52:00Z,38.93,-77.45,8.3,3.3,350,5,,10.0,30.109253,1019.6,,,TRUE,,,,,,,BKN,2000,BKN,3300,,,,,MVFR,0.0,8.3,3.3,,,,,0.005,,,,METAR,93.0
KHRL 021752Z 17030G37KT 10SM CLR 31/20 A2978 RMK AO2 PK WND 17037/1752 SLP085 T03110200 10317 20222 58011,KHRL,2018-04-02T17:52:00Z,26.23,-97.65,31.1,20.0,170,30,37,10.0,29.778543,1008.5,,,TRUE,,,,,,,CLR,,,,,,,,VFR,-1.1,31.7,22.2,,,,,,,,,METAR,10.0
KHIE 021752Z AUTO VRB05G14KT 10SM CLR 04/M12 A3002 RMK AO2 SLP181 T00391117 10044 21028 56012,KHIE,2018-04-02T17:52:00Z,44.37,-71.55,3.9,-11.7,0,5,14,10.0,30.02067,1018.1,,TRUE,TRUE,,,,,,,CLR,,,,,,,,VFR,-1.2,4.4,-2.8,,,,,,,,,METAR,318.0
KGLS 021752Z 15011KT 10SM FEW020 SCT036 26/22 A2994 RMK AO2 SLP139 T02610222 10261 20222 58005,KGLS,2018-04-02T17:52:00Z,29.27,-94.87,26.1,22.2,150,11,,10.0,29.940945,1013.9,,,TRUE,,,,,,,FEW,2000,SCT,3600,,,,,VFR,-0.5,26.1,22.2,,,,,,,,,METAR,6.0
KEST 021752Z AUTO 16017KT 10SM BKN029 00/M06 A2985 RMK AO2 PK WND 16026/1713 SLP125 T00001056 10006 21050 55017,KEST,2018-04-02T17:52:00Z,43.4,-94.75,0.0,-5.6,160,17,,10.0,29.84941,1012.5,,TRUE,TRUE,,,,,,,BKN,2900,,,,,,,MVFR,-1.7,0.6,-5.0,,,,,,,,,METAR,401.0
KEKM 021752Z 16007KT 10SM CLR 04/M08 A3008 RMK AO2,KEKM,2018-04-02T17:52:00Z,41.72,-86.0,4.0,-8.0,160,7,,10.0,30.079725,,,,TRUE,,,,,,,CLR,,,,,,,,VFR,,,,,,,,,,,,METAR,237.0
KDVN 021752Z AUTO 13013KT 10SM CLR 03/M09 A3002 RMK AO2 SLP170 T00331094 10033 21094 58031,KDVN,2018-04-02T17:52:00Z,41.62,-90.58,3.3,-9.4,130,13,,10.0,30.02067,1017.0,,TRUE,TRUE,,,,,,,CLR,,,,,,,,VFR,-3.1,3.3,-9.4,,,,,,,,,METAR,230.0
KDPA 021752Z 17009KT 10SM CLR 04/M09 A3005 RMK AO2 SLP184 T00441094 10044 21078 58020,KDPA,2018-04-02T17:52:00Z,41.92,-88.25,4.4,-9.4,170,9,,10.0,30.050198,1018.4,,,TRUE,,,,,,,CLR,,,,,,,,VFR,-2.0,4.4,-7.8,,,,,,,,,METAR,231.0
KDDC 021752Z AUTO 20017G27KT 10SM CLR 11/M03 A2964 RMK AO2 PK WND 18033/1740 SLP042 T01111028 10111 21050 58030,KDDC,2018-04-02T17:52:00Z,37.77,-99.97,11.1,-2.8,200,17,27,10.0,29.639763,1004.2,,TRUE,TRUE,,,,,,,CLR,,,,,,,,VFR,-3.0,11.1,-5.0,,,,,,,,,METAR,789.0
KDCA 021752Z 36007KT 10SM OVC021 09/03 A3013 RMK AO2 SLP201 T00890028 10089 20056 51005,KDCA,2018-04-02T17:52:00Z,38.85,-77.03,8.9,2.8,360,7,,10.0,30.129921,1020.1,,,TRUE,,,,,,,OVC,2100,,,,,,,MVFR,0.5,8.9,5.6,,,,,,,,,METAR,18.0
KBAN 021752Z AUTO 24009G21KT 10SM CLR 10/M07 A2992 RMK AO2 SLP085 T01001072 10100 20000 50001 $,KBAN,2018-04-02T17:52:00Z,38.35,-119.52,10.0,-7.2,240,9,21,10.0,29.920275,1008.5,,TRUE,TRUE,TRUE,,,,,,CLR,,,,,,,,VFR,0.1,10.0,0.0,,,,,,,,,SPECI,2057.0
KP69 021752Z AUTO 02005KT 02/M01 A2993 RMK AO1 SLP152 60005 T00221011 10028 20006 53027,KP69,2018-04-02T17:52:00Z,46.15,-115.6,2.2,-1.1,20,5,,,29.929134,1015.2,,TRUE,TRUE,,,,,,,,,,,,,,,,2.7,2.8,0.6,,,,,,,,,SPECI,480.0
KCDJ 021752Z AUTO 12011G16KT M02/M04 A2996 RMK AO1 SLP164 T10221039 11022 21106 58028,KCDJ,2018-04-02T17:52:00Z,39.82,-93.58,-2.2,-3.9,120,11,16,,29.958662,1016.4,,TRUE,TRUE,,,,,,,,,,,,,,,,-2.8,-2.2,-10.6,,,,,,,,,METAR,234.0
KNRB 021752Z 10006KT 10SM SCT040 BKN250 23/19 A3006 RMK AO2 SLP177 T02280189 10239 20161 58007,KNRB,2018-04-02T17:52:00Z,30.38,-81.42,22.8,18.9,100,6,,10.0,30.059055,1017.7,,,TRUE,,,,,,,SCT,4000,BKN,25000,,,,,VFR,-0.7,23.9,16.1,,,,,,,,,METAR,5.0
KOUN 021752Z 13008KT 10SM OVC015 06/02 A2983,KOUN,2018-04-02T17:52:00Z,35.25,-97.47,6.0,2.0,130,8,,10.0,29.828741,,,,,,,,,,,OVC,1500,,,,,,,MVFR,,,,,,,,,,,,METAR,357.0
KVTN 021752Z AUTO VRB04KT 10SM CLR 10/M03 A2949 RMK AO2 SLP998 T01001033 10100 21022 58018,KVTN,2018-04-02T17:52:00Z,42.87,-100.55,10.0,-3.3,0,4,,10.0,29.489174,999.8,,TRUE,TRUE,,,,,,,CLR,,,,,,,,VFR,-1.8,10.0,-2.2,,,,,,,,,METAR,788.0
KISN 021752Z AUTO 08011KT 10SM CLR M07/M12 A2988 RMK AO2 SLP156 T10671117 11061 21117 53010,KISN,2018-04-02T17:52:00Z,48.17,-103.63,-6.7,-11.7,80,11,,10.0,29.878937,1015.6,,TRUE,TRUE,,,,,,,CLR,,,,,,,,VFR,1.0,-6.1,-11.7,,,,,,,,,SPECI,579.0
KIOW 021752Z AUTO 12014G21KT 10SM CLR 03/M09 A2998 RMK AO2 SLP160 T00331094 10039 21083 58037,KIOW,2018-04-02T17:52:00Z,41.63,-91.55,3.3,-9.4,120,14,21,10.0,29.97933,1016.0,,TRUE,TRUE,,,,,,,CLR,,,,,,,,VFR,-3.7,3.9,-8.3,,,,,,,,,METAR,198.0
KBML 021752Z AUTO VRB05KT 10SM SCT060 03/M11 A3001 RMK AO2 SLP176 T00331106 10033 21033 56012,KBML,2018-04-02T17:52:00Z,44.58,-71.18,3.3,-10.6,0,5,,10.0,30.008858,1017.6,,TRUE,TRUE,,,,,,,SCT,6000,,,,,,,VFR,-1.2,3.3,-3.3,,,,,,,,,METAR,345.0
KBLU 021752Z AUTO VRB03KT 10SM FEW016 SCT024 SCT036 10/01 A2997 RMK AO2 SLP110 T01000011 10100 20078 51007,KBLU,2018-04-02T17:52:00Z,39.28,-120.7,10.0,1.1,0,3,,10.0,29.970472,1011.0,,TRUE,TRUE,,,,,,,FEW,1600,SCT,2400,SCT,3600,,,VFR,0.7,10.0,7.8,,,,,,,,,METAR,1609.0
KBLH 021752Z AUTO 16013KT 10SM CLR 27/01 A2973 RMK AO2 SLP060 T02720011 10272 20133 50001,KBLH,2018-04-02T17:52:00Z,33.62,-114.72,27.2,1.1,160,13,,10.0,29.731298,1006.0,,TRUE,TRUE,,,,,,,CLR,,,,,,,,VFR,0.1,27.2,13.3,,,,,,,,,METAR,119.0
KBLF 021752Z AUTO 00000KT 6SM BR OVC002 07/06 A3003 RMK AO2 SLP160 60000 T00670056 10072 20061 51002,KBLF,2018-04-02T17:52:00Z,37.3,-81.2,6.7,5.6,0,0,,6.0,30.029528,1016.0,,TRUE,TRUE,,,,,,BR,OVC,200,,,,,,,LIFR,0.2,7.2,6.1,,,,,0.005,,,,METAR,873.0
KBIS 021752Z 06015KT 10SM FEW020 OVC037 M07/M09 A2982 RMK AO2 SLP127 60000 T10671094 11061 21072 53003,KBIS,2018-04-02T17:52:00Z,46.77,-100.75,-6.7,-9.4,60,15,,10.0,29.819881,1012.7,,,TRUE,,,,,,,FEW,2000,OVC,3700,,,,,VFR,0.3,-6.1,-7.2,,,,,0.005,,,,METAR,505.0
KBDR 021752Z 36007KT 10SM BKN021 OVC080 04/M01 A3012 RMK AO2 SNE02 SLP199 P0000 60020 T00441011 10044 21006 56013,KBDR,2018-04-02T17:52:00Z,41.17,-73.13,4.4,-1.1,360,7,,10.0,30.121063,1019.9,,,TRUE,,,,,,,BKN,2100,OVC,8000,,,,,MVFR,-1.3,4.4,-0.6,,,0.005,,0.2,,,,METAR,7.0
KATL 021752Z 21008KT 10SM BKN250 26/09 A3001 RMK AO2 SLP154 T02560089 10256 20133 58008,KATL,2018-04-02T17:52:00Z,33.63,-84.45,25.6,8.9,210,8,,10.0,30.008858,1015.4,,,TRUE,,,,,,,BKN,25000,,,,,,,VFR,-0.8,25.6,13.3,,,,,,,,,SPECI,296.0
KARR 021752Z 16011G15KT 10SM CLR 05/M09 A3006 RMK AO2 SLP186 T00501089 10050 21072 58019,KARR,2018-04-02T17:52:00Z,41.77,-88.48,5.0,-8.9,160,11,15,10.0,30.059055,1018.6,,,TRUE,,,,,,,CLR,,,,,,,,VFR,-1.9,5.0,-7.2,,,,,,,,,METAR,215.0
KAQW 021752Z AUTO 32007KT 270V360 10SM SCT046 04/M07 A3008 RMK AO2 SLP194 60002 T00391067 10044 21028 58014,KAQW,2018-04-02T17:52:00Z,42.7,-73.17,3.9,-6.7,320,7,,10.0,30.079725,1019.4,,TRUE,TRUE,,,,,,,SCT,4600,,,,,,,VFR,-1.4,4.4,-2.8,,,,,,,,,SPECI,199.0
KALS 021752Z AUTO 23021G28KT 10SM CLR 17/M11 A2975 RMK AO2 PK WND 24030/1656 SLP000 T01671106 10172 21011 58024,KALS,2018-04-02T17:52:00Z,37.43,-105.87,16.7,-10.6,230,21,28,10.0,29.749016,1000.0,,TRUE,TRUE,,,,,,,CLR,,,,,,,,VFR,-2.4,17.2,-1.1,,,,,,,,,METAR,2299.0
KABQ 021752Z 25014G31KT 10SM FEW160 BKN280 21/M14 A2985 RMK AO2 PK WND 26031/1745 SLP046 T02061144 10206 20072 58014,KABQ,2018-04-02T17:52:00Z,35.05,-106.62,20.6,-14.4,250,14,31,10.0,29.84941,1004.6,,,TRUE,,,,,,,FEW,16000,BKN,28000,,,,,VFR,-1.4,20.6,7.2,,,,,,,,,METAR,1618.0
KLWC 021752Z AUTO 12010KT 4SM BR OVC007 M01/M02 A2989 RMK AO2 SLP130 T10061017 11006 21039 58032,KLWC,2018-04-02T17:52:00Z,39.02,-95.22,-0.6,-1.7,120,10,,4.0,29.890747,1013.0,,TRUE,TRUE,,,,,,BR,OVC,700,,,,,,,IFR,-3.2,-0.6,-3.9,,,,,,,,,METAR,253.0
KNFW 021752Z 12004KT 10SM SCT009 OVC015 08/04 A2991 RMK AO2 SLP113 60000 T00780044 10078 20056 58018 $,KNFW,2018-04-02T17:52:00Z,32.78,-97.43,7.8,4.4,120,4,,10.0,29.911417,1011.3,,,TRUE,TRUE,,,,,,SCT,900,OVC,1500,,,,,MVFR,-1.8,7.8,5.6,,,,,0.005,,,,METAR,198.0
KCQX 021752Z AUTO 05006KT 7SM UP BKN006 OVC011 02/01 A3011 RMK AO2 UPB44SNE44 SLP197 P0008 60028 T00220011 10022 20011 56014,KCQX,2018-04-02T17:52:00Z,41.68,-70.0,2.2,1.1,50,6,,7.0,30.109253,1019.7,,TRUE,TRUE,,,,,,UP,BKN,600,OVC,1100,,,,,IFR,-1.4,2.2,1.1,,,0.08,,0.28,,,,METAR,19.0
KCNU 021752Z AUTO 15011KT 10SM OVC005 03/01 A2987 RMK AO2 SLP122 I6002 T00280011 10028 21022 58028,KCNU,2018-04-02T17:52:00Z,37.67,-95.48,2.8,1.1,150,11,,10.0,29.870079,1012.2,,TRUE,TRUE,,,,,,,OVC,500,,,,,,,IFR,-2.8,2.8,-2.2,,,,,,,,,METAR,297.0
KCLT 021752Z 20008KT 10SM FEW080 FEW160 BKN250 27/07 A2997 RMK AO2 SLP140 T02670072 10267 20161 58007 $,KCLT,2018-04-02T17:52:00Z,35.22,-80.95,26.7,7.2,200,8,,10.0,29.970472,1014.0,,,TRUE,TRUE,,,,,,FEW,8000,FEW,16000,BKN,25000,,,VFR,-0.7,26.7,16.1,,,,,,,,,METAR,220.0
KCID 021752Z 13013KT 10SM CLR 02/M09 A2995 RMK AO2 SLP153 T00221089 10028 21089 58031,KCID,2018-04-02T17:52:00Z,41.88,-91.72,2.2,-8.9,130,13,,10.0,29.949802,1015.3,,,TRUE,,,,,,,CLR,,,,,,,,VFR,-3.1,2.8,-8.9,,,,,,,,,METAR,264.0
KMEB 021752Z AUTO 26007KT 10SM FEW120 27/09 A2997 RMK AO2 SLP145 T02720089 10278 20144 58014,KMEB,2018-04-02T17:52:00Z,34.78,-79.37,27.2,8.9,260,7,,10.0,29.970472,1014.5,,TRUE,TRUE,,,,,,,FEW,12000,,,,,,,VFR,-1.4,27.8,14.4,,,,,,,,,METAR,67.0
KMDH 021752Z 10004KT 7SM OVC007 03/01 A3003 RMK AO2 SLP172 T00280011 10028 20000 58019,KMDH,2018-04-02T17:52:00Z,37.78,-89.25,2.8,1.1,100,4,,7.0,30.029528,1017.2,,,TRUE,,,,,,,OVC,700,,,,,,,IFR,-1.9,2.8,0.0,,,,,,,,,METAR,130.0
KCVG 021752Z 12007KT 10SM OVC015 04/00 A3009 RMK AO2 SLP194 T00390000 10039 20006 58010,KCVG,2018-04-02T17:52:00Z,39.05,-84.67,3.9,0.0,120,7,,10.0,30.088583,1019.4,,,TRUE,,,,,,,OVC,1500,,,,,,,MVFR,-1.0,3.9,0.6,,,,,,,,,METAR,269.0
KHUT 021752Z 17017G22KT 10SM OVC023 04/M02 A2975 RMK AO2 SLP079 T00441017 10050 21050 58041,KHUT,2018-04-02T17:52:00Z,38.07,-97.87,4.4,-1.7,170,17,22,10.0,29.749016,1007.9,,,TRUE,,,,,,,OVC,2300,,,,,,,MVFR,-4.1,5.0,-5.0,,,,,,,,,METAR,467.0
KMKE 021752Z 10013KT 10SM BKN150 BKN250 03/M07 A3007 RMK AO2 SLP191 T00281072 10028 21039 58014,KMKE,2018-04-02T17:52:00Z,42.95,-87.9,2.8,-7.2,100,13,,10.0,30.070866,1019.1,,,TRUE,,,,,,,BKN,15000,BKN,25000,,,,,VFR,-1.4,2.8,-3.9,,,,,,,,,METAR,206.0
KMHK 021752Z 15012KT 10SM OVC011 01/M02 A2981 RMK AO2 SLP105 T00111022 10017 21033 58038,KMHK,2018-04-02T17:52:00Z,39.13,-96.68,1.1,-2.2,150,12,,10.0,29.811024,1010.5,,,TRUE,,,,,,,OVC,1100,,,,,,,MVFR,-3.8,1.7,-3.3,,,,,,,,,METAR,317.0
KMFD 021752Z 22003KT 10SM FEW031 04/M04 A3010 RMK AO2 SLP205 T00391039 10044 21056 58007,KMFD,2018-04-02T17:52:00Z,40.82,-82.52,3.9,-3.9,220,3,,10.0,30.100393,1020.5,,,TRUE,,,,,,,FEW,3100,,,,,,,VFR,-0.7,4.4,-5.6,,,,,,,,,METAR,395.0
KMLI 021752Z 11012KT 10SM CLR 06/M09 A3000 RMK AO2 PRESFR SLP165 T00561089 10056 21089 58032,KMLI,2018-04-02T17:52:00Z,41.45,-90.52,5.6,-8.9,110,12,,10.0,30.0,1016.5,,,TRUE,,,,,,,CLR,,,,,,,,VFR,-3.2,5.6,-8.9,,,,,,,,,SPECI,184.0
KMWH 021752Z 30010G17KT 10SM BKN110 09/M07 A2989 RMK AO2 SLP127 T00891067 10089 20006 51024,KMWH,2018-04-02T17:52:00Z,47.2,-119.32,8.9,-6.7,300,10,17,10.0,29.890747,1012.7,,,TRUE,,,,,,,BKN,11000,,,,,,,VFR,2.4,8.9,0.6,,,,,,,,,METAR,362.0
KOKB 021752Z AUTO 18006KT 9SM SCT023 OVC030 17/11 A2990 RMK AO2 SLP123 T01670106 10167 20144 53001,KOKB,2018-04-02T17:52:00Z,33.22,-117.35,16.7,10.6,180,6,,9.0,29.899607,1012.3,,TRUE,TRUE,,,,,,,SCT,2300,OVC,3000,,,,,MVFR,0.1,16.7,14.4,,,,,,,,,METAR,8.0
KOMA 021752Z 15014KT 10SM BKN020 OVC038 01/M06 A2985 RMK AO2 SLP117 T00061056 10006 21056 56024,KOMA,2018-04-02T17:52:00Z,41.32,-95.9,0.6,-5.6,150,14,,10.0,29.84941,1011.7,,,TRUE,,,,,,,BKN,2000,OVC,3800,,,,,MVFR,-2.4,0.6,-5.6,,,,,,,,,SPECI,312.0
KPPF 021752Z AUTO VRB04KT 4SM BR OVC004 02/02 A2989 RMK AO2 SLP127 T00220017 10022 21011 58026,KPPF,2018-04-02T17:52:00Z,37.33,-95.5,2.2,1.7,0,4,,4.0,29.890747,1012.7,,TRUE,TRUE,,,,,,BR,OVC,400,,,,,,,LIFR,-2.6,2.2,-1.1,,,,,,,,,METAR,274.0
KPWK 021752Z 18005KT 10SM CLR 04/M10 A3008 RMK AO2 SLP193 T00391100 10039 21061 57021 $,KPWK,2018-04-02T17:52:00Z,42.12,-87.9,3.9,-10.0,180,5,,10.0,30.079725,1019.3,,,TRUE,TRUE,,,,,,CLR,,,,,,,,VFR,-2.1,3.9,-6.1,,,,,,,,,SPECI,203.0
KRAP 021752Z 01016KT 10SM OVC014 00/M04 A2957 RMK AO2 SLP039 T00001044 10011 21028 53010,KRAP,2018-04-02T17:52:00Z,44.05,-103.05,0.0,-4.4,10,16,,10.0,29.568897,1003.9,,,TRUE,,,,,,,OVC,1400,,,,,,,MVFR,1.0,1.1,-2.8,,,,,,,,,SPECI,965.0
KSGF 021752Z 14011KT 2SM -RA BR OVC005 04/03 A2988 RMK AO2 UPB00E06RAB06 SLP128 P0001 60001 I6003 T00390033 10039 20006 58015,KSGF,2018-04-02T17:52:00Z,37.23,-93.38,3.9,3.3,140,11,,2.0,29.878937,1012.8,,,TRUE,,,,,,-RA BR,OVC,500,,,,,,,IFR,-1.5,3.9,0.6,,,0.01,,0.01,,,,METAR,390.0
KSPI 021752Z 12007KT 10SM CLR 04/M01 A3004 RMK AO2 SLP181 I6002 T00391006 10039 21083 58027,KSPI,2018-04-02T17:52:00Z,39.85,-89.68,3.9,-0.6,120,7,,10.0,30.041338,1018.1,,,TRUE,,,,,,,CLR,,,,,,,,VFR,-2.7,3.9,-8.3,,,,,,,,,SPECI,181.0
KSPS 021752Z 21005KT 10SM BKN015 BKN022 OVC032 06/02 A2988 RMK AO2 SLP121 T00560017 10056 20017 58024,KSPS,2018-04-02T17:52:00Z,33.98,-98.5,5.6,1.7,210,5,,10.0,29.878937,1012.1,,,TRUE,,,,,,,BKN,1500,BKN,2200,OVC,3200,,,MVFR,-2.4,5.6,1.7,,,,,,,,,METAR,308.0
KSUX 021752Z 16019G24KT 10SM OVC015 M01/M05 A2980 RMK AO2 PK WND 16029/1716 SLP105 T10061050 11006 21044 58013,KSUX,2018-04-02T17:52:00Z,42.38,-96.38,-0.6,-5.0,160,19,24,10.0,29.799213,1010.5,,,TRUE,,,,,,,OVC,1500,,,,,,,MVFR,-1.3,-0.6,-4.4,,,,,,,,,SPECI,338.0
KTOL 021752Z VRB06KT 10SM CLR 05/M08 A3012 RMK AO2 SLP207 T00501078 10050 21056 58012,KTOL,2018-04-02T17:52:00Z,41.58,-83.8,5.0,-7.8,0,6,,10.0,30.121063,1020.7,,,TRUE,,,,,,,CLR,,,,,,,,VFR,-1.2,5.0,-5.6,,,,,,,,,METAR,210.0
KTRM 021752Z AUTO 35006KT 10SM CLR 29/03 A2971 RMK AO2 SLP062 T02890028 10289 20206 50005,KTRM,2018-04-02T17:52:00Z,33.63,-116.17,28.9,2.8,350,6,,10.0,29.71063,1006.2,,TRUE,TRUE,,,,,,,CLR,,,,,,,,VFR,0.5,28.9,20.6,,,,,,,,,METAR,-35.0
KN60 021752Z AUTO 07009KT M09/M13 A2987 RMK AO1 SLP150 T10891133 11089 21100 53010,KN60,2018-04-02T17:52:00Z,47.65,-101.43,-8.9,-13.3,70,9,,,29.870079,1015.0,,TRUE,TRUE,,,,,,,,,,,,,,,,1.0,-8.9,-10.0,,,,,,,,,SPECI,582.0
PATA 021752Z 00000KT 9SM CLR M14/M18 A3064 RMK AO2 SLP385 T11441183 11139 21217 58012 PNO,PATA,2018-04-02T17:52:00Z,65.17,-152.1,-14.4,-18.3,0,0,,9.0,30.640747,1038.5,,,TRUE,,,,,,,CLR,,,,,,,,VFR,-1.2,-13.9,-21.7,,,,,,,,,METAR,67.0
OIHH 021751Z 10002KT CAVOK 11/M06 Q1017,OIHH,2018-04-02T17:51:00Z,34.87,48.55,11.0,-6.0,100,2,,6.21,30.029528,,,,,,,,,,,CAVOK,,,,,,,,VFR,,,,,,,,,,,,METAR,1757.0
OICS 021751Z 00000KT CAVOK 15/M02 Q1016,OICS,2018-04-02T17:51:00Z,35.25,47.02,15.0,-2.0,0,0,,6.21,30.0,,,,,,,,,,,CAVOK,,,,,,,,VFR,,,,,,,,,,,,METAR,1373.0
PTKK 021751Z VRB05KT 15SM FEW014 SCT120 BKN280 27/27 A2973 RMK SLP067 8/171 T02720267 10294 20256 57005,PTKK,2018-04-02T17:51:00Z,7.47,151.85,27.2,26.7,0,5,,15.0,29.731298,1006.7,,,,,,,,,,FEW,1400,SCT,12000,BKN,28000,,,VFR,-0.5,29.4,25.6,,,,,,,,,METAR,2.0
MMTO 021751Z 30007KT 6SM SCT015 21/03 A3032 RMK SLP064 52001 970 8/100 HZY CI,MMTO,2018-04-02T17:51:00Z,19.35,-99.57,21.0,3.0,300,7,,6.0,30.318897,1006.4,,,,,,,,,,SCT,1500,,,,,,,VFR,0.1,,,,,,,,,,,METAR,2576.0
KDAW 021751Z AUTO 30008KT 270V330 10SM FEW025 OVC034 02/M04 A3009 RMK AO2 SLP189 60002 T00221039 10044 21011 58014,KDAW,2018-04-02T17:51:00Z,43.28,-70.92,2.2,-3.9,300,8,,10.0,30.088583,1018.9,,TRUE,TRUE,,,,,,,FEW,2500,OVC,3400,,,,,VFR,-1.4,4.4,-1.1,,,,,0.02,,,,METAR,100.0
KP59 021751Z AUTO 04007KT M04/M08 A2999 RMK AO1 SLP170 T10391083 11022 21039 50008,KP59,2018-04-02T17:51:00Z,47.47,-87.88,-3.9,-8.3,40,7,,,29.991142,1017.0,,TRUE,TRUE,,,,,,,,,,,,,,,,0.8,-2.2,-3.9,,,,,,,,,SPECI,190.0
KGDP 021751Z AUTO 25029G38KT 10SM CLR 24/M11 A2993 RMK AO2 PK WND 25040/1706 SLP052 T02441111 10244 20139 58008,KGDP,2018-04-02T17:51:00Z,31.83,-104.82,24.4,-11.1,250,29,38,10.0,29.929134,1005.2,,TRUE,TRUE,,,,,,,CLR,,,,,,,,VFR,-0.8,24.4,13.9,,,,,,,,,METAR,1692.0
KVCT 021751Z 16020G26KT 10SM SCT027 BKN033 BKN040 28/20 A2985 RMK AO2 PK WND 15026/1747 SLP106 T02780200 10283 20222 58017 $,KVCT,2018-04-02T17:51:00Z,28.87,-96.93,27.8,20.0,160,20,26,10.0,29.84941,1010.6,,,TRUE,TRUE,,,,,,SCT,2700,BKN,3300,BKN,4000,,,VFR,-1.7,28.3,22.2,,,,,,,,,METAR,31.0
KTEB 021751Z VRB06KT 10SM OVC021 03/M02 A3013 RMK AO2 SLP203 931016 60013 T00331017 10033 20000 55004 $,KTEB,2018-04-02T17:51:00Z,40.87,-74.05,3.3,-1.7,0,6,,10.0,30.129921,1020.3,,,TRUE,TRUE,,,,,,OVC,2100,,,,,,,MVFR,-0.4,3.3,0.0,,,,,0.13,,,,METAR,7.0
KSTL 021751Z 10010KT 10SM BKN013 OVC050 01/M01 A3002 RMK AO2 SLP177 60000 T00111011 10011 21033 58033,KSTL,2018-04-02T17:51:00Z,38.75,-90.37,1.1,-1.1,100,10,,10.0,30.02067,1017.7,,,TRUE,,,,,,,BKN,1300,OVC,5000,,,,,MVFR,-3.3,1.1,-3.3,,,,,0.005,,,,METAR,171.0
KSMO 021751Z 27003KT 10SM FEW031 16/08 A2990 RMK AO2 SLP124 T01560078 10172 20139 50002,KSMO,2018-04-02T17:51:00Z,34.02,-118.45,15.6,7.8,270,3,,10.0,29.899607,1012.4,,,TRUE,,,,,,,FEW,3100,,,,,,,VFR,0.2,17.2,13.9,,,,,,,,,METAR,57.0
KSLK 021751Z AUTO 23009G14KT 10SM FEW060 02/M11 A3000 RMK AO2 SLP182 T00171111 10017 21056 58006,KSLK,2018-04-02T17:51:00Z,44.4,-74.2,1.7,-11.1,230,9,14,10.0,30.0,1018.2,,TRUE,TRUE,,,,,,,FEW,6000,,,,,,,VFR,-0.6,1.7,-5.6,,,,,,,,,METAR,498.0
KSJT 021751Z 09008KT 10SM OVC006 10/08 A2987 RMK AO2 SLP115 T01000083 10100 20083 58013,KSJT,2018-04-02T17:51:00Z,31.37,-100.5,10.0,8.3,90,8,,10.0,29.870079,1011.5,,,TRUE,,,,,,,OVC,600,,,,,,,IFR,-1.3,10.0,8.3,,,,,,,,,METAR,576.0
KSAT 021751Z 16013KT 10SM BKN030 BKN180 26/18 A2982 RMK AO2 SLP081 T02610183 10267 20194 58018,KSAT,2018-04-02T17:51:00Z,29.53,-98.47,26.1,18.3,160,13,,10.0,29.819881,1008.1,,,TRUE,,,,,,,BKN,3000,BKN,18000,,,,,MVFR,-1.8,26.7,19.4,,,,,,,,,METAR,243.0
KSAN 021751Z 17008KT 10SM SCT022 OVC028 16/11 A2993 RMK AO2 SLP133 T01610111 10161 20150 50006,KSAN,2018-04-02T17:51:00Z,32.73,-117.18,16.1,11.1,170,8,,10.0,29.929134,1013.3,,,TRUE,,,,,,,SCT,2200,OVC,2800,,,,,MVFR,0.6,16.1,15.0,,,,,,,,,METAR,12.0
KSAD 021751Z AUTO 19005KT 10SM CLR 23/M14 A2987 RMK AO2 SLP079 T02281139 10239 20044 58006,KSAD,2018-04-02T17:51:00Z,32.85,-109.63,22.8,-13.9,190,5,,10.0,29.870079,1007.9,,TRUE,TRUE,,,,,,,CLR,,,,,,,,VFR,-0.6,23.9,4.4,,,,,,,,,METAR,962.0
KROW 021751Z 14010KT 10SM CLR 21/03 A2980 RMK AO2 SLP040 T02110033 10211 20072 58019,KROW,2018-04-02T17:51:00Z,33.3,-104.5,21.1,3.3,140,10,,10.0,29.799213,1004.0,,,TRUE,,,,,,,CLR,,,,,,,,VFR,-1.9,21.1,7.2,,,,,,,,,METAR,1112.0
KRDU 021751Z 23008KT 10SM FEW065 BKN120 BKN250 26/09 A2996 RMK AO2 SLP142 T02560094 10256 20144 56007,KRDU,2018-04-02T17:51:00Z,35.9,-78.78,25.6,9.4,230,8,,10.0,29.958662,1014.2,,,TRUE,,,,,,,FEW,6500,BKN,12000,BKN,25000,,,VFR,-0.7,25.6,14.4,,,,,,,,,METAR,130.0
KPIT 021751Z 00000KT 10SM BKN020 OVC031 03/M02 A3011 RMK AO2 SLP214 60000 T00331017 10033 20006 58001 $,KPIT,2018-04-02T17:51:00Z,40.5,-80.27,3.3,-1.7,0,0,,10.0,30.109253,1021.4,,,TRUE,TRUE,,,,,,BKN,2000,OVC,3100,,,,,MVFR,-0.1,3.3,0.6,,,,,0.005,,,,METAR,357.0
KPHX 021751Z 15007KT 10SM BKN250 27/M08 A2977 RMK AO2 SLP066 T02671083 10267 20167 58004,KPHX,2018-04-02T17:51:00Z,33.43,-112.02,26.7,-8.3,150,7,,10.0,29.769686,1006.6,,,TRUE,,,,,,,BKN,25000,,,,,,,VFR,-0.4,26.7,16.7,,,,,,,,,METAR,336.0
KOXR 021751Z 29008KT 8SM OVC021 15/11 A2991 RMK AO2 SLP128 T01500111 10150 20139 51006 $,KOXR,2018-04-02T17:51:00Z,34.2,-119.2,15.0,11.1,290,8,,8.0,29.911417,1012.8,,,TRUE,TRUE,,,,,,OVC,2100,,,,,,,MVFR,0.6,15.0,13.9,,,,,,,,,METAR,20.0
KORF 021751Z 01016G25KT 10SM FEW009 10/06 A3006 RMK AO2 PK WND 02027/1711 SLP179 60000 T01000056 10178 20100 51020,KORF,2018-04-02T17:51:00Z,36.9,-76.2,10.0,5.6,10,16,25,10.0,30.059055,1017.9,,,TRUE,,,,,,,FEW,900,,,,,,,VFR,2.0,17.8,10.0,,,,,0.005,,,,METAR,14.0
KORD 021751Z 17007KT 10SM OVC140 04/M11 A3006 RMK AO2 SLP185 T00391106 10044 21056 58021,KORD,2018-04-02T17:51:00Z,41.98,-87.93,3.9,-10.6,170,7,,10.0,30.059055,1018.5,,,TRUE,,,,,,,OVC,14000,,,,,,,VFR,-2.1,4.4,-5.6,,,,,,,,,METAR,200.0
KMYL 021751Z AUTO 30012G19KT 10SM SCT055 BKN070 M02/M14 A2977 RMK AO2 SLP098 60000 T10221139 10000 21039 51025,KMYL,2018-04-02T17:51:00Z,44.9,-116.1,-2.2,-13.9,300,12,19,10.0,29.769686,1009.8,,TRUE,TRUE,,,,,,,SCT,5500,BKN,7000,,,,,VFR,2.5,0.0,-3.9,,,,,0.005,,,,METAR,1533.0
KLGA 021751Z COR 05008KT 10SM FEW013 BKN018 OVC075 03/M02 A3014 RMK AO2 SLP204 60015 931018 4/004 933004 T00281017 10033 20000 55007,KLGA,2018-04-02T17:51:00Z,40.78,-73.88,2.8,-1.7,50,8,,10.0,30.138779,1020.4,TRUE,,TRUE,,,,,,,FEW,1300,BKN,1800,OVC,7500,,,MVFR,-0.7,3.3,0.0,,,,,,,4.0,,SPECI,11.0
KJFK 021751Z 36008KT 10SM BKN018 BKN047 BKN075 BKN250 03/M01 A3014 RMK AO2 SLP206 931017 4/002 933003 60014 T00331006 10033 20000 53002,KJFK,2018-04-02T17:51:00Z,40.63,-73.77,3.3,-0.6,360,8,,10.0,30.138779,1020.6,,,TRUE,,,,,,,BKN,1800,BKN,4700,BKN,7500,BKN,25000,MVFR,0.2,3.3,0.0,,,,,,,2.0,,SPECI,9.0
KJCT 021751Z AUTO 07004KT 8SM BKN032 OVC039 20/16 A2985 RMK AO2 SLP076 T02000156 10200 20111 58011,KJCT,2018-04-02T17:51:00Z,30.5,-99.77,20.0,15.6,70,4,,8.0,29.84941,1007.6,,TRUE,TRUE,,,,,,,BKN,3200,OVC,3900,,,,,VFR,-1.1,20.0,11.1,,,,,,,,,SPECI,522.0
KILG 021751Z 01010G17KT 10SM BKN021 OVC033 07/02 A3013 RMK AO2 SLP202 60001 T00670017 10072 20022 58002,KILG,2018-04-02T17:51:00Z,39.67,-75.6,6.7,1.7,10,10,17,10.0,30.129921,1020.2,,,TRUE,,,,,,,BKN,2100,OVC,3300,,,,,MVFR,-0.2,7.2,2.2,,,,,0.01,,,,METAR,28.0
KIGM 021751Z AUTO 22017G22KT 10SM CLR 23/M04 A2982 RMK AO2 SLP039 T02331039 10239 20100 50001,KIGM,2018-04-02T17:51:00Z,35.25,-113.93,23.3,-3.9,220,17,22,10.0,29.819881,1003.9,,TRUE,TRUE,,,,,,,CLR,,,,,,,,VFR,0.1,23.9,10.0,,,,,,,,,METAR,1032.0
KYNG 021751Z VRB04KT 10SM BKN030 BKN250 05/M03 A3010 RMK AO2 SLP204 T00501033 10056 21006 56005,KYNG,2018-04-02T17:51:00Z,41.25,-80.67,5.0,-3.3,0,4,,10.0,30.100393,1020.4,,,TRUE,,,,,,,BKN,3000,BKN,25000,,,,,MVFR,-0.5,5.6,-0.6,,,,,,,,,METAR,360.0
KVNY 021751Z 00000KT 10SM OVC024 14/09 A2989 RMK AO2 SLP118 T01440094 10144 20122 51003,KVNY,2018-04-02T17:51:00Z,34.22,-118.48,14.4,9.4,0,0,,10.0,29.890747,1011.8,,,TRUE,,,,,,,OVC,2400,,,,,,,MVFR,0.3,14.4,12.2,,,,,,,,,SPECI,245.0
KHSE 021751Z AUTO 23010KT 10SM CLR 19/15 A2999 RMK AO2 SLP154 T01940150 10200 20167 56011,KHSE,2018-04-02T17:51:00Z,35.23,-75.62,19.4,15.0,230,10,,10.0,29.991142,1015.4,,TRUE,TRUE,,,,,,,CLR,,,,,,,,VFR,-1.1,20.0,16.7,,,,,,,,,METAR,3.0
KHDO 021751Z AUTO 10SM SCT028 BKN037 28/19 A2981 RMK AO2 SLP081 T02780194 10278 20211 58010 $,KHDO,2018-04-02T17:51:00Z,29.37,-99.17,27.8,19.4,,,,10.0,29.811024,1008.1,,TRUE,TRUE,TRUE,,,,,,SCT,2800,BKN,3700,,,,,VFR,-1.0,27.8,21.1,,,,,,,,,SPECI,282.0
KEWR 021751Z 34007KT 310V010 10SM FEW012 BKN017 BKN045 03/M01 A3014 RMK AO2 SLP206 931011 4/004 933004 60013 T00281006 10028 20000 55002,KEWR,2018-04-02T17:51:00Z,40.68,-74.17,2.8,-0.6,340,7,,10.0,30.138779,1020.6,,,TRUE,,,,,,,FEW,1200,BKN,1700,BKN,4500,,,MVFR,-0.2,2.8,0.0,,,,,,,4.0,,SPECI,7.0
KERI 021751Z 32009KT 10SM CLR 02/M05 A3013 RMK AO2 SLP210 T00221050 10033 20006 56005,KERI,2018-04-02T17:51:00Z,42.08,-80.18,2.2,-5.0,320,9,,10.0,30.129921,1021.0,,,TRUE,,,,,,,CLR,,,,,,,,VFR,-0.5,3.3,0.6,,,,,,,,,SPECI,222.0
KELP 021751Z 25013KT 10SM FEW140 25/M09 A2989 RMK AO2 SLP058 T02501094 10256 20150 58007,KELP,2018-04-02T17:51:00Z,31.82,-106.38,25.0,-9.4,250,13,,10.0,29.890747,1005.8,,,TRUE,,,,,,,FEW,14000,,,,,,,VFR,-0.7,25.6,15.0,,,,,,,,,METAR,1197.0
KEKN 021751Z AUTO 36003KT 10SM OVC017 07/03 A3006 RMK AO2 SLP193 T00670028 10067 20022 58002 TSNO $,KEKN,2018-04-02T17:51:00Z,38.88,-79.85,6.7,2.8,360,3,,10.0,30.059055,1019.3,,TRUE,TRUE,TRUE,,TRUE,,,,OVC,1700,,,,,,,MVFR,-0.2,6.7,2.2,,,,,,,,,METAR,603.0
KCSG 021751Z 24010KT 10SM CLR 24/10 A3003 RMK AO2 SLP165 T02440100 10244 20106 58010,KCSG,2018-04-02T17:51:00Z,32.52,-84.95,24.4,10.0,240,10,,10.0,30.029528,1016.5,,,TRUE,,,,,,,CLR,,,,,,,,VFR,-1.0,24.4,10.6,,,,,,,,,METAR,135.0
KCRP 021751Z 15023G30KT 10SM SCT019 BKN024 BKN170 OVC250 27/21 A2982 RMK AO2 PK WND 15030/1751 SLP095 T02720211 10278 20228 58013,KCRP,2018-04-02T17:51:00Z,27.77,-97.5,27.2,21.1,150,23,30,10.0,29.819881,1009.5,,,TRUE,,,,,,,SCT,1900,BKN,2400,BKN,17000,OVC,25000,MVFR,-1.3,27.8,22.8,,,,,,,,,METAR,14.0
KCON 021751Z AUTO 19008KT 10SM SCT037 04/M06 A3008 RMK AO2 SLP189 60003 T00391056 10039 21017 58021,KCON,2018-04-02T17:51:00Z,43.2,-71.5,3.9,-5.6,190,8,,10.0,30.079725,1018.9,,TRUE,TRUE,,,,,,,SCT,3700,,,,,,,VFR,-2.1,3.9,-1.7,,,,,0.03,,,,METAR,103.0
KCLE 021751Z 36005KT 10SM BKN250 05/M04 A3015 RMK AO2 SLP215 T00501044 10056 21011 58008,KCLE,2018-04-02T17:51:00Z,41.42,-81.85,5.0,-4.4,360,5,,10.0,30.15059,1021.5,,,TRUE,,,,,,,BKN,25000,,,,,,,VFR,-0.8,5.6,-1.1,,,,,,,,,SPECI,233.0
KCAK 021751Z VRB03KT 10SM BKN031 BKN200 05/M03 A3011 RMK AO2 SLP205 4/001 T00501028 10050 21022 58007 $,KCAK,2018-04-02T17:51:00Z,40.92,-81.45,5.0,-2.8,0,3,,10.0,30.109253,1020.5,,,TRUE,TRUE,,,,,,BKN,3100,BKN,20000,,,,,VFR,-0.7,5.0,-2.2,,,,,,,1.0,,METAR,377.0
KBKW 021751Z AUTO 36004KT 10SM OVC015 08/04 A3003 RMK AO2 SLP173 60000 T00780039 10078 20033 58002 TSNO,KBKW,2018-04-02T17:51:00Z,37.8,-81.12,7.8,3.9,360,4,,10.0,30.029528,1017.3,,TRUE,TRUE,,,TRUE,,,,OVC,1500,,,,,,,MVFR,-0.2,7.8,3.3,,,,,0.005,,,,METAR,764.0
KBGD 021751Z AUTO 21013G20KT 10SM CLR 23/01 A2966 RMK AO2 PRESFR SLP025 T02330006 10233 20039 58035,KBGD,2018-04-02T17:51:00Z,35.7,-101.4,23.3,0.6,210,13,20,10.0,29.660433,1002.5,,TRUE,TRUE,,,,,,,CLR,,,,,,,,VFR,-3.5,23.3,3.9,,,,,,,,,SPECI,927.0
KBDL 021751Z 05003KT 10SM BKN024 OVC030 02/M03 A3012 RMK AO2 SNE1654 SLP200 BINOVC 4/003 P0000 60018 T00171033 10039 21017 58014,KBDL,2018-04-02T17:51:00Z,41.93,-72.68,1.7,-3.3,50,3,,10.0,30.121063,1020.0,,,TRUE,,,,,,,BKN,2400,OVC,3000,,,,,MVFR,-1.4,3.9,-1.7,,,0.005,,0.18,,3.0,,METAR,60.0
KBAZ 021751Z 17016G23KT 10SM FEW034 28/18 A2981 RMK AO2 SLP087 T02830178 10283 20200 58013,KBAZ,2018-04-02T17:51:00Z,29.72,-98.05,28.3,17.8,170,16,23,10.0,29.811024,1008.7,,,TRUE,,,,,,,FEW,3400,,,,,,,VFR,-1.3,28.3,20.0,,,,,,,,,SPECI,195.0
KALB 021751Z COR 24004KT 10SM BKN047 BKN260 04/M06 A3012 RMK AO2 SLP202 60004 T00441061 10050 21017 58013,KALB,2018-04-02T17:51:00Z,42.75,-73.8,4.4,-6.1,240,4,,10.0,30.121063,1020.2,TRUE,,TRUE,,,,,,,BKN,4700,BKN,26000,,,,,VFR,-1.3,5.0,-1.7,,,,,,,,,SPECI,92.0
KAHN 021751Z 24006KT 10SM CLR 27/08 A2999 RMK AO2 SLP150 T02670078 10267 20122 58010,KAHN,2018-04-02T17:51:00Z,33.95,-83.33,26.7,7.8,240,6,,10.0,29.991142,1015.0,,,TRUE,,,,,,,CLR,,,,,,,,VFR,-1.0,26.7,12.2,,,,,,,,,METAR,244.0
KACT 021751Z 36008KT 1 1/2SM BR OVC003 09/08 A2991 RMK AO2 RAB26E45 CIG 002V007 SLP127 P0000 60000 T00890083 10094 20089 58008,KACT,2018-04-02T17:51:00Z,31.62,-97.23,8.9,8.3,360,8,,1.5,29.911417,1012.7,,,TRUE,,,,,,BR,OVC,300,,,,,,,LIFR,-0.8,9.4,8.9,,,0.005,,,,,,SPECI,151.0
KABE 021751Z 00000KT 10SM OVC024 04/M02 A3012 RMK AO2 SLP203 60006 T00441017 10050 20006 58005,KABE,2018-04-02T17:51:00Z,40.65,-75.45,4.4,-1.7,0,0,,10.0,30.121063,1020.3,,,TRUE,,,,,,,OVC,2400,,,,,,,MVFR,-0.5,5.0,0.6,,,,,0.06,,,,METAR,114.0
KBVE 021751Z AUTO 16008KT 6SM HZ CLR 26/21 A3003 RMK AO2 SLP168 T02560206 10261 20178 58001,KBVE,2018-04-02T17:51:00Z,29.32,-89.4,25.6,20.6,160,8,,6.0,30.029528,1016.8,,TRUE,TRUE,,,,,,HZ,CLR,,,,,,,,VFR,-0.1,26.1,17.8,,,,,,,,,METAR,1.0
KSNT 021751Z AUTO 29010G20KT 270V330 M03/M16 A2966 RMK AO1 PK WND 33029/1710 SLP024 60004 T10331156 10011 21033 53010,KSNT,2018-04-02T17:51:00Z,44.17,-114.93,-3.3,-15.6,290,10,20,,29.660433,1002.4,,TRUE,TRUE,,,,,,,,,,,,,,,,1.0,1.1,-3.3,,,,,0.04,,,,METAR,1980.0
KP58 021751Z AUTO 23007KT 03/M08 A3006 RMK AO1 SLP191 T00281083 10028 21039 58011,KP58,2018-04-02T17:51:00Z,44.02,-82.8,2.8,-8.3,230,7,,,30.059055,1019.1,,TRUE,TRUE,,,,,,,,,,,,,,,,-1.1,2.8,-3.9,,,,,,,,,METAR,179.0
PAMD 021751Z AUTO 36016G23KT 10SM CLR 04/M07 A3020 RMK AO2 SLP217 T00391067 10039 20033 57005,PAMD,2018-04-02T17:51:00Z,59.43,-146.3,3.9,-6.7,360,16,23,10.0,30.200787,1021.7,,TRUE,TRUE,,,,,,,CLR,,,,,,,,VFR,-0.5,3.9,3.3,,,,,,,,,METAR,14.0
KTPL 021751Z AUTO 01007KT 6SM BR OVC004 11/10 A2989 RMK AO2 SLP139 T01060100 10111 20094 58011,KTPL,2018-04-02T17:51:00Z,31.13,-97.4,10.6,10.0,10,7,,6.0,29.890747,1013.9,,TRUE,TRUE,,,,,,BR,OVC,400,,,,,,,LIFR,-1.1,11.1,9.4,,,,,,,,,SPECI,208.0
KOXC 021751Z 33006KT 10SM OVC018 01/M03 A3010 RMK AO2 UPB07E15RAB15E21SNE07 SLP211 P0014 60027 T00111033 10017 21022 56012,KOXC,2018-04-02T17:51:00Z,41.47,-73.13,1.1,-3.3,330,6,,10.0,30.100393,1021.1,,,TRUE,,,,,,,OVC,1800,,,,,,,MVFR,-1.2,1.7,-2.2,,,0.14,,0.27,,,,METAR,222.0
KOCF 021751Z VRB06KT 10SM BKN044 BKN075 28/18 A3005 RMK AO2 SLP176 T02780178 10283 20144 58012,KOCF,2018-04-02T17:51:00Z,29.17,-82.22,27.8,17.8,0,6,,10.0,30.050198,1017.6,,,TRUE,,,,,,,BKN,4400,BKN,7500,,,,,VFR,-1.2,28.3,14.4,,,,,,,,,METAR,27.0
KMPV 021751Z AUTO 21005KT 10SM FEW060 03/M11 A3007 RMK AO2 SLP197 T00281106 10033 21028 56011,KMPV,2018-04-02T17:51:00Z,44.2,-72.57,2.8,-10.6,210,5,,10.0,30.070866,1019.7,,TRUE,TRUE,,,,,,,FEW,6000,,,,,,,VFR,-1.1,3.3,-2.8,,,,,,,,,METAR,343.0
KLGU 021751Z AUTO 12/02 A2962 RMK AO2 PK WND 22048/1703 WSHFT 1726 RAB38RAEMM SLP004 P0000 60000 T01170022 53002 PWINO $,KLGU,2018-04-02T17:51:00Z,41.78,-111.85,11.7,2.2,,,,,29.619095,1000.4,,TRUE,TRUE,TRUE,,,,TRUE,,,,,,,,,,,0.2,,,,,0.005,,,,,,SPECI,1355.0
SCTN 021751Z 29006KT 9999 2000S VCFG FEW003 SCT200 14/11 Q1014,SCTN,2018-04-02T17:51:00Z,-42.92,-72.7,14.0,11.0,290,6,,6.21,29.940945,,,,,,,,,,VCFG,FEW,300,SCT,20000,,,,,VFR,,,,,,,,,,,,SPECI,4.0
KATT 021751Z AUTO 14007KT 110V180 10SM SCT027 SCT033 24/18 A2985 RMK AO2 SLP098 60000 T02390178 10244 20139 58020,KATT,2018-04-02T17:51:00Z,30.32,-97.77,23.9,17.8,140,7,,10.0,29.84941,1009.8,,TRUE,TRUE,,,,,,,SCT,2700,SCT,3300,,,,,VFR,-2.0,24.4,13.9,,,,,0.005,,,,METAR,201.0
EDFM 021750Z VRB02KT CAVOK 14/01 Q1005,EDFM,2018-04-02T17:50:00Z,49.47,8.52,14.0,1.0,0,2,,6.21,29.675198,,,,,,,,,,,CAVOK,,,,,,,,VFR,,,,,,,,,,,,METAR,100.0
OITL 021750Z 32004KT CAVOK 04/M00 Q1013,OITL,2018-04-02T17:50:00Z,38.33,48.42,4.0,0.0,320,4,,6.21,29.911417,,,,,,,,,,,CAVOK,,,,,,,,VFR,,,,,,,,,,,,METAR,1316.0
OICK 021750Z 29004KT CAVOK 15/M02 Q1017,OICK,2018-04-02T17:50:00Z,33.43,48.28,15.0,-2.0,290,4,,6.21,30.029528,,,,,,,,,,,CAVOK,,,,,,,,VFR,,,,,,,,,,,,METAR,1155.0
LIRU 021750Z 20004KT CAVOK 13/07 Q1018,LIRU,2018-04-02T17:50:00Z,41.95,12.5,13.0,7.0,200,4,,6.21,30.059055,,,,,,,,,,,CAVOK,,,,,,,,VFR,,,,,,,,,,,,METAR,24.0
LIQN 021750Z 17005KT 9999 SCT040 12/07 Q1017,LIQN,2018-04-02T17:50:00Z,42.42,12.83,12.0,7.0,170,5,,6.21,30.029528,,,,,,,,,,,SCT,4000,,,,,,,VFR,,,,,,,,,,,,METAR,389.0
LICR 021750Z 20012KT CAVOK 14/09 Q1019,LICR,2018-04-02T17:50:00Z,38.07,15.65,14.0,9.0,200,12,,6.21,30.088583,,,,,,,,,,,CAVOK,,,,,,,,VFR,,,,,,,,,,,,METAR,21.0
LICD 021750Z 13012KT CAVOK 15/11 Q1018,LICD,2018-04-02T17:50:00Z,35.5,12.62,15.0,11.0,130,12,,6.21,30.059055,,,,,,,,,,,CAVOK,,,,,,,,VFR,,,,,,,,,,,,METAR,20.0
LICB 021750Z 25005KT CAVOK 12/04 Q1019,LICB,2018-04-02T17:50:00Z,37.0,14.62,12.0,4.0,250,5,,6.21,30.088583,,,,,,,,,,,CAVOK,,,,,,,,VFR,,,,,,,,,,,,METAR,220.0
LICA 021750Z 23002KT 9999 FEW030 12/08 Q1019,LICA,2018-04-02T17:50:00Z,38.88,16.25,12.0,8.0,230,2,,6.21,30.088583,,,,,,,,,,,FEW,3000,,,,,,,VFR,,,,,,,,,,,,METAR,15.0
LIPY 021750Z 14009KT 100V180 CAVOK 14/02 Q1016,LIPY,2018-04-02T17:50:00Z,43.62,13.37,14.0,2.0,140,9,,6.21,30.0,,,,,,,,,,,CAVOK,,,,,,,,VFR,,,,,,,,,,,,METAR,10.0
LIPO 021750Z 29006KT 9999 SCT080 15/05 Q1015,LIPO,2018-04-02T17:50:00Z,45.42,10.33,15.0,5.0,290,6,,6.21,29.970472,,,,,,,,,,,SCT,8000,,,,,,,VFR,,,,,,,,,,,,METAR,109.0
LIMZ 021750Z 13006KT 9999 BKN080 11/07 Q1015,LIMZ,2018-04-02T17:50:00Z,44.53,7.62,11.0,7.0,130,6,,6.21,29.970472,,,,,,,,,,,BKN,8000,,,,,,,VFR,,,,,,,,,,,,METAR,380.0
LIMP 021750Z 25007KT CAVOK 16/01 Q1015,LIMP,2018-04-02T17:50:00Z,44.82,10.3,16.0,1.0,250,7,,6.21,29.970472,,,,,,,,,,,CAVOK,,,,,,,,VFR,,,,,,,,,,,,METAR,50.0
LIMG 021750Z 00000KT 9999 BKN030 13/08 Q1016,LIMG,2018-04-02T17:50:00Z,44.03,8.12,13.0,8.0,0,0,,6.21,30.0,,,,,,,,,,,BKN,3000,,,,,,,MVFR,,,,,,,,,,,,METAR,49.0
LIRZ 021750Z 22009KT 9999 FEW060 13/07 Q1017,LIRZ,2018-04-02T17:50:00Z,43.1,12.5,13.0,7.0,220,9,,6.21,30.029528,,,,,,,,,,,FEW,6000,,,,,,,VFR,,,,,,,,,,,,METAR,205.0
LIBP 021750Z 01005KT 330V050 CAVOK 14/06 Q1017,LIBP,2018-04-02T17:50:00Z,42.42,14.18,14.0,6.0,10,5,,6.21,30.029528,,,,,,,,,,,CAVOK,,,,,,,,VFR,,,,,,,,,,,,METAR,11.0
LIBG 021750Z 00000KT CAVOK 13/06 Q1018,LIBG,2018-04-02T17:50:00Z,40.52,17.38,13.0,6.0,0,0,,6.21,30.059055,,,,,,,,,,,CAVOK,,,,,,,,VFR,,,,,,,,,,,,METAR,69.0
LIBC 021750Z 21005KT CAVOK 11/09 Q1019,LIBC,2018-04-02T17:50:00Z,39.0,17.07,11.0,9.0,210,5,,6.21,30.088583,,,,,,,,,,,CAVOK,,,,,,,,VFR,,,,,,,,,,,,METAR,161.0
MMPQ 021750Z 09012KT 8SM FEW040 32/19 A297 RMK 8/100 HZY,MMPQ,2018-04-02T17:50:00Z,17.53,-91.98,32.0,19.0,90,12,,8.0,,,,,,,,,,,,FEW,4000,,,,,,,VFR,,,,,,,,,,,,METAR,61.0
ENSH 021750Z 34006KT 9999 FEW040 M02/M06 Q1005 RMK WIND 150FT 01003KT,ENSH,2018-04-02T17:50:00Z,68.25,14.67,-2.0,-6.0,340,6,,6.21,29.675198,,,,,,,,,,,FEW,4000,,,,,,,VFR,,,,,,,,,,,,METAR,9.0
OOSA 021750Z 18003KT 9999 FEW025 BKN250 27/23 Q1011 NOSIG,OOSA,2018-04-02T17:50:00Z,17.02,54.07,27.0,23.0,180,3,,6.21,29.852362,,,,,,TRUE,,,,,FEW,2500,BKN,25000,,,,,VFR,,,,,,,,,,,,METAR,20.0
OOMS 021750Z VRB02KT 9000 NSC 30/15 Q1010 NOSIG,OOMS,2018-04-02T17:50:00Z,23.57,58.27,30.0,15.0,0,2,,5.59,29.822834,,,,,,TRUE,,,,,CLR,,,,,,,,VFR,,,,,,,,,,,,METAR,8.0
EGXW 021750Z 17015KT 9999 SCT013 BKN038 10/09 Q0991 GRN,EGXW,2018-04-02T17:50:00Z,53.18,-0.52,10.0,9.0,170,15,,6.21,29.26181,,,,,,,,,,,SCT,1300,BKN,3800,,,,,VFR,,,,,,,,,,,,METAR,70.0
EGXV 021750Z AUTO 09003KT 1300 -RA FEW002/// BKN026/// 08/07 Q0991,EGXV,2018-04-02T17:50:00Z,53.87,-0.45,8.0,7.0,90,3,,0.81,29.26181,,,TRUE,,,,,,,-RA,FEW,200,BKN,2600,,,,,LIFR,,,,,,,,,,,,METAR,6.0
EGXC 021750Z 17013KT 9999 SCT013 BKN020 10/08 Q0992 GRN,EGXC,2018-04-02T17:50:00Z,53.1,-0.17,10.0,8.0,170,13,,6.21,29.291338,,,,,,,,,,,SCT,1300,BKN,2000,,,,,MVFR,,,,,,,,,,,,METAR,7.0
EGQS 021750Z 09012KT 9999 SCT016 SCT043 BKN050 04/00 Q1000 WHT,EGQS,2018-04-02T17:50:00Z,57.72,-3.32,4.0,0.0,90,12,,6.21,29.52756,,,,,,,,,,,SCT,1600,SCT,4300,BKN,5000,,,VFR,,,,,,,,,,,,METAR,13.0
EGQM 021750Z AUTO 07022KT 9999 -RA BKN008/// BKN013/// 03/02 Q0995,EGQM,2018-04-02T17:50:00Z,55.42,-1.6,3.0,2.0,70,22,,6.21,29.379921,,,TRUE,,,,,,,-RA,BKN,800,BKN,1300,,,,,IFR,,,,,,,,,,,,METAR,23.0
EGQL 021750Z 08019KT 6000 -RA BKN006 BKN014 02/01 Q0998 YLO1,EGQL,2018-04-02T17:50:00Z,56.38,-2.87,2.0,1.0,80,19,,3.73,29.468504,,,,,,,,,,-RA,BKN,600,BKN,1400,,,,,IFR,,,,,,,,,,,,METAR,12.0
LTFH 021750Z 34003KT 310V020 9999 FEW036 BKN100 09/07 Q1017 NOSIG,LTFH,2018-04-02T17:50:00Z,41.27,36.55,9.0,7.0,340,3,,6.21,30.029528,,,,,,TRUE,,,,,FEW,3600,BKN,10000,,,,,VFR,,,,,,,,,,,,METAR,5.0
LTDA 021750Z 28006KT CAVOK 16/13 Q1012 NOSIG,LTDA,2018-04-02T17:50:00Z,36.37,36.28,16.0,13.0,280,6,,6.21,29.88189,,,,,,TRUE,,,,,CAVOK,,,,,,,,VFR,,,,,,,,,,,,METAR,82.0
LTCF 021750Z 21013KT 9999 SCT035 08/M00 Q1013,LTCF,2018-04-02T17:50:00Z,40.57,43.12,8.0,0.0,210,13,,6.21,29.911417,,,,,,,,,,,SCT,3500,,,,,,,VFR,,,,,,,,,,,,METAR,1795.0
LTCD 021750Z 29012KT 9999 -TSRA SCT025CB BKN035 06/05 Q1015 RETSRA TEMPO TSRA,LTCD,2018-04-02T17:50:00Z,39.72,39.5,6.0,5.0,290,12,,6.21,29.970472,,,,,,,,,,-TSRA,SCT,2500,BKN,3500,,,,,VFR,,,,,,,,,,,,METAR,1215.0
LTCA 021750Z 31022G32KT 9999 FEW035 BKN100 13/03 Q1012 BECMG 1850 18008KT,LTCA,2018-04-02T17:50:00Z,38.6,39.27,13.0,3.0,310,22,32,6.21,29.88189,,,,,,,,,,,FEW,3500,BKN,10000,,,,,VFR,,,,,,,,,,,,SPECI,882.0
LTBY 021750Z 33006KT CAVOK 07/M01 Q1017,LTBY,2018-04-02T17:50:00Z,39.82,30.52,7.0,-1.0,330,6,,6.21,30.029528,,,,,,,,,,,CAVOK,,,,,,,,VFR,,,,,,,,,,,,METAR,789.0
LTAY 021750Z 18003KT 9999 FEW035 SCT100 09/03 Q1016,LTAY,2018-04-02T17:50:00Z,37.77,29.68,9.0,3.0,180,3,,6.21,30.0,,,,,,,,,,,FEW,3500,SCT,10000,,,,,VFR,,,,,,,,,,,,METAR,849.0
LTFG 021750Z 01003KT 350V070 CAVOK 13/13 Q1012,LTFG,2018-04-02T17:50:00Z,36.3,32.3,13.0,13.0,10,3,,6.21,29.88189,,,,,,,,,,,CAVOK,,,,,,,,VFR,,,,,,,,,,,,METAR,95.0
LTFD 021750Z 03002KT CAVOK 12/08 Q1017,LTFD,2018-04-02T17:50:00Z,39.55,27.02,12.0,8.0,30,2,,6.21,30.029528,,,,,,,,,,,CAVOK,,,,,,,,VFR,,,,,,,,,,,,METAR,16.0
LTCO 021750Z 14005KT 080V210 9999 FEW045 12/M01 Q1014,LTCO,2018-04-02T17:50:00Z,39.65,43.03,12.0,-1.0,140,5,,6.21,29.940945,,,,,,,,,,,FEW,4500,,,,,,,VFR,,,,,,,,,,,,METAR,1665.0
LTCN 021750Z 28017KT CAVOK 16/08 Q1012 NOSIG,LTCN,2018-04-02T17:50:00Z,37.53,36.95,16.0,8.0,280,17,,6.21,29.88189,,,,,,TRUE,,,,,CAVOK,,,,,,,,VFR,,,,,,,,,,,,METAR,526.0
LTCB 021750Z 17012KT 9999 SCT012 BKN028 10/05 Q1017 RESHRA,LTCB,2018-04-02T17:50:00Z,39.72,43.03,10.0,5.0,170,12,,6.21,30.029528,,,,,,,,,,,SCT,1200,BKN,2800,,,,,MVFR,,,,,,,,,,,,METAR,1632.0
LTBH 021750Z 20005KT 180V240 CAVOK 12/06 Q1017,LTBH,2018-04-02T17:50:00Z,40.13,26.42,12.0,6.0,200,5,,6.21,30.029528,,,,,,,,,,,CAVOK,,,,,,,,VFR,,,,,,,,,,,,METAR,3.0
LTBQ 021750Z 00000KT 9999 FEW035 06/05 Q1017 NOSIG,LTBQ,2018-04-02T17:50:00Z,40.72,30.07,6.0,5.0,0,0,,6.21,30.029528,,,,,,TRUE,,,,,FEW,3500,,,,,,,VFR,,,,,,,,,,,,METAR,50.0
LTBF 021750Z 00000KT 9999 SCT035 10/07 Q1017 NOSIG,LTBF,2018-04-02T17:50:00Z,39.62,27.92,10.0,7.0,0,0,,6.21,30.029528,,,,,,TRUE,,,,,SCT,3500,,,,,,,VFR,,,,,,,,,,,,METAR,102.0
LTAN 021750Z 35007KT CAVOK 07/01 Q1016 NOSIG,LTAN,2018-04-02T17:50:00Z,37.97,32.53,7.0,1.0,350,7,,6.21,30.0,,,,,,TRUE,,,,,CAVOK,,,,,,,,VFR,,,,,,,,,,,,METAR,1006.0
ENHE 021750Z 10011KT 050V120 9999 VCSH BKN020 01/M03 Q1004 W///S5,ENHE,2018-04-02T17:50:00Z,65.33,2.33,1.0,-3.0,100,11,,6.21,29.64567,,,,,,,,,,VCSH,BKN,2000,,,,,,,MVFR,,,,,,,,,,,,METAR,1.0
LGSM 021750Z 00000KT CAVOK 15/11 Q1016,LGSM,2018-04-02T17:50:00Z,37.68,26.92,15.0,11.0,0,0,,6.21,30.0,,,,,,,,,,,CAVOK,,,,,,,,VFR,,,,,,,,,,,,METAR,6.0
ENRM 021750Z 36003KT 9999 VCSH FEW007 SCT012 BKN050 M00/M01 Q1004,ENRM,2018-04-02T17:50:00Z,64.83,11.13,0.0,-1.0,360,3,,6.21,29.64567,,,,,,,,,,VCSH,FEW,700,SCT,1200,BKN,5000,,,VFR,,,,,,,,,,,,METAR,14.0
MUCL 021750Z 11011KT 080V140 9999 SCT020 28/20 Q1016,MUCL,2018-04-02T17:50:00Z,21.63,-81.55,28.0,20.0,110,11,,6.21,30.0,,,,,,,,,,,SCT,2000,,,,,,,VFR,,,,,,,,,,,,METAR,5.0
MUHG 021750Z 05010KT 020V090 9000 SCT025 BKN060 29/19 Q1014,MUHG,2018-04-02T17:50:00Z,20.77,-76.32,29.0,19.0,50,10,,5.59,29.940945,,,,,,,,,,,SCT,2500,BKN,6000,,,,,VFR,,,,,,,,,,,,METAR,106.0
MUCM 021750Z VRB09KT 9000 SCT020 29/16 Q1015,MUCM,2018-04-02T17:50:00Z,21.42,-77.85,29.0,16.0,0,9,,5.59,29.970472,,,,,,,,,,,SCT,2000,,,,,,,VFR,,,,,,,,,,,,METAR,122.0
MUCC 021750Z 08015KT 9000 SCT020 28/21 Q1015,MUCC,2018-04-02T17:50:00Z,22.47,-78.33,28.0,21.0,80,15,,5.59,29.970472,,,,,,,,,,,SCT,2000,,,,,,,VFR,,,,,,,,,,,,METAR,4.0
MUSC 021750Z 08010KT 050V130 9000 SCT020 28/16 Q1015,MUSC,2018-04-02T17:50:00Z,22.5,-79.95,28.0,16.0,80,10,,5.59,29.970472,,,,,,,,,,,SCT,2000,,,,,,,VFR,,,,,,,,,,,,METAR,103.0
MUVR 021750Z 06011KT 030V100 9000 SCT020 29/18 Q1016,MUVR,2018-04-02T17:50:00Z,23.03,-81.43,29.0,18.0,60,11,,5.59,30.0,,,,,,,,,,,SCT,2000,,,,,,,VFR,,,,,,,,,,,,METAR,65.0
PHJH 021750Z 17015G18KT 12SM FEW030 SCT060 BKN200 25/22 A2990,PHJH,2018-04-02T17:50:00Z,20.97,-156.67,25.0,22.0,170,15,18,12.0,29.899607,,,,,,,,,,,FEW,3000,SCT,6000,BKN,20000,,,VFR,,,,,,,,,,,,METAR,78.0
MMQT 021750Z 26012KT 10SM SCT020 SCT250 25/06 A3022 RMK 8/102 HZY,MMQT,2018-04-02T17:50:00Z,20.62,-100.18,25.0,6.0,260,12,,10.0,30.221457,,,,,,,,,,,SCT,2000,SCT,25000,,,,,VFR,,,,,,,,,,,,METAR,1919.0
LCRA 021750Z 26009KT CAVOK 17/14 Q1012 NOSIG,LCRA,2018-04-02T17:50:00Z,34.57,32.97,17.0,14.0,260,9,,6.21,29.88189,,,,,,TRUE,,,,,CAVOK,,,,,,,,VFR,,,,,,,,,,,,METAR,23.0
KOLV 021750Z 00000KT 7SM OVC013 12/11 A2996,KOLV,2018-04-02T17:50:00Z,34.98,-89.78,12.0,11.0,0,0,,7.0,29.958662,,,,,,,,,,,OVC,1300,,,,,,,MVFR,,,,,,,,,,,,METAR,122.0
KEFD 021750Z 15012KT 10SM SCT025 BKN250 28/18 A2994,KEFD,2018-04-02T17:50:00Z,29.6,-95.17,28.0,18.0,150,12,,10.0,29.940945,,,,,,,,,,,SCT,2500,BKN,25000,,,,,VFR,,,,,,,,,,,,METAR,10.0
EGOM 021750Z AUTO 07017KT 4100 -PL BKN003/// OVC010/// 00/00 Q0991,EGOM,2018-04-02T17:50:00Z,55.05,-2.55,0.0,0.0,70,17,,2.55,29.26181,,,TRUE,,,,,,,-PL,BKN,300,OVC,1000,,,,,LIFR,,,,,,,,,,,,METAR,325.0
EGDY 021750Z AUTO 19010KT 9999 SCT011/// BKN042/// 11/09 Q0993,EGDY,2018-04-02T17:50:00Z,51.0,-2.62,11.0,9.0,190,10,,6.21,29.320866,,,TRUE,,,,,,,,SCT,1100,BKN,4200,,,,,VFR,,,,,,,,,,,,METAR,23.0
EGDX 021750Z AUTO 21010KT 9999 FEW050/// 11/07 Q0991,EGDX,2018-04-02T17:50:00Z,51.4,-3.43,11.0,7.0,210,10,,6.21,29.26181,,,TRUE,,,,,,,,FEW,5000,,,,,,,VFR,,,,,,,,,,,,METAR,50.0
EGDR 021750Z AUTO 18016KT 8000 // BKN004/// 11/10 Q0990,EGDR,2018-04-02T17:50:00Z,50.08,-5.25,11.0,10.0,180,16,,4.97,29.232283,,,TRUE,,,,,,,,BKN,400,,,,,,,LIFR,,,,,,,,,,,,METAR,82.0
EGDM 021750Z AUTO 19010KT 9999 BKN008/// BKN015/// 10/09 Q0993,EGDM,2018-04-02T17:50:00Z,51.17,-1.75,10.0,9.0,190,10,,6.21,29.320866,,,TRUE,,,,,,,,BKN,800,BKN,1500,,,,,IFR,,,,,,,,,,,,METAR,124.0
EGUB 021750Z AUTO 18012KT 9999 // SCT015/// 10/09 Q0993,EGUB,2018-04-02T17:50:00Z,51.62,-1.07,10.0,9.0,180,12,,6.21,29.320866,,,TRUE,,,,,,,,SCT,1500,,,,,,,VFR,,,,,,,,,,,,METAR,63.0
EGQK 021750Z AUTO 08010KT 9999 FEW021/// BKN034/// 03/01 Q1000 RERA,EGQK,2018-04-02T17:50:00Z,57.65,-3.57,3.0,1.0,80,10,,6.21,29.52756,,,TRUE,,,,,,,,FEW,2100,BKN,3400,,,,,VFR,,,,,,,,,,,,METAR,7.0
EGOV 021750Z AUTO 19012KT 2000 BR OVC002/// 09/09 Q0987 RERA,EGOV,2018-04-02T17:50:00Z,53.25,-4.53,9.0,9.0,190,12,,1.24,29.143702,,,TRUE,,,,,,,BR,OVC,200,,,,,,,LIFR,,,,,,,,,,,,METAR,11.0
EGOS 021750Z AUTO 19010KT 9999 SCT019/// BKN026/// BKN060/// 11/09 Q0989 RERA,EGOS,2018-04-02T17:50:00Z,52.8,-2.67,11.0,9.0,190,10,,6.21,29.202755,,,TRUE,,,,,,,,SCT,1900,BKN,2600,BKN,6000,,,MVFR,,,,,,,,,,,,METAR,76.0
EGOP 021750Z AUTO 20018KT 3600 // FEW012/// BKN031/// 09/08 Q0990,EGOP,2018-04-02T17:50:00Z,51.72,-4.32,9.0,8.0,200,18,,2.24,29.232283,,,TRUE,,,,,,,,FEW,1200,BKN,3100,,,,,IFR,,,,,,,,,,,,METAR,6.0
EGXE 021750Z AUTO 34006KT 5000 RA FEW004/// BKN008/// 05/04 Q0991,EGXE,2018-04-02T17:50:00Z,54.28,-1.52,5.0,4.0,340,6,,3.11,29.26181,,,TRUE,,,,,,,RA,FEW,400,BKN,800,,,,,IFR,,,,,,,,,,,,METAR,40.0
EGVP 021750Z AUTO 20010KT 9999 // SCT010/// SCT023/// BKN048/// 11/09 Q0994,EGVP,2018-04-02T17:50:00Z,51.13,-1.57,11.0,9.0,200,10,,6.21,29.350393,,,TRUE,,,,,,,,SCT,1000,SCT,2300,BKN,4800,,,VFR,,,,,,,,,,,,METAR,91.0
EGVO 021750Z AUTO 18008KT 9999 BKN008/// SCT015/// BKN019/// 10/09 Q0994,EGVO,2018-04-02T17:50:00Z,51.23,-0.95,10.0,9.0,180,8,,6.21,29.350393,,,TRUE,,,,,,,,BKN,800,SCT,1500,BKN,1900,,,IFR,,,,,,,,,,,,METAR,123.0
EGUW 021750Z AUTO 19008KT 9999 SCT006/// BKN033/// 09/08 Q0995 REDZ,EGUW,2018-04-02T17:50:00Z,52.12,0.97,9.0,8.0,190,8,,6.21,29.379921,,,TRUE,,,,,,,,SCT,600,BKN,3300,,,,,VFR,,,,,,,,,,,,METAR,87.0
EGYM 021750Z AUTO 19010KT 9999 OVC011/// 10/08 Q0994,EGYM,2018-04-02T17:50:00Z,52.63,0.57,10.0,8.0,190,10,,6.21,29.350393,,,TRUE,,,,,,,,OVC,1100,,,,,,,MVFR,,,,,,,,,,,,METAR,23.0
EGYD 021750Z AUTO 17011KT 9999 // BKN010/// SCT016/// 10/08 Q0992,EGYD,2018-04-02T17:50:00Z,53.03,-0.5,10.0,8.0,170,11,,6.21,29.291338,,,TRUE,,,,,,,,BKN,1000,SCT,1600,,,,,MVFR,,,,,,,,,,,,METAR,67.0
EGXZ 021750Z AUTO 31006KT 7000 RA OVC003/// 05/05 Q0991,EGXZ,2018-04-02T17:50:00Z,54.2,-1.38,5.0,5.0,310,6,,4.35,29.26181,,,TRUE,,,,,,,RA,OVC,300,,,,,,,LIFR,,,,,,,,,,,,METAR,28.0
EGXU 021750Z AUTO 04006KT 5000 // BKN003/// SCT011/// BKN022/// 06/05 Q0991,EGXU,2018-04-02T17:50:00Z,54.05,-1.25,6.0,5.0,40,6,,3.11,29.26181,,,TRUE,,,,,,,,BKN,300,SCT,1100,BKN,2200,,,LIFR,,,,,,,,,,,,METAR,16.0
EGXT 021750Z AUTO 17010KT 9999 BKN009/// SCT013/// 10/08 Q0992,EGXT,2018-04-02T17:50:00Z,52.62,-0.47,10.0,8.0,170,10,,6.21,29.291338,,,TRUE,,,,,,,,BKN,900,SCT,1300,,,,,IFR,,,,,,,,,,,,METAR,84.0
EGXS 021750Z AUTO 17012KT 9999 // SCT010/// BKN040/// 10/09 Q0992,EGXS,2018-04-02T17:50:00Z,53.48,0.15,10.0,9.0,170,12,,6.21,29.291338,,,TRUE,,,,,,,,SCT,1000,BKN,4000,,,,,VFR,,,,,,,,,,,,METAR,3.0
EGXP 021750Z AUTO 18010KT 9999 // BKN017/// BKN040/// 11/09 Q0991,EGXP,2018-04-02T17:50:00Z,53.3,-0.55,11.0,9.0,180,10,,6.21,29.26181,,,TRUE,,,,,,,,BKN,1700,BKN,4000,,,,,MVFR,,,,,,,,,,,,METAR,61.0
HLLM 021750Z 10012KT 6000 SKC 17/11 Q1018,HLLM,2018-04-02T17:50:00Z,32.9,13.28,17.0,11.0,100,12,,3.73,30.059055,,,,,,,,,,,SKC,,,,,,,,MVFR,,,,,,,,,,,,METAR,11.0
KFIN 021750Z 11009KT 7SM SCT085 27/18 A3005,KFIN,2018-04-02T17:50:00Z,29.47,-81.2,27.0,18.0,110,9,,7.0,30.050198,,,,,,,,,,,SCT,8500,,,,,,,VFR,,,,,,,,,,,,METAR,10.0
KLAL 021750Z 21006KT 10SM BKN035 28/18 A3005,KLAL,2018-04-02T17:50:00Z,27.97,-82.02,28.0,18.0,210,6,,10.0,30.050198,,,,,,,,,,,BKN,3500,,,,,,,VFR,,,,,,,,,,,,METAR,43.0
LSMM 021750Z AUTO VRB02KT 9999NDV FEW120 10/00 Q1006 RMK,LSMM,2018-04-02T17:50:00Z,46.75,8.12,10.0,0.0,0,2,,,29.704725,,,TRUE,,,,,,,,FEW,12000,,,,,,,,,,,,,,,,,,,METAR,577.0
KHOB 021750Z 21010G16KT 10SM SKC 23/04 A2983,KHOB,2018-04-02T17:50:00Z,32.67,-103.22,23.0,4.0,210,10,16,10.0,29.828741,,,,,,,,,,,SKC,,,,,,,,VFR,,,,,,,,,,,,METAR,1115.0
BGKK 021750Z AUTO 24004KT 9999NDV NCD M03/M07 Q1022,BGKK,2018-04-02T17:50:00Z,65.57,-37.13,-3.0,-7.0,240,4,,,30.177166,,,TRUE,,,,,,,,CLR,,,,,,,,,,,,,,,,,,,,METAR,34.0
BGJN 021750Z 15004KT 9999 SCT200 M04/M10 Q1016,BGJN,2018-04-02T17:50:00Z,69.25,-51.07,-4.0,-10.0,150,4,,6.21,30.0,,,,,,,,,,,SCT,20000,,,,,,,VFR,,,,,,,,,,,,METAR,25.0
BGGH 021750Z 05006KT 020V080 9999 FEW200 06/M08 Q1016,BGGH,2018-04-02T17:50:00Z,64.2,-51.68,6.0,-8.0,50,6,,6.21,30.0,,,,,,,,,,,FEW,20000,,,,,,,VFR,,,,,,,,,,,,METAR,70.0
BGSF 021750Z AUTO 23003KT 9999NDV NCD M07/M11 Q1016,BGSF,2018-04-02T17:50:00Z,67.0,-50.72,-7.0,-11.0,230,3,,,30.0,,,TRUE,,,,,,,,CLR,,,,,,,,,,,,,,,,,,,,METAR,53.0
LLSD 021750Z VRB03KT CAVOK 19/15 Q1013,LLSD,2018-04-02T17:50:00Z,32.12,34.78,19.0,15.0,0,3,,6.21,29.911417,,,,,,,,,,,CAVOK,,,,,,,,VFR,,,,,,,,,,,,METAR,14.0
LLET 021750Z 02007KT CAVOK 29/06 Q1009,LLET,2018-04-02T17:50:00Z,29.55,34.95,29.0,6.0,20,7,,6.21,29.793306,,,,,,,,,,,CAVOK,,,,,,,,VFR,,,,,,,,,,,,METAR,13.0
LSMS 021750Z AUTO 09008KT 050V130 9999 FEW120 15/M04 Q1009,LSMS,2018-04-02T17:50:00Z,46.22,7.32,15.0,-4.0,90,8,,6.21,29.793306,,,TRUE,,,,,,,,FEW,12000,,,,,,,VFR,,,,,,,,,,,,METAR,481.0
LSMP 021750Z AUTO 35002KT 9999NDV FEW140 08/03 Q1007 RMK,LSMP,2018-04-02T17:50:00Z,46.82,6.92,8.0,3.0,350,2,,,29.734253,,,TRUE,,,,,,,,FEW,14000,,,,,,,,,,,,,,,,,,,METAR,491.0
LSME 021750Z AUTO 00000KT 9999NDV SCT120 11/03 Q1006 RMK,LSME,2018-04-02T17:50:00Z,47.1,8.3,11.0,3.0,0,0,,,29.704725,,,TRUE,,,,,,,,SCT,12000,,,,,,,,,,,,,,,,,,,METAR,427.0
LSMD 021750Z AUTO 31003KT 9999NDV SCT100 BKN130 13/03 Q1006 RMK,LSMD,2018-04-02T17:50:00Z,47.4,8.65,13.0,3.0,310,3,,,29.704725,,,TRUE,,,,,,,,SCT,10000,BKN,13000,,,,,,,,,,,,,,,,,METAR,448.0
LSMA 021750Z AUTO VRB02KT 9999NDV FEW120 BKN140 09/04 Q1006 RMK,LSMA,2018-04-02T17:50:00Z,46.95,8.28,9.0,4.0,0,2,,,29.704725,,,TRUE,,,,,,,,FEW,12000,BKN,14000,,,,,,,,,,,,,,,,,METAR,444.0
LSZL 021750Z AUTO 00000KT 9999NDV BKN061 14/04 Q1014 RMK,LSZL,2018-04-02T17:50:00Z,46.17,8.88,14.0,4.0,0,0,,,29.940945,,,TRUE,,,,,,,,BKN,6100,,,,,,,,,,,,,,,,,,,SPECI,600.0
KDAG 021750Z AUTO 28018G23KT 10SM CLR 24/02 A2977 RMK AO2 SLP057 T02440022 10244 20156 58000,KDAG,2018-04-02T17:50:00Z,34.85,-116.78,24.4,2.2,280,18,23,10.0,29.769686,1005.7,,TRUE,TRUE,,,,,,,CLR,,,,,,,,VFR,0.0,24.4,15.6,,,,,,,,,SPECI,587.0
KCIC 021750Z 31012KT 80SM FEW200 18/03 A2989,KCIC,2018-04-02T17:50:00Z,39.78,-121.83,18.0,3.0,310,12,,80.0,29.890747,,,,,,,,,,,FEW,20000,,,,,,,VFR,,,,,,,,,,,,METAR,73.0
PTYA 021750Z VRB05KT 12SM FEW016 BKN300 26/23 A2976 RMK SLP078 8/107 T02630228 10270 20263 57008,PTYA,2018-04-02T17:50:00Z,9.48,138.08,26.3,22.8,0,5,,12.0,29.760826,1007.8,,,,,,,,,,FEW,1600,BKN,30000,,,,,VFR,-0.8,27.0,26.3,,,,,,,,,METAR,17.0
KGPM 021750Z 05006KT 10SM OVC011 08/06 A2993,KGPM,2018-04-02T17:50:00Z,32.7,-97.05,8.0,6.0,50,6,,10.0,29.929134,,,,,,,,,,,OVC,1100,,,,,,,MVFR,,,,,,,,,,,,METAR,180.0
OAMS 021750Z 24008KT 9999 SCT150 BKN180 17/03 Q1016 BLU BLU,OAMS,2018-04-02T17:50:00Z,36.7,67.2,17.0,3.0,240,8,,6.21,30.0,,,,,,,,,,,SCT,15000,BKN,18000,,,,,VFR,,,,,,,,,,,,METAR,378.0
KSBD 021750Z 00000KT 03SM HZ OVC019 14/08 A2991,KSBD,2018-04-02T17:50:00Z,34.08,-117.25,14.0,8.0,0,0,,3.0,29.911417,,,,,,,,,,HZ,OVC,1900,,,,,,,MVFR,,,,,,,,,,,,METAR,353.0
KSQL 021750Z VRB05KT 10SM BKN180 15/10 A2993,KSQL,2018-04-02T17:50:00Z,37.52,-122.25,15.0,10.0,0,5,,10.0,29.929134,,,,,,,,,,,BKN,18000,,,,,,,VFR,,,,,,,,,,,,METAR,1.0
KHQZ 021750Z 00000KT 7SM OVC010 09/06 A2994,KHQZ,2018-04-02T17:50:00Z,32.75,-96.53,9.0,6.0,0,0,,7.0,29.940945,,,,,,,,,,,OVC,1000,,,,,,,MVFR,,,,,,,,,,,,METAR,136.0
KHSA 021750Z 16004KT 7SM SCT055 25/18 A3003,KHSA,2018-04-02T17:50:00Z,30.37,-89.45,25.0,18.0,160,4,,7.0,30.029528,,,,,,,,,,,SCT,5500,,,,,,,VFR,,,,,,,,,,,,METAR,7.0
MSLP 021750Z 16010G20KT 100V230 9999 FEW070 33/21 Q1010 A2983 NOSIG,MSLP,2018-04-02T17:50:00Z,13.43,-89.05,33.0,21.0,160,10,20,6.21,29.822834,,,,,,TRUE,,,,,FEW,7000,,,,,,,VFR,,,,,,,,,,,,METAR,25.0
KVQQ 021750Z 21008KT 10SM BKN055 27/19 A3004,KVQQ,2018-04-02T17:50:00Z,30.22,-81.88,27.0,19.0,210,8,,10.0,30.041338,,,,,,,,,,,BKN,5500,,,,,,,VFR,,,,,,,,,,,,METAR,25.0
KHXD 021750Z 17008KT 10SM SKC 25/18 A3004,KHXD,2018-04-02T17:50:00Z,32.22,-80.7,25.0,18.0,170,8,,10.0,30.041338,,,,,,,,,,,SKC,,,,,,,,VFR,,,,,,,,,,,,METAR,6.0
OAKB 021750Z 35015KT 9999 FEW080 BKN120 18/04 Q1021 NOSIG RMK A3016 BLU BLU,OAKB,2018-04-02T17:50:00Z,34.55,69.22,18.0,4.0,350,15,,6.21,30.147638,,,,,,TRUE,,,,,FEW,8000,BKN,12000,,,,,VFR,,,,,,,,,,,,METAR,1791.0
TJBQ 021750Z 05009KT 10SM BKN048 26/19 A2996,TJBQ,2018-04-02T17:50:00Z,18.5,-67.13,26.0,19.0,50,9,,10.0,29.958662,,,,,,,,,,,BKN,4800,,,,,,,VFR,,,,,,,,,,,,METAR,72.0
KNQA 021750Z 09003KT 10SM OVC012 10/08 A2998,KNQA,2018-04-02T17:50:00Z,35.35,-89.87,10.0,8.0,90,3,,10.0,29.97933,,,,,,,,,,,OVC,1200,,,,,,,MVFR,,,,,,,,,,,,METAR,86.0
ETNG 021750Z 19007KT CAVOK 13/05 Q1001,ETNG,2018-04-02T17:50:00Z,50.97,6.03,13.0,5.0,190,7,,6.21,29.557087,,,,,,,,,,,CAVOK,,,,,,,,VFR,,,,,,,,,,,,SPECI,98.0
EGYP 021750Z 28013KT 9999 FEW012 SCT100 BKN250 17/10 Q0993 BLU NOSIG,EGYP,2018-04-02T17:50:00Z,-51.82,-58.45,17.0,10.0,280,13,,6.21,29.320866,,,,,,TRUE,,,,,FEW,1200,SCT,10000,BKN,25000,,,VFR,,,,,,,,,,,,METAR,74.0
EGWU 021750Z 19007KT 9999 OVC009 11/09 Q0994 TEMPO FEW009 BKN030,EGWU,2018-04-02T17:50:00Z,51.55,-0.42,11.0,9.0,190,7,,6.21,29.350393,,,,,,,,,,,OVC,900,,,,,,,IFR,,,,,,,,,,,,METAR,40.0
ENAT 021750Z 20004KT CAVOK M04/M09 Q1010 RMK WIND 700FT 18006KT,ENAT,2018-04-02T17:50:00Z,69.97,23.37,-4.0,-9.0,200,4,,6.21,29.822834,,,,,,,,,,,CAVOK,,,,,,,,VFR,,,,,,,,,,,,METAR,3.0
EEKE 021750Z AUTO 31010KT 270V340 9999NDV BKN013 BKN020 OVC023 00/M00 Q0998,EEKE,2018-04-02T17:50:00Z,58.23,22.52,0.0,0.0,310,10,,,29.468504,,,TRUE,,,,,,,,BKN,1300,BKN,2000,OVC,2300,,,,,,,,,,,,,,,METAR,4.0
ENEV 021750Z 17003KT 120V240 CAVOK M02/M10 Q1006 RMK WIND 1400FT 11008KT,ENEV,2018-04-02T17:50:00Z,68.52,16.67,-2.0,-10.0,170,3,,6.21,29.704725,,,,,,,,,,,CAVOK,,,,,,,,VFR,,-0.8,,,,,,,,,,METAR,26.0
ENDU 021750Z 17005KT 9999 FEW040 M03/M09 Q1006 RMK WIND 1100FT 20005KT WIND 2200FT 14012KT,ENDU,2018-04-02T17:50:00Z,69.03,18.55,-3.0,-9.0,170,5,,6.21,29.704725,,,,,,,,,,,FEW,4000,,,,,,,VFR,,,0.5,,,,,,,,,METAR,79.0
EETU 021750Z 27013KT 9999 -SN BKN005 OVC018 00/00 Q0991,EETU,2018-04-02T17:50:00Z,58.32,26.68,0.0,0.0,270,13,,6.21,29.26181,,,,,,,,,,-SN,BKN,500,OVC,1800,,,,,IFR,,,,,,,,,,,,METAR,67.0
LGKL 021750Z 01010KT 9999 FEW025 14/07 Q1018,LGKL,2018-04-02T17:50:00Z,37.07,22.02,14.0,7.0,10,10,,6.21,30.059055,,,,,,,,,,,FEW,2500,,,,,,,VFR,,,,,,,,,,,,METAR,8.0
ENSB 021750Z 13014KT CAVOK M11/M18 Q1028 RMK WIND 1400FT 11019KT,ENSB,2018-04-02T17:50:00Z,78.25,15.47,-11.0,-18.0,130,14,,6.21,30.35433,,,,,,,,,,,CAVOK,,,,,,,,VFR,,-1.9,,,,,,,,,,METAR,29.0
ENOA 021750Z 06011KT 010V100 CAVOK 03/M04 Q1005 W///S4,ENOA,2018-04-02T17:50:00Z,60.5,2.83,3.0,-4.0,60,11,,6.21,29.675198,,,,,,,,,,,CAVOK,,,,,,,,VFR,,,,,,,,,,,,METAR,5.0
ENGC 021750Z 09008KT 9999 SCT015 03/M04 Q1006 W04/S4,ENGC,2018-04-02T17:50:00Z,61.02,2.02,3.0,-4.0,90,8,,6.21,29.704725,,,,,,,,,,,SCT,1500,,,,,,,VFR,,,,,,,,,,,,METAR,10.0
ENSS 021750Z 09017KT 9999 BKN026 00/M05 Q1012 RMK WIND 500FT 08022KT,ENSS,2018-04-02T17:50:00Z,70.33,31.05,0.0,-5.0,90,17,,6.21,29.88189,,,,,,,,,,,BKN,2600,,,,,,,MVFR,,,,,,,,,,,,METAR,12.0
ENSR 021750Z 13006KT CAVOK M04/M10 Q1008 WIND 1119FT 12012KT,ENSR,2018-04-02T17:50:00Z,69.77,20.97,-4.0,-10.0,130,6,,6.21,29.763779,,,,,,,,,,,CAVOK,,,,,,,,VFR,,,,,,,,,,,,METAR,6.0
ENSG 021750Z 00000KT 9999 FEW045 M04/M11 Q1003 RMK WIND 3806FT VRB02KT,ENSG,2018-04-02T17:50:00Z,61.13,7.12,-4.0,-11.0,0,0,,6.21,29.616142,,,,,,,,,,,FEW,4500,,,,,,,VFR,,,,,,,,,,,,METAR,497.0
ENVD 021750Z 07017KT 9999 VCSH SCT015 BKN025 M00/M04 Q1010,ENVD,2018-04-02T17:50:00Z,70.07,29.85,0.0,-4.0,70,17,,6.21,29.822834,,,,,,,,,,VCSH,SCT,1500,BKN,2500,,,,,MVFR,,,,,,,,,,,,METAR,39.0
ENSO 021750Z 32005KT 270V360 9999 FEW022 FEW032CB SCT180 03/M01 Q1005,ENSO,2018-04-02T17:50:00Z,59.78,5.33,3.0,-1.0,320,5,,6.21,29.675198,,,,,,,,,,,FEW,2200,FEW,3200,SCT,18000,,,VFR,,,,,,,,,,,,METAR,49.0
ENSK 021750Z 34003KT 9999 FEW025 M04/M08 Q1006,ENSK,2018-04-02T17:50:00Z,68.57,15.02,-4.0,-8.0,340,3,,6.21,29.704725,,,,,,,,,,,FEW,2500,,,,,,,VFR,,,,,,,,,,,,METAR,3.0
LOXZ 021750Z 32004KT 40KM FEW060CU SCT160AC BKN230CI 08/M01 Q1012,LOXZ,2018-04-02T17:50:00Z,47.2,14.75,8.0,-1.0,320,4,,24.86,29.88189,,,,,,,,,,,FEW,6000,,,,,,,VFR,,,,,,,,,,,,METAR,682.0
LGSK 021750Z 00000KT 9999 FEW020 13/09 Q1016,LGSK,2018-04-02T17:50:00Z,39.18,23.5,13.0,9.0,0,0,,6.21,30.0,,,,,,,,,,,FEW,2000,,,,,,,VFR,,,,,,,,,,,,METAR,15.0
LGRX 021750Z 00000KT 9999 FEW030 14/10 Q1019,LGRX,2018-04-02T17:50:00Z,38.17,21.42,14.0,10.0,0,0,,6.21,30.088583,,,,,,,,,,,FEW,3000,,,,,,,VFR,,,,,,,,,,,,METAR,15.0
LGPZ 021750Z 25012KT 9999 FEW025 14/11 Q1019 RMK SCT180 BLU,LGPZ,2018-04-02T17:50:00Z,38.92,20.77,14.0,11.0,250,12,,6.21,30.088583,,,,,,,,,,,FEW,2500,,,,,,,VFR,,,,,,,,,,,,METAR,4.0
ENBS 021750Z VRB04KT 9999 FEW020 SCT031 BKN045 M03/M07 Q1011,ENBS,2018-04-02T17:50:00Z,70.62,29.72,-3.0,-7.0,0,4,,6.21,29.852362,,,,,,,,,,,FEW,2000,SCT,3100,BKN,4500,,,VFR,,,,,,,,,,,,METAR,10.0
LGKF 021750Z 33013KT 9999 FEW018 14/11 Q1019,LGKF,2018-04-02T17:50:00Z,38.12,20.5,14.0,11.0,330,13,,6.21,30.088583,,,,,,,,,,,FEW,1800,,,,,,,VFR,,,,,,,,,,,,METAR,18.0
LGHI 021750Z 00000KT CAVOK 13/07 Q1016,LGHI,2018-04-02T17:50:00Z,38.32,26.12,13.0,7.0,0,0,,6.21,30.0,,,,,,,,,,,CAVOK,,,,,,,,VFR,,,,,,,,,,,,METAR,4.0
LGBL 021750Z 08005KT 9999 FEW040 13/08 Q1016,LGBL,2018-04-02T17:50:00Z,39.22,22.8,13.0,8.0,80,5,,6.21,30.0,,,,,,,,,,,FEW,4000,,,,,,,VFR,,,,,,,,,,,,METAR,26.0
LXGB 021750Z 27010KT 9999 FEW040 SCT170 18/11 Q1009 NOSIG,LXGB,2018-04-02T17:50:00Z,36.13,-5.33,18.0,11.0,270,10,,6.21,29.793306,,,,,,TRUE,,,,,FEW,4000,SCT,17000,,,,,VFR,,,,,,,,,,,,METAR,5.0
NSTU 021750Z VRB04KT 12SM FEW023 SCT110 BKN220 27/24 A2981 RMK SLP097 8/801 T02650242 10268 20254 52007,NSTU,2018-04-02T17:50:00Z,-14.33,-170.72,26.5,24.2,0,4,,12.0,29.811024,1009.7,,,,,,,,,,FEW,2300,SCT,11000,BKN,22000,,,VFR,0.7,26.8,25.4,,,,,,,,,METAR,3.0
MSLU 021750Z 06004KT CAVOK 33/19 Q1009 A2982,MSLU,2018-04-02T17:50:00Z,13.33,-87.88,33.0,19.0,60,4,,6.21,29.793306,,,,,,,,,,,CAVOK,,,,,,,,VFR,,,,,,,,,,,,SPECI,5.0
MSSM 021750Z 07002KT 9999 FEW033 35/15 Q1009 A2982,MSSM,2018-04-02T17:50:00Z,13.43,-88.12,35.0,15.0,70,2,,6.21,29.793306,,,,,,,,,,,FEW,3300,,,,,,,VFR,,,,,,,,,,,,SPECI,80.0
MSSS 021750Z 35006KT CAVOK 31/16 Q1014 A2995,MSSS,2018-04-02T17:50:00Z,13.7,-89.12,31.0,16.0,350,6,,6.21,29.940945,,,,,,,,,,,CAVOK,,,,,,,,VFR,,,,,,,,,,,,SPECI,616.0
MSSA 021750Z 36002KT 9999 FEW037 33/10 Q1017 A3006,MSSA,2018-04-02T17:50:00Z,13.97,-89.57,33.0,10.0,360,2,,6.21,30.029528,,,,,,,,,,,FEW,3700,,,,,,,VFR,,,,,,,,,,,,SPECI,725.0
MSAC 021750Z 19005KT 9999 FEW037 33/19 Q1008 A2978,MSAC,2018-04-02T17:50:00Z,13.57,-89.83,33.0,19.0,190,5,,6.21,29.763779,,,,,,,,,,,FEW,3700,,,,,,,VFR,,,,,,,,,,,,SPECI,15.0
LIBD 021750Z VRB02KT CAVOK 13/09 Q1018,LIBD,2018-04-02T17:50:00Z,41.12,16.77,13.0,9.0,0,2,,6.21,30.059055,,,,,,,,,,,CAVOK,,,,,,,,VFR,,,,,,,,,,,,METAR,44.0
LIPB 021750Z 15007KT 120V190 CAVOK 15/M01 Q1013,LIPB,2018-04-02T17:50:00Z,46.47,11.32,15.0,-1.0,150,7,,6.21,29.911417,,,,,,,,,,,CAVOK,,,,,,,,VFR,,,,,,,,,,,,METAR,241.0
EGBJ 021750Z 20011KT 170V230 9999 FEW012 SCT018 13/09 Q0991,EGBJ,2018-04-02T17:50:00Z,51.9,-2.17,13.0,9.0,200,11,,6.21,29.26181,,,,,,,,,,,FEW,1200,SCT,1800,,,,,VFR,,,,,,,,,,,,METAR,29.0
EGNR 021750Z 17005KT 4000 -RA SCT003 OVC005 09/08 Q0989,EGNR,2018-04-02T17:50:00Z,53.17,-2.97,9.0,8.0,170,5,,2.49,29.202755,,,,,,,,,,-RA,SCT,300,OVC,500,,,,,IFR,,,,,,,,,,,,METAR,10.0
KDPG 021750Z 24007KT 40SM SCT120 BKN180 OVC210 15/M05 A2968 RMK VIRGA DSNT N-SE ACSL DSNT ALQDS SLP020 T01501052 10152 20019 58006,KDPG,2018-04-02T17:50:00Z,40.2,-112.92,15.0,-5.2,240,7,,40.0,29.681103,1002.0,,,,,,,,,,SCT,12000,BKN,18000,OVC,21000,,,VFR,-0.6,15.2,1.9,,,,,,,,,SPECI,1326.0
NZSP 021750Z 12004KT 2400 IC BR FEW000 FEW030 SCT080 M60/ A2900 RMK BR FEW000 CLN AIR 11008KT ALL WNDS GRID,NZSP,2018-04-02T17:50:00Z,-89.98,179.98,-60.0,,120,4,,1.49,28.999016,,,,,,,,,,IC BR,FEW,0,FEW,3000,SCT,8000,,,IFR,,-0.8,,,,,,,,,,SPECI,2830.0
KSUA 021750Z 12010KT 7SM SCT035 27/18 A3006,KSUA,2018-04-02T17:50:00Z,27.18,-80.22,27.0,18.0,120,10,,7.0,30.059055,,,,,,,,,,,SCT,3500,,,,,,,VFR,,,,,,,,,,,,METAR,6.0
MMTM 021749Z E10018KT 5SM SCT010 28/22 A2989 RMK SLP117 57009 934 8/100 HZY,MMTM,2018-04-02T17:49:00Z,22.27,-97.87,28.0,22.0,100,18,,5.0,29.890747,1011.7,,,,,,,,,,SCT,1000,,,,,,,MVFR,-0.9,,,,,,,,,,,METAR,24.0
KMMU 021748Z 08004KT 10SM OVC022 03/M01 A3014,KMMU,2018-04-02T17:48:00Z,40.78,-74.42,3.0,-1.0,80,4,,10.0,30.138779,,,,,,,,,,,OVC,2200,,,,,,,MVFR,,,,,,,,,,,,METAR,57.0
KJDN 021748Z AUTO 05011KT M06/M09 A2974 RMK AO1 SLP108 P0002 60006 T10611094 11061 21078 51008,KJDN,2018-04-02T17:48:00Z,47.33,-106.95,-6.1,-9.4,50,11,,,29.740158,1010.8,,TRUE,TRUE,,,,,,,,,,,,,,,,0.8,-6.1,-7.8,,,0.02,,0.06,,,,METAR,801.0
KRYY 021748Z 24008KT 10SM CLR 26/08 A3000 RMK AO2 SLP880 T02560078 10256 20128 58009,KRYY,2018-04-02T17:48:00Z,34.02,-84.6,25.6,7.8,240,8,,10.0,30.0,988.0,,,TRUE,,,,,,,CLR,,,,,,,,VFR,-0.9,25.6,12.8,,,,,,,,,SPECI,317.0
KAEG 021748Z 23024G30KT 10SM FEW130 SCT170 21/M13 A2987,KAEG,2018-04-02T17:48:00Z,35.13,-106.8,21.0,-13.0,230,24,30,10.0,29.870079,,,,,,,,,,,FEW,13000,SCT,17000,,,,,VFR,,,,,,,,,,,,METAR,1779.0
KBAK 021748Z 13007KT 10SM OVC017 04/ A3010,KBAK,2018-04-02T17:48:00Z,39.27,-85.9,4.0,,130,7,,10.0,30.100393,,,,,,,,,,,OVC,1700,,,,,,,MVFR,,,,,,,,,,,,METAR,200.0
KASG 021748Z 16005KT 9SM OVC005 09/09 A2988,KASG,2018-04-02T17:48:00Z,36.17,-94.12,9.0,9.0,160,5,,9.0,29.878937,,,,,,,,,,,OVC,500,,,,,,,IFR,,,,,,,,,,,,METAR,412.0
MMMM 021747Z 02007KT 7SM SCT030 25/07 A3018 RMK SLP081 57004 962 8/500 TCU/SE HY,MMMM,2018-04-02T17:47:00Z,19.85,-101.02,25.0,7.0,20,7,,7.0,30.180119,1008.1,,,,,,,,,,SCT,3000,,,,,,,VFR,-0.4,,,,,,,,,,,METAR,1833.0
MMML 021747Z 11007KT 10SM SCT200 25/04 A2976 RMK SLP078 52007 973 8/002,MMML,2018-04-02T17:47:00Z,32.62,-115.23,25.0,4.0,110,7,,10.0,29.760826,1007.8,,,,,,,,,,SCT,20000,,,,,,,VFR,0.7,,,,,,,,,,,METAR,22.0
KEVB 021747Z 14010KT 5SM -RA FEW004 SCT055 BKN070 22/20 A3006,KEVB,2018-04-02T17:47:00Z,29.05,-80.95,22.0,20.0,140,10,,5.0,30.059055,,,,,,,,,,-RA,FEW,400,SCT,5500,BKN,7000,,,MVFR,,,,,,,,,,,,METAR,3.0
KBVI 021747Z 00000KT 10SM BKN020 OVC025 02/M01 A3012,KBVI,2018-04-02T17:47:00Z,40.77,-80.4,2.0,-1.0,0,0,,10.0,30.121063,,,,,,,,,,,BKN,2000,OVC,2500,,,,,MVFR,,,,,,,,,,,,METAR,382.0
KGYR 021747Z 05004KT 10SM SCT250 27/M05 A2978,KGYR,2018-04-02T17:47:00Z,33.42,-112.37,27.0,-5.0,50,4,,10.0,29.778543,,,,,,,,,,,SCT,25000,,,,,,,VFR,,,,,,,,,,,,METAR,295.0
KPAO 021747Z VRB04KT 10SM FEW030 BKN200 A2993,KPAO,2018-04-02T17:47:00Z,37.47,-122.12,,,0,4,,10.0,29.929134,,,,,,,,,,,FEW,3000,BKN,20000,,,,,VFR,,,,,,,,,,,,METAR,2.0
KWDG 021747Z 16013KT 4SM BR OVC007 03/01 A2983,KWDG,2018-04-02T17:47:00Z,36.37,-97.77,3.0,1.0,160,13,,4.0,29.828741,,,,,,,,,,BR,OVC,700,,,,,,,IFR,,,,,,,,,,,,METAR,356.0
KTIX 021747Z 11012KT 7SM BKN036 29/19 A3005,KTIX,2018-04-02T17:47:00Z,28.5,-80.8,29.0,19.0,110,12,,7.0,30.050198,,,,,,,,,,,BKN,3600,,,,,,,VFR,,,,,,,,,,,,METAR,11.0
KIWA 021747Z 14006KT 45SM SCT200 26/M07 A2981,KIWA,2018-04-02T17:47:00Z,33.3,-111.65,26.0,-7.0,140,6,,45.0,29.811024,,,,,,,,,,,SCT,20000,,,,,,,VFR,,,,,,,,,,,,METAR,412.0
KCHD 021747Z 18010KT 10SM SCT200 27/M09 A2979,KCHD,2018-04-02T17:47:00Z,33.27,-111.82,27.0,-9.0,180,10,,10.0,29.790354,,,,,,,,,,,SCT,20000,,,,,,,VFR,,,,,,,,,,,,METAR,379.0
KBCT 021747Z 10009KTKT 10SM SCT022 28/19 A3005,KBCT,2018-04-02T17:47:00Z,26.38,-80.1,28.0,19.0,,,,10.0,30.050198,,,,,,,,,,,SCT,2200,,,,,,,VFR,,0.9,,,,,,,,,,METAR,4.0
KSUN 021747Z 31024G34KT 10SM SCT070 SCT100 05/M17 A2960,KSUN,2018-04-02T17:47:00Z,43.5,-114.28,5.0,-17.0,310,24,34,10.0,29.601377,,,,,,,,,,,SCT,7000,SCT,10000,,,,,VFR,,,,,,,,,,,,METAR,1620.0
KSEE 021747Z 00000KT 10SM OVC028 16/09 A2991,KSEE,2018-04-02T17:47:00Z,32.82,-116.97,16.0,9.0,0,0,,10.0,29.911417,,,,,,,,,,,OVC,2800,,,,,,,MVFR,,,,,,,,,,,,METAR,117.0
KFFZ 021747Z 17012G17KT 40SM SCT150 26/M07 A2980,KFFZ,2018-04-02T17:47:00Z,33.47,-111.72,26.0,-7.0,170,12,17,40.0,29.799213,,,,,,,,,,,SCT,15000,,,,,,,VFR,,,,,,,,,,,,METAR,424.0
KFDK 021747Z 030007KT 10SM OVC016 08/02 A3015,KFDK,2018-04-02T17:47:00Z,39.42,-77.37,8.0,2.0,30,7,,10.0,30.15059,,,,,,,,,,,OVC,1600,,,,,,,MVFR,,,,,,,,,,,,METAR,92.0
KPOC 021747Z 00000KT 10SM OVC020 13/08 A2993,KPOC,2018-04-02T17:47:00Z,34.1,-117.77,13.0,8.0,0,0,,10.0,29.929134,,,,,,,,,,,OVC,2000,,,,,,,MVFR,,,,,,,,,,,,METAR,308.0
KLBE 021747Z 00000KT 20SM OVC027 04/M02 A3011,KLBE,2018-04-02T17:47:00Z,40.27,-79.4,4.0,-2.0,0,0,,20.0,30.109253,,,,,,,,,,,OVC,2700,,,,,,,MVFR,,,,,,,,,,,,METAR,361.0
KESN 021747Z 02008KT 10SM OVC020 08/02 A3015,KESN,2018-04-02T17:47:00Z,38.8,-76.07,8.0,2.0,20,8,,10.0,30.15059,,,,,,,,,,,OVC,2000,,,,,,,MVFR,,,,,,,,,,,,METAR,22.0
KRHV 021747Z 31007KT 10SM BKN110 16/09 A2992,KRHV,2018-04-02T17:47:00Z,37.32,-121.82,16.0,9.0,310,7,,10.0,29.920275,,,,,,,,,,,BKN,11000,,,,,,,VFR,,,,,,,,,,,,METAR,41.0
KGYH 021747Z 23013G19KT 10SM SKC 26/07 A2997,KGYH,2018-04-02T17:47:00Z,34.75,-82.38,26.0,7.0,230,13,19,10.0,29.970472,,,,,,,,,,,SKC,,,,,,,,VFR,,,,,,,,,,,,METAR,292.0
KBJC 021747Z 29015KT 20SM FEW140 BKN200 20/M07 A2951,KBJC,2018-04-02T17:47:00Z,39.9,-105.1,20.0,-7.0,290,15,,20.0,29.509842,,,,,,,,,,,FEW,14000,BKN,20000,,,,,VFR,,,,,,,,,,,,METAR,1724.0
FAEO 021747Z 27003KT 9999 FEW035CB BKN070 16/13 Q1024 RETS,FAEO,2018-04-02T17:47:00Z,-26.5,29.97,16.0,13.0,270,3,,6.21,30.236221,,,,,,,,,,,FEW,3500,BKN,7000,,,,,VFR,,,,,,,,,,,,SPECI,1737.0
KADS 021747Z 09005KT 7SM OVC010 08/05 A2991,KADS,2018-04-02T17:47:00Z,32.97,-96.82,8.0,5.0,90,5,,7.0,29.911417,,,,,,,,,,,OVC,1000,,,,,,,MVFR,,,,,,,,,,,,METAR,196.0
MMZO 021746Z 24008KT 10SM FEW250 29/22 A2988 RMK SLP105 5//// 9// 8/004,MMZO,2018-04-02T17:46:00Z,19.13,-104.57,29.0,22.0,240,8,,10.0,29.878937,1010.5,,,,,,,,,,FEW,25000,,,,,,,VFR,,,,,,,,,,,,METAR,8.0
MMMA 021746Z 15019G30KT 6SM BKN020 28/2 A2983 RMK SLP102 52007 990 8/100 HZ BLDU,MMMA,2018-04-02T17:46:00Z,25.77,-97.52,28.0,,150,19,30,6.0,29.828741,1010.2,,,,,,,,,,BKN,2000,,,,,,,MVFR,0.7,,,,,,,,,,,METAR,8.0
MMSL 021746Z 23013KT 9SM SKC 27/08 A2994,MMSL,2018-04-02T17:46:00Z,22.95,-109.93,27.0,8.0,230,13,,9.0,29.940945,,,,,,,,,,,SKC,,,,,,,,VFR,,,,,,,,,,,,METAR,140.0
MMBT 021746Z 00000KT 7SM FEW030 30/// A2989 RMK 8/100 TCU N HZY,MMBT,2018-04-02T17:46:00Z,15.77,-96.27,,,0,0,,7.0,29.890747,,,,,,,,,,,FEW,3000,,,,,,,VFR,,,,,,,,,,,,METAR,143.0
MMTP 021746Z 00000KT 10SM BKN040 BKN100 27/23 A2988 RMK SLP143 57018 904 8/660,MMTP,2018-04-02T17:46:00Z,14.77,-92.37,27.0,23.0,0,0,,10.0,29.878937,1014.3,,,,,,,,,,BKN,4000,BKN,10000,,,,,VFR,-1.8,,,,,,,,,,,METAR,29.0
KSAW 021746Z 23008KT 10SM SCT070 OVC085 M01/M16 A2996,KSAW,2018-04-02T17:46:00Z,46.35,-87.4,-1.0,-16.0,230,8,,10.0,29.958662,,,,,,,,,,,SCT,7000,OVC,8500,,,,,VFR,,,,,,,,,,,,METAR,372.0
KFWS 021746Z 00000KT 5SM BR OVC008 08/06 A2993,KFWS,2018-04-02T17:46:00Z,32.57,-97.3,8.0,6.0,0,0,,5.0,29.929134,,,,,,,,,,BR,OVC,800,,,,,,,IFR,,,,,,,,,,,,METAR,208.0
KVCV 021746Z 25011G18KT 10SM SKC 20/01 A2983,KVCV,2018-04-02T17:46:00Z,34.58,-117.38,20.0,1.0,250,11,18,10.0,29.828741,,,,,,,,,,,SKC,,,,,,,,VFR,,,,,,,,,,,,METAR,876.0
KCGF 021745Z 250010KTKT 20SMSM SCT200 A3012,KCGF,2018-04-02T17:45:00Z,41.57,-81.47,,,,,,,30.121063,,,,,,,,,,,SCT,20000,,,,,,,,,,,,,,,,,,,SPECI,268.0
LHBC 021745Z 00000KT CAVOK 09/01 Q1016,LHBC,2018-04-02T17:45:00Z,46.68,21.17,9.0,1.0,0,0,,6.21,30.0,,,,,,,,,,,CAVOK,,,,,,,,VFR,,,,,,,,,,,,METAR,86.0
MMGL 021745Z 21005G15KT 10SM SKC 26/01 A3012 RMK SLP066 57018 963,MMGL,2018-04-02T17:45:00Z,20.52,-103.32,26.0,1.0,210,5,15,10.0,30.121063,1006.6,,,,,,,,,,SKC,,,,,,,,VFR,-1.8,,,,,,,,,,,METAR,1528.0
MMRX 021745Z 15018G30KT 6SM FEW040 30/18 A2978 RMK SLP093 58008 991 8/100 BLDU HZY,MMRX,2018-04-02T17:45:00Z,26.02,-98.22,30.0,18.0,150,18,30,6.0,29.778543,1009.3,,,,,,,,,,FEW,4000,,,,,,,VFR,-0.8,,,,,,,,,,,METAR,39.0
MMVR 021745Z 12007KT 6SM FEW015 30/20A2987 RMK SLP096 57019 990 8/100 HZY,MMVR,2018-04-02T17:45:00Z,19.15,-96.18,,,120,7,,6.0,29.870079,1009.6,,,,,,,,,,FEW,1500,,,,,,,VFR,-1.9,,,,,,,,,,,METAR,16.0
MMPB 021745Z 15010KT 7SM BKN220 23/03 A3025 RMK 8/002 HZY,MMPB,2018-04-02T17:45:00Z,19.17,-98.37,23.0,3.0,150,10,,7.0,30.250984,,,,,,,,,,,BKN,22000,,,,,,,VFR,,,,,,,,,,,,METAR,2244.0
MMAA 021745Z 23007KT 8SM SKC 28/23 A2986 RMK SLP108 57011 956 HZY,MMAA,2018-04-02T17:45:00Z,16.75,-99.75,28.0,23.0,230,7,,8.0,29.861221,1010.8,,,,,,,,,,SKC,,,,,,,,VFR,-1.1,,,,,,,,,,,METAR,5.0
TJIG 021745Z 08010KT 10SM SCT050 SCT080 27/20 A2995,TJIG,2018-04-02T17:45:00Z,18.45,-66.1,27.0,20.0,80,10,,10.0,29.949802,,,,,,,,,,,SCT,5000,SCT,8000,,,,,VFR,,,,,,,,,,,,METAR,3.0
MMCE 021745Z 12014KT 7SM SKC 30/19 A2989 RMK SLP119 57013 983,MMCE,2018-04-02T17:45:00Z,18.65,-91.8,30.0,19.0,120,14,,7.0,29.890747,1011.9,,,,,,,,,,SKC,,,,,,,,VFR,-1.3,,,,,,,,,,,METAR,2.0
KUES 021745Z 18006KT 10SM SKC 02/M12 A3005,KUES,2018-04-02T17:45:00Z,43.05,-88.25,2.0,-12.0,180,6,,10.0,30.050198,,,,,,,,,,,SKC,,,,,,,,VFR,,,,,,,,,,,,METAR,278.0
KMER 021745Z 29010KT 10SM SCT080 21/09 A2989,KMER,2018-04-02T17:45:00Z,37.38,-120.57,21.0,9.0,290,10,,10.0,29.890747,,,,,,,,,,,SCT,8000,,,,,,,VFR,,,,,,,,,,,,METAR,57.0
KCWF 021745Z 21009KT 10SM SCT029 BKN055 25/19 A2997,KCWF,2018-04-02T17:45:00Z,30.22,-93.15,25.0,19.0,210,9,,10.0,29.970472,,,,,,,,,,,SCT,2900,BKN,5500,,,,,VFR,,,,,,,,,,,,METAR,4.0
KTRK 021745Z 26009KT 10SM SCT035 BKN045 BKN060 11/02 A2994,KTRK,2018-04-02T17:45:00Z,39.32,-120.12,11.0,2.0,260,9,,10.0,29.940945,,,,,,,,,,,SCT,3500,BKN,4500,BKN,6000,,,VFR,,,,,,,,,,,,METAR,1798.0
KJVL 021745Z 21010KT 10SM OVC200 04/M10 A3005,KJVL,2018-04-02T17:45:00Z,42.62,-89.05,4.0,-10.0,210,10,,10.0,30.050198,,,,,,,,,,,OVC,20000,,,,,,,VFR,,,,,,,,,,,,METAR,246.0
KEMT 021745Z VRB03KT 10SM BKN028 15/09 A2991,KEMT,2018-04-02T17:45:00Z,34.07,-118.02,15.0,9.0,0,3,,10.0,29.911417,,,,,,,,,,,BKN,2800,,,,,,,MVFR,,,,,,,,,,,,METAR,90.0
KSCH 021745Z AUTO 22007KT 10SM SCT049 06/M05 A3012,KSCH,2018-04-02T17:45:00Z,42.85,-73.92,6.0,-5.0,220,7,,10.0,30.121063,,,TRUE,,,,,,,,SCT,4900,,,,,,,VFR,,,,,,,,,,,,METAR,115.0
KALN 021745Z 10010KT 10SM OVC012 01/M01 A3003,KALN,2018-04-02T17:45:00Z,38.88,-90.03,1.0,-1.0,100,10,,10.0,30.029528,,,,,,,,,,,OVC,1200,,,,,,,MVFR,,,,,,,,,,,,METAR,166.0
KMWA 021745Z 10007KT 7SM OVC006 03/03 A3005,KMWA,2018-04-02T17:45:00Z,37.77,-89.02,3.0,3.0,100,7,,7.0,30.050198,,,,,,,,,,,OVC,600,,,,,,,IFR,,,,,,,,,,,,METAR,144.0
KMHR 021745Z 00000KT 10SM SKC 17/10 A2989,KMHR,2018-04-02T17:45:00Z,38.53,-121.28,17.0,10.0,0,0,,10.0,29.890747,,,,,,,,,,,SKC,,,,,,,,VFR,,,,,,,,,,,,METAR,29.0
KMWC 021745Z 15006KT 10SM SKC 02/M11 A3007,KMWC,2018-04-02T17:45:00Z,43.12,-88.03,2.0,-11.0,150,6,,10.0,30.070866,,,,,,,,,,,SKC,,,,,,,,VFR,,,,,,,,,,,,METAR,227.0
KGYY 021745Z 15008KT 10SM BKN250 06/M12 A3009,KGYY,2018-04-02T17:45:00Z,41.62,-87.42,6.0,-12.0,150,8,,10.0,30.088583,,,,,,,,,,,BKN,25000,,,,,,,VFR,,,,,,,,,,,,METAR,180.0
PAKU 021745Z 28005KT 6SM R24/P6000FT BR SCT001 BKN010 M23/M26 A3078,PAKU,2018-04-02T17:45:00Z,70.32,-149.58,-23.0,-26.0,280,5,,6.0,30.779528,,,,,,,,,,BR,SCT,100,BKN,1000,,,,,MVFR,,,,,,,,,,,,METAR,2.0
KMTN 021745Z 02003KT 7SM OVC014 06/03 A3015,KMTN,2018-04-02T17:45:00Z,39.32,-76.42,6.0,3.0,20,3,,7.0,30.15059,,,,,,,,,,,OVC,1400,,,,,,,MVFR,,,,,,,,,,,,METAR,7.0
KSWF 021745Z 00000KT 15SM BKN020 02/M02 A3013,KSWF,2018-04-02T17:45:00Z,41.5,-74.08,2.0,-2.0,0,0,,15.0,30.129921,,,,,,,,,,,BKN,2000,,,,,,,MVFR,,,,,,,,,,,,METAR,150.0
KRYN 021745Z 20012G18KT 10SM CLR 28/M07 A2986,KRYN,2018-04-02T17:45:00Z,32.15,-111.17,28.0,-7.0,200,12,18,10.0,29.861221,,,,,,,,,,,CLR,,,,,,,,VFR,,,,,,,,,,,,METAR,737.0
MMPN 021744Z 16010KT 10SM FEW080 24/11 A3014 RMK SLP/// 5//// 9// 8/080 HZY TCU,MMPN,2018-04-02T17:44:00Z,19.38,-102.02,24.0,11.0,160,10,,10.0,30.138779,,,,,,,,,,,FEW,8000,,,,,,,VFR,,,,,,,,,,,,METAR,1593.0
MMMD 021744Z 09007KT 7SM BKN020 34/15 A2992 RMK SLP140 57009 967 8/100 HZY CI,MMMD,2018-04-02T17:44:00Z,20.95,-89.65,34.0,15.0,90,7,,7.0,29.920275,1014.0,,,,,,,,,,BKN,2000,,,,,,,MVFR,-0.9,,,,,,,,,,,METAR,10.0
MMDO 021743Z 23010KT 12SM SKC 24/M10 A3011 RMK SLP056 57012 976 ISOL CI,MMDO,2018-04-02T17:43:00Z,24.12,-104.52,24.0,-10.0,230,10,,12.0,30.109253,1005.6,,,,,,,,,,SKC,,,,,,,,VFR,-1.2,,,,,,,,,,,METAR,1857.0
MMSP 021743Z 26015KT 12SM FEW035 26/M04 A3012 RMK SLP053 57012 979 8/100,MMSP,2018-04-02T17:43:00Z,22.25,-100.93,26.0,-4.0,260,15,,12.0,30.121063,1005.3,,,,,,,,,,FEW,3500,,,,,,,VFR,-1.2,,,,,,,,,,,METAR,1903.0
MMLO 021743Z 28012KT 10SM SKC 25/03 A3023 RMK SLP097 57006 961,MMLO,2018-04-02T17:43:00Z,21.0,-101.47,25.0,3.0,280,12,,10.0,30.230314,1009.7,,,,,,,,,,SKC,,,,,,,,VFR,-0.6,,,,,,,,,,,METAR,1819.0
MMMX 021743Z 12008KT 8SM FEW250 24/00 A3025 NOSIG RMK SLP033 52017 977 8/001 HZY CU DSNT N W,MMMX,2018-04-02T17:43:00Z,19.42,-99.08,24.0,0.0,120,8,,8.0,30.250984,1003.3,,,,,TRUE,,,,,FEW,25000,,,,,,,VFR,1.7,,,,,,,,,,,METAR,2238.0
MMPR 021742Z 24006KT 15SM SKC 27/16 A2990 RMK SLP122 57001 901 CU/NW,MMPR,2018-04-02T17:42:00Z,20.67,-105.25,27.0,16.0,240,6,,15.0,29.899607,1012.2,,,,,,,,,,SKC,,,,,,,,VFR,-0.1,,,,,,,,,,,METAR,6.0
MMEP 021742Z 22007KT 12SM SKC 28/13 A3002 RMK SLP133 57008 958,MMEP,2018-04-02T17:42:00Z,21.42,-104.85,28.0,13.0,220,7,,12.0,30.02067,1013.3,,,,,,,,,,SKC,,,,,,,,VFR,-0.8,,,,,,,,,,,METAR,922.0
MMTC 021742Z 15006KT 10SM SKC 30/M05 A2993 RMK SLP030 57007 994,MMTC,2018-04-02T17:42:00Z,25.57,-103.4,30.0,-5.0,150,6,,10.0,29.929134,1003.0,,,,,,,,,,SKC,,,,,,,,VFR,-0.7,,,,,,,,,,,METAR,1124.0
MMCU 021742Z 21008KT 10SM SKC 25/M02 A2997 RMK SLP074 57004 977,MMCU,2018-04-02T17:42:00Z,28.7,-105.97,25.0,-2.0,210,8,,10.0,29.970472,1007.4,,,,,,,,,,SKC,,,,,,,,VFR,-0.4,,,,,,,,,,,METAR,1372.0
MMZH 021742Z 22004KT 7SM SKC 30/23 A2989 RMK SLP113 54000 953 HZY ISOL CU,MMZH,2018-04-02T17:42:00Z,17.6,-101.47,30.0,23.0,220,4,,7.0,29.890747,1011.3,,,,,,,,,,SKC,,,,,,,,VFR,,,,,,,,,,,,METAR,6.0
MMOX 021742Z 00000KT 10SM SCT040 BKN210 25/07 A3012 RMK SLP085 57017 974 8/406 HZY,MMOX,2018-04-02T17:42:00Z,17.0,-96.72,25.0,7.0,0,0,,10.0,30.121063,1008.5,,,,,,,,,,SCT,4000,BKN,21000,,,,,VFR,-1.7,,,,,,,,,,,METAR,1528.0
MMCT 021742Z 18008KT 8SM BKN040 31/20 A2994 RMK 8/400 HZY MSGTX MMMD,MMCT,2018-04-02T17:42:00Z,20.63,-88.45,31.0,20.0,180,8,,8.0,29.940945,,,,,,,,,,,BKN,4000,,,,,,,VFR,,,,,,,,,,,,METAR,28.0
MMLM 021741Z 23010KT 10SM SKC 27/03 A2989 RMK SLP122,MMLM,2018-04-02T17:41:00Z,25.67,-109.07,27.0,3.0,230,10,,10.0,29.890747,1012.2,,,,,,,,,,SKC,,,,,,,,VFR,,,,,,,,,,,,METAR,4.0
MMHO 021741Z 19006KT 10SM FEW080 30/M02 A2987 RMK SLP112 52004 969 8/030 HZY,MMHO,2018-04-02T17:41:00Z,29.08,-111.05,30.0,-2.0,190,6,,10.0,29.870079,1011.2,,,,,,,,,,FEW,8000,,,,,,,VFR,0.4,,,,,,,,,,,METAR,184.0
MMCS 021741Z 24014KT 10SM SKC 24/M10 A2993 RMK SLP039 58004 984,MMCS,2018-04-02T17:41:00Z,31.62,-106.42,24.0,-10.0,240,14,,10.0,29.929134,1003.9,,,,,,,,,,SKC,,,,,,,,VFR,-0.4,,,,,,,,,,,METAR,1171.0
MMPS 021741Z 17010KT 10SM SKC 28/23 A2997 RMK HZY,MMPS,2018-04-02T17:41:00Z,15.87,-97.07,28.0,23.0,170,10,,10.0,29.970472,,,,,,,,,,,SKC,,,,,,,,VFR,,,,,,,,,,,,METAR,88.0
MMCZ 021741Z 10015KT 8SM SCT015 29/21 A2997 RMK SLP153 57005 959 8/100 SC,MMCZ,2018-04-02T17:41:00Z,20.52,-86.92,29.0,21.0,100,15,,8.0,29.970472,1015.3,,,,,,,,,,SCT,1500,,,,,,,VFR,-0.5,,,,,,,,,,,METAR,5.0
MMLT 021740Z 11010KT 8SM SKC 26/09 A2982 RMK SLP098,MMLT,2018-04-02T17:40:00Z,26.02,-111.33,26.0,9.0,110,10,,8.0,29.819881,1009.8,,,,,,,,,,SKC,,,,,,,,VFR,,,,,,,,,,,,METAR,15.0
MMLP 021740Z 19003KT 10SM SKC 29/M02 A2991 RMK SLP130 52003 964,MMLP,2018-04-02T17:40:00Z,24.07,-110.37,29.0,-2.0,190,3,,10.0,29.911417,1013.0,,,,,,,,,,SKC,,,,,,,,VFR,0.3,,,,,,,,,,,METAR,21.0
MMGM 021740Z 20010KT 10SM SKC 28/08 A2981,MMGM,2018-04-02T17:40:00Z,27.95,-110.92,28.0,8.0,200,10,,10.0,29.811024,,,,,,,,,,,SKC,,,,,,,,VFR,,,,,,,,,,,,METAR,20.0
MMCL 021740Z 21008KT 10SM SKC 28/14 A2988 RMK SLP118 57008 958,MMCL,2018-04-02T17:40:00Z,24.77,-107.47,28.0,14.0,210,8,,10.0,29.878937,1011.8,,,,,,,,,,SKC,,,,,,,,VFR,-0.8,,,,,,,,,,,METAR,39.0
MMIA 021740Z 22010KT 8SM SKC 29/13 A2999 RMK SLP/// 5//// 9// 6////,MMIA,2018-04-02T17:40:00Z,19.27,-103.57,29.0,13.0,220,10,,8.0,29.991142,,,,,,,,,,,SKC,,,,,,,,VFR,,,,,,,,,,,,METAR,723.0
MMNL 021740Z 15012KT 10SM SCT200 28/18 A2975 RMK SLP059 57015 992 8/002,MMNL,2018-04-02T17:40:00Z,27.42,-99.57,28.0,18.0,150,12,,10.0,29.749016,1005.9,,,,,,,,,,SCT,20000,,,,,,,VFR,-1.5,,,,,,,,,,,METAR,148.0
MMMY 021740Z 00000KT 6SM SKC 26/17 A2978 RMK HZ,MMMY,2018-04-02T17:40:00Z,25.77,-100.08,26.0,17.0,0,0,,6.0,29.778543,,,,,,,,,,,SKC,,,,,,,,VFR,,,,,,,,,,,,METAR,387.0
MMCV 021740Z 16012G23KT 9SM SKC 30/16 A2978 RMK SLP082 57017 991 HZY PRESFR,MMCV,2018-04-02T17:40:00Z,23.72,-98.97,30.0,16.0,160,12,23,9.0,29.778543,1008.2,,,,,,,,,,SKC,,,,,,,,VFR,-1.7,,,,,,,,,,,METAR,238.0
MMAN 021740Z 09006KT 6SM SKC 25/18 A2982 RMK SLP/// 5//// 9// HZY ISOL SC,MMAN,2018-04-02T17:40:00Z,25.87,-100.23,25.0,18.0,90,6,,6.0,29.819881,,,,,,,,,,,SKC,,,,,,,,VFR,,,,,,,,,,,,METAR,448.0
MMSD 021740Z 12007KT 12SM SKC 32/M01 A2987 RMK SLP105 54000 968,MMSD,2018-04-02T17:40:00Z,23.13,-109.7,32.0,-1.0,120,7,,12.0,29.870079,1010.5,,,,,,,,,,SKC,,,,,,,,VFR,,,,,,,,,,,,METAR,109.0
MMMZ 021740Z 25005KT 14SM SKC 28/16 A2990 RMK SLP121 57003 959,MMMZ,2018-04-02T17:40:00Z,23.17,-106.27,28.0,16.0,250,5,,14.0,29.899607,1012.1,,,,,,,,,,SKC,,,,,,,,VFR,-0.3,,,,,,,,,,,METAR,10.0
MMMT 021740Z 00000KT 10SM SCT020 28/24 A2985 RMK SLP183 55003 987 8/100,MMMT,2018-04-02T17:40:00Z,18.1,-94.57,28.0,24.0,0,0,,10.0,29.84941,1018.3,,,,,,,,,,SCT,2000,,,,,,,VFR,-0.3,,,,,,,,,,,METAR,40.0
MMPA 021740Z 27005KT 6SM BKN03030/21 A2989 RMK SLP103 57022 991 8/100 HZY,MMPA,2018-04-02T17:40:00Z,20.5,-97.47,30.0,21.0,270,5,,6.0,29.890747,1010.3,,,,,,,,,,,,,,,,,,,-2.2,,,,,,,,,,,METAR,142.0
MMVA 021740Z 05007KT 7SM SKC 31/20 A2989 RMK SLP119 57014 983 PRESFR,MMVA,2018-04-02T17:40:00Z,18.0,-92.82,31.0,20.0,50,7,,7.0,29.890747,1011.9,,,,,,,,,,SKC,,,,,,,,VFR,-1.4,,,,,,,,,,,METAR,13.0
MMIO 021740Z 18006KT 10SM SKC 30/12 A3004 RMK CI,MMIO,2018-04-02T17:40:00Z,25.55,-100.93,30.0,12.0,180,6,,10.0,30.041338,,,,,,,,,,,SKC,,,,,,,,VFR,,,,,,,,,,,,METAR,1790.0
K24A 021735Z AUTO 30006KT 10SM SCT060 22/07 A3001 RMK AO2 T02170065,K24A,2018-04-02T17:35:00Z,35.32,-83.2,21.7,6.5,300,6,,10.0,30.008858,,,TRUE,TRUE,,,,,,,SCT,6000,,,,,,,VFR,,,,,,,,,,,,METAR,871.0
KAJG 021735Z AUTO 07005KT 10SM OVC009 03/02 A3009 RMK AO2 T00330015,KAJG,2018-04-02T17:35:00Z,38.62,-87.73,3.3,1.5,70,5,,10.0,30.088583,,,TRUE,TRUE,,,,,,,OVC,900,,,,,,,IFR,,,,,,,,,,,,METAR,131.0
VOCB 021730Z 20006KT 5000 HZ FEW015 SCT080 28/23 Q1013 NOSIG,VOCB,2018-04-02T17:30:00Z,11.02,77.03,28.0,23.0,200,6,,3.11,29.911417,,,,,,TRUE,,,,HZ,FEW,1500,SCT,8000,,,,,MVFR,,,,,,,,,,,,METAR,399.0
URMO 021730Z 12003MPS 0100 R09/0400N FG VV001 05/05 Q1005 R09/010070 NOSIG RMK QBB050 MT OBSC QFE710/0947,URMO,2018-04-02T17:30:00Z,43.2,44.6,5.0,5.0,120,6,,0.06,29.675198,,,,,,TRUE,,,,FG,OVX,0,,,,,,,LIFR,,,,,,,,,,,100,METAR,510.0
VVPQ 021730Z 09001KT 9999 FEW017 24/23 Q1011 NOSIG,VVPQ,2018-04-02T17:30:00Z,10.23,103.97,24.0,23.0,90,1,,6.21,29.852362,,,,,,TRUE,,,,,FEW,1700,,,,,,,VFR,,,,,,,,,,,,METAR,4.0
KBTP 021727Z AUTO 25005KT 10SM OVC030 03/M02 A3011 RMK AO2,KBTP,2018-04-02T17:27:00Z,40.77,-79.95,3.0,-2.0,250,5,,10.0,30.109253,,,TRUE,TRUE,,,,,,,OVC,3000,,,,,,,MVFR,,,,,,,,,,,,SPECI,380.0
KBWD 021725Z 30003KT 3BRSM BKN006 08/08 A2992,KBWD,2018-04-02T17:25:00Z,31.8,-98.95,8.0,8.0,300,3,,,29.920275,,,,,,,,,,BR,BKN,600,,,,,,,,,,,,,,,,,,,SPECI,423.0
