{ "type": "FeatureCollection",
  "features": [
  { "type": "Feature",
    "properties": {
      "id": "KJFK",
      "site": "New York/Kennedy Int",
      "prior": "0",
      "obsTime": "2018-04-27T19:51:00Z",
      "temp": 11.7,
      "dewp": 11.7,
      "wspd": 6,
      "wdir": 80,
      "ceil": 6,
      "cover": "OVC",
      "visib": 2.00,
      "fltcat": "IFR",
      "altim": 1007.5,
      "slp": 1007.2,
      "wx": "-DZ BR",
      "rawOb": "KJFK 271951Z 08006KT 2SM -DZ BR OVC006 12/12 A2975 RMK AO2 SFC VIS 5 DZB49 SLP072 P0000 T01170117"
    },
    "geometry": {
      "type": "Point",
      "coordinates": [-73.785,40.644]
    } 
  },
  { "type": "Feature",
    "properties": {
      "id": "KMIA",
      "site": "Miami Intl",
      "prior": "0",
      "obsTime": "2018-04-27T20:02:00Z",
      "temp": 22.2,
      "dewp": 22.2,
      "wspd": 8,
      "wgst": 19,
      "wdir": 180,
      "ceil": 70,
      "cover": "OVC",
      "visib": 7.00,
      "fltcat": "VFR",
      "altim": 1011.3,
      "wx": "-RA",
      "rawOb": "KMIA 272002Z 18008G19KT 7SM -RA FEW020 BKN070 OVC110 22/22 A2986 RMK AO2 LTG DSNT ALQDS CB DSNT ALQDS P0001 T02220222 $"
    },
    "geometry": {
      "type": "Point",
      "coordinates": [-80.283,25.795]
    } 
  },
  { "type": "Feature",
    "properties": {
      "id": "KLAX",
      "site": "Los Angeles Intl",
      "prior": "0",
      "obsTime": "2018-04-27T19:53:00Z",
      "temp": 17.8,
      "dewp": 9.4,
      "wspd": 12,
      "wdir": 240,
      "cover": "FEW",
      "visib": 8.00,
      "fltcat": "VFR",
      "altim": 1016.7,
      "slp": 1016.7,
      "rawOb": "KLAX 271953Z 24012KT 8SM FEW025 18/09 A3002 RMK AO2 SLP167 T01780094 $"
    },
    "geometry": {
      "type": "Point",
      "coordinates": [-118.413,33.943]
    } 
  },
  { "type": "Feature",
    "properties": {
      "id": "KDEN",
      "site": "Denver Intl",
      "prior": "0",
      "obsTime": "2018-04-27T19:53:00Z",
      "temp": 21.1,
      "dewp": -5.0,
      "wspd": 8,
      "wgst": 14,
      "wdir": 30,
      "cover": "FEW",
      "visib": 10.00,
      "fltcat": "VFR",
      "altim": 1019.0,
      "slp": 1014.7,
      "rawOb": "KDEN 271953Z 03008G14KT 10SM FEW100 FEW250 21/M05 A3009 RMK AO2 SLP147 T02111050"
    },
    "geometry": {
      "type": "Point",
      "coordinates": [-104.674,39.861]
    } 
  },
  { "type": "Feature",
    "properties": {
      "id": "KDFW",
      "site": "Dallas-Ft Worth Intl",
      "prior": "0",
      "obsTime": "2018-04-27T19:53:00Z",
      "temp": 25.6,
      "dewp": 6.7,
      "wspd": 9,
      "wdir": 300,
      "cover": "FEW",
      "visib": 10.00,
      "fltcat": "VFR",
      "altim": 1017.4,
      "slp": 1016.5,
      "rawOb": "KDFW 271953Z 30009KT 10SM FEW040 26/07 A3004 RMK AO2 SLP165 T02560067"
    },
    "geometry": {
      "type": "Point",
      "coordinates": [-97.040,32.900]
    } 
  },
  { "type": "Feature",
    "properties": {
      "id": "KATL",
      "site": "Atlanta/Hartsfield-J",
      "prior": "0",
      "obsTime": "2018-04-27T19:52:00Z",
      "temp": 21.1,
      "dewp": 9.4,
      "wspd": 13,
      "wgst": 17,
      "wdir": 280,
      "cover": "FEW",
      "visib": 10.00,
      "fltcat": "VFR",
      "altim": 1011.3,
      "slp": 1010.8,
      "rawOb": "KATL 271952Z 28013G17KT 10SM FEW045 FEW250 21/09 A2986 RMK AO2 SLP108 T02110094"
    },
    "geometry": {
      "type": "Point",
      "coordinates": [-84.423,33.641]
    } 
  },
  { "type": "Feature",
    "properties": {
      "id": "CYWG",
      "site": "Winnipeg Intl Arpt",
      "prior": "0",
      "obsTime": "2018-04-27T20:00:00Z",
      "temp": 9.0,
      "dewp": -1.0,
      "wspd": 14,
      "wgst": 20,
      "wdir": 20,
      "ceil": 42,
      "cover": "BKN",
      "visib": 15.00,
      "fltcat": "VFR",
      "altim": 1019.7,
      "slp": 1020.5,
      "rawOb": "CYWG 272000Z 02014G20KT 15SM BKN042 09/M01 A3011 RMK SC6 SLP205"
    },
    "geometry": {
      "type": "Point",
      "coordinates": [-97.235,49.906]
    } 
  },
  { "type": "Feature",
    "properties": {
      "id": "CYHZ",
      "site": "Halifax/Stanfield In",
      "prior": "0",
      "obsTime": "2018-04-27T20:00:00Z",
      "temp": 16.0,
      "dewp": 7.0,
      "wspd": 15,
      "wgst": 20,
      "wdir": 210,
      "cover": "SCT",
      "visib": 15.00,
      "fltcat": "VFR",
      "altim": 1013.3,
      "slp": 1013.6,
      "rawOb": "CYHZ 272000Z 21015G20KT 15SM FEW040 SCT250 16/07 A2992 RMK CU1CI3 SLP136 DENSITY ALT 700FT"
    },
    "geometry": {
      "type": "Point",
      "coordinates": [-63.508,44.887]
    } 
  },
  { "type": "Feature",
    "properties": {
      "id": "KORD",
      "site": "Chicago/O'Hare Intl",
      "prior": "0",
      "obsTime": "2018-04-27T19:51:00Z",
      "temp": 12.8,
      "dewp": -1.1,
      "wspd": 9,
      "wdir": 70,
      "cover": "SCT",
      "visib": 10.00,
      "fltcat": "VFR",
      "altim": 1008.5,
      "slp": 1008.6,
      "rawOb": "KORD 271951Z 07009KT 10SM FEW070 SCT120 SCT250 13/M01 A2978 RMK AO2 SLP086 T01281011"
    },
    "geometry": {
      "type": "Point",
      "coordinates": [-87.906,41.977]
    } 
  },
  { "type": "Feature",
    "properties": {
      "id": "TXKF",
      "site": "Bermuda/Wade Intl",
      "prior": "0",
      "obsTime": "2018-04-27T19:55:00Z",
      "temp": 23.0,
      "dewp": 20.0,
      "wspd": 13,
      "wdir": 160,
      "ceil": 180,
      "cover": "BKN",
      "visib": 6.21,
      "fltcat": "VFR",
      "altim": 1019.0,
      "rawOb": "TXKF 271955Z 16013KT 9999 FEW009 BKN180 BKN300 23/20 Q1019 "
    },
    "geometry": {
      "type": "Point",
      "coordinates": [-64.681,32.365]
    } 
  },
  { "type": "Feature",
    "properties": {
      "id": "KSEA",
      "site": "Seattle-Tacoma Intl",
      "prior": "0",
      "obsTime": "2018-04-27T19:53:00Z",
      "temp": 13.3,
      "dewp": 8.3,
      "wspd": 12,
      "wdir": 220,
      "ceil": 21,
      "cover": "OVC",
      "visib": 10.00,
      "fltcat": "MVFR",
      "altim": 1013.3,
      "slp": 1013.7,
      "rawOb": "KSEA 271953Z 22012KT 10SM OVC021 13/08 A2992 RMK AO2 SLP137 T01330083"
    },
    "geometry": {
      "type": "Point",
      "coordinates": [-122.310,47.450]
    } 
  },
  { "type": "Feature",
    "properties": {
      "id": "CYGW",
      "site": "Kuujjuarapik Arpt",
      "prior": "0",
      "obsTime": "2018-04-27T20:00:00Z",
      "temp": -11.0,
      "dewp": -15.0,
      "wspd": 10,
      "wgst": 15,
      "wdir": 350,
      "ceil": 17,
      "cover": "BKN",
      "visib": 9.00,
      "fltcat": "MVFR",
      "altim": 1020.4,
      "slp": 1020.6,
      "rawOb": "CYGW 272000Z AUTO 35010G15KT 9SM BKN017 M11/M15 A3013 RMK SLP206"
    },
    "geometry": {
      "type": "Point",
      "coordinates": [-77.764,55.282]
    } 
  },
  { "type": "Feature",
    "properties": {
      "id": "MMMD",
      "site": "Merida Intl",
      "prior": "0",
      "obsTime": "2018-04-27T19:44:00Z",
      "temp": 30.0,
      "dewp": 21.0,
      "wspd": 15,
      "wdir": 330,
      "ceil": 25,
      "cover": "BKN",
      "visib": 7.00,
      "fltcat": "MVFR",
      "altim": 1012.3,
      "rawOb": "MMMD 271944Z 33015KT 7SM BKN025TCU 30/21 A2989 RMK 8/200"
    },
    "geometry": {
      "type": "Point",
      "coordinates": [-89.658,20.934]
    } 
  },
  { "type": "Feature",
    "properties": {
      "id": "MMCU",
      "site": "Chihuahua/Villalobos",
      "prior": "0",
      "obsTime": "2018-04-27T19:48:00Z",
      "temp": 19.0,
      "dewp": 0.0,
      "wspd": 7,
      "wdir": 40,
      "ceil": 80,
      "cover": "OVC",
      "visib": 10.00,
      "fltcat": "VFR",
      "altim": 1023.5,
      "rawOb": "MMCU 271948Z 04007KT 10SM SCT035 BKN080 OVC100 19/00 A3022 RMK 8/17/ OCNL DROPS"
    },
    "geometry": {
      "type": "Point",
      "coordinates": [-105.964,28.702]
    } 
  },
  { "type": "Feature",
    "properties": {
      "id": "KCHS",
      "site": "Charleston Intl",
      "prior": "1",
      "obsTime": "2018-04-27T19:56:00Z",
      "temp": 25.0,
      "dewp": 11.7,
      "wspd": 12,
      "wdir": 250,
      "cover": "SCT",
      "visib": 10.00,
      "fltcat": "VFR",
      "altim": 1008.5,
      "slp": 1008.4,
      "rawOb": "KCHS 271956Z 25012KT 10SM SCT055 SCT250 25/12 A2978 RMK AO2 SLP084 T02500117"
    },
    "geometry": {
      "type": "Point",
      "coordinates": [-80.039,32.897]
    } 
  },
  { "type": "Feature",
    "properties": {
      "id": "KGEG",
      "site": "Spokane Intl",
      "prior": "1",
      "obsTime": "2018-04-27T19:53:00Z",
      "temp": 23.3,
      "dewp": 3.3,
      "wspd": 7,
      "wdir": 60,
      "cover": "FEW",
      "visib": 10.00,
      "fltcat": "VFR",
      "altim": 1009.2,
      "slp": 1008.1,
      "rawOb": "KGEG 271953Z 06007KT 10SM FEW280 23/03 A2980 RMK AO2 SLP081 T02330033"
    },
    "geometry": {
      "type": "Point",
      "coordinates": [-117.533,47.622]
    } 
  },
  { "type": "Feature",
    "properties": {
      "id": "KHON",
      "site": "Huron Rgnl",
      "prior": "1",
      "obsTime": "2018-04-27T19:55:00Z",
      "temp": 16.7,
      "dewp": -2.2,
      "wspd": 20,
      "wgst": 30,
      "wdir": 360,
      "cover": "CLR",
      "visib": 10.00,
      "fltcat": "VFR",
      "altim": 1016.0,
      "slp": 1016.3,
      "rawOb": "KHON 271955Z AUTO 36020G30KT 10SM CLR 17/M02 A3000 RMK AO2 PK WND 34032/1914 SLP163 T01671022"
    },
    "geometry": {
      "type": "Point",
      "coordinates": [-98.226,44.384]
    } 
  },
  { "type": "Feature",
    "properties": {
      "id": "KGSO",
      "site": "Greensboro Intl",
      "prior": "1",
      "obsTime": "2018-04-27T19:54:00Z",
      "temp": 18.3,
      "dewp": 10.0,
      "wspd": 7,
      "wdir": 270,
      "ceil": 45,
      "cover": "OVC",
      "visib": 10.00,
      "fltcat": "VFR",
      "altim": 1007.9,
      "slp": 1007.3,
      "rawOb": "KGSO 271954Z 27007KT 10SM FEW035 BKN045 BKN090 OVC250 18/10 A2976 RMK AO2 SLP073 T01830100"
    },
    "geometry": {
      "type": "Point",
      "coordinates": [-79.943,36.101]
    } 
  },
  { "type": "Feature",
    "properties": {
      "id": "KCAR",
      "site": "Caribou Muni",
      "prior": "1",
      "obsTime": "2018-04-27T19:54:00Z",
      "temp": 16.1,
      "dewp": 2.2,
      "wspd": 7,
      "wdir": 230,
      "cover": "CLR",
      "visib": 10.00,
      "fltcat": "VFR",
      "altim": 1009.6,
      "slp": 1009.9,
      "rawOb": "KCAR 271954Z AUTO 23007KT 10SM CLR 16/02 A2981 RMK AO2 SLP099 T01610022"
    },
    "geometry": {
      "type": "Point",
      "coordinates": [-68.016,46.870]
    } 
  },
  { "type": "Feature",
    "properties": {
      "id": "KBUF",
      "site": "Buffalo-Niagara Intl",
      "prior": "1",
      "obsTime": "2018-04-27T19:54:00Z",
      "temp": 16.7,
      "dewp": -2.8,
      "wspd": 9,
      "wdir": 270,
      "ceil": 220,
      "cover": "BKN",
      "visib": 10.00,
      "fltcat": "VFR",
      "altim": 1004.8,
      "slp": 1005.1,
      "rawOb": "KBUF 271954Z 27009KT 10SM FEW060 BKN220 17/M03 A2967 RMK AO2 SLP051 T01671028"
    },
    "geometry": {
      "type": "Point",
      "coordinates": [-78.730,42.940]
    } 
  },
  { "type": "Feature",
    "properties": {
      "id": "KSLC",
      "site": "Salt Lake City Intl",
      "prior": "1",
      "obsTime": "2018-04-27T19:54:00Z",
      "temp": 28.3,
      "dewp": -6.1,
      "wspd": 9,
      "wdir": 180,
      "cover": "SCT",
      "visib": 10.00,
      "fltcat": "VFR",
      "altim": 1013.3,
      "slp": 1008.5,
      "rawOb": "KSLC 271954Z 18009KT 10SM FEW110 SCT170 SCT240 28/M06 A2992 RMK AO2 SLP085 VIRGA DSNT S-SW ACSL DSNT NE-E AND SE T02831061"
    },
    "geometry": {
      "type": "Point",
      "coordinates": [-111.985,40.787]
    } 
  },
  { "type": "Feature",
    "properties": {
      "id": "MUHA",
      "site": "Havana/Marti Intl",
      "prior": "1",
      "obsTime": "2018-04-27T19:55:00Z",
      "temp": 30.0,
      "dewp": 22.0,
      "wspd": 8,
      "wdir": 220,
      "ceil": 30,
      "cover": "BKN",
      "visib": 5.59,
      "fltcat": "MVFR",
      "altim": 1011.0,
      "rawOb": "MUHA 271955Z 22008KT 180V250 9000 SCT020 BKN030 30/22 Q1011"
    },
    "geometry": {
      "type": "Point",
      "coordinates": [-82.407,22.990]
    } 
  },
  { "type": "Feature",
    "properties": {
      "id": "KDSM",
      "site": "Des Moines Intl",
      "prior": "1",
      "obsTime": "2018-04-27T19:54:00Z",
      "temp": 25.0,
      "dewp": 0.6,
      "wspd": 26,
      "wgst": 36,
      "wdir": 290,
      "cover": "SCT",
      "visib": 10.00,
      "fltcat": "VFR",
      "altim": 1008.2,
      "slp": 1007.8,
      "rawOb": "KDSM 271954Z 29026G36KT 10SM SCT100 25/01 A2977 RMK AO2 PK WND 29041/1917 SLP078 T02500006"
    },
    "geometry": {
      "type": "Point",
      "coordinates": [-93.657,41.534]
    } 
  },
  { "type": "Feature",
    "properties": {
      "id": "KMAF",
      "site": "Midland Intl",
      "prior": "1",
      "obsTime": "2018-04-27T19:53:00Z",
      "temp": 22.2,
      "dewp": 1.7,
      "wspd": 5,
      "wdir": 190,
      "cover": "CLR",
      "visib": 10.00,
      "fltcat": "VFR",
      "altim": 1021.4,
      "slp": 1018.2,
      "rawOb": "KMAF 271953Z 19005KT 10SM CLR 22/02 A3016 RMK AO2 SLP182 T02220017"
    },
    "geometry": {
      "type": "Point",
      "coordinates": [-102.204,31.942]
    } 
  },
  { "type": "Feature",
    "properties": {
      "id": "KOKC",
      "site": "Oklahoma City/Will R",
      "prior": "1",
      "obsTime": "2018-04-27T19:52:00Z",
      "temp": 20.6,
      "dewp": 1.1,
      "wspd": 10,
      "wgst": 17,
      "wdir": 360,
      "cover": "CLR",
      "visib": 10.00,
      "fltcat": "VFR",
      "altim": 1019.0,
      "slp": 1018.3,
      "rawOb": "KOKC 271952Z 36010G17KT 10SM CLR 21/01 A3009 RMK AO2 SLP183 T02060011"
    },
    "geometry": {
      "type": "Point",
      "coordinates": [-97.596,35.395]
    } 
  },
  { "type": "Feature",
    "properties": {
      "id": "KBNA",
      "site": "Nashville Intl",
      "prior": "1",
      "obsTime": "2018-04-27T19:53:00Z",
      "temp": 22.2,
      "dewp": 5.0,
      "wspd": 11,
      "wdir": 300,
      "ceil": 70,
      "cover": "BKN",
      "visib": 10.00,
      "fltcat": "VFR",
      "altim": 1011.3,
      "slp": 1010.8,
      "rawOb": "KBNA 271953Z 30011KT 260V330 10SM BKN070 22/05 A2986 RMK AO2 SLP108 T02220050"
    },
    "geometry": {
      "type": "Point",
      "coordinates": [-86.677,36.123]
    } 
  },
  { "type": "Feature",
    "properties": {
      "id": "KLCH",
      "site": "Lake Charles Rgnl",
      "prior": "1",
      "obsTime": "2018-04-27T19:53:00Z",
      "temp": 25.0,
      "dewp": 10.6,
      "wspd": 7,
      "wgst": 15,
      "wdir": 300,
      "cover": "FEW",
      "visib": 10.00,
      "fltcat": "VFR",
      "altim": 1016.0,
      "slp": 1016.7,
      "rawOb": "KLCH 271953Z 30007G15KT 10SM FEW055 25/11 A3000 RMK AO2 SLP167 T02500106"
    },
    "geometry": {
      "type": "Point",
      "coordinates": [-93.225,30.123]
    } 
  },
  { "type": "Feature",
    "properties": {
      "id": "KMCI",
      "site": "Kansas City Intl",
      "prior": "1",
      "obsTime": "2018-04-27T19:53:00Z",
      "temp": 22.8,
      "dewp": 1.7,
      "wspd": 16,
      "wgst": 24,
      "wdir": 280,
      "cover": "CLR",
      "visib": 10.00,
      "fltcat": "VFR",
      "altim": 1014.3,
      "slp": 1013.8,
      "rawOb": "KMCI 271953Z 28016G24KT 10SM CLR 23/02 A2995 RMK AO2 WSHFT 1933 SLP138 T02280017"
    },
    "geometry": {
      "type": "Point",
      "coordinates": [-94.717,39.296]
    } 
  },
  { "type": "Feature",
    "properties": {
      "id": "KDTW",
      "site": "Detroit Metro/Wayne",
      "prior": "1",
      "obsTime": "2018-04-27T19:53:00Z",
      "temp": 19.4,
      "dewp": 2.8,
      "wspd": 11,
      "wdir": 200,
      "ceil": 65,
      "cover": "BKN",
      "visib": 10.00,
      "fltcat": "VFR",
      "altim": 1003.8,
      "slp": 1003.6,
      "rawOb": "KDTW 271953Z COR 20011KT 10SM BKN065 BKN090 19/03 A2964 RMK AO2 LTG DSNT NW CB DSNT NW MOV E SLP036 T01940028"
    },
    "geometry": {
      "type": "Point",
      "coordinates": [-83.355,42.215]
    } 
  },
  { "type": "Feature",
    "properties": {
      "id": "KMOB",
      "site": "Mobile Rgnl",
      "prior": "1",
      "obsTime": "2018-04-27T19:56:00Z",
      "temp": 24.4,
      "dewp": 10.6,
      "wspd": 10,
      "wgst": 14,
      "wdir": 360,
      "cover": "SCT",
      "visib": 9.00,
      "fltcat": "VFR",
      "altim": 1014.0,
      "slp": 1013.7,
      "rawOb": "KMOB 271956Z 36010G14KT 9SM SCT050 24/11 A2994 RMK AO2 SLP137 T02440106"
    },
    "geometry": {
      "type": "Point",
      "coordinates": [-88.243,30.688]
    } 
  },
  { "type": "Feature",
    "properties": {
      "id": "KLIT",
      "site": "Little Rock/Clinton",
      "prior": "1",
      "obsTime": "2018-04-27T19:53:00Z",
      "temp": 24.4,
      "dewp": 8.3,
      "wspd": 13,
      "wgst": 17,
      "wdir": 320,
      "cover": "SCT",
      "visib": 10.00,
      "fltcat": "VFR",
      "altim": 1014.3,
      "slp": 1014.4,
      "rawOb": "KLIT 271953Z 32013G17KT 10SM SCT050 24/08 A2995 RMK AO2 SLP144 T02440083"
    },
    "geometry": {
      "type": "Point",
      "coordinates": [-92.221,34.729]
    } 
  },
  { "type": "Feature",
    "properties": {
      "id": "KJAX",
      "site": "Jacksonville Intl",
      "prior": "1",
      "obsTime": "2018-04-27T19:56:00Z",
      "temp": 28.3,
      "dewp": 10.0,
      "wspd": 15,
      "wdir": 210,
      "ceil": 250,
      "cover": "BKN",
      "visib": 10.00,
      "fltcat": "VFR",
      "altim": 1009.2,
      "slp": 1009.2,
      "rawOb": "KJAX 271956Z 21015KT 10SM FEW050 BKN250 28/10 A2980 RMK AO2 SLP092 T02830100"
    },
    "geometry": {
      "type": "Point",
      "coordinates": [-81.690,30.490]
    } 
  },
  { "type": "Feature",
    "properties": {
      "id": "KINL",
      "site": "International Falls",
      "prior": "1",
      "obsTime": "2018-04-27T19:55:00Z",
      "temp": 7.2,
      "dewp": 2.2,
      "wspd": 13,
      "wdir": 20,
      "ceil": 25,
      "cover": "OVC",
      "visib": 10.00,
      "fltcat": "MVFR",
      "altim": 1015.3,
      "slp": 1016.6,
      "rawOb": "KINL 271955Z AUTO 02013KT 10SM BKN025 OVC080 07/02 A2998 RMK AO2 SLP166 T00720022"
    },
    "geometry": {
      "type": "Point",
      "coordinates": [-93.402,48.566]
    } 
  },
  { "type": "Feature",
    "properties": {
      "id": "KDDC",
      "site": "Dodge City Arpt",
      "prior": "1",
      "obsTime": "2018-04-27T19:52:00Z",
      "temp": 22.8,
      "dewp": -1.1,
      "wspd": 8,
      "wgst": 18,
      "wdir": 260,
      "cover": "CLR",
      "visib": 10.00,
      "fltcat": "VFR",
      "altim": 1018.4,
      "slp": 1017.2,
      "rawOb": "KDDC 271952Z AUTO 26008G18KT 230V320 10SM CLR 23/M01 A3007 RMK AO2 SLP172 T02281011"
    },
    "geometry": {
      "type": "Point",
      "coordinates": [-99.967,37.763]
    } 
  },
  { "type": "Feature",
    "properties": {
      "id": "KABQ",
      "site": "Albuquerque Intl",
      "prior": "1",
      "obsTime": "2018-04-27T19:52:00Z",
      "temp": 20.0,
      "dewp": -3.9,
      "wspd": 9,
      "wgst": 17,
      "wdir": 220,
      "ceil": 280,
      "cover": "BKN",
      "visib": 10.00,
      "fltcat": "VFR",
      "altim": 1021.4,
      "slp": 1015.8,
      "rawOb": "KABQ 271952Z 22009G17KT 10SM BKN280 20/M04 A3016 RMK AO2 SLP158 T02001039"
    },
    "geometry": {
      "type": "Point",
      "coordinates": [-106.607,35.044]
    } 
  },
  { "type": "Feature",
    "properties": {
      "id": "KMSP",
      "site": "Minneapolis-St Paul",
      "prior": "1",
      "obsTime": "2018-04-27T19:53:00Z",
      "temp": 17.8,
      "dewp": 0.0,
      "wspd": 20,
      "wgst": 31,
      "wdir": 10,
      "ceil": 65,
      "cover": "BKN",
      "visib": 10.00,
      "fltcat": "VFR",
      "altim": 1009.2,
      "slp": 1009.2,
      "rawOb": "KMSP 271953Z 01020G31KT 10SM BKN065 18/00 A2980 RMK AO2 PK WND 36034/1856 SLP092 T01780000"
    },
    "geometry": {
      "type": "Point",
      "coordinates": [-93.215,44.883]
    } 
  },
  { "type": "Feature",
    "properties": {
      "id": "KCVG",
      "site": "Cincinnati Intl",
      "prior": "1",
      "obsTime": "2018-04-27T19:52:00Z",
      "temp": 20.6,
      "dewp": 6.1,
      "wspd": 11,
      "wdir": 290,
      "ceil": 90,
      "cover": "BKN",
      "visib": 10.00,
      "fltcat": "VFR",
      "altim": 1007.2,
      "slp": 1006.6,
      "rawOb": "KCVG 271952Z 29011KT 10SM BKN090 BKN110 21/06 A2974 RMK AO2 PK WND 28031/1919 SLP066 T02060061"
    },
    "geometry": {
      "type": "Point",
      "coordinates": [-84.666,39.047]
    } 
  },
  { "type": "Feature",
    "properties": {
      "id": "KIAD",
      "site": "Washington/Dulles In",
      "prior": "1",
      "obsTime": "2018-04-27T19:52:00Z",
      "temp": 15.6,
      "dewp": 10.6,
      "wspd": 5,
      "wdir": 260,
      "ceil": 31,
      "cover": "BKN",
      "visib": 10.00,
      "fltcat": "VFR",
      "altim": 1007.5,
      "slp": 1007.3,
      "rawOb": "KIAD 271952Z 26005KT 10SM SCT024 BKN031 16/11 A2975 RMK AO2 SLP073 T01560106"
    },
    "geometry": {
      "type": "Point",
      "coordinates": [-77.448,38.950]
    } 
  },
  { "type": "Feature",
    "properties": {
      "id": "CYOW",
      "site": "Ottawa/Cartier Intl",
      "prior": "1",
      "obsTime": "2018-04-27T20:00:00Z",
      "temp": 16.0,
      "dewp": 3.0,
      "wspd": 8,
      "wdir": 170,
      "ceil": 190,
      "cover": "BKN",
      "visib": 15.00,
      "fltcat": "VFR",
      "altim": 1006.5,
      "slp": 1006.7,
      "rawOb": "CYOW 272000Z 17008KT 15SM FEW045 BKN190 16/03 A2972 RMK CU2AC5 SLP067 DENSITY ALT 800FT"
    },
    "geometry": {
      "type": "Point",
      "coordinates": [-75.665,45.316]
    } 
  },
  { "type": "Feature",
    "properties": {
      "id": "KLAS",
      "site": "Las Vegas/McCarran I",
      "prior": "1",
      "obsTime": "2018-04-27T19:56:00Z",
      "temp": 33.9,
      "dewp": -3.3,
      "wspd": 13,
      "wgst": 17,
      "wdir": 220,
      "cover": "FEW",
      "visib": 10.00,
      "fltcat": "VFR",
      "altim": 1009.6,
      "slp": 1006.6,
      "rawOb": "KLAS 271956Z 22013G17KT 10SM FEW150 34/M03 A2981 RMK AO2 SLP066 T03391033"
    },
    "geometry": {
      "type": "Point",
      "coordinates": [-115.157,36.081]
    } 
  },
  { "type": "Feature",
    "properties": {
      "id": "KBOI",
      "site": "Boise Arpt",
      "prior": "1",
      "obsTime": "2018-04-27T19:53:00Z",
      "temp": 27.2,
      "dewp": 3.9,
      "wspd": 0,
      "wdir": 0,
      "cover": "CLR",
      "visib": 10.00,
      "fltcat": "VFR",
      "altim": 1007.2,
      "slp": 1004.8,
      "rawOb": "KBOI 271953Z 00000KT 10SM CLR 27/04 A2974 RMK AO2 SLP048 T02720039"
    },
    "geometry": {
      "type": "Point",
      "coordinates": [-116.223,43.565]
    } 
  },
  { "type": "Feature",
    "properties": {
      "id": "KHLN",
      "site": "Helena Rgnl",
      "prior": "1",
      "obsTime": "2018-04-27T19:53:00Z",
      "temp": 22.2,
      "dewp": 2.2,
      "wspd": 4,
      "wdir": 0,
      "cover": "CLR",
      "visib": 10.00,
      "fltcat": "VFR",
      "altim": 1014.3,
      "slp": 1014.1,
      "rawOb": "KHLN 271953Z VRB04KT 10SM CLR 22/02 A2995 RMK AO2 SLP141 T02220022"
    },
    "geometry": {
      "type": "Point",
      "coordinates": [-111.977,46.605]
    } 
  },
  { "type": "Feature",
    "properties": {
      "id": "KSFO",
      "site": "San Francisco Intl",
      "prior": "1",
      "obsTime": "2018-04-27T19:56:00Z",
      "temp": 18.3,
      "dewp": 8.3,
      "wspd": 10,
      "wdir": 250,
      "cover": "SCT",
      "visib": 10.00,
      "fltcat": "VFR",
      "altim": 1020.1,
      "slp": 1019.9,
      "rawOb": "KSFO 271956Z 25010KT 10SM SCT035 18/08 A3012 RMK AO2 SLP199 T01830083"
    },
    "geometry": {
      "type": "Point",
      "coordinates": [-122.374,37.619]
    } 
  },
  { "type": "Feature",
    "properties": {
      "id": "KGGW",
      "site": "Glasgow Intl Arpt",
      "prior": "1",
      "obsTime": "2018-04-27T19:53:00Z",
      "temp": 19.4,
      "dewp": -4.4,
      "wspd": 8,
      "wdir": 130,
      "cover": "CLR",
      "visib": 10.00,
      "fltcat": "VFR",
      "altim": 1018.7,
      "slp": 1018.8,
      "rawOb": "KGGW 271953Z AUTO 13008KT 10SM CLR 19/M04 A3008 RMK AO2 SLP188 T01941044"
    },
    "geometry": {
      "type": "Point",
      "coordinates": [-106.621,48.214]
    } 
  },
  { "type": "Feature",
    "properties": {
      "id": "KACV",
      "site": "Arcata Arpt",
      "prior": "1",
      "obsTime": "2018-04-27T19:53:00Z",
      "temp": 15.0,
      "dewp": 8.3,
      "wspd": 0,
      "wdir": 0,
      "ceil": 65,
      "cover": "OVC",
      "visib": 10.00,
      "fltcat": "VFR",
      "altim": 1018.4,
      "slp": 1018.8,
      "rawOb": "KACV 271953Z AUTO 00000KT 10SM OVC065 15/08 A3007 RMK AO2 RAB1857E15 SLP188 P0000 T01500083"
    },
    "geometry": {
      "type": "Point",
      "coordinates": [-124.108,40.978]
    } 
  },
  { "type": "Feature",
    "properties": {
      "id": "CYWK",
      "site": "Wabush Lake Arpt",
      "prior": "1",
      "obsTime": "2018-04-27T20:00:00Z",
      "temp": 9.0,
      "dewp": 0.0,
      "wspd": 5,
      "wdir": 250,
      "ceil": 87,
      "cover": "BKN",
      "visib": 15.00,
      "fltcat": "VFR",
      "altim": 1005.2,
      "slp": 1007.1,
      "rawOb": "CYWK 272000Z 25005KT 15SM SCT050 BKN087 09/M00 A2968 RMK CU3AC4 SLP071"
    },
    "geometry": {
      "type": "Point",
      "coordinates": [-66.866,52.924]
    } 
  },
  { "type": "Feature",
    "properties": {
      "id": "CYVP",
      "site": "Kuujjuaq Arpt",
      "prior": "1",
      "obsTime": "2018-04-27T20:00:00Z",
      "temp": -9.0,
      "dewp": -16.0,
      "wspd": 11,
      "wgst": 18,
      "wdir": 320,
      "cover": "FEW",
      "visib": 15.00,
      "fltcat": "VFR",
      "altim": 1013.6,
      "slp": 1014.2,
      "rawOb": "CYVP 272000Z 32011G18KT 15SM FEW028 M09/M16 A2993 RMK SC2 SLP142"
    },
    "geometry": {
      "type": "Point",
      "coordinates": [-68.420,58.095]
    } 
  },
  { "type": "Feature",
    "properties": {
      "id": "CYYC",
      "site": "Calgary Intl Arpt",
      "prior": "1",
      "obsTime": "2018-04-27T20:00:00Z",
      "temp": 21.0,
      "dewp": -1.0,
      "wspd": 21,
      "wdir": 160,
      "cover": "SKC",
      "visib": 40.00,
      "fltcat": "VFR",
      "altim": 1013.6,
      "slp": 1014.7,
      "rawOb": "CYYC 272000Z 16021KT 40SM SKC 21/M01 A2993 RMK SLP147 DENSITY ALT 5200FT"
    },
    "geometry": {
      "type": "Point",
      "coordinates": [-114.022,51.119]
    } 
  },
  { "type": "Feature",
    "properties": {
      "id": "KPWM",
      "site": "Portland Intl",
      "prior": "1",
      "obsTime": "2018-04-27T19:51:00Z",
      "temp": 9.4,
      "dewp": 6.1,
      "wspd": 5,
      "wdir": 130,
      "ceil": 70,
      "cover": "OVC",
      "visib": 8.00,
      "fltcat": "VFR",
      "altim": 1011.3,
      "slp": 1011.0,
      "wx": "-RA",
      "rawOb": "KPWM 271951Z 13005KT 8SM -RA FEW040 BKN070 OVC090 09/06 A2986 RMK AO2 RAB12 SLP110 P0002 T00940061"
    },
    "geometry": {
      "type": "Point",
      "coordinates": [-70.306,43.645]
    } 
  },
  { "type": "Feature",
    "properties": {
      "id": "KPHX",
      "site": "Phoenix/Sky Harbor",
      "prior": "1",
      "obsTime": "2018-04-27T19:51:00Z",
      "temp": 36.1,
      "dewp": 0.6,
      "wspd": 5,
      "wdir": 140,
      "cover": "FEW",
      "visib": 10.00,
      "fltcat": "VFR",
      "altim": 1009.6,
      "slp": 1007.4,
      "rawOb": "KPHX 271951Z 14005KT 10SM FEW120 FEW210 36/01 A2981 RMK AO2 SLP074 T03610006"
    },
    "geometry": {
      "type": "Point",
      "coordinates": [-112.010,33.435]
    } 
  },
  { "type": "Feature",
    "properties": {
      "id": "KEKO",
      "site": "Elko Rgnl",
      "prior": "1",
      "obsTime": "2018-04-27T19:56:00Z",
      "temp": 27.8,
      "dewp": -2.8,
      "wspd": 18,
      "wgst": 25,
      "wdir": 220,
      "ceil": 33,
      "cover": "BKN",
      "visib": 5.00,
      "fltcat": "MVFR",
      "altim": 1011.3,
      "slp": 1006.0,
      "wx": "HZ",
      "rawOb": "KEKO 271956Z AUTO 22018G25KT 5SM HZ BKN033 28/M03 A2986 RMK AO2 PK WND 17028/1915 SLP060 T02781028"
    },
    "geometry": {
      "type": "Point",
      "coordinates": [-115.790,40.824]
    } 
  },
  { "type": "Feature",
    "properties": {
      "id": "KBIS",
      "site": "Bismarck Arpt",
      "prior": "1",
      "obsTime": "2018-04-27T19:52:00Z",
      "temp": 15.6,
      "dewp": -2.8,
      "wspd": 10,
      "wgst": 20,
      "wdir": 20,
      "cover": "CLR",
      "visib": 10.00,
      "fltcat": "VFR",
      "altim": 1019.4,
      "slp": 1019.4,
      "rawOb": "KBIS 271952Z 02010G20KT 10SM CLR 16/M03 A3010 RMK AO2 SLP194 T01561028"
    },
    "geometry": {
      "type": "Point",
      "coordinates": [-100.750,46.774]
    } 
  },
  { "type": "Feature",
    "properties": {
      "id": "CYXE",
      "site": "Saskatoon/Diefenbake",
      "prior": "1",
      "obsTime": "2018-04-27T20:00:00Z",
      "temp": 15.0,
      "dewp": -8.0,
      "wspd": 6,
      "wdir": 120,
      "cover": "SKC",
      "visib": 15.00,
      "fltcat": "VFR",
      "altim": 1021.1,
      "slp": 1022.7,
      "rawOb": "CYXE 272000Z 12006KT 080V230 15SM SKC 15/M08 A3015 RMK SLP227 DENSITY ALT 1800FT"
    },
    "geometry": {
      "type": "Point",
      "coordinates": [-106.703,52.175]
    } 
  },
  { "type": "Feature",
    "properties": {
      "id": "KSAT",
      "site": "San Antonio Intl",
      "prior": "1",
      "obsTime": "2018-04-27T19:51:00Z",
      "temp": 23.9,
      "dewp": 9.4,
      "wspd": 0,
      "wdir": 0,
      "ceil": 250,
      "cover": "OVC",
      "visib": 10.00,
      "fltcat": "VFR",
      "altim": 1019.0,
      "slp": 1017.5,
      "rawOb": "KSAT 271951Z 00000KT 10SM FEW055 SCT190 OVC250 24/09 A3009 RMK AO2 SLP175 T02390094"
    },
    "geometry": {
      "type": "Point",
      "coordinates": [-98.472,29.534]
    } 
  },
  { "type": "Feature",
    "properties": {
      "id": "CYXS",
      "site": "Prince George Arpt",
      "prior": "1",
      "obsTime": "2018-04-27T20:00:00Z",
      "temp": 20.0,
      "dewp": 3.0,
      "wspd": 6,
      "wdir": 330,
      "cover": "CLR",
      "visib": 9.00,
      "fltcat": "VFR",
      "altim": 1010.6,
      "slp": 1011.8,
      "rawOb": "CYXS 272000Z AUTO 33006KT 280V360 9SM CLR 20/03 A2984 RMK SLP118 DENSITY ALT 3400FT"
    },
    "geometry": {
      "type": "Point",
      "coordinates": [-122.675,53.888]
    } 
  },
  { "type": "Feature",
    "properties": {
      "id": "KANJ",
      "site": "Sault Ste Marie Muni",
      "prior": "1",
      "obsTime": "2018-04-27T19:55:00Z",
      "temp": 7.2,
      "dewp": 0.0,
      "wspd": 10,
      "wdir": 310,
      "ceil": 37,
      "cover": "OVC",
      "visib": 10.00,
      "fltcat": "VFR",
      "altim": 1008.5,
      "slp": 1008.8,
      "rawOb": "KANJ 271955Z AUTO 31010KT 10SM BKN037 OVC046 07/00 A2978 RMK AO2 SLP088 T00720000"
    },
    "geometry": {
      "type": "Point",
      "coordinates": [-84.368,46.480]
    } 
  },
  { "type": "Feature",
    "properties": {
      "id": "CYZT",
      "site": "Port Hardy Arpt",
      "prior": "1",
      "obsTime": "2018-04-27T20:00:00Z",
      "temp": 14.0,
      "dewp": 9.0,
      "wspd": 11,
      "wdir": 360,
      "cover": "FEW",
      "visib": 20.00,
      "fltcat": "VFR",
      "altim": 1010.6,
      "slp": 1010.8,
      "rawOb": "CYZT 272000Z 36011KT 20SM FEW170 FEW200 14/09 A2984 RMK AC1CI1 SLP108 DENSITY ALT 100FT"
    },
    "geometry": {
      "type": "Point",
      "coordinates": [-127.370,50.682]
    } 
  },
  { "type": "Feature",
    "properties": {
      "id": "CWGR",
      "site": "Iles-de-la-Madeleine",
      "prior": "1",
      "obsTime": "2018-04-27T20:00:00Z",
      "temp": 13.7,
      "dewp": 5.5,
      "wspd": 12,
      "wdir": 250,
      "slp": 1012.9,
      "rawOb": "CWGR 272000Z AUTO 25012KT 14/06 RMK AO1 SLP129 T01370055 53010"
    },
    "geometry": {
      "type": "Point",
      "coordinates": [-61.775,47.427]
    } 
  },
  { "type": "Feature",
    "properties": {
      "id": "KCPR",
      "site": "Casper/Natrona Cnty",
      "prior": "1",
      "obsTime": "2018-04-27T19:53:00Z",
      "temp": 20.0,
      "dewp": -11.1,
      "wspd": 0,
      "wdir": 0,
      "cover": "CLR",
      "visib": 10.00,
      "fltcat": "VFR",
      "altim": 1018.7,
      "slp": 1015.4,
      "rawOb": "KCPR 271953Z 00000KT 10SM CLR 20/M11 A3008 RMK AO2 SLP154 T02001111"
    },
    "geometry": {
      "type": "Point",
      "coordinates": [-106.462,42.903]
    } 
  },
  { "type": "Feature",
    "properties": {
      "id": "CYGP",
      "site": "Gaspe Arpt",
      "prior": "1",
      "obsTime": "2018-04-27T20:00:00Z",
      "temp": 11.0,
      "dewp": 4.0,
      "wspd": 14,
      "wgst": 19,
      "wdir": 80,
      "cover": "FEW",
      "visib": 15.00,
      "fltcat": "VFR",
      "altim": 1009.6,
      "slp": 1009.8,
      "rawOb": "CYGP 272000Z 08014G19KT 15SM FEW140 FEW220 11/04 A2981 RMK AC1CI2 AC TR SLP098"
    },
    "geometry": {
      "type": "Point",
      "coordinates": [-64.481,48.776]
    } 
  },
  { "type": "Feature",
    "properties": {
      "id": "KEUG",
      "site": "Eugene/Mahlon Sweet",
      "prior": "1",
      "obsTime": "2018-04-27T19:54:00Z",
      "temp": 9.4,
      "dewp": 8.9,
      "wspd": 5,
      "wdir": 150,
      "ceil": 40,
      "cover": "OVC",
      "visib": 10.00,
      "fltcat": "VFR",
      "altim": 1018.0,
      "slp": 1017.9,
      "wx": "-RA",
      "rawOb": "KEUG 271954Z 15005KT 10SM -RA FEW015 BKN040 OVC060 09/09 A3006 RMK AO2 SLP179 P0007 T00940089"
    },
    "geometry": {
      "type": "Point",
      "coordinates": [-123.213,44.122]
    } 
  },
  { "type": "Feature",
    "properties": {
      "id": "KBRO",
      "site": "Brownsville Intl",
      "prior": "1",
      "obsTime": "2018-04-27T19:53:00Z",
      "temp": 27.8,
      "dewp": 16.1,
      "wspd": 14,
      "wdir": 40,
      "cover": "CLR",
      "visib": 10.00,
      "fltcat": "VFR",
      "altim": 1017.4,
      "slp": 1017.0,
      "rawOb": "KBRO 271953Z 04014KT 10SM CLR 28/16 A3004 RMK AO2 SLP170 T02780161"
    },
    "geometry": {
      "type": "Point",
      "coordinates": [-97.428,25.908]
    } 
  },
  { "type": "Feature",
    "properties": {
      "id": "KSTL",
      "site": "St Louis/Lambert Int",
      "prior": "1",
      "obsTime": "2018-04-27T19:51:00Z",
      "temp": 21.1,
      "dewp": 1.1,
      "wspd": 14,
      "wgst": 19,
      "wdir": 280,
      "cover": "CLR",
      "visib": 10.00,
      "fltcat": "VFR",
      "altim": 1012.6,
      "slp": 1012.1,
      "rawOb": "KSTL 271951Z 28014G19KT 10SM CLR 21/01 A2990 RMK AO2 SLP121 T02110011"
    },
    "geometry": {
      "type": "Point",
      "coordinates": [-90.361,38.745]
    } 
  },
  { "type": "Feature",
    "properties": {
      "id": "CYTH",
      "site": "Thompson Arpt",
      "prior": "1",
      "obsTime": "2018-04-27T20:00:00Z",
      "temp": 4.0,
      "dewp": -1.0,
      "wspd": 7,
      "wdir": 220,
      "ceil": 20,
      "cover": "BKN",
      "visib": 8.00,
      "fltcat": "MVFR",
      "altim": 1020.7,
      "slp": 1022.2,
      "wx": "-RA -SN",
      "rawOb": "CYTH 272000Z 22007KT 8SM -RASN BKN020 BKN075 04/M01 A3014 RMK CU6AC1 SLP222"
    },
    "geometry": {
      "type": "Point",
      "coordinates": [-97.863,55.800]
    } 
  },
  { "type": "Feature",
    "properties": {
      "id": "KLBF",
      "site": "N Platte/Lee Bird Fl",
      "prior": "1",
      "obsTime": "2018-04-27T19:53:00Z",
      "temp": 25.0,
      "dewp": 1.7,
      "wspd": 11,
      "wdir": 350,
      "cover": "CLR",
      "visib": 10.00,
      "fltcat": "VFR",
      "altim": 1016.3,
      "slp": 1015.7,
      "rawOb": "KLBF 271953Z AUTO 35011KT 10SM CLR 25/02 A3001 RMK AO2 SLP157 T02500017"
    },
    "geometry": {
      "type": "Point",
      "coordinates": [-100.692,41.131]
    } 
  },
  { "type": "Feature",
    "properties": {
      "id": "CWNZ",
      "site": "Nagagami(MARS)",
      "prior": "1",
      "obsTime": "2018-04-27T20:00:00Z",
      "temp": 1.9,
      "dewp": -17.8,
      "wspd": 10,
      "wgst": 16,
      "wdir": 10,
      "slp": 1016.1,
      "rawOb": "CWNZ 272000Z AUTO 01010G16KT 02/M18 RMK AO1 SOG 26 3000 SLP161 T00191178"
    },
    "geometry": {
      "type": "Point",
      "coordinates": [-84.164,49.747]
    } 
  },
  { "type": "Feature",
    "properties": {
      "id": "CYZH",
      "site": "Slave Lake Arpt",
      "prior": "1",
      "obsTime": "2018-04-27T20:00:00Z",
      "temp": 21.0,
      "dewp": 3.0,
      "wspd": 7,
      "wgst": 15,
      "wdir": 80,
      "cover": "CLR",
      "visib": 9.00,
      "fltcat": "VFR",
      "altim": 1009.9,
      "slp": 1010.9,
      "rawOb": "CYZH 272000Z AUTO 08007G15KT 9SM CLR 21/03 A2982 RMK SLP109 DENSITY ALT 3100FT"
    },
    "geometry": {
      "type": "Point",
      "coordinates": [-114.777,55.293]
    } 
  },
  { "type": "Feature",
    "properties": {
      "id": "CYER",
      "site": "Ft Severn Arpt",
      "prior": "1",
      "obsTime": "2018-04-27T20:00:00Z",
      "temp": -9.0,
      "dewp": -12.0,
      "wspd": 5,
      "wdir": 50,
      "ceil": 24,
      "cover": "OVC",
      "visib": 7.00,
      "fltcat": "MVFR",
      "altim": 1023.8,
      "slp": 1023.8,
      "wx": "-SN",
      "rawOb": "CYER 272000Z AUTO 05005KT 360V080 7SM -SN OVC024 M09/M12 A3023 RMK SLP238"
    },
    "geometry": {
      "type": "Point",
      "coordinates": [-87.676,56.019]
    } 
  },
  { "type": "Feature",
    "properties": {
      "id": "KCDC",
      "site": "Cedar City Muni",
      "prior": "1",
      "obsTime": "2018-04-27T19:53:00Z",
      "temp": 27.2,
      "dewp": -6.1,
      "wspd": 17,
      "wgst": 24,
      "wdir": 220,
      "cover": "CLR",
      "visib": 10.00,
      "fltcat": "VFR",
      "altim": 1016.0,
      "slp": 1009.3,
      "rawOb": "KCDC 271953Z AUTO 22017G24KT 10SM CLR 27/M06 A3000 RMK AO2 SLP093 T02721061"
    },
    "geometry": {
      "type": "Point",
      "coordinates": [-113.100,37.700]
    } 
  },
  { "type": "Feature",
    "properties": {
      "id": "KHSE",
      "site": "Hatteras/Mitchell Fl",
      "prior": "1",
      "obsTime": "2018-04-27T19:51:00Z",
      "temp": 23.9,
      "dewp": 17.8,
      "wspd": 6,
      "wdir": 170,
      "cover": "FEW",
      "visib": 10.00,
      "fltcat": "VFR",
      "altim": 1007.9,
      "slp": 1007.5,
      "rawOb": "KHSE 271951Z AUTO 17006KT 10SM FEW025 24/18 A2976 RMK AO2 SLP075 T02390178"
    },
    "geometry": {
      "type": "Point",
      "coordinates": [-75.618,35.233]
    } 
  },
  { "type": "Feature",
    "properties": {
      "id": "CYKJ",
      "site": "Key Lake Arpt",
      "prior": "1",
      "obsTime": "2018-04-27T20:00:00Z",
      "temp": 12.0,
      "dewp": -4.0,
      "wspd": 12,
      "wgst": 18,
      "wdir": 190,
      "cover": "CLR",
      "visib": 9.00,
      "fltcat": "VFR",
      "altim": 1015.7,
      "slp": 1017.8,
      "rawOb": "CYKJ 272000Z AUTO 19012G18KT 170V240 9SM CLR 12/M04 A2999 RMK SLP178"
    },
    "geometry": {
      "type": "Point",
      "coordinates": [-105.620,57.255]
    } 
  },
  { "type": "Feature",
    "properties": {
      "id": "MMGL",
      "site": "Guadalajara/Hildago",
      "prior": "1",
      "obsTime": "2018-04-27T19:44:00Z",
      "temp": 31.0,
      "dewp": -4.0,
      "wspd": 7,
      "wdir": 360,
      "cover": "SKC",
      "visib": 10.00,
      "fltcat": "VFR",
      "altim": 1018.0,
      "rawOb": "MMGL 271944Z 36007KT 10SM SKC 31/M04 A3006"
    },
    "geometry": {
      "type": "Point",
      "coordinates": [-103.310,20.522]
    } 
  },
  { "type": "Feature",
    "properties": {
      "id": "CYPL",
      "site": "Pickle Lake Arpt",
      "prior": "1",
      "obsTime": "2018-04-27T20:00:00Z",
      "temp": 4.0,
      "dewp": -9.0,
      "wspd": 8,
      "wdir": 30,
      "cover": "SCT",
      "visib": 15.00,
      "fltcat": "VFR",
      "altim": 1017.0,
      "slp": 1019.1,
      "rawOb": "CYPL 272000Z 03008KT 330V080 15SM FEW050 SCT110 SCT230 04/M09 A3003 RMK CU2AC1CI1 SLP191"
    },
    "geometry": {
      "type": "Point",
      "coordinates": [-90.214,51.446]
    } 
  },
  { "type": "Feature",
    "properties": {
      "id": "MBPV",
      "site": "Providenciales Intl",
      "prior": "1",
      "obsTime": "2018-04-27T20:00:00Z",
      "temp": 31.0,
      "dewp": 23.0,
      "wspd": 13,
      "wdir": 150,
      "cover": "SCT",
      "visib": 6.21,
      "fltcat": "VFR",
      "altim": 1012.0,
      "rawOb": "MBPV 272000Z 15013KT 9999 SCT012 31/23 Q1012"
    },
    "geometry": {
      "type": "Point",
      "coordinates": [-72.267,21.774]
    } 
  },
  { "type": "Feature",
    "properties": {
      "id": "MMTM",
      "site": "Tampico/Mina Intl",
      "prior": "1",
      "obsTime": "2018-04-27T20:04:00Z",
      "temp": 25.0,
      "dewp": 22.0,
      "wspd": 16,
      "wdir": 20,
      "ceil": 15,
      "cover": "OVC",
      "visib": 6.00,
      "fltcat": "MVFR",
      "altim": 1016.0,
      "rawOb": "MMTM 272004Z RTD 02016KT 6SM BKN015 OVC060 25/22 A3000 RMK 8/57/ HZY"
    },
    "geometry": {
      "type": "Point",
      "coordinates": [-97.867,22.293]
    } 
  },
  { "type": "Feature",
    "properties": {
      "id": "MMTC",
      "site": "Torreon/Tinoco Intl",
      "prior": "1",
      "obsTime": "2018-04-27T19:40:00Z",
      "temp": 29.0,
      "dewp": 9.0,
      "wspd": 3,
      "wdir": 10,
      "ceil": 200,
      "cover": "BKN",
      "visib": 8.00,
      "fltcat": "VFR",
      "altim": 1016.7,
      "rawOb": "MMTC 271940Z 01003KT 8SM SCT100 BKN200 29/09 A3002 RMK 8/072 HZY ISOL CU"
    },
    "geometry": {
      "type": "Point",
      "coordinates": [-103.404,25.562]
    } 
  },
  { "type": "Feature",
    "properties": {
      "id": "MMGM",
      "site": "Guaymas/Yanez Intl",
      "prior": "1",
      "obsTime": "2018-04-27T19:40:00Z",
      "temp": 27.0,
      "dewp": 15.0,
      "wspd": 14,
      "wdir": 200,
      "ceil": 150,
      "cover": "BKN",
      "visib": 10.00,
      "fltcat": "VFR",
      "altim": 1008.9,
      "rawOb": "MMGM 271940Z 20014KT 10SM BKN150 27/15 A2979 RMK 8/010 HZY"
    },
    "geometry": {
      "type": "Point",
      "coordinates": [-110.924,27.968]
    } 
  },
  { "type": "Feature",
    "properties": {
      "id": "MMLP",
      "site": "La Paz/De Leon Intl",
      "prior": "1",
      "obsTime": "2018-04-27T19:46:00Z",
      "temp": 35.0,
      "dewp": 2.0,
      "wspd": 11,
      "wdir": 20,
      "ceil": 220,
      "cover": "BKN",
      "visib": 10.00,
      "fltcat": "VFR",
      "altim": 1010.6,
      "rawOb": "MMLP 271946Z 02011KT 10SM BKN220 35/02 A2984 RMK 8/009 ISOL AC"
    },
    "geometry": {
      "type": "Point",
      "coordinates": [-110.362,24.073]
    } 
  },
  { "type": "Feature",
    "properties": {
      "id": "KSAN",
      "site": "San Diego Intl Arpt",
      "prior": "2",
      "obsTime": "2018-04-27T19:51:00Z",
      "temp": 18.9,
      "dewp": 9.4,
      "wspd": 6,
      "wdir": 300,
      "cover": "CLR",
      "visib": 10.00,
      "fltcat": "VFR",
      "altim": 1017.4,
      "slp": 1017.1,
      "rawOb": "KSAN 271951Z 30006KT 10SM CLR 19/09 A3004 RMK AO2 SLP171 T01890094"
    },
    "geometry": {
      "type": "Point",
      "coordinates": [-117.190,32.733]
    } 
  },
  { "type": "Feature",
    "properties": {
      "id": "KSYR",
      "site": "Syracuse/Hancock Int",
      "prior": "2",
      "obsTime": "2018-04-27T19:54:00Z",
      "temp": 16.1,
      "dewp": 7.8,
      "wspd": 6,
      "wdir": 170,
      "ceil": 50,
      "cover": "BKN",
      "visib": 10.00,
      "fltcat": "VFR",
      "altim": 1005.5,
      "slp": 1005.4,
      "rawOb": "KSYR 271954Z 17006KT 10SM SCT043 BKN050 BKN090 16/08 A2969 RMK AO2 SLP054 T01610078"
    },
    "geometry": {
      "type": "Point",
      "coordinates": [-76.106,43.112]
    } 
  },
  { "type": "Feature",
    "properties": {
      "id": "KPHL",
      "site": "Philadelphia Intl",
      "prior": "2",
      "obsTime": "2018-04-27T19:54:00Z",
      "temp": 15.0,
      "dewp": 10.6,
      "wspd": 4,
      "wdir": 0,
      "ceil": 26,
      "cover": "OVC",
      "visib": 10.00,
      "fltcat": "MVFR",
      "altim": 1006.5,
      "slp": 1006.5,
      "rawOb": "KPHL 271954Z VRB04KT 10SM BKN026 OVC032 15/11 A2972 RMK AO2 SLP065 T01500106 $"
    },
    "geometry": {
      "type": "Point",
      "coordinates": [-75.246,39.869]
    } 
  },
  { "type": "Feature",
    "properties": {
      "id": "KRIC",
      "site": "Richmond Intl",
      "prior": "2",
      "obsTime": "2018-04-27T19:54:00Z",
      "temp": 20.6,
      "dewp": 13.3,
      "wspd": 6,
      "wdir": 10,
      "ceil": 80,
      "cover": "BKN",
      "visib": 10.00,
      "fltcat": "VFR",
      "altim": 1006.5,
      "slp": 1006.7,
      "rawOb": "KRIC 271954Z 01006KT 10SM SCT040 BKN080 BKN250 21/13 A2972 RMK AO2 SLP067 T02060133"
    },
    "geometry": {
      "type": "Point",
      "coordinates": [-77.322,37.506]
    } 
  },
  { "type": "Feature",
    "properties": {
      "id": "KJAN",
      "site": "Jackson/Evers Intl",
      "prior": "2",
      "obsTime": "2018-04-27T19:54:00Z",
      "temp": 22.2,
      "dewp": 10.6,
      "wspd": 5,
      "wdir": 300,
      "ceil": 49,
      "cover": "OVC",
      "visib": 10.00,
      "fltcat": "VFR",
      "altim": 1015.0,
      "slp": 1014.4,
      "rawOb": "KJAN 271954Z 30005KT 10SM BKN049 OVC060 22/11 A2997 RMK AO2 SLP144 T02220106 $"
    },
    "geometry": {
      "type": "Point",
      "coordinates": [-90.077,32.312]
    } 
  },
  { "type": "Feature",
    "properties": {
      "id": "KFWA",
      "site": "Fort Wayne Intl",
      "prior": "2",
      "obsTime": "2018-04-27T19:54:00Z",
      "temp": 16.7,
      "dewp": 1.7,
      "wspd": 18,
      "wgst": 24,
      "wdir": 280,
      "cover": "FEW",
      "visib": 10.00,
      "fltcat": "VFR",
      "altim": 1007.2,
      "slp": 1007.1,
      "rawOb": "KFWA 271954Z 28018G24KT 10SM FEW070 FEW200 17/02 A2974 RMK AO2 PK WND 32026/1928 SLP071 T01670017"
    },
    "geometry": {
      "type": "Point",
      "coordinates": [-85.190,40.982]
    } 
  },
  { "type": "Feature",
    "properties": {
      "id": "KCNK",
      "site": "Concordia/Blosser Mu",
      "prior": "2",
      "obsTime": "2018-04-27T19:55:00Z",
      "temp": 25.0,
      "dewp": 0.6,
      "wspd": 14,
      "wgst": 20,
      "wdir": 290,
      "cover": "CLR",
      "visib": 10.00,
      "fltcat": "VFR",
      "altim": 1014.6,
      "slp": 1014.0,
      "rawOb": "KCNK 271955Z AUTO 29014G20KT 10SM CLR 25/01 A2996 RMK AO2 PK WND 29026/1944 SLP140 T02500006"
    },
    "geometry": {
      "type": "Point",
      "coordinates": [-97.653,39.550]
    } 
  },
  { "type": "Feature",
    "properties": {
      "id": "KIPT",
      "site": "Williamsport Rgnl",
      "prior": "2",
      "obsTime": "2018-04-27T19:54:00Z",
      "temp": 15.6,
      "dewp": 7.2,
      "wspd": 4,
      "wdir": 0,
      "ceil": 60,
      "cover": "OVC",
      "visib": 10.00,
      "fltcat": "VFR",
      "altim": 1006.5,
      "slp": 1006.3,
      "rawOb": "KIPT 271954Z VRB04KT 10SM FEW033 FEW046 OVC060 16/07 A2972 RMK AO2 SLP063 T01560072"
    },
    "geometry": {
      "type": "Point",
      "coordinates": [-76.922,41.241]
    } 
  },
  { "type": "Feature",
    "properties": {
      "id": "KMEM",
      "site": "Memphis Intl",
      "prior": "2",
      "obsTime": "2018-04-27T19:54:00Z",
      "temp": 22.2,
      "dewp": 10.0,
      "wspd": 8,
      "wgst": 16,
      "wdir": 260,
      "cover": "FEW",
      "visib": 10.00,
      "fltcat": "VFR",
      "altim": 1013.6,
      "slp": 1013.4,
      "rawOb": "KMEM 271954Z 26008G16KT 10SM FEW050 22/10 A2993 RMK AO2 SLP134 T02220100"
    },
    "geometry": {
      "type": "Point",
      "coordinates": [-89.982,35.042]
    } 
  },
  { "type": "Feature",
    "properties": {
      "id": "KCRW",
      "site": "Charleston/Yeager Ar",
      "prior": "2",
      "obsTime": "2018-04-27T19:54:00Z",
      "temp": 22.2,
      "dewp": 2.8,
      "wspd": 8,
      "wgst": 16,
      "wdir": 280,
      "cover": "SCT",
      "visib": 10.00,
      "fltcat": "VFR",
      "altim": 1006.5,
      "slp": 1005.8,
      "rawOb": "KCRW 271954Z 28008G16KT 240V330 10SM SCT075 SCT200 22/03 A2972 RMK AO2 SLP058 T02220028"
    },
    "geometry": {
      "type": "Point",
      "coordinates": [-81.594,38.374]
    } 
  },
  { "type": "Feature",
    "properties": {
      "id": "KGRR",
      "site": "Grand Rapids Intl",
      "prior": "2",
      "obsTime": "2018-04-27T19:53:00Z",
      "temp": 15.0,
      "dewp": 0.6,
      "wspd": 8,
      "wgst": 15,
      "wdir": 280,
      "ceil": 250,
      "cover": "BKN",
      "visib": 10.00,
      "fltcat": "VFR",
      "altim": 1006.5,
      "slp": 1006.4,
      "rawOb": "KGRR 271953Z 28008G15KT 10SM FEW042 BKN250 15/01 A2972 RMK AO2 SLP064 T01500006"
    },
    "geometry": {
      "type": "Point",
      "coordinates": [-85.520,42.880]
    } 
  },
  { "type": "Feature",
    "properties": {
      "id": "KMSY",
      "site": "New Orleans/Armstron",
      "prior": "2",
      "obsTime": "2018-04-27T19:53:00Z",
      "temp": 23.9,
      "dewp": 12.8,
      "wspd": 8,
      "wdir": 330,
      "cover": "SCT",
      "visib": 10.00,
      "fltcat": "VFR",
      "altim": 1015.0,
      "slp": 1015.2,
      "rawOb": "KMSY 271953Z 33008KT 10SM FEW040 FEW055 SCT250 24/13 A2997 RMK AO2 SLP152 T02390128"
    },
    "geometry": {
      "type": "Point",
      "coordinates": [-90.259,29.991]
    } 
  },
  { "type": "Feature",
    "properties": {
      "id": "KBGR",
      "site": "Bangor Intl Arpt",
      "prior": "2",
      "obsTime": "2018-04-27T19:53:00Z",
      "temp": 13.9,
      "dewp": 6.7,
      "wspd": 13,
      "wdir": 200,
      "ceil": 100,
      "cover": "OVC",
      "visib": 10.00,
      "fltcat": "VFR",
      "altim": 1010.9,
      "slp": 1010.9,
      "rawOb": "KBGR 271953Z 20013KT 10SM FEW050 BKN100 OVC250 14/07 A2985 RMK AO2 SLP109 T01390067"
    },
    "geometry": {
      "type": "Point",
      "coordinates": [-68.830,44.808]
    } 
  },
  { "type": "Feature",
    "properties": {
      "id": "KBFL",
      "site": "Bakersfield/Meadows",
      "prior": "2",
      "obsTime": "2018-04-27T19:54:00Z",
      "temp": 21.7,
      "dewp": 3.3,
      "wspd": 12,
      "wdir": 330,
      "cover": "CLR",
      "visib": 10.00,
      "fltcat": "VFR",
      "altim": 1018.0,
      "slp": 1017.6,
      "rawOb": "KBFL 271954Z 33012KT 10SM CLR 22/03 A3006 RMK AO2 SLP176 T02170033"
    },
    "geometry": {
      "type": "Point",
      "coordinates": [-119.058,35.435]
    } 
  },
  { "type": "Feature",
    "properties": {
      "id": "KTCC",
      "site": "Tucumcari Muni",
      "prior": "2",
      "obsTime": "2018-04-27T19:53:00Z",
      "temp": 22.8,
      "dewp": -1.1,
      "wspd": 12,
      "wgst": 22,
      "wdir": 200,
      "cover": "CLR",
      "visib": 10.00,
      "fltcat": "VFR",
      "altim": 1020.1,
      "slp": 1016.6,
      "rawOb": "KTCC 271953Z AUTO 20012G22KT 10SM CLR 23/M01 A3012 RMK AO2 SLP166 T02281011"
    },
    "geometry": {
      "type": "Point",
      "coordinates": [-103.604,35.182]
    } 
  },
  { "type": "Feature",
    "properties": {
      "id": "KRNO",
      "site": "Reno/Tahoe Intl",
      "prior": "2",
      "obsTime": "2018-04-27T19:55:00Z",
      "temp": 20.0,
      "dewp": -11.7,
      "wspd": 15,
      "wgst": 24,
      "wdir": 230,
      "cover": "FEW",
      "visib": 10.00,
      "fltcat": "VFR",
      "altim": 1014.6,
      "slp": 1010.0,
      "rawOb": "KRNO 271955Z 23015G24KT 10SM FEW070 20/M12 A2996 RMK AO2 PK WND 20029/1901 SLP100 T02001117"
    },
    "geometry": {
      "type": "Point",
      "coordinates": [-119.770,39.500]
    } 
  },
  { "type": "Feature",
    "properties": {
      "id": "KPUB",
      "site": "Pueblo Mem Arpt",
      "prior": "2",
      "obsTime": "2018-04-27T19:53:00Z",
      "temp": 23.9,
      "dewp": -1.7,
      "wspd": 13,
      "wgst": 18,
      "wdir": 140,
      "cover": "CLR",
      "visib": 10.00,
      "fltcat": "VFR",
      "altim": 1017.7,
      "slp": 1014.0,
      "rawOb": "KPUB 271953Z 14013G18KT 10SM CLR 24/M02 A3005 RMK AO2 SLP140 T02391017"
    },
    "geometry": {
      "type": "Point",
      "coordinates": [-104.494,38.286]
    } 
  },
  { "type": "Feature",
    "properties": {
      "id": "KLBB",
      "site": "Lubbock Intl Arpt",
      "prior": "2",
      "obsTime": "2018-04-27T19:53:00Z",
      "temp": 20.6,
      "dewp": -1.7,
      "wspd": 0,
      "wdir": 0,
      "cover": "SCT",
      "visib": 10.00,
      "fltcat": "VFR",
      "altim": 1021.4,
      "slp": 1018.5,
      "rawOb": "KLBB 271953Z 00000KT 10SM FEW250 SCT300 21/M02 A3016 RMK AO2 SLP185 T02061017"
    },
    "geometry": {
      "type": "Point",
      "coordinates": [-101.828,33.660]
    } 
  },
  { "type": "Feature",
    "properties": {
      "id": "KIND",
      "site": "Indianapolis Intl",
      "prior": "2",
      "obsTime": "2018-04-27T19:54:00Z",
      "temp": 18.3,
      "dewp": -1.1,
      "wspd": 14,
      "wgst": 22,
      "wdir": 310,
      "cover": "FEW",
      "visib": 10.00,
      "fltcat": "VFR",
      "altim": 1009.2,
      "slp": 1009.1,
      "rawOb": "KIND 271954Z 31014G22KT 10SM FEW070 18/M01 A2980 RMK AO2 PK WND 28026/1915 SLP091 T01831011"
    },
    "geometry": {
      "type": "Point",
      "coordinates": [-86.292,39.720]
    } 
  },
  { "type": "Feature",
    "properties": {
      "id": "KFAR",
      "site": "Fargo/Hector Intl",
      "prior": "2",
      "obsTime": "2018-04-27T19:53:00Z",
      "temp": 12.2,
      "dewp": 0.6,
      "wspd": 26,
      "wgst": 35,
      "wdir": 340,
      "ceil": 41,
      "cover": "BKN",
      "visib": 10.00,
      "fltcat": "VFR",
      "altim": 1016.3,
      "slp": 1016.8,
      "rawOb": "KFAR 271953Z 34026G35KT 10SM BKN041 12/01 A3001 RMK AO2 PK WND 33038/1927 SLP168 T01220006"
    },
    "geometry": {
      "type": "Point",
      "coordinates": [-96.816,46.920]
    } 
  },
  { "type": "Feature",
    "properties": {
      "id": "KELY",
      "site": "Ely/Yelland Fld",
      "prior": "2",
      "obsTime": "2018-04-27T19:53:00Z",
      "cover": "CLR",
      "altim": 1015.3,
      "rawOb": "KELY 271953Z AUTO CLR A2998 RMK AO2 SLPNO PWINO FZRANO PNO $"
    },
    "geometry": {
      "type": "Point",
      "coordinates": [-114.838,39.300]
    } 
  },
  { "type": "Feature",
    "properties": {
      "id": "KDLH",
      "site": "Duluth Intl Arpt",
      "prior": "2",
      "obsTime": "2018-04-27T19:55:00Z",
      "temp": 1.7,
      "dewp": 0.6,
      "wspd": 11,
      "wdir": 70,
      "ceil": 7,
      "cover": "OVC",
      "visib": 3.00,
      "fltcat": "IFR",
      "altim": 1013.3,
      "slp": 1014.9,
      "wx": "-SN BR",
      "rawOb": "KDLH 271955Z 07011KT 3SM -SN BR OVC007 02/01 A2992 RMK AO2 SLP149 P0001 T00170006"
    },
    "geometry": {
      "type": "Point",
      "coordinates": [-92.191,46.841]
    } 
  },
  { "type": "Feature",
    "properties": {
      "id": "KCYS",
      "site": "Cheyenne Rgnl",
      "prior": "2",
      "obsTime": "2018-04-27T19:53:00Z",
      "temp": 18.9,
      "dewp": -7.2,
      "wspd": 5,
      "wdir": 110,
      "cover": "CLR",
      "visib": 10.00,
      "fltcat": "VFR",
      "altim": 1020.4,
      "slp": 1015.7,
      "rawOb": "KCYS 271953Z 11005KT 10SM CLR 19/M07 A3013 RMK AO2 SLP157 T01891072"
    },
    "geometry": {
      "type": "Point",
      "coordinates": [-104.814,41.155]
    } 
  },
  { "type": "Feature",
    "properties": {
      "id": "MUCM",
      "site": "Camaguey/Agramonte A",
      "prior": "2",
      "obsTime": "2018-04-27T19:50:00Z",
      "temp": 25.0,
      "dewp": 21.0,
      "wspd": 5,
      "wdir": 240,
      "cover": "SCT",
      "visib": 4.97,
      "fltcat": "MVFR",
      "wx": "-RA",
      "rawOb": "MUCM 271950Z 24005KT 200V270 8000 -RA FEW018CB SCT020 25/21 Q1 01"
    },
    "geometry": {
      "type": "Point",
      "coordinates": [-77.847,21.420]
    } 
  },
  { "type": "Feature",
    "properties": {
      "id": "KBTV",
      "site": "Burlington Intl",
      "prior": "2",
      "obsTime": "2018-04-27T19:54:00Z",
      "temp": 10.6,
      "dewp": 8.3,
      "wspd": 6,
      "wdir": 170,
      "ceil": 60,
      "cover": "OVC",
      "visib": 5.00,
      "fltcat": "MVFR",
      "altim": 1009.6,
      "slp": 1009.7,
      "wx": "-RA BR",
      "rawOb": "KBTV 271954Z 17006KT 5SM -RA BR FEW047 OVC060 11/08 A2981 RMK AO2 SLP097 P0003 T01060083"
    },
    "geometry": {
      "type": "Point",
      "coordinates": [-73.152,44.473]
    } 
  },
  { "type": "Feature",
    "properties": {
      "id": "KBIL",
      "site": "Billings/Logan Intl",
      "prior": "2",
      "obsTime": "2018-04-27T19:53:00Z",
      "temp": 21.1,
      "dewp": 1.7,
      "wspd": 11,
      "wdir": 70,
      "cover": "CLR",
      "visib": 10.00,
      "fltcat": "VFR",
      "altim": 1016.7,
      "slp": 1014.7,
      "rawOb": "KBIL 271953Z 07011KT 10SM CLR 21/02 A3002 RMK AO2 SLP147 T02110017"
    },
    "geometry": {
      "type": "Point",
      "coordinates": [-108.538,45.807]
    } 
  },
  { "type": "Feature",
    "properties": {
      "id": "KINW",
      "site": "Winslow/Lindberg Rgn",
      "prior": "2",
      "obsTime": "2018-04-27T19:56:00Z",
      "temp": 28.9,
      "dewp": -3.9,
      "wspd": 5,
      "wdir": 290,
      "cover": "CLR",
      "visib": 10.00,
      "fltcat": "VFR",
      "altim": 1016.7,
      "slp": 1010.5,
      "rawOb": "KINW 271956Z AUTO 29005KT 10SM CLR 29/M04 A3002 RMK AO2 SLP105 T02891039"
    },
    "geometry": {
      "type": "Point",
      "coordinates": [-110.721,35.022]
    } 
  },
  { "type": "Feature",
    "properties": {
      "id": "KICT",
      "site": "Wichita/Mid Continen",
      "prior": "2",
      "obsTime": "2018-04-27T19:53:00Z",
      "temp": 22.8,
      "dewp": 2.2,
      "wspd": 12,
      "wgst": 16,
      "wdir": 250,
      "cover": "CLR",
      "visib": 10.00,
      "fltcat": "VFR",
      "altim": 1017.4,
      "slp": 1016.7,
      "rawOb": "KICT 271953Z 25012G16KT 10SM CLR 23/02 A3004 RMK AO2 SLP167 T02280022 $"
    },
    "geometry": {
      "type": "Point",
      "coordinates": [-97.430,37.653]
    } 
  },
  { "type": "Feature",
    "properties": {
      "id": "KTUL",
      "site": "Tulsa Intl Arpt",
      "prior": "2",
      "obsTime": "2018-04-27T19:53:00Z",
      "temp": 22.2,
      "dewp": 0.0,
      "wspd": 8,
      "wdir": 340,
      "cover": "CLR",
      "visib": 10.00,
      "fltcat": "VFR",
      "altim": 1017.4,
      "slp": 1016.9,
      "rawOb": "KTUL 271953Z 34008KT 10SM CLR 22/00 A3004 RMK AO2 SLP169 T02220000"
    },
    "geometry": {
      "type": "Point",
      "coordinates": [-95.884,36.195]
    } 
  },
  { "type": "Feature",
    "properties": {
      "id": "KSHR",
      "site": "Sheridan Cnty Arpt",
      "prior": "2",
      "obsTime": "2018-04-27T19:53:00Z",
      "temp": 22.2,
      "dewp": -1.1,
      "wspd": 4,
      "wdir": 50,
      "cover": "CLR",
      "visib": 10.00,
      "fltcat": "VFR",
      "altim": 1017.4,
      "slp": 1016.1,
      "rawOb": "KSHR 271953Z AUTO 05004KT 10SM CLR 22/M01 A3004 RMK AO2 SLP161 T02221011"
    },
    "geometry": {
      "type": "Point",
      "coordinates": [-106.977,44.774]
    } 
  },
  { "type": "Feature",
    "properties": {
      "id": "KRAP",
      "site": "Rapid City Rgnl",
      "prior": "2",
      "obsTime": "2018-04-27T19:52:00Z",
      "temp": 19.4,
      "dewp": 1.1,
      "wspd": 7,
      "wgst": 19,
      "wdir": 30,
      "cover": "CLR",
      "visib": 10.00,
      "fltcat": "VFR",
      "altim": 1018.4,
      "slp": 1018.1,
      "rawOb": "KRAP 271952Z 03007G19KT 10SM CLR 19/01 A3007 RMK AO2 SLP181 T01940011"
    },
    "geometry": {
      "type": "Point",
      "coordinates": [-103.057,44.042]
    } 
  },
  { "type": "Feature",
    "properties": {
      "id": "KGJT",
      "site": "Grand Junction Rgnl",
      "prior": "2",
      "obsTime": "2018-04-27T19:53:00Z",
      "temp": 24.4,
      "dewp": -6.1,
      "wspd": 9,
      "wdir": 280,
      "cover": "CLR",
      "visib": 10.00,
      "fltcat": "VFR",
      "altim": 1017.7,
      "slp": 1012.5,
      "rawOb": "KGJT 271953Z 28009KT 260V320 10SM CLR 24/M06 A3005 RMK AO2 SLP125 T02441061"
    },
    "geometry": {
      "type": "Point",
      "coordinates": [-108.528,39.126]
    } 
  },
  { "type": "Feature",
    "properties": {
      "id": "KGLD",
      "site": "Goodland/Renner Fld",
      "prior": "2",
      "obsTime": "2018-04-27T19:53:00Z",
      "temp": 23.3,
      "dewp": -2.8,
      "wspd": 5,
      "wdir": 0,
      "cover": "CLR",
      "visib": 10.00,
      "fltcat": "VFR",
      "altim": 1017.7,
      "slp": 1016.0,
      "rawOb": "KGLD 271953Z AUTO VRB05KT 10SM CLR 23/M03 A3005 RMK AO2 SLP160 T02331028"
    },
    "geometry": {
      "type": "Point",
      "coordinates": [-101.700,39.370]
    } 
  },
  { "type": "Feature",
    "properties": {
      "id": "KBHM",
      "site": "Birmingham Intl",
      "prior": "2",
      "obsTime": "2018-04-27T19:53:00Z",
      "temp": 22.2,
      "dewp": 9.4,
      "wspd": 9,
      "wdir": 290,
      "ceil": 55,
      "cover": "BKN",
      "visib": 10.00,
      "fltcat": "VFR",
      "altim": 1013.6,
      "slp": 1012.9,
      "rawOb": "KBHM 271953Z 29009KT 10SM BKN055 22/09 A2993 RMK AO2 SLP129 T02220094"
    },
    "geometry": {
      "type": "Point",
      "coordinates": [-86.750,33.565]
    } 
  },
  { "type": "Feature",
    "properties": {
      "id": "KABI",
      "site": "Abilene Rgnl",
      "prior": "2",
      "obsTime": "2018-04-27T19:52:00Z",
      "temp": 22.8,
      "dewp": 5.0,
      "wspd": 8,
      "wdir": 320,
      "cover": "CLR",
      "visib": 10.00,
      "fltcat": "VFR",
      "altim": 1020.1,
      "slp": 1018.5,
      "rawOb": "KABI 271952Z 32008KT 10SM CLR 23/05 A3012 RMK AO2 SLP185 T02280050"
    },
    "geometry": {
      "type": "Point",
      "coordinates": [-99.680,32.409]
    } 
  },
  { "type": "Feature",
    "properties": {
      "id": "KILM",
      "site": "Wilmington Intl",
      "prior": "2",
      "obsTime": "2018-04-27T19:53:00Z",
      "temp": 26.1,
      "dewp": 15.0,
      "wspd": 12,
      "wgst": 18,
      "wdir": 240,
      "ceil": 70,
      "cover": "BKN",
      "visib": 10.00,
      "fltcat": "VFR",
      "altim": 1006.9,
      "slp": 1006.6,
      "rawOb": "KILM 271953Z 24012G18KT 10SM SCT041 SCT060 BKN070 26/15 A2973 RMK AO2 SLP066 T02610150"
    },
    "geometry": {
      "type": "Point",
      "coordinates": [-77.903,34.268]
    } 
  },
  { "type": "Feature",
    "properties": {
      "id": "KTPA",
      "site": "Tampa Intl Arpt",
      "prior": "2",
      "obsTime": "2018-04-27T19:53:00Z",
      "temp": 27.2,
      "dewp": 17.8,
      "wspd": 11,
      "wgst": 19,
      "wdir": 280,
      "cover": "SCT",
      "visib": 10.00,
      "fltcat": "VFR",
      "altim": 1011.6,
      "slp": 1011.4,
      "rawOb": "KTPA 271953Z 28011G19KT 10SM SCT045 SCT350 27/18 A2987 RMK AO2 SLP114 T02720178"
    },
    "geometry": {
      "type": "Point",
      "coordinates": [-82.535,27.976]
    } 
  },
  { "type": "Feature",
    "properties": {
      "id": "KSGF",
      "site": "Springfield Muni",
      "prior": "2",
      "obsTime": "2018-04-27T19:52:00Z",
      "temp": 20.0,
      "dewp": 2.8,
      "wspd": 10,
      "wgst": 19,
      "wdir": 340,
      "cover": "CLR",
      "visib": 10.00,
      "fltcat": "VFR",
      "altim": 1016.0,
      "slp": 1015.3,
      "rawOb": "KSGF 271952Z 34010G19KT 10SM CLR 20/03 A3000 RMK AO2 SLP153 T02000028"
    },
    "geometry": {
      "type": "Point",
      "coordinates": [-93.388,37.245]
    } 
  },
  { "type": "Feature",
    "properties": {
      "id": "KSHV",
      "site": "Shreveport Rgnl",
      "prior": "2",
      "obsTime": "2018-04-27T19:56:00Z",
      "temp": 24.4,
      "dewp": 11.1,
      "wspd": 9,
      "wdir": 300,
      "cover": "SCT",
      "visib": 10.00,
      "fltcat": "VFR",
      "altim": 1016.3,
      "slp": 1015.9,
      "rawOb": "KSHV 271956Z 30009KT 10SM SCT060 24/11 A3001 RMK AO2 SLP159 T02440111"
    },
    "geometry": {
      "type": "Point",
      "coordinates": [-93.828,32.447]
    } 
  },
  { "type": "Feature",
    "properties": {
      "id": "KMSN",
      "site": "Madison/Dane Cnty Rg",
      "prior": "2",
      "obsTime": "2018-04-27T19:53:00Z",
      "temp": 13.9,
      "dewp": 0.0,
      "wspd": 10,
      "wdir": 140,
      "ceil": 70,
      "cover": "OVC",
      "visib": 10.00,
      "fltcat": "VFR",
      "altim": 1006.2,
      "slp": 1006.4,
      "wx": "-RA",
      "rawOb": "KMSN 271953Z 14010KT 10SM -RA FEW060 BKN070 OVC250 14/00 A2971 RMK AO2 RAB48 SLP064 P0000 T01390000"
    },
    "geometry": {
      "type": "Point",
      "coordinates": [-89.341,43.136]
    } 
  },
  { "type": "Feature",
    "properties": {
      "id": "KIAH",
      "site": "Houston/Bush Intl",
      "prior": "2",
      "obsTime": "2018-04-27T19:53:00Z",
      "temp": 26.1,
      "dewp": 11.1,
      "wspd": 6,
      "wdir": 340,
      "cover": "SCT",
      "visib": 10.00,
      "fltcat": "VFR",
      "altim": 1017.0,
      "slp": 1017.0,
      "rawOb": "KIAH 271953Z 34006KT 10SM FEW055 SCT250 26/11 A3003 RMK AO2 SLP170 T02610111"
    },
    "geometry": {
      "type": "Point",
      "coordinates": [-95.350,29.981]
    } 
  },
  { "type": "Feature",
    "properties": {
      "id": "KHVR",
      "site": "Havre/City Arpt",
      "prior": "2",
      "obsTime": "2018-04-27T19:53:00Z",
      "temp": 22.2,
      "dewp": 1.7,
      "wspd": 21,
      "wdir": 90,
      "cover": "CLR",
      "visib": 10.00,
      "fltcat": "VFR",
      "altim": 1015.3,
      "slp": 1015.2,
      "rawOb": "KHVR 271953Z AUTO 09021KT 10SM CLR 22/02 A2998 RMK AO2 PK WND 09026/1942 SLP152 T02220017"
    },
    "geometry": {
      "type": "Point",
      "coordinates": [-109.763,48.544]
    } 
  },
  { "type": "Feature",
    "properties": {
      "id": "CYYR",
      "site": "Goose Bay Arpt",
      "prior": "2",
      "obsTime": "2018-04-27T20:00:00Z",
      "temp": 10.0,
      "dewp": 3.0,
      "wspd": 12,
      "wgst": 18,
      "wdir": 310,
      "cover": "SCT",
      "visib": 15.00,
      "fltcat": "VFR",
      "altim": 1005.8,
      "slp": 1006.0,
      "rawOb": "CYYR 272000Z 31012G18KT 15SM SCT040 10/03 A2970 RMK SC3 SLP060"
    },
    "geometry": {
      "type": "Point",
      "coordinates": [-60.411,53.320]
    } 
  },
  { "type": "Feature",
    "properties": {
      "id": "CYVR",
      "site": "Vancouver Intl",
      "prior": "2",
      "obsTime": "2018-04-27T20:00:00Z",
      "temp": 17.0,
      "dewp": 11.0,
      "wspd": 8,
      "wdir": 120,
      "cover": "FEW",
      "visib": 30.00,
      "fltcat": "VFR",
      "altim": 1010.2,
      "slp": 1010.4,
      "rawOb": "CYVR 272000Z 12008KT 090V160 30SM FEW250 17/11 A2983 RMK CS1 CS TR CONTRAILS SLP104 DENSITY ALT 400FT"
    },
    "geometry": {
      "type": "Point",
      "coordinates": [-123.181,49.195]
    } 
  },
  { "type": "Feature",
    "properties": {
      "id": "KSMF",
      "site": "Sacramento Intl",
      "prior": "2",
      "obsTime": "2018-04-27T19:53:00Z",
      "temp": 20.0,
      "dewp": 7.2,
      "wspd": 12,
      "wdir": 220,
      "cover": "FEW",
      "visib": 10.00,
      "fltcat": "VFR",
      "altim": 1018.7,
      "slp": 1018.3,
      "rawOb": "KSMF 271953Z 22012KT 10SM FEW049 20/07 A3008 RMK AO2 SLP183 T02000072"
    },
    "geometry": {
      "type": "Point",
      "coordinates": [-121.591,38.696]
    } 
  },
  { "type": "Feature",
    "properties": {
      "id": "CYQB",
      "site": "Quebec/Lesage Intl",
      "prior": "2",
      "obsTime": "2018-04-27T20:00:00Z",
      "temp": 12.0,
      "dewp": 7.0,
      "wspd": 4,
      "wdir": 350,
      "ceil": 170,
      "cover": "OVC",
      "visib": 30.00,
      "fltcat": "VFR",
      "altim": 1009.2,
      "slp": 1009.4,
      "rawOb": "CYQB 272000Z 35004KT 320V050 30SM FEW020 BKN170 OVC240 12/07 A2980 RMK SC1AC5CI2 SLP094"
    },
    "geometry": {
      "type": "Point",
      "coordinates": [-71.389,46.788]
    } 
  },
  { "type": "Feature",
    "properties": {
      "id": "CYEG",
      "site": "Edmonton Intl Arpt",
      "prior": "2",
      "obsTime": "2018-04-27T20:00:00Z",
      "temp": 21.0,
      "dewp": 4.0,
      "wspd": 13,
      "wgst": 22,
      "wdir": 160,
      "cover": "SKC",
      "visib": 15.00,
      "fltcat": "VFR",
      "altim": 1012.6,
      "slp": 1013.6,
      "rawOb": "CYEG 272000Z 16013G22KT 15SM SKC 21/04 A2990 RMK SLP136 DENSITY ALT 3700FT"
    },
    "geometry": {
      "type": "Point",
      "coordinates": [-113.588,53.308]
    } 
  },
  { "type": "Feature",
    "properties": {
      "id": "KAPN",
      "site": "Alpena Cnty Rgnl",
      "prior": "2",
      "obsTime": "2018-04-27T19:54:00Z",
      "temp": 3.9,
      "dewp": 3.3,
      "wspd": 10,
      "wdir": 320,
      "ceil": 7,
      "cover": "OVC",
      "visib": 5.00,
      "fltcat": "IFR",
      "altim": 1007.9,
      "slp": 1008.4,
      "wx": "BR",
      "rawOb": "KAPN 271954Z AUTO 32010KT 5SM BR OVC007 04/03 A2976 RMK AO2 CIG 005V011 SLP084 T00390033"
    },
    "geometry": {
      "type": "Point",
      "coordinates": [-83.561,45.083]
    } 
  },
  { "type": "Feature",
    "properties": {
      "id": "CYKL",
      "site": "Schefferville Arpt",
      "prior": "2",
      "obsTime": "2018-04-27T20:00:00Z",
      "temp": 2.0,
      "dewp": -1.0,
      "wspd": 7,
      "wdir": 350,
      "ceil": 19,
      "cover": "OVC",
      "visib": 9.00,
      "fltcat": "MVFR",
      "altim": 1005.2,
      "slp": 1007.9,
      "wx": "-RA",
      "rawOb": "CYKL 272000Z AUTO 35007KT 9SM -RA BKN019 OVC027 02/M01 A2968 RMK SLP079"
    },
    "geometry": {
      "type": "Point",
      "coordinates": [-66.805,54.805]
    } 
  },
  { "type": "Feature",
    "properties": {
      "id": "CYGL",
      "site": "La Grande Riviere Ar",
      "prior": "2",
      "obsTime": "2018-04-27T20:00:00Z",
      "temp": -6.0,
      "dewp": -17.0,
      "wspd": 10,
      "wdir": 320,
      "cover": "SCT",
      "visib": 15.00,
      "fltcat": "VFR",
      "altim": 1015.7,
      "slp": 1017.5,
      "rawOb": "CYGL 272000Z 32010KT 300V010 15SM SCT220 M06/M17 A2999 RMK CI3 SLP175"
    },
    "geometry": {
      "type": "Point",
      "coordinates": [-77.705,53.625]
    } 
  },
  { "type": "Feature",
    "properties": {
      "id": "KEVV",
      "site": "Evansville Rgnl",
      "prior": "2",
      "obsTime": "2018-04-27T19:54:00Z",
      "temp": 20.6,
      "dewp": 3.3,
      "wspd": 11,
      "wgst": 20,
      "wdir": 340,
      "cover": "FEW",
      "visib": 10.00,
      "fltcat": "VFR",
      "altim": 1010.9,
      "slp": 1010.8,
      "rawOb": "KEVV 271954Z 34011G20KT 270V340 10SM FEW075 21/03 A2985 RMK AO2 SLP108 T02060033"
    },
    "geometry": {
      "type": "Point",
      "coordinates": [-87.527,38.040]
    } 
  },
  { "type": "Feature",
    "properties": {
      "id": "CYYQ",
      "site": "Churchill Arpt",
      "prior": "2",
      "obsTime": "2018-04-27T20:00:00Z",
      "temp": -6.0,
      "dewp": -11.0,
      "wspd": 8,
      "wdir": 120,
      "cover": "FEW",
      "visib": 15.00,
      "fltcat": "VFR",
      "altim": 1021.8,
      "slp": 1022.2,
      "rawOb": "CYYQ 272000Z 12008KT 15SM FEW020 M06/M11 A3017 RMK SC1 SC TR SLP222"
    },
    "geometry": {
      "type": "Point",
      "coordinates": [-94.081,58.750]
    } 
  },
  { "type": "Feature",
    "properties": {
      "id": "KTLH",
      "site": "Tallahassee Intl",
      "prior": "2",
      "obsTime": "2018-04-27T19:53:00Z",
      "temp": 24.4,
      "dewp": 10.6,
      "wspd": 7,
      "wgst": 16,
      "wdir": 290,
      "cover": "SCT",
      "visib": 10.00,
      "fltcat": "VFR",
      "altim": 1011.3,
      "slp": 1011.2,
      "rawOb": "KTLH 271953Z 29007G16KT 10SM FEW050 SCT250 24/11 A2986 RMK AO2 SLP112 FU SW T02440106"
    },
    "geometry": {
      "type": "Point",
      "coordinates": [-84.355,30.394]
    } 
  },
  { "type": "Feature",
    "properties": {
      "id": "KMSO",
      "site": "Missoula Intl",
      "prior": "2",
      "obsTime": "2018-04-27T19:53:00Z",
      "temp": 21.7,
      "dewp": 4.4,
      "wspd": 4,
      "wdir": 0,
      "cover": "CLR",
      "visib": 10.00,
      "fltcat": "VFR",
      "altim": 1011.6,
      "slp": 1010.6,
      "rawOb": "KMSO 271953Z VRB04KT 10SM CLR 22/04 A2987 RMK AO2 SLP106 T02170044"
    },
    "geometry": {
      "type": "Point",
      "coordinates": [-114.094,46.917]
    } 
  },
  { "type": "Feature",
    "properties": {
      "id": "KFAT",
      "site": "Fresno Air Terminal",
      "prior": "2",
      "obsTime": "2018-04-27T19:53:00Z",
      "temp": 21.1,
      "dewp": 3.3,
      "wspd": 7,
      "wdir": 290,
      "cover": "FEW",
      "visib": 10.00,
      "fltcat": "VFR",
      "altim": 1018.4,
      "slp": 1018.1,
      "rawOb": "KFAT 271953Z 29007KT 250V330 10SM FEW090 21/03 A3007 RMK AO2 SLP181 MTNS OBSCD HZ DSNT N-E-S T02110033"
    },
    "geometry": {
      "type": "Point",
      "coordinates": [-119.717,36.776]
    } 
  },
  { "type": "Feature",
    "properties": {
      "id": "KCRP",
      "site": "Corpus Christi Intl",
      "prior": "2",
      "obsTime": "2018-04-27T19:51:00Z",
      "temp": 28.3,
      "dewp": 11.7,
      "wspd": 9,
      "wgst": 15,
      "wdir": 60,
      "cover": "SCT",
      "visib": 10.00,
      "fltcat": "VFR",
      "altim": 1017.4,
      "slp": 1017.1,
      "rawOb": "KCRP 271951Z 06009G15KT 10SM FEW050 FEW180 SCT250 28/12 A3004 RMK AO2 SLP171 T02830117"
    },
    "geometry": {
      "type": "Point",
      "coordinates": [-97.505,27.770]
    } 
  },
  { "type": "Feature",
    "properties": {
      "id": "KWMC",
      "site": "Winnemucca Muni",
      "prior": "2",
      "obsTime": "2018-04-27T19:56:00Z",
      "temp": 25.0,
      "dewp": 3.3,
      "wspd": 14,
      "wgst": 21,
      "wdir": 250,
      "cover": "CLR",
      "visib": 10.00,
      "fltcat": "VFR",
      "altim": 1010.6,
      "slp": 1005.7,
      "rawOb": "KWMC 271956Z AUTO 25014G21KT 10SM CLR 25/03 A2984 RMK AO2 SLP057 T02500033"
    },
    "geometry": {
      "type": "Point",
      "coordinates": [-117.807,40.899]
    } 
  },
  { "type": "Feature",
    "properties": {
      "id": "KISN",
      "site": "Williston/Sloulin Fl",
      "prior": "2",
      "obsTime": "2018-04-27T19:52:00Z",
      "temp": 15.6,
      "dewp": -7.2,
      "wspd": 7,
      "wdir": 30,
      "cover": "CLR",
      "visib": 10.00,
      "fltcat": "VFR",
      "altim": 1020.1,
      "slp": 1020.8,
      "rawOb": "KISN 271952Z AUTO 03007KT 10SM CLR 16/M07 A3012 RMK AO2 SLP208 T01561072"
    },
    "geometry": {
      "type": "Point",
      "coordinates": [-103.640,48.177]
    } 
  },
  { "type": "Feature",
    "properties": {
      "id": "CYSJ",
      "site": "Saint John Arpt",
      "prior": "2",
      "obsTime": "2018-04-27T20:00:00Z",
      "temp": 14.0,
      "dewp": 7.0,
      "wspd": 13,
      "wgst": 18,
      "wdir": 200,
      "ceil": 220,
      "cover": "BKN",
      "visib": 15.00,
      "fltcat": "VFR",
      "altim": 1012.6,
      "slp": 1013.0,
      "rawOb": "CYSJ 272000Z 20013G18KT 15SM FEW040 BKN220 14/07 A2990 RMK SC1CI7 SC TR SLP130"
    },
    "geometry": {
      "type": "Point",
      "coordinates": [-65.884,45.322]
    } 
  },
  { "type": "Feature",
    "properties": {
      "id": "KCLE",
      "site": "Cleveland/Hopkins In",
      "prior": "2",
      "obsTime": "2018-04-27T19:51:00Z",
      "temp": 20.6,
      "dewp": 3.3,
      "wspd": 10,
      "wgst": 14,
      "wdir": 270,
      "ceil": 250,
      "cover": "BKN",
      "visib": 10.00,
      "fltcat": "VFR",
      "altim": 1004.8,
      "slp": 1004.6,
      "rawOb": "KCLE 271951Z 27010G14KT 10SM SCT075 SCT120 BKN250 21/03 A2967 RMK AO2 SLP046 T02060033"
    },
    "geometry": {
      "type": "Point",
      "coordinates": [-81.850,41.410]
    } 
  },
  { "type": "Feature",
    "properties": {
      "id": "KSPW",
      "site": "Spencer Muni",
      "prior": "2",
      "obsTime": "2018-04-27T19:53:00Z",
      "temp": 17.2,
      "dewp": 0.6,
      "wspd": 24,
      "wgst": 39,
      "wdir": 330,
      "cover": "CLR",
      "visib": 10.00,
      "fltcat": "VFR",
      "altim": 1012.6,
      "slp": 1013.0,
      "rawOb": "KSPW 271953Z AUTO 33024G39KT 10SM CLR 17/01 A2990 RMK AO2 PK WND 34039/1943 SLP130 T01720006"
    },
    "geometry": {
      "type": "Point",
      "coordinates": [-95.202,43.165]
    } 
  },
  { "type": "Feature",
    "properties": {
      "id": "KPIT",
      "site": "Pittsburgh Intl",
      "prior": "2",
      "obsTime": "2018-04-27T19:51:00Z",
      "temp": 18.9,
      "dewp": 4.4,
      "wspd": 9,
      "wdir": 250,
      "ceil": 85,
      "cover": "BKN",
      "visib": 10.00,
      "fltcat": "VFR",
      "altim": 1004.1,
      "slp": 1004.7,
      "rawOb": "KPIT 271951Z 25009KT 10SM SCT055 BKN085 BKN250 19/04 A2965 RMK AO2 SLP047 T01890044"
    },
    "geometry": {
      "type": "Point",
      "coordinates": [-80.243,40.495]
    } 
  },
  { "type": "Feature",
    "properties": {
      "id": "KPIA",
      "site": "Peoria Intl",
      "prior": "2",
      "obsTime": "2018-04-27T19:54:00Z",
      "temp": 20.0,
      "dewp": 0.6,
      "wspd": 13,
      "wgst": 21,
      "wdir": 240,
      "cover": "CLR",
      "visib": 10.00,
      "fltcat": "VFR",
      "altim": 1008.9,
      "slp": 1008.7,
      "rawOb": "KPIA 271954Z 24013G21KT 10SM CLR 20/01 A2979 RMK AO2 SLP087 T02000006"
    },
    "geometry": {
      "type": "Point",
      "coordinates": [-89.689,40.661]
    } 
  },
  { "type": "Feature",
    "properties": {
      "id": "KOMA",
      "site": "Omaha/Eppley Fld",
      "prior": "2",
      "obsTime": "2018-04-27T19:52:00Z",
      "temp": 25.0,
      "dewp": 1.1,
      "wspd": 22,
      "wgst": 34,
      "wdir": 320,
      "cover": "FEW",
      "visib": 10.00,
      "fltcat": "VFR",
      "altim": 1011.3,
      "slp": 1010.9,
      "rawOb": "KOMA 271952Z 32022G34KT 10SM FEW075 25/01 A2986 RMK AO2 PK WND 32034/1952 SLP109 T02500011"
    },
    "geometry": {
      "type": "Point",
      "coordinates": [-95.897,41.303]
    } 
  },
  { "type": "Feature",
    "properties": {
      "id": "KGRB",
      "site": "Green Bay/Straubel I",
      "prior": "2",
      "obsTime": "2018-04-27T19:53:00Z",
      "temp": 9.4,
      "dewp": -0.6,
      "wspd": 0,
      "wdir": 0,
      "ceil": 60,
      "cover": "OVC",
      "visib": 10.00,
      "fltcat": "VFR",
      "altim": 1009.9,
      "slp": 1010.2,
      "rawOb": "KGRB 271953Z 00000KT 10SM OVC060 09/M01 A2982 RMK AO2 SLP102 T00941006"
    },
    "geometry": {
      "type": "Point",
      "coordinates": [-88.131,44.486]
    } 
  },
  { "type": "Feature",
    "properties": {
      "id": "KCSG",
      "site": "Columbus Arpt",
      "prior": "2",
      "obsTime": "2018-04-27T19:51:00Z",
      "temp": 23.3,
      "dewp": 7.2,
      "wspd": 7,
      "wgst": 15,
      "wdir": 360,
      "cover": "FEW",
      "visib": 10.00,
      "fltcat": "VFR",
      "altim": 1011.6,
      "slp": 1011.0,
      "rawOb": "KCSG 271951Z 36007G15KT 10SM FEW055 23/07 A2987 RMK AO2 SLP110 T02330072"
    },
    "geometry": {
      "type": "Point",
      "coordinates": [-84.938,32.516]
    } 
  },
  { "type": "Feature",
    "properties": {
      "id": "KCAE",
      "site": "Columbia Metro",
      "prior": "2",
      "obsTime": "2018-04-27T19:56:00Z",
      "temp": 21.7,
      "dewp": 12.8,
      "wspd": 7,
      "wdir": 270,
      "ceil": 60,
      "cover": "BKN",
      "visib": 10.00,
      "fltcat": "VFR",
      "altim": 1009.2,
      "slp": 1008.7,
      "rawOb": "KCAE 271956Z 27007KT 10SM SCT036 SCT050 BKN060 22/13 A2980 RMK AO2 SLP087 T02170128"
    },
    "geometry": {
      "type": "Point",
      "coordinates": [-81.120,33.940]
    } 
  },
  { "type": "Feature",
    "properties": {
      "id": "CWKW",
      "site": "Cape Kakkiviak",
      "prior": "2",
      "obsTime": "2018-04-27T20:00:00Z",
      "altim": 1000.8,
      "rawOb": "CWKW 272000Z AUTO ///// A2955"
    },
    "geometry": {
      "type": "Point",
      "coordinates": [-64.170,59.980]
    } 
  },
  { "type": "Feature",
    "properties": {
      "id": "KBLH",
      "site": "Blythe Arpt",
      "prior": "2",
      "obsTime": "2018-04-27T19:52:00Z",
      "temp": 34.4,
      "dewp": 2.8,
      "wspd": 6,
      "wdir": 170,
      "cover": "CLR",
      "visib": 10.00,
      "fltcat": "VFR",
      "altim": 1008.9,
      "slp": 1008.2,
      "rawOb": "KBLH 271952Z AUTO 17006KT 10SM CLR 34/03 A2979 RMK AO2 SLP082 T03440028"
    },
    "geometry": {
      "type": "Point",
      "coordinates": [-114.717,33.617]
    } 
  },
  { "type": "Feature",
    "properties": {
      "id": "KALB",
      "site": "Albany Intl",
      "prior": "2",
      "obsTime": "2018-04-27T19:51:00Z",
      "temp": 10.0,
      "dewp": 7.8,
      "wspd": 6,
      "wdir": 40,
      "ceil": 39,
      "cover": "OVC",
      "visib": 6.00,
      "fltcat": "VFR",
      "altim": 1009.2,
      "slp": 1009.1,
      "wx": "-RA BR",
      "rawOb": "KALB 271951Z 04006KT 6SM -RA BR SCT005 BKN039 OVC060 10/08 A2980 RMK AO2 SLP091 PCPN VRY LGT P0001 T01000078"
    },
    "geometry": {
      "type": "Point",
      "coordinates": [-73.806,42.748]
    } 
  },
  { "type": "Feature",
    "properties": {
      "id": "CYVO",
      "site": "Val DOr Arpt",
      "prior": "2",
      "obsTime": "2018-04-27T20:00:00Z",
      "temp": 3.0,
      "dewp": -2.0,
      "wspd": 8,
      "wdir": 320,
      "ceil": 45,
      "cover": "OVC",
      "visib": 15.00,
      "fltcat": "VFR",
      "altim": 1008.9,
      "slp": 1010.6,
      "wx": "-SN",
      "rawOb": "CYVO 272000Z 32008KT 15SM -SN OVC045 03/M02 A2979 RMK SC8 SLP106"
    },
    "geometry": {
      "type": "Point",
      "coordinates": [-77.783,48.054]
    } 
  },
  { "type": "Feature",
    "properties": {
      "id": "KTPH",
      "site": "Tonopah Arpt",
      "prior": "2",
      "obsTime": "2018-04-27T19:56:00Z",
      "temp": 27.2,
      "dewp": -8.3,
      "wspd": 26,
      "wgst": 33,
      "wdir": 210,
      "cover": "CLR",
      "visib": 10.00,
      "fltcat": "VFR",
      "altim": 1013.3,
      "slp": 1006.6,
      "rawOb": "KTPH 271956Z AUTO 21026G33KT 10SM CLR 27/M08 A2992 RMK AO2 PK WND 17034/1938 SLP066 T02721083"
    },
    "geometry": {
      "type": "Point",
      "coordinates": [-117.088,38.057]
    } 
  },
  { "type": "Feature",
    "properties": {
      "id": "KFMN",
      "site": "Farmington/Four Corn",
      "prior": "2",
      "obsTime": "2018-04-27T19:53:00Z",
      "temp": 22.8,
      "dewp": -6.1,
      "wspd": 5,
      "wdir": 0,
      "cover": "CLR",
      "visib": 10.00,
      "fltcat": "VFR",
      "altim": 1019.0,
      "slp": 1014.1,
      "rawOb": "KFMN 271953Z VRB05KT 10SM CLR 23/M06 A3009 RMK AO2 SLP141 T02281061"
    },
    "geometry": {
      "type": "Point",
      "coordinates": [-108.229,36.741]
    } 
  },
  { "type": "Feature",
    "properties": {
      "id": "KCMH",
      "site": "Columbus Intl",
      "prior": "2",
      "obsTime": "2018-04-27T19:51:00Z",
      "temp": 20.6,
      "dewp": -0.6,
      "wspd": 12,
      "wdir": 240,
      "cover": "SCT",
      "visib": 10.00,
      "fltcat": "VFR",
      "altim": 1004.8,
      "slp": 1004.4,
      "rawOb": "KCMH 271951Z 24012KT 10SM SCT060 SCT090 21/M01 A2967 RMK AO2 SLP044 VCSH W T02061006"
    },
    "geometry": {
      "type": "Point",
      "coordinates": [-82.891,39.998]
    } 
  },
  { "type": "Feature",
    "properties": {
      "id": "CYBQ",
      "site": "Tadoule Lake Arpt",
      "prior": "2",
      "obsTime": "2018-04-27T20:00:00Z",
      "temp": 5.0,
      "dewp": -2.0,
      "wspd": 6,
      "wdir": 210,
      "ceil": 30,
      "cover": "BKN",
      "visib": 9.00,
      "fltcat": "MVFR",
      "altim": 1016.3,
      "slp": 1018.5,
      "rawOb": "CYBQ 272000Z AUTO 21006KT 150V260 9SM BKN030 05/M02 A3001 RMK SLP185"
    },
    "geometry": {
      "type": "Point",
      "coordinates": [-98.512,58.706]
    } 
  },
  { "type": "Feature",
    "properties": {
      "id": "CYYN",
      "site": "Swift Current Arpt",
      "prior": "2",
      "obsTime": "2018-04-27T20:00:00Z",
      "temp": 17.0,
      "dewp": -6.0,
      "wspd": 12,
      "wdir": 100,
      "cover": "CLR",
      "visib": 9.00,
      "fltcat": "VFR",
      "altim": 1019.0,
      "slp": 1020.0,
      "rawOb": "CYYN 272000Z AUTO 10012KT 340V150 9SM CLR 17/M06 A3009 RMK SLP200 DENSITY ALT 3300FT"
    },
    "geometry": {
      "type": "Point",
      "coordinates": [-107.687,50.291]
    } 
  },
  { "type": "Feature",
    "properties": {
      "id": "CYYD",
      "site": "Smithers Arpt",
      "prior": "2",
      "obsTime": "2018-04-27T20:00:00Z",
      "temp": 17.0,
      "dewp": 3.0,
      "wspd": 3,
      "wdir": 200,
      "cover": "FEW",
      "visib": 25.00,
      "fltcat": "VFR",
      "altim": 1010.9,
      "slp": 1011.6,
      "rawOb": "CYYD 272000Z 20003KT 100V250 25SM FEW230 17/03 A2985 RMK CI2 SLP116 DENSITY ALT 2500FT"
    },
    "geometry": {
      "type": "Point",
      "coordinates": [-127.182,54.824]
    } 
  },
  { "type": "Feature",
    "properties": {
      "id": "CYOJ",
      "site": "High Level Arpt",
      "prior": "2",
      "obsTime": "2018-04-27T20:00:00Z",
      "temp": 19.0,
      "dewp": 1.0,
      "wspd": 5,
      "wdir": 170,
      "cover": "FEW",
      "visib": 15.00,
      "fltcat": "VFR",
      "altim": 1006.9,
      "slp": 1008.0,
      "rawOb": "CYOJ 272000Z 17005KT 130V240 15SM FEW260 19/01 A2973 RMK CI1 SLP080 DENSITY ALT 2000FT"
    },
    "geometry": {
      "type": "Point",
      "coordinates": [-117.162,58.619]
    } 
  },
  { "type": "Feature",
    "properties": {
      "id": "CYMM",
      "site": "Fort McMurray Arpt",
      "prior": "2",
      "obsTime": "2018-04-27T20:00:00Z",
      "temp": 21.0,
      "dewp": -1.0,
      "wspd": 8,
      "wdir": 180,
      "cover": "CLR",
      "visib": 9.00,
      "fltcat": "VFR",
      "altim": 1010.6,
      "slp": 1011.8,
      "rawOb": "CYMM 272000Z AUTO 18008KT 140V230 9SM CLR 21/M01 A2984 RMK SLP118 DENSITY ALT 2200FT"
    },
    "geometry": {
      "type": "Point",
      "coordinates": [-111.223,56.654]
    } 
  },
  { "type": "Feature",
    "properties": {
      "id": "KELP",
      "site": "El Paso Intl",
      "prior": "2",
      "obsTime": "2018-04-27T19:51:00Z",
      "temp": 19.4,
      "dewp": -2.2,
      "wspd": 9,
      "wdir": 150,
      "ceil": 90,
      "cover": "BKN",
      "visib": 10.00,
      "fltcat": "VFR",
      "altim": 1021.4,
      "slp": 1015.9,
      "rawOb": "KELP 271951Z 15009KT 10SM FEW065 BKN090 BKN140 19/M02 A3016 RMK AO2 RAE37 SLP159 VCSH SW P0000 T01941022"
    },
    "geometry": {
      "type": "Point",
      "coordinates": [-106.387,31.805]
    } 
  },
  { "type": "Feature",
    "properties": {
      "id": "CYMT",
      "site": "Chibougamau Arpt",
      "prior": "2",
      "obsTime": "2018-04-27T20:00:00Z",
      "temp": 5.0,
      "dewp": -3.0,
      "wspd": 7,
      "wdir": 310,
      "ceil": 160,
      "cover": "BKN",
      "visib": 9.00,
      "fltcat": "VFR",
      "altim": 1008.5,
      "slp": 1010.4,
      "rawOb": "CYMT 272000Z AUTO 31007KT 9SM BKN160 05/M03 A2978 RMK SLP104"
    },
    "geometry": {
      "type": "Point",
      "coordinates": [-74.537,49.773]
    } 
  },
  { "type": "Feature",
    "properties": {
      "id": "KCGI",
      "site": "Cape Girardeau Rgnl",
      "prior": "2",
      "obsTime": "2018-04-27T19:53:00Z",
      "temp": 22.2,
      "dewp": 3.3,
      "wspd": 9,
      "wgst": 17,
      "wdir": 310,
      "cover": "CLR",
      "visib": 10.00,
      "fltcat": "VFR",
      "altim": 1012.3,
      "slp": 1012.1,
      "rawOb": "KCGI 271953Z 31009G17KT 10SM CLR 22/03 A2989 RMK AO2 SLP121 T02220033"
    },
    "geometry": {
      "type": "Point",
      "coordinates": [-89.571,37.224]
    } 
  },
  { "type": "Feature",
    "properties": {
      "id": "KYKM",
      "site": "Yakima Air Term/McAl",
      "prior": "2",
      "obsTime": "2018-04-27T19:53:00Z",
      "temp": 29.4,
      "dewp": 0.6,
      "wspd": 3,
      "wdir": 330,
      "cover": "CLR",
      "visib": 10.00,
      "fltcat": "VFR",
      "altim": 1006.9,
      "slp": 1006.2,
      "rawOb": "KYKM 271953Z 33003KT 10SM CLR 29/01 A2973 RMK AO2 SLP062 T02940006"
    },
    "geometry": {
      "type": "Point",
      "coordinates": [-120.540,46.568]
    } 
  },
  { "type": "Feature",
    "properties": {
      "id": "KVTN",
      "site": "Valentine/Miller Fld",
      "prior": "2",
      "obsTime": "2018-04-27T19:52:00Z",
      "temp": 22.2,
      "dewp": 0.6,
      "wspd": 15,
      "wgst": 22,
      "wdir": 350,
      "cover": "CLR",
      "visib": 10.00,
      "fltcat": "VFR",
      "altim": 1017.0,
      "slp": 1016.9,
      "rawOb": "KVTN 271952Z AUTO 35015G22KT 10SM CLR 22/01 A3003 RMK AO2 PK WND 35026/1942 SLP169 T02220006"
    },
    "geometry": {
      "type": "Point",
      "coordinates": [-100.549,42.859]
    } 
  },
  { "type": "Feature",
    "properties": {
      "id": "CYSF",
      "site": "Stony Rapids Arpt",
      "prior": "2",
      "obsTime": "2018-04-27T20:00:00Z",
      "temp": 12.0,
      "dewp": -5.0,
      "wspd": 7,
      "wdir": 220,
      "cover": "CLR",
      "visib": 9.00,
      "fltcat": "VFR",
      "altim": 1014.0,
      "slp": 1015.4,
      "rawOb": "CYSF 272000Z AUTO 22007KT 170V290 9SM CLR 12/M05 A2994 RMK SLP154"
    },
    "geometry": {
      "type": "Point",
      "coordinates": [-105.838,59.251]
    } 
  },
  { "type": "Feature",
    "properties": {
      "id": "CYQR",
      "site": "Regina Intl Arpt",
      "prior": "2",
      "obsTime": "2018-04-27T20:00:00Z",
      "temp": 14.0,
      "dewp": -8.0,
      "wspd": 6,
      "wdir": 0,
      "cover": "SKC",
      "visib": 15.00,
      "fltcat": "VFR",
      "altim": 1020.7,
      "slp": 1022.7,
      "rawOb": "CYQR 272000Z VRB06KT 15SM SKC 14/M08 A3014 RMK SLP227 DENSITY ALT 2000FT"
    },
    "geometry": {
      "type": "Point",
      "coordinates": [-104.661,50.432]
    } 
  },
  { "type": "Feature",
    "properties": {
      "id": "KPIH",
      "site": "Pocatello Muni",
      "prior": "2",
      "obsTime": "2018-04-27T19:53:00Z",
      "temp": 25.6,
      "dewp": -2.2,
      "wspd": 6,
      "wdir": 0,
      "cover": "CLR",
      "visib": 10.00,
      "fltcat": "VFR",
      "altim": 1013.6,
      "slp": 1010.3,
      "rawOb": "KPIH 271953Z VRB06KT 10SM CLR 26/M02 A2993 RMK AO2 SLP103 T02561022"
    },
    "geometry": {
      "type": "Point",
      "coordinates": [-112.590,42.910]
    } 
  },
  { "type": "Feature",
    "properties": {
      "id": "CYMO",
      "site": "Moosonee Arpt",
      "prior": "2",
      "obsTime": "2018-04-27T20:00:00Z",
      "temp": -4.0,
      "dewp": -12.0,
      "wspd": 11,
      "wgst": 16,
      "wdir": 10,
      "cover": "CLR",
      "visib": 9.00,
      "fltcat": "VFR",
      "altim": 1018.7,
      "slp": 1018.8,
      "rawOb": "CYMO 272000Z AUTO 01011G16KT 330V030 9SM CLR M04/M12 A3008 RMK SLP188"
    },
    "geometry": {
      "type": "Point",
      "coordinates": [-80.610,51.290]
    } 
  },
  { "type": "Feature",
    "properties": {
      "id": "CYQU",
      "site": "Grande Prairie Arpt",
      "prior": "2",
      "obsTime": "2018-04-27T20:00:00Z",
      "temp": 18.0,
      "dewp": 6.0,
      "wspd": 2,
      "wdir": 0,
      "cover": "FEW",
      "visib": 25.00,
      "fltcat": "VFR",
      "altim": 1010.2,
      "slp": 1011.8,
      "rawOb": "CYQU 272000Z VRB02KT 25SM FEW210 18/06 A2983 RMK CI2 SLP118 DENSITY ALT 3200FT"
    },
    "geometry": {
      "type": "Point",
      "coordinates": [-118.880,55.180]
    } 
  },
  { "type": "Feature",
    "properties": {
      "id": "CYPA",
      "site": "Prince Albert Arpt",
      "prior": "2",
      "obsTime": "2018-04-27T20:00:00Z",
      "temp": 13.0,
      "dewp": -4.0,
      "wspd": 4,
      "wdir": 100,
      "cover": "FEW",
      "visib": 15.00,
      "fltcat": "VFR",
      "altim": 1021.1,
      "slp": 1022.9,
      "rawOb": "CYPA 272000Z 10004KT 040V210 15SM FEW050 13/M04 A3015 RMK SC1 SC TR SLP229"
    },
    "geometry": {
      "type": "Point",
      "coordinates": [-105.676,53.218]
    } 
  },
  { "type": "Feature",
    "properties": {
      "id": "CYNA",
      "site": "Natashquan Arpt",
      "prior": "2",
      "obsTime": "2018-04-27T20:00:00Z",
      "temp": 5.0,
      "dewp": 2.0,
      "wspd": 11,
      "wgst": 17,
      "wdir": 260,
      "cover": "CLR",
      "visib": 9.00,
      "fltcat": "VFR",
      "altim": 1009.2,
      "slp": 1009.2,
      "rawOb": "CYNA 272000Z AUTO 26011G17KT 9SM CLR 05/02 A2980 RMK PRESRR SLP092"
    },
    "geometry": {
      "type": "Point",
      "coordinates": [-61.789,50.190]
    } 
  },
  { "type": "Feature",
    "properties": {
      "id": "CYYE",
      "site": "Fort Nelson Arpt",
      "prior": "2",
      "obsTime": "2018-04-27T20:00:00Z",
      "temp": 17.0,
      "dewp": 1.0,
      "wspd": 6,
      "wdir": 0,
      "cover": "SCT",
      "visib": 30.00,
      "fltcat": "VFR",
      "altim": 1008.5,
      "slp": 1009.3,
      "rawOb": "CYYE 272000Z VRB06KT 30SM FEW110 SCT230 17/01 A2978 RMK AC1CI3 AC TR SLP093 DENSITY ALT 2000FT"
    },
    "geometry": {
      "type": "Point",
      "coordinates": [-122.596,58.838]
    } 
  },
  { "type": "Feature",
    "properties": {
      "id": "KBOS",
      "site": "Boston/Logan Intl",
      "prior": "2",
      "obsTime": "2018-04-27T19:54:00Z",
      "temp": 9.4,
      "dewp": 8.3,
      "wspd": 7,
      "wdir": 60,
      "ceil": 48,
      "cover": "OVC",
      "visib": 3.00,
      "fltcat": "MVFR",
      "altim": 1010.2,
      "slp": 1010.1,
      "wx": "RA BR",
      "rawOb": "KBOS 271954Z 06007KT 3SM RA BR FEW032 BKN048 OVC060 09/08 A2983 RMK AO2 PRESFR SLP101 P0011 T00940083"
    },
    "geometry": {
      "type": "Point",
      "coordinates": [-71.006,42.364]
    } 
  },
  { "type": "Feature",
    "properties": {
      "id": "CYQT",
      "site": "Thunder Bay Intl",
      "prior": "2",
      "obsTime": "2018-04-27T20:00:00Z",
      "temp": 8.0,
      "dewp": -5.0,
      "wspd": 6,
      "wdir": 110,
      "cover": "FEW",
      "visib": 20.00,
      "fltcat": "VFR",
      "altim": 1014.0,
      "slp": 1014.8,
      "rawOb": "CYQT 272000Z 11006KT 080V160 20SM FEW048 FEW260 08/M05 A2994 RMK SC2CI1 CI TR SLP148"
    },
    "geometry": {
      "type": "Point",
      "coordinates": [-89.325,48.371]
    } 
  },
  { "type": "Feature",
    "properties": {
      "id": "CYSB",
      "site": "Sudbury Arpt",
      "prior": "2",
      "obsTime": "2018-04-27T20:00:00Z",
      "temp": 4.0,
      "dewp": 0.0,
      "wspd": 18,
      "wdir": 30,
      "ceil": 90,
      "cover": "OVC",
      "visib": 20.00,
      "fltcat": "VFR",
      "altim": 1006.5,
      "slp": 1008.0,
      "rawOb": "CYSB 272000Z 03018KT 20SM FEW050 OVC090 04/M00 A2972 RMK SC1AC7 SLP080"
    },
    "geometry": {
      "type": "Point",
      "coordinates": [-80.798,46.627]
    } 
  },
  { "type": "Feature",
    "properties": {
      "id": "KMFR",
      "site": "Medford/Roque Valley",
      "prior": "2",
      "obsTime": "2018-04-27T19:53:00Z",
      "temp": 13.9,
      "dewp": 2.2,
      "wspd": 9,
      "wdir": 300,
      "ceil": 75,
      "cover": "OVC",
      "visib": 10.00,
      "fltcat": "VFR",
      "altim": 1016.3,
      "slp": 1015.9,
      "rawOb": "KMFR 271953Z 30009KT 10SM FEW050 OVC075 14/02 A3001 RMK AO2 SLP159 T01390022"
    },
    "geometry": {
      "type": "Point",
      "coordinates": [-122.874,42.374]
    } 
  },
  { "type": "Feature",
    "properties": {
      "id": "KLND",
      "site": "Lander/Hunt Fld",
      "prior": "2",
      "obsTime": "2018-04-27T19:53:00Z",
      "temp": 21.1,
      "dewp": -1.7,
      "wspd": 4,
      "wdir": 0,
      "cover": "CLR",
      "visib": 10.00,
      "fltcat": "VFR",
      "altim": 1017.4,
      "slp": 1012.8,
      "rawOb": "KLND 271953Z AUTO VRB04KT 10SM CLR 21/M02 A3004 RMK AO2 SLP128 T02111017"
    },
    "geometry": {
      "type": "Point",
      "coordinates": [-108.728,42.816]
    } 
  },
  { "type": "Feature",
    "properties": {
      "id": "CYPH",
      "site": "Inukjuak Arpt",
      "prior": "2",
      "obsTime": "2018-04-27T20:07:00Z",
      "temp": -13.0,
      "dewp": -17.0,
      "wspd": 8,
      "wdir": 320,
      "ceil": 21,
      "cover": "BKN",
      "visib": 9.00,
      "fltcat": "MVFR",
      "altim": 1019.0,
      "slp": 1019.5,
      "rawOb": "CYPH 272007Z AUTO 32008KT 9SM BKN021 M13/M17 A3009 RMK SLP195"
    },
    "geometry": {
      "type": "Point",
      "coordinates": [-78.078,58.471]
    } 
  },
  { "type": "Feature",
    "properties": {
      "id": "CWEQ",
      "site": "Swan River Arpt",
      "prior": "2",
      "obsTime": "2018-04-27T20:00:00Z",
      "temp": 8.9,
      "dewp": -1.5,
      "wspd": 6,
      "wdir": 50,
      "slp": 1022.8,
      "rawOb": "CWEQ 272000Z AUTO 05006KT 09/M02 RMK AO1 SLP228 T00891015 56010"
    },
    "geometry": {
      "type": "Point",
      "coordinates": [-101.235,52.121]
    } 
  },
  { "type": "Feature",
    "properties": {
      "id": "KPDX",
      "site": "Portland Intl Arpt",
      "prior": "2",
      "obsTime": "2018-04-27T19:53:00Z",
      "temp": 13.3,
      "dewp": 8.3,
      "wspd": 12,
      "wdir": 210,
      "ceil": 22,
      "cover": "OVC",
      "visib": 10.00,
      "fltcat": "MVFR",
      "altim": 1016.0,
      "slp": 1015.8,
      "rawOb": "KPDX 271953Z 21012KT 10SM BKN022 OVC045 13/08 A3000 RMK AO2 SLP158 T01330083"
    },
    "geometry": {
      "type": "Point",
      "coordinates": [-122.596,45.590]
    } 
  },
  { "type": "Feature",
    "properties": {
      "id": "KBNO",
      "site": "Burns Muni",
      "prior": "2",
      "obsTime": "2018-04-27T19:53:00Z",
      "temp": 23.3,
      "dewp": 1.1,
      "wspd": 12,
      "wgst": 17,
      "wdir": 190,
      "cover": "CLR",
      "visib": 10.00,
      "fltcat": "VFR",
      "altim": 1009.9,
      "slp": 1007.5,
      "rawOb": "KBNO 271953Z AUTO 19012G17KT 10SM CLR 23/01 A2982 RMK AO2 SLP075 T02330011"
    },
    "geometry": {
      "type": "Point",
      "coordinates": [-118.955,43.591]
    } 
  },
  { "type": "Feature",
    "properties": {
      "id": "CYBC",
      "site": "Baie Comeau Arpt",
      "prior": "2",
      "obsTime": "2018-04-27T20:00:00Z",
      "temp": 7.0,
      "dewp": 3.0,
      "wspd": 7,
      "wdir": 250,
      "cover": "CLR",
      "visib": 9.00,
      "fltcat": "VFR",
      "altim": 1008.9,
      "slp": 1009.1,
      "rawOb": "CYBC 272000Z AUTO 25007KT 9SM CLR 07/03 A2979 RMK SLP091"
    },
    "geometry": {
      "type": "Point",
      "coordinates": [-68.202,49.133]
    } 
  },
  { "type": "Feature",
    "properties": {
      "id": "CYQL",
      "site": "Lethbridge Cnty Arpt",
      "prior": "2",
      "obsTime": "2018-04-27T20:00:00Z",
      "temp": 22.0,
      "dewp": 0.0,
      "wspd": 8,
      "wgst": 23,
      "wdir": 130,
      "cover": "FEW",
      "visib": 60.00,
      "fltcat": "VFR",
      "altim": 1013.6,
      "slp": 1014.0,
      "rawOb": "CYQL 272000Z 13008G23KT 60SM FEW300 22/00 A2993 RMK CI2 SLP140 DENSITY ALT 4600FT"
    },
    "geometry": {
      "type": "Point",
      "coordinates": [-112.795,49.629]
    } 
  },
  { "type": "Feature",
    "properties": {
      "id": "CYAH",
      "site": "La Grande IV Arpt",
      "prior": "2",
      "obsTime": "2018-04-27T20:00:00Z",
      "temp": 2.0,
      "dewp": -5.0,
      "wspd": 8,
      "wdir": 320,
      "ceil": 36,
      "cover": "OVC",
      "visib": 9.00,
      "fltcat": "VFR",
      "altim": 1010.2,
      "slp": 1011.8,
      "rawOb": "CYAH 272000Z AUTO 32008KT 9SM OVC036 02/M05 A2983 RMK ICG MISG SLP118"
    },
    "geometry": {
      "type": "Point",
      "coordinates": [-73.677,53.754]
    } 
  },
  { "type": "Feature",
    "properties": {
      "id": "KSAW",
      "site": "Sawyer AFB",
      "prior": "2",
      "obsTime": "2018-04-27T19:45:00Z",
      "temp": 1.0,
      "dewp": -3.0,
      "wspd": 15,
      "wdir": 360,
      "ceil": 16,
      "cover": "OVC",
      "visib": 10.00,
      "fltcat": "MVFR",
      "altim": 1011.6,
      "rawOb": "KSAW 271945Z 36015KT 10SM OVC016 01/M03 A2987"
    },
    "geometry": {
      "type": "Point",
      "coordinates": [-87.396,46.351]
    } 
  },
  { "type": "Feature",
    "properties": {
      "id": "KPIR",
      "site": "Pierre Muni",
      "prior": "2",
      "obsTime": "2018-04-27T19:53:00Z",
      "temp": 18.3,
      "dewp": -4.4,
      "wspd": 20,
      "wgst": 28,
      "wdir": 10,
      "cover": "CLR",
      "visib": 10.00,
      "fltcat": "VFR",
      "altim": 1017.4,
      "slp": 1017.4,
      "rawOb": "KPIR 271953Z AUTO 01020G28KT 10SM CLR 18/M04 A3004 RMK AO2 PK WND 35029/1915 SLP174 T01831044"
    },
    "geometry": {
      "type": "Point",
      "coordinates": [-100.288,44.380]
    } 
  },
  { "type": "Feature",
    "properties": {
      "id": "KTUS",
      "site": "Tucson Intl Arpt",
      "prior": "2",
      "obsTime": "2018-04-27T19:58:00Z",
      "temp": 34.4,
      "dewp": -2.2,
      "wspd": 8,
      "wdir": 90,
      "cover": "CLR",
      "visib": 10.00,
      "fltcat": "VFR",
      "altim": 1012.3,
      "rawOb": "KTUS 271958Z 09008KT 040V130 10SM CLR 34/M02 A2989 RMK AO2 T03441022"
    },
    "geometry": {
      "type": "Point",
      "coordinates": [-110.940,32.120]
    } 
  },
  { "type": "Feature",
    "properties": {
      "id": "CWSA",
      "site": "Sable Island",
      "prior": "2",
      "obsTime": "2018-04-27T20:00:00Z",
      "temp": 10.0,
      "dewp": 8.0,
      "wspd": 9,
      "wdir": 180,
      "cover": "CLR",
      "visib": 4.00,
      "fltcat": "MVFR",
      "altim": 1018.0,
      "slp": 1018.0,
      "wx": "BR",
      "rawOb": "CWSA 272000Z AUTO 18009KT 4SM BR CLR 10/08 A3006 RMK TS/LTNG TEMPO UNAVBL SLP180"
    },
    "geometry": {
      "type": "Point",
      "coordinates": [-60.009,43.932]
    } 
  },
  { "type": "Feature",
    "properties": {
      "id": "KTYS",
      "site": "Knoxville/Tyson Arpt",
      "prior": "2",
      "obsTime": "2018-04-27T19:53:00Z",
      "temp": 20.6,
      "dewp": 7.8,
      "wspd": 11,
      "wdir": 240,
      "cover": "FEW",
      "visib": 10.00,
      "fltcat": "VFR",
      "altim": 1009.9,
      "slp": 1009.3,
      "rawOb": "KTYS 271953Z 24011KT 10SM FEW060 21/08 A2982 RMK AO2 SLP093 T02060078"
    },
    "geometry": {
      "type": "Point",
      "coordinates": [-83.994,35.812]
    } 
  },
  { "type": "Feature",
    "properties": {
      "id": "CYQI",
      "site": "Yarmouth Arpt",
      "prior": "2",
      "obsTime": "2018-04-27T20:00:00Z",
      "temp": 12.0,
      "dewp": 6.0,
      "wspd": 10,
      "wdir": 190,
      "ceil": 240,
      "cover": "BKN",
      "visib": 15.00,
      "fltcat": "VFR",
      "altim": 1014.0,
      "slp": 1014.2,
      "rawOb": "CYQI 272000Z 19010KT 15SM FEW210 BKN240 12/06 A2994 RMK CC1CI5 CONTRAILS SLP142"
    },
    "geometry": {
      "type": "Point",
      "coordinates": [-66.084,43.830]
    } 
  },
  { "type": "Feature",
    "properties": {
      "id": "KEYW",
      "site": "Key West Intl",
      "prior": "2",
      "obsTime": "2018-04-27T19:53:00Z",
      "temp": 24.4,
      "dewp": 22.2,
      "wspd": 9,
      "wdir": 260,
      "ceil": 110,
      "cover": "BKN",
      "visib": 10.00,
      "fltcat": "VFR",
      "altim": 1011.9,
      "slp": 1011.7,
      "rawOb": "KEYW 271953Z 26009KT 10SM FEW034 SCT090 BKN110 24/22 A2988 RMK AO2 RAB1857E51 SLP117 P0002 T02440222"
    },
    "geometry": {
      "type": "Point",
      "coordinates": [-81.759,24.555]
    } 
  },
  { "type": "Feature",
    "properties": {
      "id": "CWJW",
      "site": "Jasper/Warden(AUTO)",
      "prior": "2",
      "obsTime": "2018-04-27T20:00:00Z",
      "temp": 21.8,
      "dewp": -3.8,
      "wspd": 3,
      "wdir": 230,
      "slp": 1012.2,
      "rawOb": "CWJW 272000Z AUTO 23003KT 22/M04 RMK AO1 SOG 03 6030 SLP122 T02181038"
    },
    "geometry": {
      "type": "Point",
      "coordinates": [-118.030,52.926]
    } 
  },
  { "type": "Feature",
    "properties": {
      "id": "KAMA",
      "site": "Amarillo Intl Arpt",
      "prior": "2",
      "obsTime": "2018-04-27T19:53:00Z",
      "temp": 21.1,
      "dewp": -3.3,
      "wspd": 6,
      "wdir": 270,
      "cover": "CLR",
      "visib": 10.00,
      "fltcat": "VFR",
      "altim": 1021.1,
      "slp": 1018.1,
      "rawOb": "KAMA 271953Z AUTO 27006KT 10SM CLR 21/M03 A3015 RMK AO2 SLP181 T02111033"
    },
    "geometry": {
      "type": "Point",
      "coordinates": [-101.710,35.223]
    } 
  },
  { "type": "Feature",
    "properties": {
      "id": "KGRI",
      "site": "Grand Island Rgnl",
      "prior": "2",
      "obsTime": "2018-04-27T19:53:00Z",
      "temp": 24.4,
      "dewp": 1.7,
      "wspd": 10,
      "wgst": 23,
      "wdir": 320,
      "cover": "CLR",
      "visib": 10.00,
      "fltcat": "VFR",
      "altim": 1014.6,
      "slp": 1014.6,
      "rawOb": "KGRI 271953Z 32010G23KT 10SM CLR 24/02 A2996 RMK AO2 SLP146 T02440017"
    },
    "geometry": {
      "type": "Point",
      "coordinates": [-98.314,40.969]
    } 
  },
  { "type": "Feature",
    "properties": {
      "id": "KDRT",
      "site": "Del Rio Intl",
      "prior": "2",
      "obsTime": "2018-04-27T19:53:00Z",
      "temp": 26.7,
      "dewp": 9.4,
      "wspd": 5,
      "wdir": 260,
      "cover": "CLR",
      "visib": 10.00,
      "fltcat": "VFR",
      "altim": 1018.4,
      "slp": 1016.8,
      "rawOb": "KDRT 271953Z AUTO 26005KT 10SM CLR 27/09 A3007 RMK AO2 SLP168 T02670094"
    },
    "geometry": {
      "type": "Point",
      "coordinates": [-100.926,29.372]
    } 
  },
  { "type": "Feature",
    "properties": {
      "id": "MYNN",
      "site": "Nassau Intl",
      "prior": "2",
      "obsTime": "2018-04-27T20:00:00Z",
      "temp": 28.0,
      "dewp": 21.0,
      "wspd": 5,
      "wdir": 190,
      "ceil": 200,
      "cover": "BKN",
      "visib": 6.21,
      "fltcat": "VFR",
      "altim": 1011.9,
      "wx": "VCSH",
      "rawOb": "MYNN 272000Z 19005KT 9999 VCSH SCT015CB BKN200 28/21 A2988 RMK CB/VCSH W-N"
    },
    "geometry": {
      "type": "Point",
      "coordinates": [-77.465,25.042]
    } 
  },
  { "type": "Feature",
    "properties": {
      "id": "KTCS",
      "site": "Truth or Consequence",
      "prior": "2",
      "obsTime": "2018-04-27T19:53:00Z",
      "temp": 21.7,
      "dewp": -3.3,
      "wspd": 12,
      "wgst": 16,
      "wdir": 170,
      "cover": "CLR",
      "visib": 10.00,
      "fltcat": "VFR",
      "altim": 1021.4,
      "slp": 1014.6,
      "rawOb": "KTCS 271953Z AUTO 17012G16KT 10SM CLR 22/M03 A3016 RMK AO2 SLP146 T02171033"
    },
    "geometry": {
      "type": "Point",
      "coordinates": [-107.270,33.234]
    } 
  },
  { "type": "Feature",
    "properties": {
      "id": "CYGX",
      "site": "Gillam Arpt",
      "prior": "2",
      "obsTime": "2018-04-27T20:00:00Z",
      "temp": 2.0,
      "dewp": -9.0,
      "wspd": 4,
      "wdir": 340,
      "cover": "FEW",
      "visib": 15.00,
      "fltcat": "VFR",
      "altim": 1021.1,
      "slp": 1022.2,
      "rawOb": "CYGX 272000Z 34004KT 320V020 15SM FEW020 02/M09 A3015 RMK CF1 CF TR SLP222"
    },
    "geometry": {
      "type": "Point",
      "coordinates": [-94.711,56.357]
    } 
  },
  { "type": "Feature",
    "properties": {
      "id": "CWPK",
      "site": "Parent(MARS)",
      "prior": "2",
      "obsTime": "2018-04-27T20:00:00Z",
      "temp": 13.6,
      "dewp": -4.6,
      "wspd": 3,
      "wdir": 180,
      "slp": 1006.8,
      "rawOb": "CWPK 272000Z AUTO 18003KT 14/M05 RMK AO1 SOG 33 6010 SLP068 T01361046"
    },
    "geometry": {
      "type": "Point",
      "coordinates": [-74.624,47.922]
    } 
  },
  { "type": "Feature",
    "properties": {
      "id": "CYTL",
      "site": "Big Trout Lake Arpt",
      "prior": "2",
      "obsTime": "2018-04-27T20:00:00Z",
      "temp": 2.0,
      "dewp": -7.0,
      "wspd": 6,
      "wdir": 220,
      "cover": "CLR",
      "visib": 9.00,
      "fltcat": "VFR",
      "altim": 1019.7,
      "slp": 1021.3,
      "rawOb": "CYTL 272000Z AUTO 22006KT 170V230 9SM CLR 02/M07 A3011 RMK SLP213"
    },
    "geometry": {
      "type": "Point",
      "coordinates": [-89.898,53.818]
    } 
  },
  { "type": "Feature",
    "properties": {
      "id": "KMRF",
      "site": "Marfa Muni",
      "prior": "2",
      "obsTime": "2018-04-27T19:56:00Z",
      "temp": 16.7,
      "dewp": 1.7,
      "wspd": 11,
      "wgst": 15,
      "wdir": 60,
      "cover": "CLR",
      "visib": 10.00,
      "fltcat": "VFR",
      "altim": 1024.1,
      "slp": 1020.0,
      "rawOb": "KMRF 271956Z AUTO 06011G15KT 10SM CLR 17/02 A3024 RMK AO2 SLP200 T01670017"
    },
    "geometry": {
      "type": "Point",
      "coordinates": [-104.016,30.370]
    } 
  },
  { "type": "Feature",
    "properties": {
      "id": "CYYL",
      "site": "Lynn Lake Arpt",
      "prior": "2",
      "obsTime": "2018-04-27T20:00:00Z",
      "temp": 9.0,
      "dewp": -2.0,
      "wspd": 4,
      "wdir": 300,
      "ceil": 49,
      "cover": "BKN",
      "visib": 9.00,
      "fltcat": "VFR",
      "altim": 1017.7,
      "slp": 1019.6,
      "rawOb": "CYYL 272000Z AUTO 30004KT 240V360 9SM BKN049 BKN070 09/M02 A3005 RMK SLP196"
    },
    "geometry": {
      "type": "Point",
      "coordinates": [-101.071,56.865]
    } 
  },
  { "type": "Feature",
    "properties": {
      "id": "CYIV",
      "site": "Island Lake Arpt",
      "prior": "2",
      "obsTime": "2018-04-27T20:00:00Z",
      "temp": 4.0,
      "dewp": -13.0,
      "wspd": 10,
      "wdir": 20,
      "ceil": 200,
      "cover": "BKN",
      "visib": 15.00,
      "fltcat": "VFR",
      "altim": 1020.7,
      "slp": 1022.2,
      "rawOb": "CYIV 272000Z 02010KT 330V040 15SM BKN200 04/M13 A3014 RMK CC6 SLP222"
    },
    "geometry": {
      "type": "Point",
      "coordinates": [-94.655,53.857]
    } 
  },
  { "type": "Feature",
    "properties": {
      "id": "CWCT",
      "site": "Coronation Arpt",
      "prior": "2",
      "obsTime": "2018-04-27T20:00:00Z",
      "temp": 20.1,
      "dewp": -1.5,
      "wspd": 15,
      "wgst": 21,
      "wdir": 150,
      "slp": 1017.0,
      "rawOb": "CWCT 272000Z AUTO 15015G21KT 20/M02 RMK AO1 SOG 03 8020 PK WND 14025/1943 SLP170 T02011015"
    },
    "geometry": {
      "type": "Point",
      "coordinates": [-111.447,52.076]
    } 
  },
  { "type": "Feature",
    "properties": {
      "id": "CYRL",
      "site": "Red Lake Arpt",
      "prior": "2",
      "obsTime": "2018-04-27T20:00:00Z",
      "temp": 6.0,
      "dewp": -4.0,
      "wspd": 9,
      "wdir": 330,
      "ceil": 39,
      "cover": "BKN",
      "visib": 15.00,
      "fltcat": "VFR",
      "altim": 1017.7,
      "slp": 1019.4,
      "rawOb": "CYRL 272000Z 33009KT 300V010 15SM BKN039 06/M04 A3005 RMK SC7 SLP194"
    },
    "geometry": {
      "type": "Point",
      "coordinates": [-93.795,51.067]
    } 
  },
  { "type": "Feature",
    "properties": {
      "id": "MMPR",
      "site": "Puerto Vallarta Intl",
      "prior": "2",
      "obsTime": "2018-04-27T19:47:00Z",
      "temp": 28.0,
      "dewp": 18.0,
      "wspd": 11,
      "wdir": 220,
      "cover": "SKC",
      "visib": 15.00,
      "fltcat": "VFR",
      "altim": 1010.2,
      "rawOb": "MMPR 271947Z 22011KT 15SM SKC 28/18 A2983"
    },
    "geometry": {
      "type": "Point",
      "coordinates": [-105.252,20.682]
    } 
  },
  { "type": "Feature",
    "properties": {
      "id": "MMUN",
      "site": "Cancun Intl",
      "prior": "2",
      "obsTime": "2018-04-27T19:44:00Z",
      "temp": 29.0,
      "dewp": 23.0,
      "wspd": 6,
      "wdir": 20,
      "ceil": 15,
      "cover": "BKN",
      "visib": 7.00,
      "fltcat": "MVFR",
      "altim": 1011.3,
      "rawOb": "MMUN 271944Z 02006KT 7SM BKN015CB 29/23 A2986 RMK 8/200 SC"
    },
    "geometry": {
      "type": "Point",
      "coordinates": [-86.869,21.038]
    } 
  },
  { "type": "Feature",
    "properties": {
      "id": "MMDO",
      "site": "Durango/Victoria Int",
      "prior": "2",
      "obsTime": "2018-04-27T19:47:00Z",
      "temp": 27.0,
      "dewp": 0.0,
      "wspd": 3,
      "wdir": 320,
      "ceil": 200,
      "cover": "BKN",
      "visib": 14.00,
      "fltcat": "VFR",
      "altim": 1020.1,
      "rawOb": "MMDO 271947Z 32003KT 14SM SCT030 BKN200 27/00 A3012 RMK 8/108 HZY"
    },
    "geometry": {
      "type": "Point",
      "coordinates": [-104.527,24.126]
    } 
  },
  { "type": "Feature",
    "properties": {
      "id": "MMMY",
      "site": "Monterrey Intl",
      "prior": "2",
      "obsTime": "2018-04-27T19:40:00Z",
      "temp": 25.0,
      "dewp": 16.0,
      "wspd": 5,
      "wdir": 160,
      "ceil": 45,
      "cover": "BKN",
      "visib": 8.00,
      "fltcat": "VFR",
      "altim": 1017.7,
      "rawOb": "MMMY 271940Z 16005KT 8SM BKN045TCU BKN080 BKN200 25/16 A3005 RMK 8/238"
    },
    "geometry": {
      "type": "Point",
      "coordinates": [-100.107,25.778]
    } 
  },
  { "type": "Feature",
    "properties": {
      "id": "MMAS",
      "site": "Aguascalientes Arpt",
      "prior": "2",
      "obsTime": "2018-04-27T19:47:00Z",
      "temp": 29.0,
      "dewp": -4.0,
      "wspd": 5,
      "wdir": 260,
      "cover": "SKC",
      "visib": 7.00,
      "fltcat": "VFR",
      "altim": 1019.7,
      "rawOb": "MMAS 271947Z 26005KT 7SM SKC 29/M04 A3011 RMK ISOL CU SC N"
    },
    "geometry": {
      "type": "Point",
      "coordinates": [-102.318,21.702]
    } 
  },
  { "type": "Feature",
    "properties": {
      "id": "MMLT",
      "site": "Loreto Intl",
      "prior": "2",
      "obsTime": "2018-04-27T19:40:00Z",
      "temp": 32.0,
      "dewp": 17.0,
      "wspd": 11,
      "wdir": 40,
      "cover": "SCT",
      "visib": 10.00,
      "fltcat": "VFR",
      "altim": 1009.6,
      "rawOb": "MMLT 271940Z 04011KT 10SM SCT180 SCT240 32/17 A2981 RMK 8/035"
    },
    "geometry": {
      "type": "Point",
      "coordinates": [-111.348,25.992]
    } 
  },
  { "type": "Feature",
    "properties": {
      "id": "MMMZ",
      "site": "Mazatlan/Buelna Intl",
      "prior": "2",
      "obsTime": "2018-04-27T19:40:00Z",
      "temp": 30.0,
      "dewp": 16.0,
      "wspd": 7,
      "wdir": 240,
      "cover": "FEW",
      "visib": 15.00,
      "fltcat": "VFR",
      "altim": 1010.2,
      "rawOb": "MMMZ 271940Z 24007KT 15SM FEW230 30/16 A2983 RMK 8/005 ISOL AC"
    },
    "geometry": {
      "type": "Point",
      "coordinates": [-106.269,23.161]
    } 
  },
  { "type": "Feature",
    "properties": {
      "id": "MMCV",
      "site": "Ciudad Victoria Intl",
      "prior": "2",
      "obsTime": "2018-04-27T19:40:00Z",
      "temp": 23.0,
      "dewp": 20.0,
      "wspd": 7,
      "wdir": 310,
      "ceil": 13,
      "cover": "OVC",
      "visib": 8.00,
      "fltcat": "MVFR",
      "altim": 1018.0,
      "rawOb": "MMCV 271940Z 31007KT 8SM SCT004 BKN013 OVC030 23/20 A3006 RMK 60025 8/7// HZY DZE35 BINOVC"
    },
    "geometry": {
      "type": "Point",
      "coordinates": [-98.957,23.704]
    } 
  },
  { "type": "Feature",
    "properties": {
      "id": "MMCL",
      "site": "Culiacan/Bachigualat",
      "prior": "2",
      "obsTime": "2018-04-27T19:40:00Z",
      "temp": 32.0,
      "dewp": 18.0,
      "wspd": 6,
      "wdir": 220,
      "cover": "SCT",
      "visib": 10.00,
      "fltcat": "VFR",
      "altim": 1009.9,
      "rawOb": "MMCL 271940Z 22006KT 10SM SCT100 SCT250 32/18 A2982 RMK 8/034 HZY"
    },
    "geometry": {
      "type": "Point",
      "coordinates": [-107.474,24.766]
    } 
  }]}
