{ "type": "FeatureCollection",
  "features": [
  { "type": "Feature",
    "properties": {
      "id": "KJFK",
      "site": "New York/Kennedy Int",
      "prior": "0",
      "obsTime": "2018-04-27T01:51:00Z",
      "temp": 15.0,
      "dewp": 7.8,
      "wspd": 8,
      "wdir": 250,
      "cover": "FEW",
      "visib": 10.00,
      "fltcat": "VFR",
      "altim": 1011.6,
      "slp": 1011.6,
      "rawOb": "KJFK 270151Z 25008KT 10SM FEW060 FEW250 15/08 A2987 RMK AO2 SLP116 T01500078"
    },
    "geometry": {
      "type": "Point",
      "coordinates": [-73.785,40.644]
    } 
  },
  { "type": "Feature",
    "properties": {
      "id": "KMIA",
      "site": "Miami Intl",
      "prior": "0",
      "obsTime": "2018-04-27T01:53:00Z",
      "temp": 25.0,
      "dewp": 20.0,
      "wspd": 6,
      "wdir": 180,
      "ceil": 250,
      "cover": "BKN",
      "visib": 10.00,
      "fltcat": "VFR",
      "altim": 1014.0,
      "slp": 1013.8,
      "rawOb": "KMIA 270153Z 18006KT 10SM FEW045 BKN250 25/20 A2994 RMK AO2 SLP138 T02500200"
    },
    "geometry": {
      "type": "Point",
      "coordinates": [-80.283,25.795]
    } 
  },
  { "type": "Feature",
    "properties": {
      "id": "KLAX",
      "site": "Los Angeles Intl",
      "prior": "0",
      "obsTime": "2018-04-27T01:53:00Z",
      "temp": 15.0,
      "dewp": 10.6,
      "wspd": 13,
      "wdir": 250,
      "cover": "SCT",
      "visib": 10.00,
      "fltcat": "VFR",
      "altim": 1015.3,
      "slp": 1015.0,
      "rawOb": "KLAX 270153Z 25013KT 10SM SCT013 15/11 A2998 RMK AO2 SLP150 T01500106"
    },
    "geometry": {
      "type": "Point",
      "coordinates": [-118.413,33.943]
    } 
  },
  { "type": "Feature",
    "properties": {
      "id": "KDEN",
      "site": "Denver Intl",
      "prior": "0",
      "obsTime": "2018-04-27T01:53:00Z",
      "temp": 10.6,
      "dewp": -3.3,
      "wspd": 4,
      "wdir": 130,
      "cover": "CLR",
      "visib": 10.00,
      "fltcat": "VFR",
      "altim": 1024.1,
      "slp": 1021.3,
      "rawOb": "KDEN 270153Z 13004KT 10SM CLR 11/M03 A3024 RMK AO2 SLP213 T01061033"
    },
    "geometry": {
      "type": "Point",
      "coordinates": [-104.674,39.861]
    } 
  },
  { "type": "Feature",
    "properties": {
      "id": "KDFW",
      "site": "Dallas-Ft Worth Intl",
      "prior": "0",
      "obsTime": "2018-04-27T01:53:00Z",
      "temp": 18.3,
      "dewp": 8.9,
      "wspd": 4,
      "wdir": 60,
      "ceil": 170,
      "cover": "BKN",
      "visib": 10.00,
      "fltcat": "VFR",
      "altim": 1015.0,
      "slp": 1014.3,
      "rawOb": "KDFW 270153Z 06004KT 10SM FEW045 SCT140 BKN170 BKN250 18/09 A2997 RMK AO2 SLP143 T01830089"
    },
    "geometry": {
      "type": "Point",
      "coordinates": [-97.040,32.900]
    } 
  },
  { "type": "Feature",
    "properties": {
      "id": "KATL",
      "site": "Atlanta/Hartsfield-J",
      "prior": "0",
      "obsTime": "2018-04-27T01:52:00Z",
      "temp": 13.9,
      "dewp": 13.3,
      "wspd": 0,
      "wdir": 0,
      "cover": "FEW",
      "visib": 10.00,
      "fltcat": "VFR",
      "altim": 1010.6,
      "slp": 1010.2,
      "rawOb": "KATL 270152Z 00000KT 10SM FEW008 FEW020 14/13 A2984 RMK AO2 SLP102 T01390133"
    },
    "geometry": {
      "type": "Point",
      "coordinates": [-84.423,33.641]
    } 
  },
  { "type": "Feature",
    "properties": {
      "id": "CYWG",
      "site": "Winnipeg Intl Arpt",
      "prior": "0",
      "obsTime": "2018-04-27T02:00:00Z",
      "temp": 14.0,
      "dewp": -1.0,
      "wspd": 6,
      "wdir": 30,
      "ceil": 92,
      "cover": "OVC",
      "visib": 15.00,
      "fltcat": "VFR",
      "altim": 1007.9,
      "slp": 1008.4,
      "rawOb": "CYWG 270200Z 03006KT 15SM BKN092 BKN150 OVC250 14/M01 A2976 RMK ACC5AC2CI1 VIRGA SLP084 DENSITY ALT 1000FT"
    },
    "geometry": {
      "type": "Point",
      "coordinates": [-97.235,49.906]
    } 
  },
  { "type": "Feature",
    "properties": {
      "id": "CYHZ",
      "site": "Halifax/Stanfield In",
      "prior": "0",
      "obsTime": "2018-04-27T02:00:00Z",
      "temp": 9.0,
      "dewp": 9.0,
      "wspd": 15,
      "wgst": 21,
      "wdir": 200,
      "ceil": 2,
      "cover": "OVC",
      "visib": 1.00,
      "fltcat": "LIFR",
      "altim": 1005.8,
      "slp": 1006.1,
      "wx": "-DZ BR",
      "rawOb": "CYHZ 270200Z 20015G21KT 1SM R23/P6000FT/U R14/P6000FT/U -DZ BR OVC002 09/09 A2970 RMK ST8 SLP061"
    },
    "geometry": {
      "type": "Point",
      "coordinates": [-63.508,44.887]
    } 
  },
  { "type": "Feature",
    "properties": {
      "id": "KORD",
      "site": "Chicago/O'Hare Intl",
      "prior": "0",
      "obsTime": "2018-04-27T01:51:00Z",
      "temp": 13.3,
      "dewp": -2.8,
      "wspd": 7,
      "wdir": 140,
      "cover": "SCT",
      "visib": 10.00,
      "fltcat": "VFR",
      "altim": 1009.9,
      "slp": 1010.0,
      "rawOb": "KORD 270151Z 14007KT 10SM SCT250 13/M03 A2982 RMK AO2 SLP100 T01331028"
    },
    "geometry": {
      "type": "Point",
      "coordinates": [-87.906,41.977]
    } 
  },
  { "type": "Feature",
    "properties": {
      "id": "TXKF",
      "site": "Bermuda/Wade Intl",
      "prior": "0",
      "obsTime": "2018-04-27T01:55:00Z",
      "temp": 22.0,
      "dewp": 21.0,
      "wspd": 11,
      "wdir": 180,
      "ceil": 12,
      "cover": "BKN",
      "visib": 6.21,
      "fltcat": "MVFR",
      "altim": 1020.0,
      "rawOb": "TXKF 270155Z 18011KT 9999 BKN012 BKN100 22/21 Q1020 "
    },
    "geometry": {
      "type": "Point",
      "coordinates": [-64.681,32.365]
    } 
  },
  { "type": "Feature",
    "properties": {
      "id": "KSEA",
      "site": "Seattle-Tacoma Intl",
      "prior": "0",
      "obsTime": "2018-04-27T01:53:00Z",
      "temp": 24.4,
      "dewp": 6.7,
      "wspd": 13,
      "wdir": 350,
      "cover": "FEW",
      "visib": 10.00,
      "fltcat": "VFR",
      "altim": 1011.3,
      "slp": 1011.6,
      "rawOb": "KSEA 270153Z 35013KT 10SM FEW250 24/07 A2986 RMK AO2 SLP116 T02440067"
    },
    "geometry": {
      "type": "Point",
      "coordinates": [-122.310,47.450]
    } 
  },
  { "type": "Feature",
    "properties": {
      "id": "CYGW",
      "site": "Kuujjuarapik Arpt",
      "prior": "0",
      "obsTime": "2018-04-27T02:18:00Z",
      "temp": -11.0,
      "dewp": -13.0,
      "wspd": 14,
      "wgst": 20,
      "wdir": 360,
      "ceil": 12,
      "cover": "BKN",
      "visib": 6.00,
      "fltcat": "MVFR",
      "altim": 1010.2,
      "slp": 1010.4,
      "wx": "-SN",
      "rawOb": "CYGW 270218Z AUTO 36014G20KT 6SM -SN BKN012 M11/M13 A2983 RMK SLP104"
    },
    "geometry": {
      "type": "Point",
      "coordinates": [-77.764,55.282]
    } 
  },
  { "type": "Feature",
    "properties": {
      "id": "MMMD",
      "site": "Merida Intl",
      "prior": "0",
      "obsTime": "2018-04-27T01:46:00Z",
      "temp": 26.0,
      "dewp": 23.0,
      "wspd": 6,
      "wdir": 30,
      "ceil": 30,
      "cover": "BKN",
      "visib": 7.00,
      "fltcat": "MVFR",
      "altim": 1012.3,
      "rawOb": "MMMD 270146Z 03006KT 7SM FEW015 BKN030 BKN300 26/23 A2989 RMK 8/808"
    },
    "geometry": {
      "type": "Point",
      "coordinates": [-89.658,20.934]
    } 
  },
  { "type": "Feature",
    "properties": {
      "id": "MMCU",
      "site": "Chihuahua/Villalobos",
      "prior": "0",
      "obsTime": "2018-04-27T01:41:00Z",
      "temp": 27.0,
      "dewp": 3.0,
      "wspd": 5,
      "wdir": 20,
      "ceil": 90,
      "cover": "OVC",
      "visib": 10.00,
      "fltcat": "VFR",
      "altim": 1015.0,
      "rawOb": "MMCU 270141Z 02005KT 10SM SCT050 BKN090 OVC200 27/03 A2997 RMK 8/537 BINOVC"
    },
    "geometry": {
      "type": "Point",
      "coordinates": [-105.964,28.702]
    } 
  },
  { "type": "Feature",
    "properties": {
      "id": "KCHS",
      "site": "Charleston Intl",
      "prior": "1",
      "obsTime": "2018-04-27T01:56:00Z",
      "temp": 18.3,
      "dewp": 15.0,
      "wspd": 4,
      "wdir": 190,
      "ceil": 180,
      "cover": "BKN",
      "visib": 10.00,
      "fltcat": "VFR",
      "altim": 1010.6,
      "slp": 1010.5,
      "rawOb": "KCHS 270156Z 19004KT 10SM FEW060 BKN180 18/15 A2984 RMK AO2 SLP105 T01830150"
    },
    "geometry": {
      "type": "Point",
      "coordinates": [-80.039,32.897]
    } 
  },
  { "type": "Feature",
    "properties": {
      "id": "KGEG",
      "site": "Spokane Intl",
      "prior": "1",
      "obsTime": "2018-04-27T01:53:00Z",
      "temp": 23.3,
      "dewp": -1.1,
      "wspd": 0,
      "wdir": 0,
      "cover": "FEW",
      "visib": 10.00,
      "fltcat": "VFR",
      "altim": 1016.0,
      "slp": 1015.1,
      "rawOb": "KGEG 270153Z 00000KT 10SM FEW250 23/M01 A3000 RMK AO2 SLP151 T02331011"
    },
    "geometry": {
      "type": "Point",
      "coordinates": [-117.533,47.622]
    } 
  },
  { "type": "Feature",
    "properties": {
      "id": "KHON",
      "site": "Huron Rgnl",
      "prior": "1",
      "obsTime": "2018-04-27T01:55:00Z",
      "temp": 11.7,
      "dewp": 1.1,
      "wspd": 5,
      "wdir": 290,
      "cover": "CLR",
      "visib": 10.00,
      "fltcat": "VFR",
      "altim": 1016.3,
      "slp": 1016.7,
      "rawOb": "KHON 270155Z AUTO 29005KT 10SM CLR 12/01 A3001 RMK AO2 SLP167 T01170011"
    },
    "geometry": {
      "type": "Point",
      "coordinates": [-98.226,44.384]
    } 
  },
  { "type": "Feature",
    "properties": {
      "id": "KGSO",
      "site": "Greensboro Intl",
      "prior": "1",
      "obsTime": "2018-04-27T02:02:00Z",
      "temp": 13.9,
      "dewp": 13.9,
      "wspd": 8,
      "wdir": 280,
      "ceil": 6,
      "cover": "OVC",
      "visib": 2.50,
      "fltcat": "IFR",
      "altim": 1010.6,
      "wx": "+RA BR",
      "rawOb": "KGSO 270202Z 28008KT 2 1/2SM +RA BR BKN006 OVC019 14/14 A2984 RMK AO2 RAB0155 P0002 T01390139"
    },
    "geometry": {
      "type": "Point",
      "coordinates": [-79.943,36.101]
    } 
  },
  { "type": "Feature",
    "properties": {
      "id": "KCAR",
      "site": "Caribou Muni",
      "prior": "1",
      "obsTime": "2018-04-27T02:14:00Z",
      "temp": 8.9,
      "dewp": 7.2,
      "wspd": 9,
      "wdir": 230,
      "ceil": 19,
      "cover": "OVC",
      "visib": 10.00,
      "fltcat": "MVFR",
      "altim": 999.4,
      "wx": "-RA",
      "rawOb": "KCAR 270214Z AUTO 23009KT 10SM -RA FEW013 BKN019 OVC048 09/07 A2951 RMK AO2 P0000 T00890072"
    },
    "geometry": {
      "type": "Point",
      "coordinates": [-68.016,46.870]
    } 
  },
  { "type": "Feature",
    "properties": {
      "id": "KBUF",
      "site": "Buffalo-Niagara Intl",
      "prior": "1",
      "obsTime": "2018-04-27T01:54:00Z",
      "temp": 6.7,
      "dewp": 1.7,
      "wspd": 10,
      "wdir": 230,
      "cover": "FEW",
      "visib": 10.00,
      "fltcat": "VFR",
      "altim": 1012.6,
      "slp": 1012.9,
      "rawOb": "KBUF 270154Z 23010KT 10SM FEW250 07/02 A2990 RMK AO2 SLP129 T00670017"
    },
    "geometry": {
      "type": "Point",
      "coordinates": [-78.730,42.940]
    } 
  },
  { "type": "Feature",
    "properties": {
      "id": "KSLC",
      "site": "Salt Lake City Intl",
      "prior": "1",
      "obsTime": "2018-04-27T01:54:00Z",
      "temp": 18.9,
      "dewp": 1.7,
      "wspd": 9,
      "wdir": 260,
      "cover": "CLR",
      "visib": 10.00,
      "fltcat": "VFR",
      "altim": 1017.4,
      "slp": 1014.0,
      "rawOb": "KSLC 270154Z 26009KT 10SM CLR 19/02 A3004 RMK AO2 SLP140 T01890017"
    },
    "geometry": {
      "type": "Point",
      "coordinates": [-111.985,40.787]
    } 
  },
  { "type": "Feature",
    "properties": {
      "id": "MUHA",
      "site": "Havana/Marti Intl",
      "prior": "1",
      "obsTime": "2018-04-27T01:55:00Z",
      "temp": 23.0,
      "dewp": 22.0,
      "wspd": 2,
      "wdir": 150,
      "ceil": 20,
      "cover": "BKN",
      "visib": 5.59,
      "fltcat": "MVFR",
      "altim": 1014.0,
      "rawOb": "MUHA 270155Z 15002KT 9000 BKN020 23/22 Q1014"
    },
    "geometry": {
      "type": "Point",
      "coordinates": [-82.407,22.990]
    } 
  },
  { "type": "Feature",
    "properties": {
      "id": "KDSM",
      "site": "Des Moines Intl",
      "prior": "1",
      "obsTime": "2018-04-27T01:54:00Z",
      "temp": 15.0,
      "dewp": 0.6,
      "wspd": 12,
      "wgst": 20,
      "wdir": 330,
      "cover": "CLR",
      "visib": 10.00,
      "fltcat": "VFR",
      "altim": 1014.3,
      "slp": 1014.4,
      "rawOb": "KDSM 270154Z 33012G20KT 10SM CLR 15/01 A2995 RMK AO2 SLP144 T01500006"
    },
    "geometry": {
      "type": "Point",
      "coordinates": [-93.657,41.534]
    } 
  },
  { "type": "Feature",
    "properties": {
      "id": "KMAF",
      "site": "Midland Intl",
      "prior": "1",
      "obsTime": "2018-04-27T01:53:00Z",
      "temp": 23.9,
      "dewp": 0.6,
      "wspd": 22,
      "wgst": 26,
      "wdir": 10,
      "cover": "CLR",
      "visib": 10.00,
      "fltcat": "VFR",
      "altim": 1015.3,
      "slp": 1011.9,
      "wx": "BLDU",
      "rawOb": "KMAF 270153Z 01022G26KT 10SM BLDU CLR 24/01 A2998 RMK AO2 PK WND 01030/0120 SLP119 T02390006"
    },
    "geometry": {
      "type": "Point",
      "coordinates": [-102.204,31.942]
    } 
  },
  { "type": "Feature",
    "properties": {
      "id": "KOKC",
      "site": "Oklahoma City/Will R",
      "prior": "1",
      "obsTime": "2018-04-27T01:52:00Z",
      "temp": 16.7,
      "dewp": 6.7,
      "wspd": 6,
      "wdir": 10,
      "ceil": 150,
      "cover": "BKN",
      "visib": 10.00,
      "fltcat": "VFR",
      "altim": 1016.3,
      "slp": 1015.8,
      "rawOb": "KOKC 270152Z 01006KT 10SM BKN150 BKN250 17/07 A3001 RMK AO2 SLP158 T01670067"
    },
    "geometry": {
      "type": "Point",
      "coordinates": [-97.596,35.395]
    } 
  },
  { "type": "Feature",
    "properties": {
      "id": "KBNA",
      "site": "Nashville Intl",
      "prior": "1",
      "obsTime": "2018-04-27T01:53:00Z",
      "temp": 12.8,
      "dewp": 11.1,
      "wspd": 0,
      "wdir": 0,
      "ceil": 250,
      "cover": "BKN",
      "visib": 7.00,
      "fltcat": "VFR",
      "altim": 1012.6,
      "slp": 1012.2,
      "rawOb": "KBNA 270153Z 00000KT 7SM SCT070 BKN250 13/11 A2990 RMK AO2 SLP122 T01280111"
    },
    "geometry": {
      "type": "Point",
      "coordinates": [-86.677,36.123]
    } 
  },
  { "type": "Feature",
    "properties": {
      "id": "KLCH",
      "site": "Lake Charles Rgnl",
      "prior": "1",
      "obsTime": "2018-04-27T01:53:00Z",
      "temp": 18.9,
      "dewp": 10.0,
      "wspd": 4,
      "wdir": 360,
      "cover": "CLR",
      "visib": 10.00,
      "fltcat": "VFR",
      "altim": 1013.6,
      "slp": 1014.4,
      "rawOb": "KLCH 270153Z AUTO 36004KT 10SM CLR 19/10 A2993 RMK AO2 SLP144 T01890100"
    },
    "geometry": {
      "type": "Point",
      "coordinates": [-93.225,30.123]
    } 
  },
  { "type": "Feature",
    "properties": {
      "id": "KMCI",
      "site": "Kansas City Intl",
      "prior": "1",
      "obsTime": "2018-04-27T01:53:00Z",
      "temp": 16.1,
      "dewp": 4.4,
      "wspd": 5,
      "wdir": 250,
      "cover": "CLR",
      "visib": 10.00,
      "fltcat": "VFR",
      "altim": 1014.3,
      "slp": 1013.9,
      "rawOb": "KMCI 270153Z 25005KT 10SM CLR 16/04 A2995 RMK AO2 SLP139 T01610044 $"
    },
    "geometry": {
      "type": "Point",
      "coordinates": [-94.717,39.296]
    } 
  },
  { "type": "Feature",
    "properties": {
      "id": "KDTW",
      "site": "Detroit Metro/Wayne",
      "prior": "1",
      "obsTime": "2018-04-27T01:53:00Z",
      "temp": 10.0,
      "dewp": 3.9,
      "wspd": 5,
      "wdir": 180,
      "ceil": 250,
      "cover": "BKN",
      "visib": 10.00,
      "fltcat": "VFR",
      "altim": 1011.3,
      "slp": 1011.2,
      "rawOb": "KDTW 270153Z 18005KT 10SM BKN250 10/04 A2986 RMK AO2 SLP112 T01000039"
    },
    "geometry": {
      "type": "Point",
      "coordinates": [-83.355,42.215]
    } 
  },
  { "type": "Feature",
    "properties": {
      "id": "KMOB",
      "site": "Mobile Rgnl",
      "prior": "1",
      "obsTime": "2018-04-27T01:56:00Z",
      "temp": 16.1,
      "dewp": 9.4,
      "wspd": 5,
      "wdir": 330,
      "cover": "CLR",
      "visib": 10.00,
      "fltcat": "VFR",
      "altim": 1013.0,
      "slp": 1012.6,
      "rawOb": "KMOB 270156Z 33005KT 10SM CLR 16/09 A2991 RMK AO2 SLP126 T01610094 $"
    },
    "geometry": {
      "type": "Point",
      "coordinates": [-88.243,30.688]
    } 
  },
  { "type": "Feature",
    "properties": {
      "id": "KLIT",
      "site": "Little Rock/Clinton",
      "prior": "1",
      "obsTime": "2018-04-27T01:53:00Z",
      "temp": 16.1,
      "dewp": 10.0,
      "wspd": 5,
      "wdir": 310,
      "ceil": 250,
      "cover": "OVC",
      "visib": 10.00,
      "fltcat": "VFR",
      "altim": 1014.3,
      "slp": 1014.3,
      "rawOb": "KLIT 270153Z 31005KT 10SM FEW075 OVC250 16/10 A2995 RMK AO2 SLP143 T01610100"
    },
    "geometry": {
      "type": "Point",
      "coordinates": [-92.221,34.729]
    } 
  },
  { "type": "Feature",
    "properties": {
      "id": "KJAX",
      "site": "Jacksonville Intl",
      "prior": "1",
      "obsTime": "2018-04-27T01:56:00Z",
      "temp": 21.1,
      "dewp": 14.4,
      "wspd": 7,
      "wdir": 220,
      "cover": "FEW",
      "visib": 10.00,
      "fltcat": "VFR",
      "altim": 1010.9,
      "slp": 1010.7,
      "rawOb": "KJAX 270156Z 22007KT 10SM FEW130 FEW250 21/14 A2985 RMK AO2 SLP107 T02110144"
    },
    "geometry": {
      "type": "Point",
      "coordinates": [-81.690,30.490]
    } 
  },
  { "type": "Feature",
    "properties": {
      "id": "KINL",
      "site": "International Falls",
      "prior": "1",
      "obsTime": "2018-04-27T01:55:00Z",
      "temp": 6.1,
      "dewp": -5.6,
      "wspd": 3,
      "wdir": 120,
      "cover": "CLR",
      "visib": 10.00,
      "fltcat": "VFR",
      "altim": 1011.9,
      "slp": 1012.9,
      "rawOb": "KINL 270155Z AUTO 12003KT 10SM CLR 06/M06 A2988 RMK AO2 SLP129 T00611056"
    },
    "geometry": {
      "type": "Point",
      "coordinates": [-93.402,48.566]
    } 
  },
  { "type": "Feature",
    "properties": {
      "id": "KDDC",
      "site": "Dodge City Arpt",
      "prior": "1",
      "obsTime": "2018-04-27T01:52:00Z",
      "temp": 10.6,
      "dewp": 2.8,
      "wspd": 7,
      "wdir": 350,
      "cover": "CLR",
      "visib": 10.00,
      "fltcat": "VFR",
      "altim": 1020.1,
      "slp": 1019.7,
      "rawOb": "KDDC 270152Z AUTO 35007KT 10SM CLR 11/03 A3012 RMK AO2 SLP197 T01060028"
    },
    "geometry": {
      "type": "Point",
      "coordinates": [-99.967,37.763]
    } 
  },
  { "type": "Feature",
    "properties": {
      "id": "KABQ",
      "site": "Albuquerque Intl",
      "prior": "1",
      "obsTime": "2018-04-27T01:52:00Z",
      "temp": 20.0,
      "dewp": -5.6,
      "wspd": 26,
      "wgst": 37,
      "wdir": 100,
      "cover": "SCT",
      "visib": 10.00,
      "fltcat": "VFR",
      "altim": 1018.0,
      "slp": 1012.1,
      "rawOb": "KABQ 270152Z 10026G37KT 10SM SCT250 20/M06 A3006 RMK AO2 PK WND 10037/0148 SLP121 T02001056"
    },
    "geometry": {
      "type": "Point",
      "coordinates": [-106.607,35.044]
    } 
  },
  { "type": "Feature",
    "properties": {
      "id": "KMSP",
      "site": "Minneapolis-St Paul",
      "prior": "1",
      "obsTime": "2018-04-27T01:53:00Z",
      "temp": 12.8,
      "dewp": -3.3,
      "wspd": 10,
      "wdir": 360,
      "cover": "CLR",
      "visib": 10.00,
      "fltcat": "VFR",
      "altim": 1013.3,
      "slp": 1013.2,
      "rawOb": "KMSP 270153Z 36010KT 10SM CLR 13/M03 A2992 RMK AO2 SLP132 T01281033"
    },
    "geometry": {
      "type": "Point",
      "coordinates": [-93.215,44.883]
    } 
  },
  { "type": "Feature",
    "properties": {
      "id": "KCVG",
      "site": "Cincinnati Intl",
      "prior": "1",
      "obsTime": "2018-04-27T01:52:00Z",
      "temp": 14.4,
      "dewp": 2.2,
      "wspd": 0,
      "wdir": 0,
      "ceil": 170,
      "cover": "BKN",
      "visib": 10.00,
      "fltcat": "VFR",
      "altim": 1010.6,
      "slp": 1010.2,
      "rawOb": "KCVG 270152Z 00000KT 10SM BKN170 BKN250 14/02 A2984 RMK AO2 SLP102 T01440022"
    },
    "geometry": {
      "type": "Point",
      "coordinates": [-84.666,39.047]
    } 
  },
  { "type": "Feature",
    "properties": {
      "id": "KIAD",
      "site": "Washington/Dulles In",
      "prior": "1",
      "obsTime": "2018-04-27T01:52:00Z",
      "temp": 16.1,
      "dewp": 4.4,
      "wspd": 4,
      "wdir": 90,
      "ceil": 160,
      "cover": "OVC",
      "visib": 10.00,
      "fltcat": "VFR",
      "altim": 1011.3,
      "slp": 1011.1,
      "rawOb": "KIAD 270152Z 09004KT 10SM SCT110 OVC160 16/04 A2986 RMK AO2 SLP111 T01610044"
    },
    "geometry": {
      "type": "Point",
      "coordinates": [-77.448,38.950]
    } 
  },
  { "type": "Feature",
    "properties": {
      "id": "CYOW",
      "site": "Ottawa/Cartier Intl",
      "prior": "1",
      "obsTime": "2018-04-27T02:00:00Z",
      "temp": 9.0,
      "dewp": 6.0,
      "wspd": 5,
      "wdir": 180,
      "cover": "SCT",
      "visib": 15.00,
      "fltcat": "VFR",
      "altim": 1008.9,
      "slp": 1009.2,
      "rawOb": "CYOW 270200Z 18005KT 15SM FEW040 SCT250 09/06 A2979 RMK SC1CI2 SLP092"
    },
    "geometry": {
      "type": "Point",
      "coordinates": [-75.665,45.316]
    } 
  },
  { "type": "Feature",
    "properties": {
      "id": "KLAS",
      "site": "Las Vegas/McCarran I",
      "prior": "1",
      "obsTime": "2018-04-27T01:56:00Z",
      "temp": 33.9,
      "dewp": -6.1,
      "wspd": 0,
      "wdir": 0,
      "cover": "FEW",
      "visib": 10.00,
      "fltcat": "VFR",
      "altim": 1008.5,
      "slp": 1005.9,
      "rawOb": "KLAS 270156Z 00000KT 10SM FEW140 FEW250 34/M06 A2978 RMK AO2 SLP059 T03391061"
    },
    "geometry": {
      "type": "Point",
      "coordinates": [-115.157,36.081]
    } 
  },
  { "type": "Feature",
    "properties": {
      "id": "KBOI",
      "site": "Boise Arpt",
      "prior": "1",
      "obsTime": "2018-04-27T01:53:00Z",
      "temp": 25.0,
      "dewp": 0.0,
      "wspd": 3,
      "wdir": 140,
      "cover": "CLR",
      "visib": 10.00,
      "fltcat": "VFR",
      "altim": 1014.6,
      "slp": 1012.7,
      "rawOb": "KBOI 270153Z 14003KT 10SM CLR 25/00 A2996 RMK AO2 SLP127 T02500000"
    },
    "geometry": {
      "type": "Point",
      "coordinates": [-116.223,43.565]
    } 
  },
  { "type": "Feature",
    "properties": {
      "id": "KHLN",
      "site": "Helena Rgnl",
      "prior": "1",
      "obsTime": "2018-04-27T01:53:00Z",
      "temp": 20.0,
      "dewp": 2.2,
      "wspd": 4,
      "wdir": 120,
      "cover": "CLR",
      "visib": 10.00,
      "fltcat": "VFR",
      "altim": 1018.7,
      "slp": 1019.6,
      "rawOb": "KHLN 270153Z 12004KT 10SM CLR 20/02 A3008 RMK AO2 SLP196 T02000022"
    },
    "geometry": {
      "type": "Point",
      "coordinates": [-111.977,46.605]
    } 
  },
  { "type": "Feature",
    "properties": {
      "id": "KSFO",
      "site": "San Francisco Intl",
      "prior": "1",
      "obsTime": "2018-04-27T01:56:00Z",
      "temp": 13.3,
      "dewp": 7.2,
      "wspd": 17,
      "wgst": 23,
      "wdir": 260,
      "cover": "FEW",
      "visib": 10.00,
      "fltcat": "VFR",
      "altim": 1015.3,
      "slp": 1015.2,
      "rawOb": "KSFO 270156Z 26017G23KT 10SM FEW018 13/07 A2998 RMK AO2 SLP152 T01330072"
    },
    "geometry": {
      "type": "Point",
      "coordinates": [-122.374,37.619]
    } 
  },
  { "type": "Feature",
    "properties": {
      "id": "KGGW",
      "site": "Glasgow Intl Arpt",
      "prior": "1",
      "obsTime": "2018-04-27T01:53:00Z",
      "temp": 18.9,
      "dewp": 0.6,
      "wspd": 6,
      "wdir": 270,
      "cover": "CLR",
      "visib": 10.00,
      "fltcat": "VFR",
      "altim": 1015.7,
      "slp": 1016.1,
      "rawOb": "KGGW 270153Z AUTO 27006KT 10SM CLR 19/01 A2999 RMK AO2 SLP161 T01890006"
    },
    "geometry": {
      "type": "Point",
      "coordinates": [-106.621,48.214]
    } 
  },
  { "type": "Feature",
    "properties": {
      "id": "KACV",
      "site": "Arcata Arpt",
      "prior": "1",
      "obsTime": "2018-04-27T01:53:00Z",
      "temp": 12.2,
      "dewp": 7.8,
      "wspd": 5,
      "wdir": 350,
      "ceil": 23,
      "cover": "OVC",
      "visib": 10.00,
      "fltcat": "MVFR",
      "altim": 1015.7,
      "slp": 1016.2,
      "rawOb": "KACV 270153Z AUTO 35005KT 10SM OVC023 12/08 A2999 RMK AO2 SLP162 T01220078"
    },
    "geometry": {
      "type": "Point",
      "coordinates": [-124.108,40.978]
    } 
  },
  { "type": "Feature",
    "properties": {
      "id": "CYWK",
      "site": "Wabush Lake Arpt",
      "prior": "1",
      "obsTime": "2018-04-27T02:00:00Z",
      "temp": 3.0,
      "dewp": 2.0,
      "wspd": 6,
      "wdir": 360,
      "ceil": 4,
      "cover": "OVX",
      "visib": 0.50,
      "fltcat": "LIFR",
      "altim": 996.7,
      "slp": 998.7,
      "wx": "-RA FG",
      "rawOb": "CYWK 270200Z AUTO 36006KT 1/2SM -RA FG VV004 03/02 A2943 RMK SLP987"
    },
    "geometry": {
      "type": "Point",
      "coordinates": [-66.866,52.924]
    } 
  },
  { "type": "Feature",
    "properties": {
      "id": "CYVP",
      "site": "Kuujjuaq Arpt",
      "prior": "1",
      "obsTime": "2018-04-27T02:00:00Z",
      "temp": -2.0,
      "dewp": -3.0,
      "wspd": 9,
      "wgst": 16,
      "wdir": 350,
      "ceil": 14,
      "cover": "OVC",
      "visib": 2.50,
      "fltcat": "IFR",
      "altim": 1005.5,
      "slp": 1005.7,
      "wx": "-SN",
      "rawOb": "CYVP 270200Z 35009G16KT 2 1/2SM -SN BKN014 OVC042 M02/M03 A2969 RMK SN4SF2SC2 SLP057"
    },
    "geometry": {
      "type": "Point",
      "coordinates": [-68.420,58.095]
    } 
  },
  { "type": "Feature",
    "properties": {
      "id": "CYYC",
      "site": "Calgary Intl Arpt",
      "prior": "1",
      "obsTime": "2018-04-27T02:00:00Z",
      "temp": 17.0,
      "dewp": 0.0,
      "wspd": 8,
      "wdir": 80,
      "cover": "FEW",
      "visib": 30.00,
      "fltcat": "VFR",
      "altim": 1018.7,
      "slp": 1019.9,
      "rawOb": "CYYC 270200Z 08008KT 30SM FEW230 17/M00 A3008 RMK CI1 CI TR SLP199 DENSITY ALT 4600FT"
    },
    "geometry": {
      "type": "Point",
      "coordinates": [-114.022,51.119]
    } 
  },
  { "type": "Feature",
    "properties": {
      "id": "KPWM",
      "site": "Portland Intl",
      "prior": "1",
      "obsTime": "2018-04-27T01:51:00Z",
      "temp": 12.2,
      "dewp": 5.0,
      "wspd": 9,
      "wdir": 230,
      "cover": "CLR",
      "visib": 10.00,
      "fltcat": "VFR",
      "altim": 1007.5,
      "slp": 1007.3,
      "rawOb": "KPWM 270151Z 23009KT 10SM CLR 12/05 A2975 RMK AO2 SLP073 T01220050"
    },
    "geometry": {
      "type": "Point",
      "coordinates": [-70.306,43.645]
    } 
  },
  { "type": "Feature",
    "properties": {
      "id": "KPHX",
      "site": "Phoenix/Sky Harbor",
      "prior": "1",
      "obsTime": "2018-04-27T01:51:00Z",
      "temp": 33.3,
      "dewp": -0.6,
      "wspd": 9,
      "wdir": 270,
      "ceil": 250,
      "cover": "BKN",
      "visib": 10.00,
      "fltcat": "VFR",
      "altim": 1007.5,
      "slp": 1005.8,
      "rawOb": "KPHX 270151Z 27009KT 10SM SCT180 BKN250 BKN290 33/M01 A2975 RMK AO2 SLP058 T03331006"
    },
    "geometry": {
      "type": "Point",
      "coordinates": [-112.010,33.435]
    } 
  },
  { "type": "Feature",
    "properties": {
      "id": "KEKO",
      "site": "Elko Rgnl",
      "prior": "1",
      "obsTime": "2018-04-27T01:56:00Z",
      "temp": 23.3,
      "dewp": -5.0,
      "wspd": 6,
      "wdir": 80,
      "cover": "CLR",
      "visib": 10.00,
      "fltcat": "VFR",
      "altim": 1016.3,
      "slp": 1013.3,
      "rawOb": "KEKO 270156Z AUTO 08006KT 10SM CLR 23/M05 A3001 RMK AO2 SLP133 T02331050"
    },
    "geometry": {
      "type": "Point",
      "coordinates": [-115.790,40.824]
    } 
  },
  { "type": "Feature",
    "properties": {
      "id": "KBIS",
      "site": "Bismarck Arpt",
      "prior": "1",
      "obsTime": "2018-04-27T01:52:00Z",
      "temp": 16.1,
      "dewp": -2.2,
      "wspd": 7,
      "wdir": 270,
      "cover": "CLR",
      "visib": 10.00,
      "fltcat": "VFR",
      "altim": 1014.3,
      "slp": 1014.6,
      "rawOb": "KBIS 270152Z 27007KT 10SM CLR 16/M02 A2995 RMK AO2 SLP146 T01611022"
    },
    "geometry": {
      "type": "Point",
      "coordinates": [-100.750,46.774]
    } 
  },
  { "type": "Feature",
    "properties": {
      "id": "CYXE",
      "site": "Saskatoon/Diefenbake",
      "prior": "1",
      "obsTime": "2018-04-27T02:00:00Z",
      "temp": 14.0,
      "dewp": -6.0,
      "wspd": 10,
      "wdir": 340,
      "cover": "FEW",
      "visib": 15.00,
      "fltcat": "VFR",
      "altim": 1016.7,
      "slp": 1018.1,
      "rawOb": "CYXE 270200Z 34010KT 15SM FEW240 14/M06 A3002 RMK CI1 SLP181 DENSITY ALT 1800FT"
    },
    "geometry": {
      "type": "Point",
      "coordinates": [-106.703,52.175]
    } 
  },
  { "type": "Feature",
    "properties": {
      "id": "KSAT",
      "site": "San Antonio Intl",
      "prior": "1",
      "obsTime": "2018-04-27T01:51:00Z",
      "temp": 18.3,
      "dewp": 11.7,
      "wspd": 5,
      "wdir": 110,
      "ceil": 250,
      "cover": "BKN",
      "visib": 10.00,
      "fltcat": "VFR",
      "altim": 1014.0,
      "slp": 1012.5,
      "rawOb": "KSAT 270151Z 11005KT 10SM BKN250 18/12 A2994 RMK AO2 SLP125 T01830117"
    },
    "geometry": {
      "type": "Point",
      "coordinates": [-98.472,29.534]
    } 
  },
  { "type": "Feature",
    "properties": {
      "id": "CYXS",
      "site": "Prince George Arpt",
      "prior": "1",
      "obsTime": "2018-04-27T02:00:00Z",
      "temp": 20.0,
      "dewp": 2.0,
      "wspd": 7,
      "wdir": 360,
      "cover": "CLR",
      "visib": 9.00,
      "fltcat": "VFR",
      "altim": 1015.7,
      "slp": 1017.2,
      "rawOb": "CYXS 270200Z AUTO 36007KT 9SM CLR 20/02 A2999 RMK SLP172 DENSITY ALT 3300FT"
    },
    "geometry": {
      "type": "Point",
      "coordinates": [-122.675,53.888]
    } 
  },
  { "type": "Feature",
    "properties": {
      "id": "CYZT",
      "site": "Port Hardy Arpt",
      "prior": "1",
      "obsTime": "2018-04-27T02:00:00Z",
      "temp": 20.0,
      "dewp": 6.0,
      "wspd": 6,
      "wdir": 340,
      "cover": "FEW",
      "visib": 20.00,
      "fltcat": "VFR",
      "altim": 1013.3,
      "slp": 1013.4,
      "rawOb": "CYZT 270200Z 34006KT 20SM FEW240 20/06 A2992 RMK CI1 SLP134 DENSITY ALT 700FT"
    },
    "geometry": {
      "type": "Point",
      "coordinates": [-127.370,50.682]
    } 
  },
  { "type": "Feature",
    "properties": {
      "id": "CWGR",
      "site": "Iles-de-la-Madeleine",
      "prior": "1",
      "obsTime": "2018-04-27T02:00:00Z",
      "temp": 8.8,
      "dewp": 7.5,
      "wspd": 20,
      "wgst": 31,
      "wdir": 170,
      "slp": 1003.5,
      "rawOb": "CWGR 270200Z AUTO 17020G31KT 09/08 RMK AO1 PK WND 16031/0151 SLP035 T00880075 58000"
    },
    "geometry": {
      "type": "Point",
      "coordinates": [-61.775,47.427]
    } 
  },
  { "type": "Feature",
    "properties": {
      "id": "KCPR",
      "site": "Casper/Natrona Cnty",
      "prior": "1",
      "obsTime": "2018-04-27T01:53:00Z",
      "temp": 12.8,
      "dewp": -5.0,
      "wspd": 4,
      "wdir": 220,
      "cover": "CLR",
      "visib": 10.00,
      "fltcat": "VFR",
      "altim": 1022.1,
      "slp": 1019.8,
      "rawOb": "KCPR 270153Z 22004KT 10SM CLR 13/M05 A3018 RMK AO2 SLP198 T01281050"
    },
    "geometry": {
      "type": "Point",
      "coordinates": [-106.462,42.903]
    } 
  },
  { "type": "Feature",
    "properties": {
      "id": "CYGP",
      "site": "Gaspe Arpt",
      "prior": "1",
      "obsTime": "2018-04-27T02:00:00Z",
      "temp": 9.0,
      "dewp": 7.0,
      "wspd": 8,
      "wgst": 16,
      "wdir": 200,
      "cover": "FEW",
      "visib": 15.00,
      "fltcat": "VFR",
      "altim": 996.0,
      "slp": 996.1,
      "rawOb": "CYGP 270200Z 20008G16KT 160V250 15SM FEW220 09/07 A2941 RMK CC2 SLP961"
    },
    "geometry": {
      "type": "Point",
      "coordinates": [-64.481,48.776]
    } 
  },
  { "type": "Feature",
    "properties": {
      "id": "KEUG",
      "site": "Eugene/Mahlon Sweet",
      "prior": "1",
      "obsTime": "2018-04-27T01:54:00Z",
      "temp": 12.8,
      "dewp": 9.4,
      "wspd": 15,
      "wdir": 270,
      "ceil": 150,
      "cover": "BKN",
      "visib": 10.00,
      "fltcat": "VFR",
      "altim": 1012.6,
      "slp": 1012.4,
      "rawOb": "KEUG 270154Z 27015KT 10SM FEW020 SCT090 BKN150 13/09 A2990 RMK AO2 PRESFR SLP124 T01280094"
    },
    "geometry": {
      "type": "Point",
      "coordinates": [-123.213,44.122]
    } 
  },
  { "type": "Feature",
    "properties": {
      "id": "KBRO",
      "site": "Brownsville Intl",
      "prior": "1",
      "obsTime": "2018-04-27T01:53:00Z",
      "temp": 22.2,
      "dewp": 18.3,
      "wspd": 4,
      "wdir": 70,
      "ceil": 49,
      "cover": "OVC",
      "visib": 10.00,
      "fltcat": "VFR",
      "altim": 1014.3,
      "slp": 1013.9,
      "rawOb": "KBRO 270153Z 07004KT 10SM OVC049 22/18 A2995 RMK AO2 SLP139 T02220183"
    },
    "geometry": {
      "type": "Point",
      "coordinates": [-97.428,25.908]
    } 
  },
  { "type": "Feature",
    "properties": {
      "id": "KSTL",
      "site": "St Louis/Lambert Int",
      "prior": "1",
      "obsTime": "2018-04-27T01:51:00Z",
      "temp": 17.2,
      "dewp": 3.3,
      "wspd": 0,
      "wdir": 0,
      "ceil": 250,
      "cover": "BKN",
      "visib": 10.00,
      "fltcat": "VFR",
      "altim": 1012.6,
      "slp": 1012.2,
      "rawOb": "KSTL 270151Z 00000KT 10SM BKN250 17/03 A2990 RMK AO2 SLP122 T01720033"
    },
    "geometry": {
      "type": "Point",
      "coordinates": [-90.361,38.745]
    } 
  },
  { "type": "Feature",
    "properties": {
      "id": "CYTH",
      "site": "Thompson Arpt",
      "prior": "1",
      "obsTime": "2018-04-27T02:00:00Z",
      "temp": 0.0,
      "dewp": -1.0,
      "wspd": 6,
      "wdir": 60,
      "ceil": 15,
      "cover": "OVC",
      "visib": 1.00,
      "fltcat": "IFR",
      "altim": 1014.0,
      "slp": 1015.8,
      "wx": "-SN",
      "rawOb": "CYTH 270200Z 06006KT 1SM R06/P6000FT/U -SN BKN015 OVC028 M00/M01 A2994 RMK SN7SF1SC1 SF TR VIS VRB 1/2 - 1 1/2 SLP158"
    },
    "geometry": {
      "type": "Point",
      "coordinates": [-97.863,55.800]
    } 
  },
  { "type": "Feature",
    "properties": {
      "id": "KLBF",
      "site": "N Platte/Lee Bird Fl",
      "prior": "1",
      "obsTime": "2018-04-27T01:53:00Z",
      "temp": 10.0,
      "dewp": -2.8,
      "wspd": 7,
      "wdir": 30,
      "cover": "CLR",
      "visib": 10.00,
      "fltcat": "VFR",
      "altim": 1020.7,
      "slp": 1020.4,
      "rawOb": "KLBF 270153Z AUTO 03007KT 10SM CLR 10/M03 A3014 RMK AO2 SLP204 T01001028"
    },
    "geometry": {
      "type": "Point",
      "coordinates": [-100.692,41.131]
    } 
  },
  { "type": "Feature",
    "properties": {
      "id": "CWNZ",
      "site": "Nagagami(MARS)",
      "prior": "1",
      "obsTime": "2018-04-27T02:00:00Z",
      "temp": -1.9,
      "dewp": -2.8,
      "wspd": 6,
      "wdir": 350,
      "slp": 1012.6,
      "rawOb": "CWNZ 270200Z AUTO 35006KT M02/M03 RMK AO1 1PAST HR SOG 28 1010 SLP126 P0000 T10191028 50001"
    },
    "geometry": {
      "type": "Point",
      "coordinates": [-84.164,49.747]
    } 
  },
  { "type": "Feature",
    "properties": {
      "id": "CYZH",
      "site": "Slave Lake Arpt",
      "prior": "1",
      "obsTime": "2018-04-27T02:00:00Z",
      "temp": 12.0,
      "dewp": -3.0,
      "wspd": 2,
      "wdir": 270,
      "cover": "CLR",
      "visib": 9.00,
      "fltcat": "VFR",
      "altim": 1017.7,
      "slp": 1019.6,
      "rawOb": "CYZH 270200Z AUTO 27002KT 9SM CLR 12/M03 A3005 RMK SLP196"
    },
    "geometry": {
      "type": "Point",
      "coordinates": [-114.777,55.293]
    } 
  },
  { "type": "Feature",
    "properties": {
      "id": "CYER",
      "site": "Ft Severn Arpt",
      "prior": "1",
      "obsTime": "2018-04-27T02:00:00Z",
      "temp": -10.0,
      "dewp": -12.0,
      "wspd": 3,
      "wdir": 40,
      "cover": "CLR",
      "visib": 9.00,
      "fltcat": "VFR",
      "altim": 1018.0,
      "slp": 1018.2,
      "rawOb": "CYER 270200Z AUTO 04003KT 9SM CLR M10/M12 A3006 RMK SLP182"
    },
    "geometry": {
      "type": "Point",
      "coordinates": [-87.676,56.019]
    } 
  },
  { "type": "Feature",
    "properties": {
      "id": "KCDC",
      "site": "Cedar City Muni",
      "prior": "1",
      "obsTime": "2018-04-27T01:53:00Z",
      "temp": 20.6,
      "dewp": -5.0,
      "wspd": 6,
      "wdir": 10,
      "cover": "CLR",
      "visib": 10.00,
      "fltcat": "VFR",
      "altim": 1017.7,
      "slp": 1012.2,
      "rawOb": "KCDC 270153Z AUTO 01006KT 10SM CLR 21/M05 A3005 RMK AO2 SLP122 T02061050"
    },
    "geometry": {
      "type": "Point",
      "coordinates": [-113.100,37.700]
    } 
  },
  { "type": "Feature",
    "properties": {
      "id": "KHSE",
      "site": "Hatteras/Mitchell Fl",
      "prior": "1",
      "obsTime": "2018-04-27T01:51:00Z",
      "temp": 20.6,
      "dewp": 17.2,
      "wspd": 8,
      "wdir": 180,
      "ceil": 90,
      "cover": "BKN",
      "visib": 10.00,
      "fltcat": "VFR",
      "altim": 1011.9,
      "slp": 1011.9,
      "rawOb": "KHSE 270151Z AUTO 18008KT 10SM FEW034 BKN090 21/17 A2988 RMK AO2 SLP119 T02060172"
    },
    "geometry": {
      "type": "Point",
      "coordinates": [-75.618,35.233]
    } 
  },
  { "type": "Feature",
    "properties": {
      "id": "CYKJ",
      "site": "Key Lake Arpt",
      "prior": "1",
      "obsTime": "2018-04-27T02:00:00Z",
      "temp": 4.0,
      "dewp": -2.0,
      "wspd": 4,
      "wdir": 320,
      "ceil": 49,
      "cover": "BKN",
      "visib": 9.00,
      "fltcat": "VFR",
      "altim": 1017.4,
      "slp": 1019.7,
      "rawOb": "CYKJ 270200Z AUTO 32004KT 9SM BKN049 04/M02 A3004 RMK SLP197"
    },
    "geometry": {
      "type": "Point",
      "coordinates": [-105.620,57.255]
    } 
  },
  { "type": "Feature",
    "properties": {
      "id": "MMGL",
      "site": "Guadalajara/Hildago",
      "prior": "1",
      "obsTime": "2018-04-27T01:42:00Z",
      "temp": 27.0,
      "dewp": -7.0,
      "wspd": 9,
      "wdir": 280,
      "cover": "SKC",
      "visib": 10.00,
      "fltcat": "VFR",
      "altim": 1017.7,
      "rawOb": "MMGL 270142Z 28009KT 10SM SKC 27/M07 A3005"
    },
    "geometry": {
      "type": "Point",
      "coordinates": [-103.310,20.522]
    } 
  },
  { "type": "Feature",
    "properties": {
      "id": "CYPL",
      "site": "Pickle Lake Arpt",
      "prior": "1",
      "obsTime": "2018-04-27T02:00:00Z",
      "temp": 0.0,
      "dewp": -6.0,
      "wspd": 0,
      "wdir": 0,
      "ceil": 25,
      "cover": "BKN",
      "visib": 15.00,
      "fltcat": "MVFR",
      "altim": 1013.3,
      "slp": 1015.4,
      "rawOb": "CYPL 270200Z 00000KT 15SM BKN025 M00/M06 A2992 RMK SC6 LAST STFD OBS/NEXT 271100Z SLP154"
    },
    "geometry": {
      "type": "Point",
      "coordinates": [-90.214,51.446]
    } 
  },
  { "type": "Feature",
    "properties": {
      "id": "MMTM",
      "site": "Tampico/Mina Intl",
      "prior": "1",
      "obsTime": "2018-04-27T01:43:00Z",
      "temp": 23.0,
      "dewp": 20.0,
      "wspd": 15,
      "wdir": 30,
      "cover": "SCT",
      "visib": 7.00,
      "fltcat": "VFR",
      "altim": 1013.6,
      "rawOb": "MMTM 270143Z E03015KT 7SM SCT010 23/20 A2993 RMK 8/100"
    },
    "geometry": {
      "type": "Point",
      "coordinates": [-97.867,22.293]
    } 
  },
  { "type": "Feature",
    "properties": {
      "id": "MMTC",
      "site": "Torreon/Tinoco Intl",
      "prior": "1",
      "obsTime": "2018-04-27T01:40:00Z",
      "temp": 31.0,
      "dewp": 4.0,
      "wspd": 5,
      "wdir": 10,
      "ceil": 200,
      "cover": "BKN",
      "visib": 10.00,
      "fltcat": "VFR",
      "altim": 1012.6,
      "rawOb": "MMTC 270140Z 01005KT 10SM SCT020 SCT100 BKN200 31/04 A2990 RMK 8/572 HZY"
    },
    "geometry": {
      "type": "Point",
      "coordinates": [-103.404,25.562]
    } 
  },
  { "type": "Feature",
    "properties": {
      "id": "MMGM",
      "site": "Guaymas/Yanez Intl",
      "prior": "1",
      "obsTime": "2018-04-27T01:40:00Z",
      "temp": 32.0,
      "dewp": 9.0,
      "wspd": 15,
      "wdir": 240,
      "cover": "SCT",
      "visib": 10.00,
      "fltcat": "VFR",
      "altim": 1007.5,
      "rawOb": "MMGM 270140Z 24015KT 10SM SCT150 32/09 A2975 RMK 8/080 HZY"
    },
    "geometry": {
      "type": "Point",
      "coordinates": [-110.924,27.968]
    } 
  },
  { "type": "Feature",
    "properties": {
      "id": "MMLP",
      "site": "La Paz/De Leon Intl",
      "prior": "1",
      "obsTime": "2018-04-27T01:40:00Z",
      "temp": 28.0,
      "dewp": 12.0,
      "wspd": 8,
      "wdir": 320,
      "ceil": 220,
      "cover": "BKN",
      "visib": 10.00,
      "fltcat": "VFR",
      "altim": 1011.6,
      "rawOb": "MMLP 270140Z 32008KT 10SM SCT100 BKN220 28/12 A2987 RMK 8/038"
    },
    "geometry": {
      "type": "Point",
      "coordinates": [-110.362,24.073]
    } 
  },
  { "type": "Feature",
    "properties": {
      "id": "KSAN",
      "site": "San Diego Intl Arpt",
      "prior": "2",
      "obsTime": "2018-04-27T01:58:00Z",
      "temp": 16.1,
      "dewp": 11.1,
      "wspd": 7,
      "wdir": 290,
      "ceil": 17,
      "cover": "BKN",
      "visib": 10.00,
      "fltcat": "MVFR",
      "altim": 1016.3,
      "rawOb": "KSAN 270158Z 29007KT 10SM BKN017 BKN200 BKN250 16/11 A3001 RMK AO2 T01610111"
    },
    "geometry": {
      "type": "Point",
      "coordinates": [-117.190,32.733]
    } 
  },
  { "type": "Feature",
    "properties": {
      "id": "KSYR",
      "site": "Syracuse/Hancock Int",
      "prior": "2",
      "obsTime": "2018-04-27T01:54:00Z",
      "temp": 6.1,
      "dewp": 2.8,
      "wspd": 3,
      "wdir": 100,
      "cover": "FEW",
      "visib": 10.00,
      "fltcat": "VFR",
      "altim": 1011.6,
      "slp": 1011.5,
      "rawOb": "KSYR 270154Z 10003KT 10SM FEW250 06/03 A2987 RMK AO2 SLP115 T00610028"
    },
    "geometry": {
      "type": "Point",
      "coordinates": [-76.106,43.112]
    } 
  },
  { "type": "Feature",
    "properties": {
      "id": "KPHL",
      "site": "Philadelphia Intl",
      "prior": "2",
      "obsTime": "2018-04-27T01:54:00Z",
      "temp": 17.2,
      "dewp": 4.4,
      "wspd": 4,
      "wdir": 300,
      "cover": "SCT",
      "visib": 10.00,
      "fltcat": "VFR",
      "altim": 1012.3,
      "slp": 1012.0,
      "rawOb": "KPHL 270154Z 30004KT 10SM SCT250 17/04 A2989 RMK AO2 SLP120 T01720044 $"
    },
    "geometry": {
      "type": "Point",
      "coordinates": [-75.246,39.869]
    } 
  },
  { "type": "Feature",
    "properties": {
      "id": "KRIC",
      "site": "Richmond Intl",
      "prior": "2",
      "obsTime": "2018-04-27T01:54:00Z",
      "temp": 17.8,
      "dewp": 12.2,
      "wspd": 9,
      "wdir": 140,
      "ceil": 80,
      "cover": "OVC",
      "visib": 10.00,
      "fltcat": "VFR",
      "altim": 1011.3,
      "slp": 1011.5,
      "rawOb": "KRIC 270154Z 14009KT 10SM BKN080 OVC160 18/12 A2986 RMK AO2 SLP115 T01780122"
    },
    "geometry": {
      "type": "Point",
      "coordinates": [-77.322,37.506]
    } 
  },
  { "type": "Feature",
    "properties": {
      "id": "KJAN",
      "site": "Jackson/Evers Intl",
      "prior": "2",
      "obsTime": "2018-04-27T01:54:00Z",
      "temp": 16.1,
      "dewp": 12.2,
      "wspd": 0,
      "wdir": 0,
      "ceil": 60,
      "cover": "OVC",
      "visib": 10.00,
      "fltcat": "VFR",
      "altim": 1013.3,
      "slp": 1012.9,
      "rawOb": "KJAN 270154Z 00000KT 10SM OVC060 16/12 A2992 RMK AO2 SLP129 T01610122 $"
    },
    "geometry": {
      "type": "Point",
      "coordinates": [-90.077,32.312]
    } 
  },
  { "type": "Feature",
    "properties": {
      "id": "KFWA",
      "site": "Fort Wayne Intl",
      "prior": "2",
      "obsTime": "2018-04-27T01:54:00Z",
      "temp": 12.2,
      "dewp": 3.3,
      "wspd": 0,
      "wdir": 0,
      "ceil": 250,
      "cover": "BKN",
      "visib": 10.00,
      "fltcat": "VFR",
      "altim": 1011.6,
      "slp": 1011.5,
      "rawOb": "KFWA 270154Z 00000KT 10SM BKN250 12/03 A2987 RMK AO2 SLP115 T01220033"
    },
    "geometry": {
      "type": "Point",
      "coordinates": [-85.190,40.982]
    } 
  },
  { "type": "Feature",
    "properties": {
      "id": "KCNK",
      "site": "Concordia/Blosser Mu",
      "prior": "2",
      "obsTime": "2018-04-27T01:55:00Z",
      "temp": 13.9,
      "dewp": -1.7,
      "wspd": 11,
      "wdir": 350,
      "cover": "CLR",
      "visib": 10.00,
      "fltcat": "VFR",
      "altim": 1018.4,
      "slp": 1018.2,
      "rawOb": "KCNK 270155Z AUTO 35011KT 10SM CLR 14/M02 A3007 RMK AO2 SLP182 T01391017"
    },
    "geometry": {
      "type": "Point",
      "coordinates": [-97.653,39.550]
    } 
  },
  { "type": "Feature",
    "properties": {
      "id": "KIPT",
      "site": "Williamsport Rgnl",
      "prior": "2",
      "obsTime": "2018-04-27T01:54:00Z",
      "temp": 12.2,
      "dewp": 4.4,
      "wspd": 3,
      "wdir": 290,
      "cover": "CLR",
      "visib": 10.00,
      "fltcat": "VFR",
      "altim": 1010.6,
      "slp": 1010.7,
      "rawOb": "KIPT 270154Z 29003KT 10SM CLR 12/04 A2984 RMK AO2 SLP107 T01220044"
    },
    "geometry": {
      "type": "Point",
      "coordinates": [-76.922,41.241]
    } 
  },
  { "type": "Feature",
    "properties": {
      "id": "KMEM",
      "site": "Memphis Intl",
      "prior": "2",
      "obsTime": "2018-04-27T01:54:00Z",
      "temp": 13.3,
      "dewp": 11.1,
      "wspd": 5,
      "wdir": 300,
      "ceil": 250,
      "cover": "BKN",
      "visib": 10.00,
      "fltcat": "VFR",
      "altim": 1013.6,
      "slp": 1013.3,
      "rawOb": "KMEM 270154Z 30005KT 10SM BKN250 13/11 A2993 RMK AO2 SLP133 T01330111"
    },
    "geometry": {
      "type": "Point",
      "coordinates": [-89.982,35.042]
    } 
  },
  { "type": "Feature",
    "properties": {
      "id": "KCRW",
      "site": "Charleston/Yeager Ar",
      "prior": "2",
      "obsTime": "2018-04-27T01:54:00Z",
      "temp": 13.9,
      "dewp": 6.7,
      "wspd": 0,
      "wdir": 0,
      "ceil": 100,
      "cover": "OVC",
      "visib": 7.00,
      "fltcat": "VFR",
      "altim": 1010.6,
      "slp": 1010.3,
      "rawOb": "KCRW 270154Z 00000KT 7SM FEW055 OVC100 14/07 A2984 RMK AO2 SLP103 T01390067"
    },
    "geometry": {
      "type": "Point",
      "coordinates": [-81.594,38.374]
    } 
  },
  { "type": "Feature",
    "properties": {
      "id": "KGRR",
      "site": "Grand Rapids Intl",
      "prior": "2",
      "obsTime": "2018-04-27T01:53:00Z",
      "temp": 10.0,
      "dewp": -3.3,
      "wspd": 3,
      "wdir": 180,
      "ceil": 220,
      "cover": "BKN",
      "visib": 10.00,
      "fltcat": "VFR",
      "altim": 1010.6,
      "slp": 1010.7,
      "rawOb": "KGRR 270153Z 18003KT 10SM BKN220 10/M03 A2984 RMK AO2 SLP107 T01001033"
    },
    "geometry": {
      "type": "Point",
      "coordinates": [-85.520,42.880]
    } 
  },
  { "type": "Feature",
    "properties": {
      "id": "KMSY",
      "site": "New Orleans/Armstron",
      "prior": "2",
      "obsTime": "2018-04-27T01:53:00Z",
      "temp": 19.4,
      "dewp": 12.2,
      "wspd": 9,
      "wdir": 350,
      "cover": "FEW",
      "visib": 10.00,
      "fltcat": "VFR",
      "altim": 1013.6,
      "slp": 1013.6,
      "rawOb": "KMSY 270153Z 35009KT 10SM FEW020 19/12 A2993 RMK AO2 SLP136 T01940122"
    },
    "geometry": {
      "type": "Point",
      "coordinates": [-90.259,29.991]
    } 
  },
  { "type": "Feature",
    "properties": {
      "id": "KBGR",
      "site": "Bangor Intl Arpt",
      "prior": "2",
      "obsTime": "2018-04-27T01:53:00Z",
      "temp": 10.6,
      "dewp": 10.0,
      "wspd": 3,
      "wdir": 260,
      "cover": "SCT",
      "visib": 10.00,
      "fltcat": "VFR",
      "altim": 1004.8,
      "slp": 1004.6,
      "rawOb": "KBGR 270153Z 26003KT 10SM SCT026 11/10 A2967 RMK AO2 SLP046 T01060100"
    },
    "geometry": {
      "type": "Point",
      "coordinates": [-68.830,44.808]
    } 
  },
  { "type": "Feature",
    "properties": {
      "id": "KBFL",
      "site": "Bakersfield/Meadows",
      "prior": "2",
      "obsTime": "2018-04-27T01:54:00Z",
      "temp": 29.4,
      "dewp": 9.4,
      "wspd": 8,
      "wdir": 310,
      "cover": "CLR",
      "visib": 10.00,
      "fltcat": "VFR",
      "altim": 1010.6,
      "slp": 1009.8,
      "rawOb": "KBFL 270154Z 31008KT 10SM CLR 29/09 A2984 RMK AO2 SLP098 T02940094"
    },
    "geometry": {
      "type": "Point",
      "coordinates": [-119.058,35.435]
    } 
  },
  { "type": "Feature",
    "properties": {
      "id": "KTCC",
      "site": "Tucumcari Muni",
      "prior": "2",
      "obsTime": "2018-04-27T01:53:00Z",
      "temp": 16.1,
      "dewp": -2.8,
      "wspd": 12,
      "wdir": 50,
      "cover": "CLR",
      "visib": 10.00,
      "fltcat": "VFR",
      "altim": 1021.8,
      "slp": 1017.8,
      "rawOb": "KTCC 270153Z AUTO 05012KT 10SM CLR 16/M03 A3017 RMK AO2 PK WND 04026/0056 SLP178 T01611028"
    },
    "geometry": {
      "type": "Point",
      "coordinates": [-103.604,35.182]
    } 
  },
  { "type": "Feature",
    "properties": {
      "id": "KRNO",
      "site": "Reno/Tahoe Intl",
      "prior": "2",
      "obsTime": "2018-04-27T01:55:00Z",
      "temp": 22.8,
      "dewp": 0.6,
      "wspd": 25,
      "wgst": 37,
      "wdir": 190,
      "ceil": 110,
      "cover": "BKN",
      "visib": 10.00,
      "fltcat": "VFR",
      "altim": 1014.6,
      "slp": 1010.8,
      "wx": "-RA",
      "rawOb": "KRNO 270155Z 19025G37KT 10SM -RA SCT065 BKN110 BKN200 23/01 A2996 RMK AO2 PK WND 21041/0057 LTG DSNT SW RAB00E09B46 SLP108 CB DSNT SW AND NW MOV N P0000 T02280006"
    },
    "geometry": {
      "type": "Point",
      "coordinates": [-119.770,39.500]
    } 
  },
  { "type": "Feature",
    "properties": {
      "id": "KPUB",
      "site": "Pueblo Mem Arpt",
      "prior": "2",
      "obsTime": "2018-04-27T01:53:00Z",
      "temp": 13.3,
      "dewp": -5.0,
      "wspd": 5,
      "wdir": 80,
      "cover": "CLR",
      "visib": 10.00,
      "fltcat": "VFR",
      "altim": 1023.8,
      "slp": 1020.9,
      "rawOb": "KPUB 270153Z AUTO 08005KT 10SM CLR 13/M05 A3023 RMK AO2 SLP209 T01331050"
    },
    "geometry": {
      "type": "Point",
      "coordinates": [-104.494,38.286]
    } 
  },
  { "type": "Feature",
    "properties": {
      "id": "KLBB",
      "site": "Lubbock Intl Arpt",
      "prior": "2",
      "obsTime": "2018-04-27T01:53:00Z",
      "temp": 17.8,
      "dewp": -1.1,
      "wspd": 21,
      "wgst": 31,
      "wdir": 360,
      "cover": "FEW",
      "visib": 10.00,
      "fltcat": "VFR",
      "altim": 1018.4,
      "slp": 1015.5,
      "rawOb": "KLBB 270153Z 36021G31KT 10SM FEW120 FEW250 18/M01 A3007 RMK AO2 PK WND 01034/0106 SLP155 T01781011"
    },
    "geometry": {
      "type": "Point",
      "coordinates": [-101.828,33.660]
    } 
  },
  { "type": "Feature",
    "properties": {
      "id": "KIND",
      "site": "Indianapolis Intl",
      "prior": "2",
      "obsTime": "2018-04-27T01:54:00Z",
      "temp": 12.8,
      "dewp": 1.1,
      "wspd": 6,
      "wdir": 320,
      "cover": "SCT",
      "visib": 10.00,
      "fltcat": "VFR",
      "altim": 1011.3,
      "slp": 1011.1,
      "rawOb": "KIND 270154Z 32006KT 10SM SCT250 13/01 A2986 RMK AO2 SLP111 T01280011"
    },
    "geometry": {
      "type": "Point",
      "coordinates": [-86.292,39.720]
    } 
  },
  { "type": "Feature",
    "properties": {
      "id": "KFAR",
      "site": "Fargo/Hector Intl",
      "prior": "2",
      "obsTime": "2018-04-27T01:53:00Z",
      "temp": 11.1,
      "dewp": -1.1,
      "wspd": 9,
      "wdir": 190,
      "ceil": 120,
      "cover": "BKN",
      "visib": 10.00,
      "fltcat": "VFR",
      "altim": 1012.6,
      "slp": 1013.2,
      "rawOb": "KFAR 270153Z 19009KT 10SM BKN120 11/M01 A2990 RMK AO2 SLP132 T01111011"
    },
    "geometry": {
      "type": "Point",
      "coordinates": [-96.816,46.920]
    } 
  },
  { "type": "Feature",
    "properties": {
      "id": "KELY",
      "site": "Ely/Yelland Fld",
      "prior": "2",
      "obsTime": "2018-04-27T01:53:00Z",
      "temp": 20.6,
      "dewp": -7.2,
      "wspd": 7,
      "wdir": 120,
      "cover": "CLR",
      "visib": 10.00,
      "fltcat": "VFR",
      "altim": 1018.4,
      "slp": 1012.2,
      "rawOb": "KELY 270153Z AUTO 12007KT 10SM CLR 21/M07 A3007 RMK AO2 SLP122 T02061072"
    },
    "geometry": {
      "type": "Point",
      "coordinates": [-114.838,39.300]
    } 
  },
  { "type": "Feature",
    "properties": {
      "id": "KDLH",
      "site": "Duluth Intl Arpt",
      "prior": "2",
      "obsTime": "2018-04-27T01:55:00Z",
      "temp": 8.9,
      "dewp": -6.1,
      "wspd": 5,
      "wdir": 320,
      "cover": "FEW",
      "visib": 10.00,
      "fltcat": "VFR",
      "altim": 1012.3,
      "slp": 1013.1,
      "rawOb": "KDLH 270155Z 32005KT 10SM FEW075 09/M06 A2989 RMK AO2 SLP131 T00891061"
    },
    "geometry": {
      "type": "Point",
      "coordinates": [-92.191,46.841]
    } 
  },
  { "type": "Feature",
    "properties": {
      "id": "KCYS",
      "site": "Cheyenne Rgnl",
      "prior": "2",
      "obsTime": "2018-04-27T01:53:00Z",
      "temp": 9.4,
      "dewp": -2.2,
      "wspd": 3,
      "wdir": 50,
      "cover": "CLR",
      "visib": 10.00,
      "fltcat": "VFR",
      "altim": 1024.1,
      "slp": 1021.5,
      "rawOb": "KCYS 270153Z 05003KT 10SM CLR 09/M02 A3024 RMK AO2 SLP215 T00941022"
    },
    "geometry": {
      "type": "Point",
      "coordinates": [-104.814,41.155]
    } 
  },
  { "type": "Feature",
    "properties": {
      "id": "MUCM",
      "site": "Camaguey/Agramonte A",
      "prior": "2",
      "obsTime": "2018-04-27T01:50:00Z",
      "temp": 22.0,
      "dewp": 19.0,
      "wspd": 6,
      "wdir": 110,
      "cover": "SCT",
      "visib": 5.59,
      "fltcat": "VFR",
      "altim": 1016.0,
      "rawOb": "MUCM 270150Z 11006KT 9000 SCT020 22/19 Q1016"
    },
    "geometry": {
      "type": "Point",
      "coordinates": [-77.847,21.420]
    } 
  },
  { "type": "Feature",
    "properties": {
      "id": "KBTV",
      "site": "Burlington Intl",
      "prior": "2",
      "obsTime": "2018-04-27T01:54:00Z",
      "temp": 10.6,
      "dewp": 5.6,
      "wspd": 5,
      "wdir": 240,
      "ceil": 36,
      "cover": "OVC",
      "visib": 10.00,
      "fltcat": "VFR",
      "altim": 1009.2,
      "slp": 1009.4,
      "rawOb": "KBTV 270154Z 24005KT 10SM SCT029 BKN036 OVC047 11/06 A2980 RMK AO2 SLP094 T01060056"
    },
    "geometry": {
      "type": "Point",
      "coordinates": [-73.152,44.473]
    } 
  },
  { "type": "Feature",
    "properties": {
      "id": "KBIL",
      "site": "Billings/Logan Intl",
      "prior": "2",
      "obsTime": "2018-04-27T01:53:00Z",
      "temp": 18.3,
      "dewp": -3.9,
      "wspd": 6,
      "wdir": 220,
      "cover": "CLR",
      "visib": 10.00,
      "fltcat": "VFR",
      "altim": 1019.0,
      "slp": 1018.7,
      "rawOb": "KBIL 270153Z 22006KT 10SM CLR 18/M04 A3009 RMK AO2 SLP187 T01831039"
    },
    "geometry": {
      "type": "Point",
      "coordinates": [-108.538,45.807]
    } 
  },
  { "type": "Feature",
    "properties": {
      "id": "KINW",
      "site": "Winslow/Lindberg Rgn",
      "prior": "2",
      "obsTime": "2018-04-27T01:56:00Z",
      "temp": 26.7,
      "dewp": -8.9,
      "wspd": 3,
      "wdir": 10,
      "cover": "CLR",
      "visib": 10.00,
      "fltcat": "VFR",
      "altim": 1015.7,
      "slp": 1010.1,
      "rawOb": "KINW 270156Z AUTO 01003KT 10SM CLR 27/M09 A2999 RMK AO2 SLP101 T02671089"
    },
    "geometry": {
      "type": "Point",
      "coordinates": [-110.721,35.022]
    } 
  },
  { "type": "Feature",
    "properties": {
      "id": "KICT",
      "site": "Wichita/Mid Continen",
      "prior": "2",
      "obsTime": "2018-04-27T01:53:00Z",
      "temp": 15.6,
      "dewp": 6.7,
      "wspd": 4,
      "wdir": 300,
      "cover": "SCT",
      "visib": 10.00,
      "fltcat": "VFR",
      "altim": 1016.3,
      "slp": 1016.1,
      "rawOb": "KICT 270153Z 30004KT 10SM FEW130 SCT150 SCT200 16/07 A3001 RMK AO2 SLP161 T01560067 $"
    },
    "geometry": {
      "type": "Point",
      "coordinates": [-97.430,37.653]
    } 
  },
  { "type": "Feature",
    "properties": {
      "id": "KTUL",
      "site": "Tulsa Intl Arpt",
      "prior": "2",
      "obsTime": "2018-04-27T01:53:00Z",
      "temp": 15.6,
      "dewp": 8.3,
      "wspd": 5,
      "wdir": 120,
      "ceil": 200,
      "cover": "BKN",
      "visib": 10.00,
      "fltcat": "VFR",
      "altim": 1016.0,
      "slp": 1015.6,
      "rawOb": "KTUL 270153Z 12005KT 10SM FEW100 BKN200 16/08 A3000 RMK AO2 SLP156 T01560083"
    },
    "geometry": {
      "type": "Point",
      "coordinates": [-95.884,36.195]
    } 
  },
  { "type": "Feature",
    "properties": {
      "id": "KSHR",
      "site": "Sheridan Cnty Arpt",
      "prior": "2",
      "obsTime": "2018-04-27T01:53:00Z",
      "temp": 10.6,
      "dewp": 4.4,
      "wspd": 3,
      "wdir": 260,
      "cover": "CLR",
      "visib": 10.00,
      "fltcat": "VFR",
      "altim": 1020.4,
      "slp": 1020.1,
      "rawOb": "KSHR 270153Z AUTO 26003KT 10SM CLR 11/04 A3013 RMK AO2 SLP201 T01060044"
    },
    "geometry": {
      "type": "Point",
      "coordinates": [-106.977,44.774]
    } 
  },
  { "type": "Feature",
    "properties": {
      "id": "KRAP",
      "site": "Rapid City Rgnl",
      "prior": "2",
      "obsTime": "2018-04-27T01:52:00Z",
      "temp": 12.2,
      "dewp": 0.0,
      "wspd": 3,
      "wdir": 160,
      "cover": "CLR",
      "visib": 10.00,
      "fltcat": "VFR",
      "altim": 1019.4,
      "slp": 1019.5,
      "rawOb": "KRAP 270152Z 16003KT 10SM CLR 12/00 A3010 RMK AO2 SLP195 T01220000 $"
    },
    "geometry": {
      "type": "Point",
      "coordinates": [-103.057,44.042]
    } 
  },
  { "type": "Feature",
    "properties": {
      "id": "KGJT",
      "site": "Grand Junction Rgnl",
      "prior": "2",
      "obsTime": "2018-04-27T01:53:00Z",
      "temp": 20.6,
      "dewp": -6.1,
      "wspd": 8,
      "wdir": 50,
      "cover": "CLR",
      "visib": 10.00,
      "fltcat": "VFR",
      "altim": 1018.4,
      "slp": 1013.8,
      "rawOb": "KGJT 270153Z 05008KT 10SM CLR 21/M06 A3007 RMK AO2 SLP138 T02061061"
    },
    "geometry": {
      "type": "Point",
      "coordinates": [-108.528,39.126]
    } 
  },
  { "type": "Feature",
    "properties": {
      "id": "KGLD",
      "site": "Goodland/Renner Fld",
      "prior": "2",
      "obsTime": "2018-04-27T01:53:00Z",
      "temp": 7.8,
      "dewp": 0.0,
      "wspd": 7,
      "wdir": 340,
      "cover": "CLR",
      "visib": 10.00,
      "fltcat": "VFR",
      "altim": 1022.4,
      "slp": 1021.6,
      "rawOb": "KGLD 270153Z AUTO 34007KT 10SM CLR 08/00 A3019 RMK AO2 SLP216 T00780000"
    },
    "geometry": {
      "type": "Point",
      "coordinates": [-101.700,39.370]
    } 
  },
  { "type": "Feature",
    "properties": {
      "id": "KBHM",
      "site": "Birmingham Intl",
      "prior": "2",
      "obsTime": "2018-04-27T02:14:00Z",
      "temp": 14.4,
      "dewp": 13.3,
      "wspd": 3,
      "wdir": 270,
      "ceil": 21,
      "cover": "OVC",
      "visib": 10.00,
      "fltcat": "MVFR",
      "altim": 1012.3,
      "rawOb": "KBHM 270214Z 27003KT 10SM SCT013 OVC021 14/13 A2989 RMK AO2 T01440133"
    },
    "geometry": {
      "type": "Point",
      "coordinates": [-86.750,33.565]
    } 
  },
  { "type": "Feature",
    "properties": {
      "id": "KABI",
      "site": "Abilene Rgnl",
      "prior": "2",
      "obsTime": "2018-04-27T01:52:00Z",
      "temp": 17.8,
      "dewp": 6.7,
      "wspd": 7,
      "wdir": 140,
      "cover": "CLR",
      "visib": 10.00,
      "fltcat": "VFR",
      "altim": 1014.0,
      "slp": 1012.7,
      "rawOb": "KABI 270152Z 14007KT 10SM CLR 18/07 A2994 RMK AO2 SLP127 T01780067"
    },
    "geometry": {
      "type": "Point",
      "coordinates": [-99.680,32.409]
    } 
  },
  { "type": "Feature",
    "properties": {
      "id": "KILM",
      "site": "Wilmington Intl",
      "prior": "2",
      "obsTime": "2018-04-27T01:53:00Z",
      "temp": 18.3,
      "dewp": 13.9,
      "wspd": 5,
      "wdir": 190,
      "cover": "CLR",
      "visib": 10.00,
      "fltcat": "VFR",
      "altim": 1010.9,
      "slp": 1010.8,
      "rawOb": "KILM 270153Z 19005KT 10SM CLR 18/14 A2985 RMK AO2 SLP108 T01830139 $"
    },
    "geometry": {
      "type": "Point",
      "coordinates": [-77.903,34.268]
    } 
  },
  { "type": "Feature",
    "properties": {
      "id": "KTPA",
      "site": "Tampa Intl Arpt",
      "prior": "2",
      "obsTime": "2018-04-27T01:53:00Z",
      "temp": 22.2,
      "dewp": 16.7,
      "wspd": 7,
      "wdir": 220,
      "cover": "FEW",
      "visib": 10.00,
      "fltcat": "VFR",
      "altim": 1013.6,
      "slp": 1013.4,
      "rawOb": "KTPA 270153Z 22007KT 10SM FEW025 22/17 A2993 RMK AO2 SLP134 T02220167"
    },
    "geometry": {
      "type": "Point",
      "coordinates": [-82.535,27.976]
    } 
  },
  { "type": "Feature",
    "properties": {
      "id": "KSGF",
      "site": "Springfield Muni",
      "prior": "2",
      "obsTime": "2018-04-27T01:52:00Z",
      "temp": 13.9,
      "dewp": 8.9,
      "wspd": 5,
      "wdir": 240,
      "ceil": 50,
      "cover": "OVC",
      "visib": 10.00,
      "fltcat": "VFR",
      "altim": 1015.3,
      "slp": 1015.0,
      "rawOb": "KSGF 270152Z 24005KT 10SM OVC050 14/09 A2998 RMK AO2 SLP150 T01390089"
    },
    "geometry": {
      "type": "Point",
      "coordinates": [-93.388,37.245]
    } 
  },
  { "type": "Feature",
    "properties": {
      "id": "KSHV",
      "site": "Shreveport Rgnl",
      "prior": "2",
      "obsTime": "2018-04-27T01:56:00Z",
      "temp": 13.9,
      "dewp": 11.1,
      "wspd": 0,
      "wdir": 0,
      "cover": "FEW",
      "visib": 10.00,
      "fltcat": "VFR",
      "altim": 1014.6,
      "slp": 1014.5,
      "rawOb": "KSHV 270156Z 00000KT 10SM FEW050 FEW260 14/11 A2996 RMK AO2 SLP145 T01390111"
    },
    "geometry": {
      "type": "Point",
      "coordinates": [-93.828,32.447]
    } 
  },
  { "type": "Feature",
    "properties": {
      "id": "KMSN",
      "site": "Madison/Dane Cnty Rg",
      "prior": "2",
      "obsTime": "2018-04-27T01:53:00Z",
      "temp": 13.3,
      "dewp": 1.1,
      "wspd": 0,
      "wdir": 0,
      "ceil": 230,
      "cover": "BKN",
      "visib": 10.00,
      "fltcat": "VFR",
      "altim": 1008.2,
      "slp": 1008.4,
      "rawOb": "KMSN 270153Z 00000KT 10SM SCT120 BKN230 13/01 A2977 RMK AO2 SLP084 T01330011"
    },
    "geometry": {
      "type": "Point",
      "coordinates": [-89.341,43.136]
    } 
  },
  { "type": "Feature",
    "properties": {
      "id": "KIAH",
      "site": "Houston/Bush Intl",
      "prior": "2",
      "obsTime": "2018-04-27T01:53:00Z",
      "temp": 19.4,
      "dewp": 10.6,
      "wspd": 4,
      "wdir": 10,
      "cover": "FEW",
      "visib": 10.00,
      "fltcat": "VFR",
      "altim": 1014.0,
      "slp": 1013.9,
      "rawOb": "KIAH 270153Z 01004KT 10SM FEW250 19/11 A2994 RMK AO2 SLP139 T01940106"
    },
    "geometry": {
      "type": "Point",
      "coordinates": [-95.350,29.981]
    } 
  },
  { "type": "Feature",
    "properties": {
      "id": "KHVR",
      "site": "Havre/City Arpt",
      "prior": "2",
      "obsTime": "2018-04-27T01:53:00Z",
      "temp": 20.6,
      "dewp": -2.2,
      "wspd": 8,
      "wdir": 360,
      "cover": "CLR",
      "visib": 10.00,
      "fltcat": "VFR",
      "altim": 1017.0,
      "slp": 1017.0,
      "rawOb": "KHVR 270153Z AUTO 36008KT 10SM CLR 21/M02 A3003 RMK AO2 SLP170 T02061022"
    },
    "geometry": {
      "type": "Point",
      "coordinates": [-109.763,48.544]
    } 
  },
  { "type": "Feature",
    "properties": {
      "id": "CYYR",
      "site": "Goose Bay Arpt",
      "prior": "2",
      "obsTime": "2018-04-27T02:00:00Z",
      "temp": 4.0,
      "dewp": 4.0,
      "wspd": 8,
      "wdir": 50,
      "ceil": 19,
      "cover": "OVC",
      "visib": 10.00,
      "fltcat": "MVFR",
      "altim": 1004.1,
      "slp": 1004.4,
      "wx": "-RA",
      "rawOb": "CYYR 270200Z 05008KT 10SM -RA FEW004 OVC019 04/04 A2965 RMK SF1SC8 PRESFR SLP044"
    },
    "geometry": {
      "type": "Point",
      "coordinates": [-60.411,53.320]
    } 
  },
  { "type": "Feature",
    "properties": {
      "id": "CYVR",
      "site": "Vancouver Intl",
      "prior": "2",
      "obsTime": "2018-04-27T02:00:00Z",
      "temp": 16.0,
      "dewp": 10.0,
      "wspd": 7,
      "wdir": 300,
      "cover": "SKC",
      "visib": 30.00,
      "fltcat": "VFR",
      "altim": 1012.6,
      "slp": 1012.5,
      "rawOb": "CYVR 270200Z 30007KT 30SM SKC 16/10 A2990 RMK SLP125 DENSITY ALT 200FT"
    },
    "geometry": {
      "type": "Point",
      "coordinates": [-123.181,49.195]
    } 
  },
  { "type": "Feature",
    "properties": {
      "id": "KSMF",
      "site": "Sacramento Intl",
      "prior": "2",
      "obsTime": "2018-04-27T01:53:00Z",
      "temp": 19.4,
      "dewp": 10.0,
      "wspd": 13,
      "wdir": 170,
      "cover": "CLR",
      "visib": 10.00,
      "fltcat": "VFR",
      "altim": 1011.3,
      "slp": 1011.0,
      "rawOb": "KSMF 270153Z 17013KT 10SM CLR 19/10 A2986 RMK AO2 SLP110 T01940100"
    },
    "geometry": {
      "type": "Point",
      "coordinates": [-121.591,38.696]
    } 
  },
  { "type": "Feature",
    "properties": {
      "id": "CYQB",
      "site": "Quebec/Lesage Intl",
      "prior": "2",
      "obsTime": "2018-04-27T02:00:00Z",
      "temp": 8.0,
      "dewp": 8.0,
      "wspd": 11,
      "wdir": 250,
      "ceil": 4,
      "cover": "OVC",
      "visib": 8.00,
      "fltcat": "LIFR",
      "altim": 1003.5,
      "slp": 1003.7,
      "wx": "-RA",
      "rawOb": "CYQB 270200Z 25011KT 8SM -RA BKN004 OVC086 08/08 A2963 RMK SF6AC2 SLP037"
    },
    "geometry": {
      "type": "Point",
      "coordinates": [-71.389,46.788]
    } 
  },
  { "type": "Feature",
    "properties": {
      "id": "CYEG",
      "site": "Edmonton Intl Arpt",
      "prior": "2",
      "obsTime": "2018-04-27T02:00:00Z",
      "temp": 16.0,
      "dewp": 1.0,
      "wspd": 6,
      "wdir": 40,
      "cover": "FEW",
      "visib": 15.00,
      "fltcat": "VFR",
      "altim": 1018.0,
      "slp": 1019.3,
      "rawOb": "CYEG 270200Z 04006KT 15SM FEW280 16/01 A3006 RMK CI1 SLP193 DENSITY ALT 3000FT"
    },
    "geometry": {
      "type": "Point",
      "coordinates": [-113.588,53.308]
    } 
  },
  { "type": "Feature",
    "properties": {
      "id": "KAPN",
      "site": "Alpena Cnty Rgnl",
      "prior": "2",
      "obsTime": "2018-04-27T01:54:00Z",
      "temp": 2.8,
      "dewp": 1.1,
      "wspd": 0,
      "wdir": 0,
      "cover": "CLR",
      "visib": 10.00,
      "fltcat": "VFR",
      "altim": 1009.9,
      "slp": 1010.3,
      "rawOb": "KAPN 270154Z AUTO 00000KT 10SM CLR 03/01 A2982 RMK AO2 SLP103 T00280011"
    },
    "geometry": {
      "type": "Point",
      "coordinates": [-83.561,45.083]
    } 
  },
  { "type": "Feature",
    "properties": {
      "id": "CYKL",
      "site": "Schefferville Arpt",
      "prior": "2",
      "obsTime": "2018-04-27T02:13:00Z",
      "temp": 2.0,
      "dewp": 2.0,
      "wspd": 4,
      "wdir": 330,
      "ceil": 3,
      "cover": "OVX",
      "visib": 0.38,
      "fltcat": "LIFR",
      "altim": 998.7,
      "slp": 1001.0,
      "wx": "-RA FG",
      "rawOb": "CYKL 270213Z AUTO 33004KT 3/8SM -RA FG VV003 02/02 A2949 RMK SLP010"
    },
    "geometry": {
      "type": "Point",
      "coordinates": [-66.805,54.805]
    } 
  },
  { "type": "Feature",
    "properties": {
      "id": "CYGL",
      "site": "La Grande Riviere Ar",
      "prior": "2",
      "obsTime": "2018-04-27T02:00:00Z",
      "temp": -2.0,
      "dewp": -2.0,
      "wspd": 8,
      "wdir": 360,
      "ceil": 5,
      "cover": "OVC",
      "visib": 2.00,
      "fltcat": "IFR",
      "altim": 1004.5,
      "slp": 1005.6,
      "wx": "-SN",
      "rawOb": "CYGL 270200Z 36008KT 2SM -SN OVC005 M02/M02 A2966 RMK SF8 SLP056"
    },
    "geometry": {
      "type": "Point",
      "coordinates": [-77.705,53.625]
    } 
  },
  { "type": "Feature",
    "properties": {
      "id": "KEVV",
      "site": "Evansville Rgnl",
      "prior": "2",
      "obsTime": "2018-04-27T01:54:00Z",
      "temp": 13.9,
      "dewp": 4.4,
      "wspd": 5,
      "wdir": 280,
      "cover": "CLR",
      "visib": 10.00,
      "fltcat": "VFR",
      "altim": 1011.9,
      "slp": 1011.9,
      "rawOb": "KEVV 270154Z 28005KT 10SM CLR 14/04 A2988 RMK AO2 SLP119 T01390044"
    },
    "geometry": {
      "type": "Point",
      "coordinates": [-87.527,38.040]
    } 
  },
  { "type": "Feature",
    "properties": {
      "id": "CYYQ",
      "site": "Churchill Arpt",
      "prior": "2",
      "obsTime": "2018-04-27T02:00:00Z",
      "temp": -10.0,
      "dewp": -12.0,
      "wspd": 5,
      "wdir": 50,
      "cover": "SCT",
      "visib": 15.00,
      "fltcat": "VFR",
      "altim": 1019.4,
      "slp": 1019.7,
      "rawOb": "CYYQ 270200Z 05005KT 15SM FEW020 FEW200 SCT250 M10/M12 A3010 RMK SC1CS2CI1 SC TR SLP197"
    },
    "geometry": {
      "type": "Point",
      "coordinates": [-94.081,58.750]
    } 
  },
  { "type": "Feature",
    "properties": {
      "id": "KTLH",
      "site": "Tallahassee Intl",
      "prior": "2",
      "obsTime": "2018-04-27T01:53:00Z",
      "temp": 20.6,
      "dewp": 13.9,
      "wspd": 6,
      "wdir": 230,
      "cover": "SCT",
      "visib": 10.00,
      "fltcat": "VFR",
      "altim": 1010.9,
      "slp": 1010.5,
      "rawOb": "KTLH 270153Z 23006KT 10SM FEW040 SCT250 21/14 A2985 RMK AO2 SLP105 T02060139"
    },
    "geometry": {
      "type": "Point",
      "coordinates": [-84.355,30.394]
    } 
  },
  { "type": "Feature",
    "properties": {
      "id": "KMSO",
      "site": "Missoula Intl",
      "prior": "2",
      "obsTime": "2018-04-27T01:53:00Z",
      "temp": 22.8,
      "dewp": 2.2,
      "wspd": 0,
      "wdir": 0,
      "cover": "CLR",
      "visib": 10.00,
      "fltcat": "VFR",
      "altim": 1016.7,
      "slp": 1016.0,
      "rawOb": "KMSO 270153Z 00000KT 10SM CLR 23/02 A3002 RMK AO2 SLP160 T02280022"
    },
    "geometry": {
      "type": "Point",
      "coordinates": [-114.094,46.917]
    } 
  },
  { "type": "Feature",
    "properties": {
      "id": "KFAT",
      "site": "Fresno Air Terminal",
      "prior": "2",
      "obsTime": "2018-04-27T01:53:00Z",
      "temp": 28.9,
      "dewp": 8.3,
      "wspd": 5,
      "wdir": 340,
      "cover": "CLR",
      "visib": 10.00,
      "fltcat": "VFR",
      "altim": 1010.6,
      "slp": 1010.2,
      "rawOb": "KFAT 270153Z 34005KT 10SM CLR 29/08 A2984 RMK AO2 SLP102 MTNS PTLY OBSC HZ DSNT N-E-SE T02890083"
    },
    "geometry": {
      "type": "Point",
      "coordinates": [-119.717,36.776]
    } 
  },
  { "type": "Feature",
    "properties": {
      "id": "KCRP",
      "site": "Corpus Christi Intl",
      "prior": "2",
      "obsTime": "2018-04-27T01:51:00Z",
      "temp": 18.3,
      "dewp": 12.8,
      "wspd": 6,
      "wdir": 160,
      "cover": "SCT",
      "visib": 10.00,
      "fltcat": "VFR",
      "altim": 1014.0,
      "slp": 1013.9,
      "rawOb": "KCRP 270151Z 16006KT 10SM SCT250 18/13 A2994 RMK AO2 SLP139 T01830128"
    },
    "geometry": {
      "type": "Point",
      "coordinates": [-97.505,27.770]
    } 
  },
  { "type": "Feature",
    "properties": {
      "id": "KWMC",
      "site": "Winnemucca Muni",
      "prior": "2",
      "obsTime": "2018-04-27T01:56:00Z",
      "temp": 25.0,
      "dewp": -3.9,
      "wspd": 5,
      "wdir": 60,
      "cover": "CLR",
      "visib": 10.00,
      "fltcat": "VFR",
      "altim": 1014.0,
      "slp": 1010.2,
      "rawOb": "KWMC 270156Z AUTO 06005KT 10SM CLR 25/M04 A2994 RMK AO2 SLP102 T02501039"
    },
    "geometry": {
      "type": "Point",
      "coordinates": [-117.807,40.899]
    } 
  },
  { "type": "Feature",
    "properties": {
      "id": "KISN",
      "site": "Williston/Sloulin Fl",
      "prior": "2",
      "obsTime": "2018-04-27T01:52:00Z",
      "temp": 15.6,
      "dewp": 0.0,
      "wspd": 7,
      "wdir": 270,
      "cover": "CLR",
      "visib": 10.00,
      "fltcat": "VFR",
      "altim": 1014.0,
      "slp": 1014.5,
      "rawOb": "KISN 270152Z AUTO 27007KT 10SM CLR 16/00 A2994 RMK AO2 SLP145 T01560000"
    },
    "geometry": {
      "type": "Point",
      "coordinates": [-103.640,48.177]
    } 
  },
  { "type": "Feature",
    "properties": {
      "id": "CYSJ",
      "site": "Saint John Arpt",
      "prior": "2",
      "obsTime": "2018-04-27T02:00:00Z",
      "temp": 6.0,
      "dewp": 6.0,
      "wspd": 14,
      "wgst": 23,
      "wdir": 210,
      "ceil": 1,
      "cover": "OVX",
      "visib": 0.50,
      "fltcat": "LIFR",
      "altim": 1003.5,
      "slp": 1003.8,
      "wx": "FG",
      "rawOb": "CYSJ 270200Z 21014G23KT 1/2SM R23/2800V4000FT/D FG VV001 06/06 A2963 RMK FG8 SLP038"
    },
    "geometry": {
      "type": "Point",
      "coordinates": [-65.884,45.322]
    } 
  },
  { "type": "Feature",
    "properties": {
      "id": "KCLE",
      "site": "Cleveland/Hopkins In",
      "prior": "2",
      "obsTime": "2018-04-27T01:51:00Z",
      "temp": 9.4,
      "dewp": 0.6,
      "wspd": 5,
      "wdir": 110,
      "cover": "SCT",
      "visib": 10.00,
      "fltcat": "VFR",
      "altim": 1012.6,
      "slp": 1012.9,
      "rawOb": "KCLE 270151Z 11005KT 10SM SCT250 09/01 A2990 RMK AO2 SLP129 T00940006 $"
    },
    "geometry": {
      "type": "Point",
      "coordinates": [-81.850,41.410]
    } 
  },
  { "type": "Feature",
    "properties": {
      "id": "KSPW",
      "site": "Spencer Muni",
      "prior": "2",
      "obsTime": "2018-04-27T01:53:00Z",
      "temp": 8.3,
      "dewp": 1.7,
      "wspd": 7,
      "wdir": 330,
      "cover": "CLR",
      "visib": 10.00,
      "fltcat": "VFR",
      "altim": 1016.3,
      "slp": 1016.6,
      "rawOb": "KSPW 270153Z AUTO 33007KT 10SM CLR 08/02 A3001 RMK AO2 SLP166 T00830017"
    },
    "geometry": {
      "type": "Point",
      "coordinates": [-95.202,43.165]
    } 
  },
  { "type": "Feature",
    "properties": {
      "id": "KPIT",
      "site": "Pittsburgh Intl",
      "prior": "2",
      "obsTime": "2018-04-27T01:51:00Z",
      "temp": 13.3,
      "dewp": 2.8,
      "wspd": 0,
      "wdir": 0,
      "ceil": 160,
      "cover": "OVC",
      "visib": 10.00,
      "fltcat": "VFR",
      "altim": 1011.6,
      "slp": 1012.4,
      "rawOb": "KPIT 270151Z 00000KT 10SM BKN160 OVC220 13/03 A2987 RMK AO2 SLP124 T01330028"
    },
    "geometry": {
      "type": "Point",
      "coordinates": [-80.243,40.495]
    } 
  },
  { "type": "Feature",
    "properties": {
      "id": "KPIA",
      "site": "Peoria Intl",
      "prior": "2",
      "obsTime": "2018-04-27T01:54:00Z",
      "temp": 16.1,
      "dewp": 0.0,
      "wspd": 3,
      "wdir": 220,
      "cover": "CLR",
      "visib": 8.00,
      "fltcat": "VFR",
      "altim": 1011.3,
      "slp": 1011.0,
      "rawOb": "KPIA 270154Z 22003KT 8SM CLR 16/00 A2986 RMK AO2 SLP110 T01610000"
    },
    "geometry": {
      "type": "Point",
      "coordinates": [-89.689,40.661]
    } 
  },
  { "type": "Feature",
    "properties": {
      "id": "KOMA",
      "site": "Omaha/Eppley Fld",
      "prior": "2",
      "obsTime": "2018-04-27T01:52:00Z",
      "temp": 13.3,
      "dewp": -2.2,
      "wspd": 12,
      "wdir": 340,
      "cover": "CLR",
      "visib": 10.00,
      "fltcat": "VFR",
      "altim": 1017.0,
      "slp": 1016.8,
      "rawOb": "KOMA 270152Z 34012KT 10SM CLR 13/M02 A3003 RMK AO2 SLP168 T01331022"
    },
    "geometry": {
      "type": "Point",
      "coordinates": [-95.897,41.303]
    } 
  },
  { "type": "Feature",
    "properties": {
      "id": "KGRB",
      "site": "Green Bay/Straubel I",
      "prior": "2",
      "obsTime": "2018-04-27T01:53:00Z",
      "temp": 13.9,
      "dewp": 5.6,
      "wspd": 0,
      "wdir": 0,
      "cover": "FEW",
      "visib": 10.00,
      "fltcat": "VFR",
      "altim": 1007.5,
      "slp": 1007.8,
      "rawOb": "KGRB 270153Z 00000KT 10SM FEW100 14/06 A2975 RMK AO2 SLP078 T01390056"
    },
    "geometry": {
      "type": "Point",
      "coordinates": [-88.131,44.486]
    } 
  },
  { "type": "Feature",
    "properties": {
      "id": "KCSG",
      "site": "Columbus Arpt",
      "prior": "2",
      "obsTime": "2018-04-27T01:51:00Z",
      "temp": 16.7,
      "dewp": 13.9,
      "wspd": 3,
      "wdir": 360,
      "ceil": 48,
      "cover": "BKN",
      "visib": 10.00,
      "fltcat": "VFR",
      "altim": 1010.9,
      "slp": 1010.4,
      "rawOb": "KCSG 270151Z AUTO 36003KT 10SM BKN048 BKN055 17/14 A2985 RMK AO2 SLP104 T01670139"
    },
    "geometry": {
      "type": "Point",
      "coordinates": [-84.938,32.516]
    } 
  },
  { "type": "Feature",
    "properties": {
      "id": "KCAE",
      "site": "Columbia Metro",
      "prior": "2",
      "obsTime": "2018-04-27T01:56:00Z",
      "temp": 17.2,
      "dewp": 15.6,
      "wspd": 6,
      "wdir": 150,
      "ceil": 85,
      "cover": "OVC",
      "visib": 10.00,
      "fltcat": "VFR",
      "altim": 1009.9,
      "slp": 1009.7,
      "wx": "-RA",
      "rawOb": "KCAE 270156Z 15006KT 10SM -RA OVC085 17/16 A2982 RMK AO2 SLP097 P0001 T01720156"
    },
    "geometry": {
      "type": "Point",
      "coordinates": [-81.120,33.940]
    } 
  },
  { "type": "Feature",
    "properties": {
      "id": "CWKW",
      "site": "Cape Kakkiviak",
      "prior": "2",
      "obsTime": "2018-04-27T02:00:00Z",
      "altim": 1001.8,
      "rawOb": "CWKW 270200Z AUTO ///// A2958"
    },
    "geometry": {
      "type": "Point",
      "coordinates": [-64.170,59.980]
    } 
  },
  { "type": "Feature",
    "properties": {
      "id": "KBLH",
      "site": "Blythe Arpt",
      "prior": "2",
      "obsTime": "2018-04-27T01:52:00Z",
      "temp": 35.6,
      "dewp": 0.6,
      "wspd": 13,
      "wdir": 240,
      "cover": "CLR",
      "visib": 10.00,
      "fltcat": "VFR",
      "altim": 1006.9,
      "slp": 1006.0,
      "rawOb": "KBLH 270152Z AUTO 24013KT 10SM CLR 36/01 A2973 RMK AO2 SLP060 T03560006"
    },
    "geometry": {
      "type": "Point",
      "coordinates": [-114.717,33.617]
    } 
  },
  { "type": "Feature",
    "properties": {
      "id": "KALB",
      "site": "Albany Intl",
      "prior": "2",
      "obsTime": "2018-04-27T01:51:00Z",
      "temp": 7.8,
      "dewp": 3.3,
      "wspd": 5,
      "wdir": 130,
      "cover": "FEW",
      "visib": 10.00,
      "fltcat": "VFR",
      "altim": 1012.6,
      "slp": 1012.8,
      "rawOb": "KALB 270151Z 13005KT 10SM FEW024 FEW032 08/03 A2990 RMK AO2 SLP128 T00780033"
    },
    "geometry": {
      "type": "Point",
      "coordinates": [-73.806,42.748]
    } 
  },
  { "type": "Feature",
    "properties": {
      "id": "CYVO",
      "site": "Val DOr Arpt",
      "prior": "2",
      "obsTime": "2018-04-27T02:00:00Z",
      "temp": 7.0,
      "dewp": -6.0,
      "wspd": 5,
      "wdir": 210,
      "cover": "FEW",
      "visib": 15.00,
      "fltcat": "VFR",
      "altim": 1004.8,
      "slp": 1006.4,
      "rawOb": "CYVO 270200Z 21005KT 15SM FEW260 07/M06 A2967 RMK CI2 LAST STFD OBS/NEXT 271000UTC SLP064"
    },
    "geometry": {
      "type": "Point",
      "coordinates": [-77.783,48.054]
    } 
  },
  { "type": "Feature",
    "properties": {
      "id": "KTPH",
      "site": "Tonopah Arpt",
      "prior": "2",
      "obsTime": "2018-04-27T01:56:00Z",
      "temp": 25.6,
      "dewp": -8.3,
      "wspd": 14,
      "wdir": 200,
      "cover": "CLR",
      "visib": 10.00,
      "fltcat": "VFR",
      "altim": 1015.3,
      "slp": 1008.7,
      "rawOb": "KTPH 270156Z AUTO 20014KT 10SM CLR 26/M08 A2998 RMK AO2 SLP087 T02561083"
    },
    "geometry": {
      "type": "Point",
      "coordinates": [-117.088,38.057]
    } 
  },
  { "type": "Feature",
    "properties": {
      "id": "KFMN",
      "site": "Farmington/Four Corn",
      "prior": "2",
      "obsTime": "2018-04-27T01:53:00Z",
      "temp": 21.1,
      "dewp": -15.0,
      "wspd": 9,
      "wdir": 280,
      "cover": "CLR",
      "visib": 10.00,
      "fltcat": "VFR",
      "altim": 1016.7,
      "slp": 1012.8,
      "rawOb": "KFMN 270153Z 28009KT 10SM CLR 21/M15 A3002 RMK AO2 SLP128 T02111150"
    },
    "geometry": {
      "type": "Point",
      "coordinates": [-108.229,36.741]
    } 
  },
  { "type": "Feature",
    "properties": {
      "id": "KCMH",
      "site": "Columbus Intl",
      "prior": "2",
      "obsTime": "2018-04-27T01:51:00Z",
      "temp": 14.4,
      "dewp": 6.1,
      "wspd": 4,
      "wdir": 50,
      "ceil": 250,
      "cover": "OVC",
      "visib": 10.00,
      "fltcat": "VFR",
      "altim": 1010.9,
      "slp": 1010.7,
      "rawOb": "KCMH 270151Z 05004KT 10SM FEW060 FEW130 OVC250 14/06 A2985 RMK AO2 SLP107 T01440061"
    },
    "geometry": {
      "type": "Point",
      "coordinates": [-82.891,39.998]
    } 
  },
  { "type": "Feature",
    "properties": {
      "id": "CYBQ",
      "site": "Tadoule Lake Arpt",
      "prior": "2",
      "obsTime": "2018-04-27T02:00:00Z",
      "temp": -3.0,
      "dewp": -8.0,
      "wspd": 4,
      "wdir": 100,
      "cover": "CLR",
      "visib": 9.00,
      "fltcat": "VFR",
      "altim": 1016.0,
      "slp": 1018.4,
      "rawOb": "CYBQ 270200Z AUTO 10004KT 9SM CLR M03/M08 A3000 RMK SLP184"
    },
    "geometry": {
      "type": "Point",
      "coordinates": [-98.512,58.706]
    } 
  },
  { "type": "Feature",
    "properties": {
      "id": "CYYN",
      "site": "Swift Current Arpt",
      "prior": "2",
      "obsTime": "2018-04-27T02:00:00Z",
      "temp": 14.0,
      "dewp": -1.0,
      "wspd": 9,
      "wdir": 350,
      "cover": "CLR",
      "visib": 9.00,
      "fltcat": "VFR",
      "altim": 1016.7,
      "slp": 1017.7,
      "rawOb": "CYYN 270200Z AUTO 35009KT 9SM CLR 14/M01 A3002 RMK SLP177 DENSITY ALT 3100FT"
    },
    "geometry": {
      "type": "Point",
      "coordinates": [-107.687,50.291]
    } 
  },
  { "type": "Feature",
    "properties": {
      "id": "CYYD",
      "site": "Smithers Arpt",
      "prior": "2",
      "obsTime": "2018-04-27T02:00:00Z",
      "temp": 21.0,
      "dewp": 3.0,
      "wspd": 5,
      "wdir": 270,
      "cover": "FEW",
      "visib": 25.00,
      "fltcat": "VFR",
      "altim": 1013.6,
      "slp": 1014.5,
      "rawOb": "CYYD 270200Z 27005KT 25SM FEW230 21/03 A2993 RMK CI2 SLP145 DENSITY ALT 2900FT"
    },
    "geometry": {
      "type": "Point",
      "coordinates": [-127.182,54.824]
    } 
  },
  { "type": "Feature",
    "properties": {
      "id": "CYOJ",
      "site": "High Level Arpt",
      "prior": "2",
      "obsTime": "2018-04-27T02:00:00Z",
      "temp": 17.0,
      "dewp": -2.0,
      "wspd": 5,
      "wdir": 300,
      "cover": "FEW",
      "visib": 15.00,
      "fltcat": "VFR",
      "altim": 1016.0,
      "slp": 1017.1,
      "rawOb": "CYOJ 270200Z 30005KT 270V360 15SM FEW260 17/M02 A3000 RMK CI1 SLP171 DENSITY ALT 1600FT"
    },
    "geometry": {
      "type": "Point",
      "coordinates": [-117.162,58.619]
    } 
  },
  { "type": "Feature",
    "properties": {
      "id": "CYMM",
      "site": "Fort McMurray Arpt",
      "prior": "2",
      "obsTime": "2018-04-27T02:00:00Z",
      "temp": 13.0,
      "dewp": -5.0,
      "wspd": 9,
      "wdir": 110,
      "cover": "CLR",
      "visib": 9.00,
      "fltcat": "VFR",
      "altim": 1019.0,
      "slp": 1020.2,
      "rawOb": "CYMM 270200Z AUTO 11009KT 9SM CLR 13/M05 A3009 RMK SLP202"
    },
    "geometry": {
      "type": "Point",
      "coordinates": [-111.223,56.654]
    } 
  },
  { "type": "Feature",
    "properties": {
      "id": "KELP",
      "site": "El Paso Intl",
      "prior": "2",
      "obsTime": "2018-04-27T01:51:00Z",
      "temp": 27.2,
      "dewp": -5.0,
      "wspd": 4,
      "wdir": 90,
      "ceil": 250,
      "cover": "BKN",
      "visib": 10.00,
      "fltcat": "VFR",
      "altim": 1014.6,
      "slp": 1008.5,
      "rawOb": "KELP 270151Z 09004KT 10SM FEW130 BKN250 27/M05 A2996 RMK AO2 SLP085 T02721050"
    },
    "geometry": {
      "type": "Point",
      "coordinates": [-106.387,31.805]
    } 
  },
  { "type": "Feature",
    "properties": {
      "id": "CYMT",
      "site": "Chibougamau Arpt",
      "prior": "2",
      "obsTime": "2018-04-27T02:00:00Z",
      "temp": 3.0,
      "dewp": -2.0,
      "wspd": 4,
      "wdir": 270,
      "cover": "CLR",
      "visib": 9.00,
      "fltcat": "VFR",
      "altim": 1003.1,
      "slp": 1004.7,
      "rawOb": "CYMT 270200Z AUTO 27004KT 9SM CLR 03/M02 A2962 RMK SLP047"
    },
    "geometry": {
      "type": "Point",
      "coordinates": [-74.537,49.773]
    } 
  },
  { "type": "Feature",
    "properties": {
      "id": "KCGI",
      "site": "Cape Girardeau Rgnl",
      "prior": "2",
      "obsTime": "2018-04-27T01:53:00Z",
      "temp": 13.9,
      "dewp": 8.3,
      "wspd": 0,
      "wdir": 0,
      "cover": "CLR",
      "visib": 10.00,
      "fltcat": "VFR",
      "altim": 1013.0,
      "slp": 1012.6,
      "rawOb": "KCGI 270153Z AUTO 00000KT 10SM CLR 14/08 A2991 RMK AO2 SLP126 T01390083"
    },
    "geometry": {
      "type": "Point",
      "coordinates": [-89.571,37.224]
    } 
  },
  { "type": "Feature",
    "properties": {
      "id": "KYKM",
      "site": "Yakima Air Term/McAl",
      "prior": "2",
      "obsTime": "2018-04-27T01:53:00Z",
      "temp": 26.7,
      "dewp": 1.7,
      "wspd": 4,
      "wdir": 140,
      "cover": "CLR",
      "visib": 10.00,
      "fltcat": "VFR",
      "altim": 1013.6,
      "slp": 1013.3,
      "rawOb": "KYKM 270153Z 14004KT 10SM CLR 27/02 A2993 RMK AO2 SLP133 T02670017"
    },
    "geometry": {
      "type": "Point",
      "coordinates": [-120.540,46.568]
    } 
  },
  { "type": "Feature",
    "properties": {
      "id": "KVTN",
      "site": "Valentine/Miller Fld",
      "prior": "2",
      "obsTime": "2018-04-27T01:52:00Z",
      "temp": 13.3,
      "dewp": -1.7,
      "wspd": 5,
      "wdir": 330,
      "cover": "CLR",
      "visib": 10.00,
      "fltcat": "VFR",
      "altim": 1019.7,
      "slp": 1019.6,
      "rawOb": "KVTN 270152Z AUTO 33005KT 10SM CLR 13/M02 A3011 RMK AO2 SLP196 T01331017"
    },
    "geometry": {
      "type": "Point",
      "coordinates": [-100.549,42.859]
    } 
  },
  { "type": "Feature",
    "properties": {
      "id": "CYSF",
      "site": "Stony Rapids Arpt",
      "prior": "2",
      "obsTime": "2018-04-27T02:00:00Z",
      "temp": 6.0,
      "dewp": -1.0,
      "wspd": 3,
      "wdir": 260,
      "ceil": 75,
      "cover": "OVC",
      "visib": 9.00,
      "fltcat": "VFR",
      "altim": 1017.0,
      "slp": 1018.4,
      "rawOb": "CYSF 270200Z AUTO 26003KT 9SM SCT049 OVC075 06/M01 A3003 RMK SLP184"
    },
    "geometry": {
      "type": "Point",
      "coordinates": [-105.838,59.251]
    } 
  },
  { "type": "Feature",
    "properties": {
      "id": "CYQR",
      "site": "Regina Intl Arpt",
      "prior": "2",
      "obsTime": "2018-04-27T02:00:00Z",
      "temp": 16.0,
      "dewp": -1.0,
      "wspd": 13,
      "wgst": 21,
      "wdir": 360,
      "cover": "FEW",
      "visib": 12.00,
      "fltcat": "VFR",
      "altim": 1014.6,
      "slp": 1015.9,
      "rawOb": "CYQR 270200Z 36013G21KT 12SM FEW290 16/M01 A2996 RMK CI1 CI TR FU SLP159 DENSITY ALT 2400FT"
    },
    "geometry": {
      "type": "Point",
      "coordinates": [-104.661,50.432]
    } 
  },
  { "type": "Feature",
    "properties": {
      "id": "KPIH",
      "site": "Pocatello Muni",
      "prior": "2",
      "obsTime": "2018-04-27T01:53:00Z",
      "temp": 18.9,
      "dewp": -1.1,
      "wspd": 5,
      "wdir": 40,
      "cover": "CLR",
      "visib": 8.00,
      "fltcat": "VFR",
      "altim": 1019.0,
      "slp": 1016.8,
      "rawOb": "KPIH 270153Z 04005KT 8SM CLR 19/M01 A3009 RMK AO2 SLP168 T01891011"
    },
    "geometry": {
      "type": "Point",
      "coordinates": [-112.590,42.910]
    } 
  },
  { "type": "Feature",
    "properties": {
      "id": "CYMO",
      "site": "Moosonee Arpt",
      "prior": "2",
      "obsTime": "2018-04-27T02:00:00Z",
      "temp": -5.0,
      "dewp": -6.0,
      "wspd": 6,
      "wgst": 15,
      "wdir": 330,
      "ceil": 14,
      "cover": "OVC",
      "visib": 7.00,
      "fltcat": "MVFR",
      "altim": 1010.6,
      "slp": 1010.6,
      "wx": "-SN",
      "rawOb": "CYMO 270200Z AUTO 33006G15KT 7SM -SN BKN014 OVC036 M05/M06 A2984 RMK SLP106"
    },
    "geometry": {
      "type": "Point",
      "coordinates": [-80.610,51.290]
    } 
  },
  { "type": "Feature",
    "properties": {
      "id": "CYQU",
      "site": "Grande Prairie Arpt",
      "prior": "2",
      "obsTime": "2018-04-27T02:00:00Z",
      "temp": 15.0,
      "dewp": 3.0,
      "wspd": 5,
      "wdir": 360,
      "cover": "FEW",
      "visib": 25.00,
      "fltcat": "VFR",
      "altim": 1017.4,
      "slp": 1018.9,
      "rawOb": "CYQU 270200Z 36005KT 25SM FEW210 15/03 A3004 RMK CI2 SLP189 DENSITY ALT 2700FT"
    },
    "geometry": {
      "type": "Point",
      "coordinates": [-118.880,55.180]
    } 
  },
  { "type": "Feature",
    "properties": {
      "id": "CYPA",
      "site": "Prince Albert Arpt",
      "prior": "2",
      "obsTime": "2018-04-27T02:00:00Z",
      "temp": 13.0,
      "dewp": -6.0,
      "wspd": 13,
      "wgst": 21,
      "wdir": 350,
      "cover": "SKC",
      "visib": 15.00,
      "fltcat": "VFR",
      "altim": 1016.7,
      "slp": 1018.0,
      "rawOb": "CYPA 270200Z 35013G21KT 15SM SKC 13/M06 A3002 RMK SLP180"
    },
    "geometry": {
      "type": "Point",
      "coordinates": [-105.676,53.218]
    } 
  },
  { "type": "Feature",
    "properties": {
      "id": "CYNA",
      "site": "Natashquan Arpt",
      "prior": "2",
      "obsTime": "2018-04-27T02:27:00Z",
      "temp": 3.0,
      "dewp": 3.0,
      "wspd": 19,
      "wgst": 28,
      "wdir": 160,
      "ceil": 2,
      "cover": "OVC",
      "visib": 2.25,
      "fltcat": "LIFR",
      "altim": 999.7,
      "slp": 999.8,
      "wx": "BR",
      "rawOb": "CYNA 270227Z AUTO 16019G28KT 2 1/4SM BR OVC002 03/03 A2952 RMK SLP998"
    },
    "geometry": {
      "type": "Point",
      "coordinates": [-61.789,50.190]
    } 
  },
  { "type": "Feature",
    "properties": {
      "id": "CYYE",
      "site": "Fort Nelson Arpt",
      "prior": "2",
      "obsTime": "2018-04-27T02:00:00Z",
      "temp": 18.0,
      "dewp": 0.0,
      "wspd": 4,
      "wdir": 120,
      "ceil": 170,
      "cover": "BKN",
      "visib": 30.00,
      "fltcat": "VFR",
      "altim": 1014.6,
      "slp": 1015.8,
      "rawOb": "CYYE 270200Z 12004KT 100V190 30SM BKN170 18/M00 A2996 RMK AC6 SLP158 DENSITY ALT 1900FT"
    },
    "geometry": {
      "type": "Point",
      "coordinates": [-122.596,58.838]
    } 
  },
  { "type": "Feature",
    "properties": {
      "id": "KBOS",
      "site": "Boston/Logan Intl",
      "prior": "2",
      "obsTime": "2018-04-27T01:54:00Z",
      "temp": 12.8,
      "dewp": 5.0,
      "wspd": 11,
      "wdir": 280,
      "cover": "FEW",
      "visib": 10.00,
      "fltcat": "VFR",
      "altim": 1010.2,
      "slp": 1010.1,
      "rawOb": "KBOS 270154Z 28011KT 10SM FEW050 FEW140 13/05 A2983 RMK AO2 SLP101 T01280050"
    },
    "geometry": {
      "type": "Point",
      "coordinates": [-71.006,42.364]
    } 
  },
  { "type": "Feature",
    "properties": {
      "id": "CYQT",
      "site": "Thunder Bay Intl",
      "prior": "2",
      "obsTime": "2018-04-27T02:00:00Z",
      "temp": 4.0,
      "dewp": -3.0,
      "wspd": 2,
      "wdir": 0,
      "ceil": 180,
      "cover": "BKN",
      "visib": 15.00,
      "fltcat": "VFR",
      "altim": 1012.6,
      "slp": 1013.5,
      "rawOb": "CYQT 270200Z VRB02KT 15SM SCT060 BKN180 BKN250 04/M03 A2990 RMK SC3AC2CI1 SLP135"
    },
    "geometry": {
      "type": "Point",
      "coordinates": [-89.325,48.371]
    } 
  },
  { "type": "Feature",
    "properties": {
      "id": "CYSB",
      "site": "Sudbury Arpt",
      "prior": "2",
      "obsTime": "2018-04-27T02:00:00Z",
      "temp": 6.0,
      "dewp": -4.0,
      "wspd": 7,
      "wdir": 240,
      "ceil": 220,
      "cover": "BKN",
      "visib": 15.00,
      "fltcat": "VFR",
      "altim": 1007.5,
      "slp": 1008.6,
      "rawOb": "CYSB 270200Z 24007KT 15SM BKN220 06/M04 A2975 RMK CI6 SLP086"
    },
    "geometry": {
      "type": "Point",
      "coordinates": [-80.798,46.627]
    } 
  },
  { "type": "Feature",
    "properties": {
      "id": "KMFR",
      "site": "Medford/Roque Valley",
      "prior": "2",
      "obsTime": "2018-04-27T01:53:00Z",
      "temp": 26.1,
      "dewp": 8.3,
      "wspd": 14,
      "wgst": 22,
      "wdir": 300,
      "cover": "CLR",
      "visib": 10.00,
      "fltcat": "VFR",
      "altim": 1007.9,
      "slp": 1006.8,
      "rawOb": "KMFR 270153Z 30014G22KT 10SM CLR 26/08 A2976 RMK AO2 SLP068 T02610083"
    },
    "geometry": {
      "type": "Point",
      "coordinates": [-122.874,42.374]
    } 
  },
  { "type": "Feature",
    "properties": {
      "id": "KLND",
      "site": "Lander/Hunt Fld",
      "prior": "2",
      "obsTime": "2018-04-27T01:53:00Z",
      "temp": 12.8,
      "dewp": -5.0,
      "wspd": 6,
      "wdir": 70,
      "cover": "CLR",
      "visib": 10.00,
      "fltcat": "VFR",
      "altim": 1022.1,
      "slp": 1019.7,
      "rawOb": "KLND 270153Z AUTO 07006KT 10SM CLR 13/M05 A3018 RMK AO2 SLP197 T01281050"
    },
    "geometry": {
      "type": "Point",
      "coordinates": [-108.728,42.816]
    } 
  },
  { "type": "Feature",
    "properties": {
      "id": "CYPH",
      "site": "Inukjuak Arpt",
      "prior": "2",
      "obsTime": "2018-04-27T02:00:00Z",
      "temp": -18.0,
      "dewp": -21.0,
      "wspd": 11,
      "wdir": 360,
      "cover": "CLR",
      "visib": 9.00,
      "fltcat": "VFR",
      "altim": 1013.6,
      "slp": 1014.1,
      "rawOb": "CYPH 270200Z AUTO 36011KT 9SM CLR M18/M21 A2993 RMK SLP141"
    },
    "geometry": {
      "type": "Point",
      "coordinates": [-78.078,58.471]
    } 
  },
  { "type": "Feature",
    "properties": {
      "id": "CWEQ",
      "site": "Swan River Arpt",
      "prior": "2",
      "obsTime": "2018-04-27T02:00:00Z",
      "temp": 13.2,
      "dewp": -4.9,
      "wspd": 16,
      "wgst": 23,
      "wdir": 320,
      "slp": 1012.3,
      "rawOb": "CWEQ 270200Z AUTO 32016G23KT 13/M05 RMK AO1 PK WND 34026/0107 SLP123 T01321049 53020"
    },
    "geometry": {
      "type": "Point",
      "coordinates": [-101.235,52.121]
    } 
  },
  { "type": "Feature",
    "properties": {
      "id": "KPDX",
      "site": "Portland Intl Arpt",
      "prior": "2",
      "obsTime": "2018-04-27T01:53:00Z",
      "temp": 25.0,
      "dewp": 10.0,
      "wspd": 7,
      "wdir": 350,
      "cover": "FEW",
      "visib": 10.00,
      "fltcat": "VFR",
      "altim": 1009.6,
      "slp": 1009.5,
      "rawOb": "KPDX 270153Z 35007KT 10SM FEW300 25/10 A2981 RMK AO2 SLP095 T02500100"
    },
    "geometry": {
      "type": "Point",
      "coordinates": [-122.596,45.590]
    } 
  },
  { "type": "Feature",
    "properties": {
      "id": "KBNO",
      "site": "Burns Muni",
      "prior": "2",
      "obsTime": "2018-04-27T01:53:00Z",
      "temp": 21.1,
      "dewp": -3.3,
      "wspd": 10,
      "wdir": 40,
      "cover": "CLR",
      "visib": 10.00,
      "fltcat": "VFR",
      "altim": 1016.0,
      "slp": 1014.0,
      "rawOb": "KBNO 270153Z AUTO 04010KT 10SM CLR 21/M03 A3000 RMK AO2 SLP140 T02111033"
    },
    "geometry": {
      "type": "Point",
      "coordinates": [-118.955,43.591]
    } 
  },
  { "type": "Feature",
    "properties": {
      "id": "CYBC",
      "site": "Baie Comeau Arpt",
      "prior": "2",
      "obsTime": "2018-04-27T02:28:00Z",
      "temp": 2.0,
      "dewp": 2.0,
      "wspd": 9,
      "wdir": 240,
      "ceil": 2,
      "cover": "OVC",
      "visib": 2.25,
      "fltcat": "LIFR",
      "altim": 997.0,
      "slp": 997.2,
      "wx": "-RA BR",
      "rawOb": "CYBC 270228Z AUTO 24009KT 2 1/4SM -RA BR BKN002 OVC006 02/02 A2944 RMK SLP972"
    },
    "geometry": {
      "type": "Point",
      "coordinates": [-68.202,49.133]
    } 
  },
  { "type": "Feature",
    "properties": {
      "id": "CYQL",
      "site": "Lethbridge Cnty Arpt",
      "prior": "2",
      "obsTime": "2018-04-27T02:00:00Z",
      "temp": 18.0,
      "dewp": -1.0,
      "wspd": 8,
      "wdir": 80,
      "cover": "FEW",
      "visib": 60.00,
      "fltcat": "VFR",
      "altim": 1017.4,
      "slp": 1018.1,
      "rawOb": "CYQL 270200Z 08008KT 60SM FEW300 18/M01 A3004 RMK CI2 SLP181 DENSITY ALT 4000FT"
    },
    "geometry": {
      "type": "Point",
      "coordinates": [-112.795,49.629]
    } 
  },
  { "type": "Feature",
    "properties": {
      "id": "CYAH",
      "site": "La Grande IV Arpt",
      "prior": "2",
      "obsTime": "2018-04-27T02:00:00Z",
      "temp": 2.0,
      "dewp": -3.0,
      "wspd": 0,
      "wdir": 0,
      "cover": "SCT",
      "visib": 9.00,
      "fltcat": "VFR",
      "altim": 1001.4,
      "slp": 1003.0,
      "rawOb": "CYAH 270200Z AUTO 00000KT 9SM SCT110 SCT140 02/M03 A2957 RMK ICG MISG SLP030"
    },
    "geometry": {
      "type": "Point",
      "coordinates": [-73.677,53.754]
    } 
  },
  { "type": "Feature",
    "properties": {
      "id": "KSAW",
      "site": "Sawyer AFB",
      "prior": "2",
      "obsTime": "2018-04-27T02:19:00Z",
      "temp": 2.1,
      "dewp": -0.4,
      "wspd": 9,
      "wdir": 360,
      "ceil": 65,
      "cover": "OVC",
      "visib": 10.00,
      "fltcat": "VFR",
      "altim": 1011.3,
      "rawOb": "KSAW 270219Z AUTO 36009KT 10SM BKN065 OVC080 02/00 A2986 RMK AO2 T00211004"
    },
    "geometry": {
      "type": "Point",
      "coordinates": [-87.396,46.351]
    } 
  },
  { "type": "Feature",
    "properties": {
      "id": "KPIR",
      "site": "Pierre Muni",
      "prior": "2",
      "obsTime": "2018-04-27T01:53:00Z",
      "temp": 14.4,
      "dewp": -2.8,
      "wspd": 4,
      "wdir": 290,
      "cover": "CLR",
      "visib": 10.00,
      "fltcat": "VFR",
      "altim": 1017.0,
      "slp": 1016.9,
      "rawOb": "KPIR 270153Z AUTO 29004KT 10SM CLR 14/M03 A3003 RMK AO2 SLP169 T01441028"
    },
    "geometry": {
      "type": "Point",
      "coordinates": [-100.288,44.380]
    } 
  },
  { "type": "Feature",
    "properties": {
      "id": "KTUS",
      "site": "Tucson Intl Arpt",
      "prior": "2",
      "obsTime": "2018-04-27T01:53:00Z",
      "temp": 30.6,
      "dewp": -4.4,
      "wspd": 10,
      "wdir": 330,
      "cover": "CLR",
      "visib": 10.00,
      "fltcat": "VFR",
      "altim": 1011.6,
      "slp": 1007.3,
      "rawOb": "KTUS 270153Z 33010KT 10SM CLR 31/M04 A2987 RMK AO2 SLP073 T03061044"
    },
    "geometry": {
      "type": "Point",
      "coordinates": [-110.940,32.120]
    } 
  },
  { "type": "Feature",
    "properties": {
      "id": "CWSA",
      "site": "Sable Island",
      "prior": "2",
      "obsTime": "2018-04-27T02:00:00Z",
      "temp": 10.0,
      "dewp": 10.0,
      "wspd": 21,
      "wgst": 28,
      "wdir": 170,
      "ceil": 3,
      "cover": "OVX",
      "visib": 0.50,
      "fltcat": "LIFR",
      "altim": 1013.0,
      "slp": 1012.8,
      "wx": "-RA FG",
      "rawOb": "CWSA 270200Z AUTO 17021G28KT 1/2SM -RA FG VV003 10/10 A2991 RMK TS/LTNG TEMPO UNAVBL SLP128"
    },
    "geometry": {
      "type": "Point",
      "coordinates": [-60.009,43.932]
    } 
  },
  { "type": "Feature",
    "properties": {
      "id": "KTYS",
      "site": "Knoxville/Tyson Arpt",
      "prior": "2",
      "obsTime": "2018-04-27T02:13:00Z",
      "temp": 11.7,
      "dewp": 11.1,
      "wspd": 6,
      "wdir": 10,
      "ceil": 55,
      "cover": "OVC",
      "visib": 10.00,
      "fltcat": "VFR",
      "altim": 1011.3,
      "wx": "-RA",
      "rawOb": "KTYS 270213Z 01006KT 10SM -RA FEW021 SCT030 OVC055 12/11 A2986 RMK AO2 P0000 T01170111"
    },
    "geometry": {
      "type": "Point",
      "coordinates": [-83.994,35.812]
    } 
  },
  { "type": "Feature",
    "properties": {
      "id": "CYQI",
      "site": "Yarmouth Arpt",
      "prior": "2",
      "obsTime": "2018-04-27T02:22:00Z",
      "temp": 7.0,
      "dewp": 7.0,
      "wspd": 14,
      "wgst": 23,
      "wdir": 220,
      "ceil": 3,
      "cover": "OVX",
      "visib": 0.50,
      "fltcat": "LIFR",
      "altim": 1006.9,
      "slp": 1007.1,
      "wx": "FG",
      "rawOb": "CYQI 270222Z 22014G23KT 1/2SM FG VV003 07/07 A2973 RMK FG8 SLP071"
    },
    "geometry": {
      "type": "Point",
      "coordinates": [-66.084,43.830]
    } 
  },
  { "type": "Feature",
    "properties": {
      "id": "KEYW",
      "site": "Key West Intl",
      "prior": "2",
      "obsTime": "2018-04-27T01:53:00Z",
      "temp": 26.1,
      "dewp": 21.1,
      "wspd": 11,
      "wdir": 180,
      "cover": "SCT",
      "visib": 10.00,
      "fltcat": "VFR",
      "altim": 1014.0,
      "slp": 1013.7,
      "rawOb": "KEYW 270153Z AUTO 18011KT 10SM FEW016 SCT023 26/21 A2994 RMK AO2 SLP137 T02610211"
    },
    "geometry": {
      "type": "Point",
      "coordinates": [-81.759,24.555]
    } 
  },
  { "type": "Feature",
    "properties": {
      "id": "CWJW",
      "site": "Jasper/Warden(AUTO)",
      "prior": "2",
      "obsTime": "2018-04-27T02:00:00Z",
      "temp": 20.7,
      "dewp": -3.6,
      "wspd": 4,
      "wdir": 250,
      "slp": 1017.8,
      "rawOb": "CWJW 270200Z AUTO 25004KT 21/M04 RMK AO1 SOG 03 6000 SLP178 T02071036"
    },
    "geometry": {
      "type": "Point",
      "coordinates": [-118.030,52.926]
    } 
  },
  { "type": "Feature",
    "properties": {
      "id": "KAMA",
      "site": "Amarillo Intl Arpt",
      "prior": "2",
      "obsTime": "2018-04-27T01:53:00Z",
      "temp": 13.3,
      "dewp": 1.7,
      "wspd": 12,
      "wdir": 10,
      "cover": "CLR",
      "visib": 10.00,
      "fltcat": "VFR",
      "altim": 1020.7,
      "slp": 1018.6,
      "rawOb": "KAMA 270153Z 01012KT 10SM CLR 13/02 A3014 RMK AO2 PK WND 36027/0109 SLP186 T01330017"
    },
    "geometry": {
      "type": "Point",
      "coordinates": [-101.710,35.223]
    } 
  },
  { "type": "Feature",
    "properties": {
      "id": "KGRI",
      "site": "Grand Island Rgnl",
      "prior": "2",
      "obsTime": "2018-04-27T01:53:00Z",
      "temp": 10.0,
      "dewp": -1.7,
      "wspd": 5,
      "wdir": 350,
      "cover": "CLR",
      "visib": 10.00,
      "fltcat": "VFR",
      "altim": 1019.7,
      "slp": 1020.4,
      "rawOb": "KGRI 270153Z AUTO 35005KT 10SM CLR 10/M02 A3011 RMK AO2 SLP204 T01001017"
    },
    "geometry": {
      "type": "Point",
      "coordinates": [-98.314,40.969]
    } 
  },
  { "type": "Feature",
    "properties": {
      "id": "KDRT",
      "site": "Del Rio Intl",
      "prior": "2",
      "obsTime": "2018-04-27T01:53:00Z",
      "temp": 25.0,
      "dewp": 11.7,
      "wspd": 11,
      "wdir": 120,
      "cover": "CLR",
      "visib": 10.00,
      "fltcat": "VFR",
      "altim": 1011.3,
      "slp": 1009.7,
      "rawOb": "KDRT 270153Z AUTO 12011KT 10SM CLR 25/12 A2986 RMK AO2 SLP097 T02500117"
    },
    "geometry": {
      "type": "Point",
      "coordinates": [-100.926,29.372]
    } 
  },
  { "type": "Feature",
    "properties": {
      "id": "MYNN",
      "site": "Nassau Intl",
      "prior": "2",
      "obsTime": "2018-04-27T02:00:00Z",
      "temp": 27.0,
      "dewp": 23.0,
      "wspd": 0,
      "wdir": 0,
      "ceil": 200,
      "cover": "BKN",
      "visib": 6.21,
      "fltcat": "VFR",
      "altim": 1015.0,
      "rawOb": "MYNN 270200Z 00000KT 9999 FEW020 SCT040 BKN200 27/23 A2997"
    },
    "geometry": {
      "type": "Point",
      "coordinates": [-77.465,25.042]
    } 
  },
  { "type": "Feature",
    "properties": {
      "id": "KTCS",
      "site": "Truth or Consequence",
      "prior": "2",
      "obsTime": "2018-04-27T01:53:00Z",
      "temp": 26.7,
      "dewp": -6.7,
      "wspd": 6,
      "wdir": 170,
      "cover": "CLR",
      "visib": 10.00,
      "fltcat": "VFR",
      "altim": 1015.3,
      "slp": 1008.0,
      "rawOb": "KTCS 270153Z AUTO 17006KT 10SM CLR 27/M07 A2998 RMK AO2 SLP080 T02671067"
    },
    "geometry": {
      "type": "Point",
      "coordinates": [-107.270,33.234]
    } 
  },
  { "type": "Feature",
    "properties": {
      "id": "CYGX",
      "site": "Gillam Arpt",
      "prior": "2",
      "obsTime": "2018-04-27T02:00:00Z",
      "temp": -1.0,
      "dewp": -10.0,
      "wspd": 5,
      "wdir": 90,
      "ceil": 90,
      "cover": "OVC",
      "visib": 15.00,
      "fltcat": "VFR",
      "altim": 1015.0,
      "slp": 1016.3,
      "rawOb": "CYGX 270200Z 09005KT 040V120 15SM OVC090 M01/M10 A2997 RMK AS8 SLP163"
    },
    "geometry": {
      "type": "Point",
      "coordinates": [-94.711,56.357]
    } 
  },
  { "type": "Feature",
    "properties": {
      "id": "CWPK",
      "site": "Parent(MARS)",
      "prior": "2",
      "obsTime": "2018-04-27T02:00:00Z",
      "temp": 3.3,
      "dewp": 1.6,
      "wspd": 1,
      "wdir": 300,
      "slp": 1006.1,
      "rawOb": "CWPK 270200Z AUTO 30001KT 03/02 RMK AO1 SOG 38 1010 SLP061 T00330016"
    },
    "geometry": {
      "type": "Point",
      "coordinates": [-74.624,47.922]
    } 
  },
  { "type": "Feature",
    "properties": {
      "id": "CYTL",
      "site": "Big Trout Lake Arpt",
      "prior": "2",
      "obsTime": "2018-04-27T02:00:00Z",
      "temp": -3.0,
      "dewp": -9.0,
      "wspd": 2,
      "wdir": 0,
      "cover": "CLR",
      "visib": 7.00,
      "fltcat": "VFR",
      "altim": 1013.6,
      "slp": 1015.6,
      "rawOb": "CYTL 270200Z AUTO VRB02KT 7SM CLR M03/M09 A2993 RMK SLP156"
    },
    "geometry": {
      "type": "Point",
      "coordinates": [-89.898,53.818]
    } 
  },
  { "type": "Feature",
    "properties": {
      "id": "KMRF",
      "site": "Marfa Muni",
      "prior": "2",
      "obsTime": "2018-04-27T01:56:00Z",
      "temp": 19.4,
      "dewp": -3.9,
      "wspd": 8,
      "wdir": 340,
      "cover": "CLR",
      "visib": 10.00,
      "fltcat": "VFR",
      "altim": 1017.7,
      "slp": 1013.9,
      "rawOb": "KMRF 270156Z AUTO 34008KT 10SM CLR 19/M04 A3005 RMK AO2 SLP139 T01941039"
    },
    "geometry": {
      "type": "Point",
      "coordinates": [-104.016,30.370]
    } 
  },
  { "type": "Feature",
    "properties": {
      "id": "CYYL",
      "site": "Lynn Lake Arpt",
      "prior": "2",
      "obsTime": "2018-04-27T02:11:00Z",
      "temp": 0.0,
      "dewp": 0.0,
      "wspd": 4,
      "wdir": 30,
      "ceil": 19,
      "cover": "OVC",
      "visib": 9.00,
      "fltcat": "MVFR",
      "altim": 1015.7,
      "slp": 1018.0,
      "rawOb": "CYYL 270211Z AUTO 03004KT 9SM SCT013 OVC019 M00/M00 A2999 RMK SLP180"
    },
    "geometry": {
      "type": "Point",
      "coordinates": [-101.071,56.865]
    } 
  },
  { "type": "Feature",
    "properties": {
      "id": "CYIV",
      "site": "Island Lake Arpt",
      "prior": "2",
      "obsTime": "2018-04-27T02:00:00Z",
      "temp": 2.0,
      "dewp": -5.0,
      "wspd": 4,
      "wdir": 20,
      "ceil": 50,
      "cover": "OVC",
      "visib": 15.00,
      "fltcat": "VFR",
      "altim": 1011.9,
      "slp": 1013.5,
      "rawOb": "CYIV 270200Z 02004KT 15SM OVC050 02/M05 A2988 RMK SC8 SLP135"
    },
    "geometry": {
      "type": "Point",
      "coordinates": [-94.655,53.857]
    } 
  },
  { "type": "Feature",
    "properties": {
      "id": "CWCT",
      "site": "Coronation Arpt",
      "prior": "2",
      "obsTime": "2018-04-27T02:00:00Z",
      "temp": 15.3,
      "dewp": -0.7,
      "wspd": 8,
      "wdir": 360,
      "slp": 1019.7,
      "rawOb": "CWCT 270200Z AUTO 36008KT 15/M01 RMK AO1 SOG 02 8000 SLP197 T01531007"
    },
    "geometry": {
      "type": "Point",
      "coordinates": [-111.447,52.076]
    } 
  },
  { "type": "Feature",
    "properties": {
      "id": "CYRL",
      "site": "Red Lake Arpt",
      "prior": "2",
      "obsTime": "2018-04-27T02:00:00Z",
      "temp": 2.0,
      "dewp": 0.0,
      "wspd": 5,
      "wdir": 110,
      "ceil": 40,
      "cover": "OVC",
      "visib": 15.00,
      "fltcat": "VFR",
      "altim": 1011.6,
      "slp": 1013.4,
      "wx": "-RA",
      "rawOb": "CYRL 270200Z 11005KT 15SM -RA OVC040 02/00 A2987 RMK SC8 LAST STFD OBS/NEXT 270900 UTC SLP134"
    },
    "geometry": {
      "type": "Point",
      "coordinates": [-93.795,51.067]
    } 
  },
  { "type": "Feature",
    "properties": {
      "id": "MMPR",
      "site": "Puerto Vallarta Intl",
      "prior": "2",
      "obsTime": "2018-04-27T01:50:00Z",
      "temp": 24.0,
      "dewp": 22.0,
      "wspd": 0,
      "wdir": 0,
      "cover": "SKC",
      "visib": 15.00,
      "fltcat": "VFR",
      "altim": 1011.3,
      "rawOb": "MMPR 270150Z 00000KT 15SM SKC 24/22 A2986"
    },
    "geometry": {
      "type": "Point",
      "coordinates": [-105.252,20.682]
    } 
  },
  { "type": "Feature",
    "properties": {
      "id": "MMUN",
      "site": "Cancun Intl",
      "prior": "2",
      "obsTime": "2018-04-27T01:41:00Z",
      "temp": 23.0,
      "dewp": 21.0,
      "wspd": 8,
      "wdir": 170,
      "ceil": 15,
      "cover": "OVC",
      "visib": 4.00,
      "fltcat": "MVFR",
      "altim": 1012.3,
      "wx": "-RA",
      "rawOb": "MMUN 270141Z 17008KT 4SM -RA OVC015CB 23/21 A2989 RMK 60025 8/9// TSE40"
    },
    "geometry": {
      "type": "Point",
      "coordinates": [-86.869,21.038]
    } 
  },
  { "type": "Feature",
    "properties": {
      "id": "MMDO",
      "site": "Durango/Victoria Int",
      "prior": "2",
      "obsTime": "2018-04-27T01:42:00Z",
      "temp": 25.0,
      "dewp": -3.0,
      "wspd": 16,
      "wdir": 240,
      "ceil": 200,
      "cover": "BKN",
      "visib": 10.00,
      "fltcat": "VFR",
      "altim": 1018.7,
      "rawOb": "MMDO 270142Z 24016KT 10SM BKN200 25/M03 A3008 RMK 8/008 HZY ISOL SC"
    },
    "geometry": {
      "type": "Point",
      "coordinates": [-104.527,24.126]
    } 
  },
  { "type": "Feature",
    "properties": {
      "id": "MMMY",
      "site": "Monterrey Intl",
      "prior": "2",
      "obsTime": "2018-04-27T01:43:00Z",
      "temp": 21.0,
      "dewp": 15.0,
      "wspd": 13,
      "wdir": 100,
      "ceil": 30,
      "cover": "BKN",
      "visib": 15.00,
      "fltcat": "MVFR",
      "altim": 1014.0,
      "rawOb": "MMMY 270143Z 10013KT 15SM BKN030 BKN200 21/15 A2994 RMK 8/502"
    },
    "geometry": {
      "type": "Point",
      "coordinates": [-100.107,25.778]
    } 
  },
  { "type": "Feature",
    "properties": {
      "id": "MMAS",
      "site": "Aguascalientes Arpt",
      "prior": "2",
      "obsTime": "2018-04-27T01:48:00Z",
      "temp": 26.0,
      "dewp": -6.0,
      "wspd": 7,
      "wdir": 220,
      "cover": "SCT",
      "visib": 13.00,
      "fltcat": "VFR",
      "altim": 1018.7,
      "rawOb": "MMAS 270148Z 22007KT 13SM SCT050 26/M06 A3008 RMK 8/100"
    },
    "geometry": {
      "type": "Point",
      "coordinates": [-102.318,21.702]
    } 
  },
  { "type": "Feature",
    "properties": {
      "id": "MMLT",
      "site": "Loreto Intl",
      "prior": "2",
      "obsTime": "2018-04-27T00:40:00Z",
      "temp": 33.0,
      "dewp": 15.0,
      "wspd": 11,
      "wdir": 40,
      "ceil": 240,
      "cover": "BKN",
      "visib": 8.00,
      "fltcat": "VFR",
      "altim": 1009.6,
      "rawOb": "MMLT 270040Z 04011KT 8SM SCT150 BKN240 33/15 A2981 RMK 8/071 HZY"
    },
    "geometry": {
      "type": "Point",
      "coordinates": [-111.348,25.992]
    } 
  },
  { "type": "Feature",
    "properties": {
      "id": "MMMZ",
      "site": "Mazatlan/Buelna Intl",
      "prior": "2",
      "obsTime": "2018-04-27T01:40:00Z",
      "temp": 25.0,
      "dewp": 18.0,
      "wspd": 3,
      "wdir": 270,
      "cover": "SCT",
      "visib": 15.00,
      "fltcat": "VFR",
      "altim": 1010.6,
      "rawOb": "MMMZ 270140Z 27003KT 15SM SCT230 25/18 A2984 RMK 8/002"
    },
    "geometry": {
      "type": "Point",
      "coordinates": [-106.269,23.161]
    } 
  },
  { "type": "Feature",
    "properties": {
      "id": "MMCV",
      "site": "Ciudad Victoria Intl",
      "prior": "2",
      "obsTime": "2018-04-27T01:45:00Z",
      "temp": 20.0,
      "dewp": 20.0,
      "wspd": 0,
      "wdir": 0,
      "ceil": 70,
      "cover": "OVC",
      "visib": 4.00,
      "fltcat": "MVFR",
      "altim": 1014.6,
      "rawOb": "MMCV 270145Z 00000KT 4SM FEW001 SCT008 OVC070 20/20 A2996 RMK 8/72/ HZ BR CUFRA OVR RWY VSBY LWR 2 Y 3 QUAD"
    },
    "geometry": {
      "type": "Point",
      "coordinates": [-98.957,23.704]
    } 
  },
  { "type": "Feature",
    "properties": {
      "id": "MMCL",
      "site": "Culiacan/Bachigualat",
      "prior": "2",
      "obsTime": "2018-04-27T01:40:00Z",
      "temp": 27.0,
      "dewp": 18.0,
      "wspd": 5,
      "wdir": 190,
      "ceil": 250,
      "cover": "BKN",
      "visib": 10.00,
      "fltcat": "VFR",
      "altim": 1009.6,
      "rawOb": "MMCL 270140Z 19005KT 10SM BKN250 27/18 A2981 RMK 8/008 HZY"
    },
    "geometry": {
      "type": "Point",
      "coordinates": [-107.474,24.766]
    } 
  }]}
