{ "type": "FeatureCollection",
  "features": [
  { "type": "Feature",
    "properties": {
      "id": "KJFK",
      "site": "New York/Kennedy Int",
      "prior": "0",
      "obsTime": "2018-04-27T16:51:00Z",
      "temp": 11.1,
      "dewp": 10.0,
      "wspd": 9,
      "wdir": 90,
      "ceil": 28,
      "cover": "OVC",
      "visib": 10.00,
      "fltcat": "MVFR",
      "altim": 1008.9,
      "slp": 1008.9,
      "rawOb": "KJFK 271651Z 09009KT 10SM FEW011 BKN028 OVC075 11/10 A2979 RMK AO2 RAE22 SLP089 P0002 T01110100"
    },
    "geometry": {
      "type": "Point",
      "coordinates": [-73.785,40.644]
    } 
  },
  { "type": "Feature",
    "properties": {
      "id": "KMIA",
      "site": "Miami Intl",
      "prior": "0",
      "obsTime": "2018-04-27T16:53:00Z",
      "temp": 25.6,
      "dewp": 21.1,
      "wspd": 8,
      "wdir": 140,
      "ceil": 80,
      "cover": "OVC",
      "visib": 10.00,
      "fltcat": "VFR",
      "altim": 1013.0,
      "slp": 1012.7,
      "wx": "-RA",
      "rawOb": "KMIA 271653Z 14008KT 10SM -RA FEW035CB SCT050 BKN080 OVC300 26/21 A2991 RMK AO2 LTG DSNT SW RAB45 SLP127 CB NW MOV NE CB DSNT SE-SW MOV NE P0000 T02560211"
    },
    "geometry": {
      "type": "Point",
      "coordinates": [-80.283,25.795]
    } 
  },
  { "type": "Feature",
    "properties": {
      "id": "KLAX",
      "site": "Los Angeles Intl",
      "prior": "0",
      "obsTime": "2018-04-27T17:22:00Z",
      "temp": 16.7,
      "dewp": 9.4,
      "wspd": 3,
      "wdir": 0,
      "cover": "SCT",
      "visib": 7.00,
      "fltcat": "VFR",
      "altim": 1017.4,
      "rawOb": "KLAX 271722Z VRB03KT 7SM SCT027 17/09 A3004 RMK AO2 T01670094 $"
    },
    "geometry": {
      "type": "Point",
      "coordinates": [-118.413,33.943]
    } 
  },
  { "type": "Feature",
    "properties": {
      "id": "KDEN",
      "site": "Denver Intl",
      "prior": "0",
      "obsTime": "2018-04-27T16:53:00Z",
      "temp": 17.8,
      "dewp": -3.3,
      "wspd": 4,
      "wdir": 220,
      "cover": "CLR",
      "visib": 10.00,
      "fltcat": "VFR",
      "altim": 1021.8,
      "slp": 1017.6,
      "rawOb": "KDEN 271653Z 22004KT 10SM CLR 18/M03 A3017 RMK AO2 SLP176 T01781033"
    },
    "geometry": {
      "type": "Point",
      "coordinates": [-104.674,39.861]
    } 
  },
  { "type": "Feature",
    "properties": {
      "id": "KDFW",
      "site": "Dallas-Ft Worth Intl",
      "prior": "0",
      "obsTime": "2018-04-27T16:53:00Z",
      "temp": 22.8,
      "dewp": 8.9,
      "wspd": 3,
      "wdir": 0,
      "cover": "FEW",
      "visib": 10.00,
      "fltcat": "VFR",
      "altim": 1020.1,
      "slp": 1019.4,
      "rawOb": "KDFW 271653Z VRB03KT 10SM FEW035 23/09 A3012 RMK AO2 SLP194 T02280089"
    },
    "geometry": {
      "type": "Point",
      "coordinates": [-97.040,32.900]
    } 
  },
  { "type": "Feature",
    "properties": {
      "id": "KATL",
      "site": "Atlanta/Hartsfield-J",
      "prior": "0",
      "obsTime": "2018-04-27T16:52:00Z",
      "temp": 18.9,
      "dewp": 8.3,
      "wspd": 10,
      "wdir": 340,
      "cover": "FEW",
      "visib": 10.00,
      "fltcat": "VFR",
      "altim": 1012.3,
      "slp": 1011.9,
      "rawOb": "KATL 271652Z 34010KT 10SM FEW040 FEW250 19/08 A2989 RMK AO2 SLP119 T01890083"
    },
    "geometry": {
      "type": "Point",
      "coordinates": [-84.423,33.641]
    } 
  },
  { "type": "Feature",
    "properties": {
      "id": "CYWG",
      "site": "Winnipeg Intl Arpt",
      "prior": "0",
      "obsTime": "2018-04-27T17:00:00Z",
      "temp": 5.0,
      "dewp": 0.0,
      "wspd": 17,
      "wgst": 22,
      "wdir": 360,
      "ceil": 17,
      "cover": "OVC",
      "visib": 15.00,
      "fltcat": "MVFR",
      "altim": 1019.0,
      "slp": 1020.0,
      "rawOb": "CYWG 271700Z 36017G22KT 15SM OVC017 05/00 A3009 RMK SC8 SLP200"
    },
    "geometry": {
      "type": "Point",
      "coordinates": [-97.235,49.906]
    } 
  },
  { "type": "Feature",
    "properties": {
      "id": "CYHZ",
      "site": "Halifax/Stanfield In",
      "prior": "0",
      "obsTime": "2018-04-27T17:00:00Z",
      "temp": 17.0,
      "dewp": 11.0,
      "wspd": 10,
      "wdir": 230,
      "ceil": 280,
      "cover": "BKN",
      "visib": 15.00,
      "fltcat": "VFR",
      "altim": 1013.0,
      "slp": 1013.2,
      "rawOb": "CYHZ 271700Z 23010KT 190V270 15SM FEW025 BKN280 17/11 A2991 RMK CU1CS5 SLP132 DENSITY ALT 900FT"
    },
    "geometry": {
      "type": "Point",
      "coordinates": [-63.508,44.887]
    } 
  },
  { "type": "Feature",
    "properties": {
      "id": "KORD",
      "site": "Chicago/O'Hare Intl",
      "prior": "0",
      "obsTime": "2018-04-27T16:51:00Z",
      "temp": 12.8,
      "dewp": 0.0,
      "wspd": 8,
      "wdir": 70,
      "cover": "FEW",
      "visib": 10.00,
      "fltcat": "VFR",
      "altim": 1010.6,
      "slp": 1010.4,
      "rawOb": "KORD 271651Z 07008KT 10SM FEW070 FEW200 13/00 A2984 RMK AO2 SLP104 T01280000"
    },
    "geometry": {
      "type": "Point",
      "coordinates": [-87.906,41.977]
    } 
  },
  { "type": "Feature",
    "properties": {
      "id": "TXKF",
      "site": "Bermuda/Wade Intl",
      "prior": "0",
      "obsTime": "2018-04-27T16:55:00Z",
      "temp": 23.0,
      "dewp": 21.0,
      "wspd": 16,
      "wdir": 160,
      "ceil": 300,
      "cover": "OVC",
      "visib": 6.21,
      "fltcat": "VFR",
      "altim": 1020.0,
      "rawOb": "TXKF 271655Z 16016KT 9999 FEW008 SCT200 OVC300 23/21 Q1020 "
    },
    "geometry": {
      "type": "Point",
      "coordinates": [-64.681,32.365]
    } 
  },
  { "type": "Feature",
    "properties": {
      "id": "KSEA",
      "site": "Seattle-Tacoma Intl",
      "prior": "0",
      "obsTime": "2018-04-27T16:53:00Z",
      "temp": 10.6,
      "dewp": 8.3,
      "wspd": 9,
      "wdir": 200,
      "ceil": 7,
      "cover": "OVC",
      "visib": 8.00,
      "fltcat": "IFR",
      "altim": 1013.3,
      "slp": 1013.7,
      "rawOb": "KSEA 271653Z 20009KT 8SM OVC007 11/08 A2992 RMK AO2 SLP137 T01060083"
    },
    "geometry": {
      "type": "Point",
      "coordinates": [-122.310,47.450]
    } 
  },
  { "type": "Feature",
    "properties": {
      "id": "CYGW",
      "site": "Kuujjuarapik Arpt",
      "prior": "0",
      "obsTime": "2018-04-27T17:00:00Z",
      "temp": -12.0,
      "dewp": -16.0,
      "wspd": 9,
      "wdir": 360,
      "cover": "CLR",
      "visib": 9.00,
      "fltcat": "VFR",
      "altim": 1018.4,
      "slp": 1018.5,
      "rawOb": "CYGW 271700Z AUTO 36009KT 9SM CLR M12/M16 A3007 RMK SLP185"
    },
    "geometry": {
      "type": "Point",
      "coordinates": [-77.764,55.282]
    } 
  },
  { "type": "Feature",
    "properties": {
      "id": "MMMD",
      "site": "Merida Intl",
      "prior": "0",
      "obsTime": "2018-04-27T16:47:00Z",
      "temp": 32.0,
      "dewp": 22.0,
      "wspd": 4,
      "wdir": 290,
      "ceil": 20,
      "cover": "BKN",
      "visib": 7.00,
      "fltcat": "MVFR",
      "altim": 1013.0,
      "rawOb": "MMMD 271647Z 29004KT 7SM BKN020 32/22 A2991 RMK 8/100 MDT CU"
    },
    "geometry": {
      "type": "Point",
      "coordinates": [-89.658,20.934]
    } 
  },
  { "type": "Feature",
    "properties": {
      "id": "MMCU",
      "site": "Chihuahua/Villalobos",
      "prior": "0",
      "obsTime": "2018-04-27T16:40:00Z",
      "temp": 19.0,
      "dewp": 0.0,
      "wspd": 10,
      "wdir": 80,
      "ceil": 80,
      "cover": "OVC",
      "visib": 10.00,
      "fltcat": "VFR",
      "altim": 1023.8,
      "rawOb": "MMCU 271640Z 08010KT 10SM SCT030 BKN080 OVC200 19/00 A3023 RMK 8/572 HZY"
    },
    "geometry": {
      "type": "Point",
      "coordinates": [-105.964,28.702]
    } 
  },
  { "type": "Feature",
    "properties": {
      "id": "KCHS",
      "site": "Charleston Intl",
      "prior": "1",
      "obsTime": "2018-04-27T16:56:00Z",
      "temp": 23.9,
      "dewp": 12.8,
      "wspd": 12,
      "wdir": 270,
      "cover": "SCT",
      "visib": 10.00,
      "fltcat": "VFR",
      "altim": 1009.9,
      "slp": 1009.8,
      "rawOb": "KCHS 271656Z 27012KT 10SM SCT044 24/13 A2982 RMK AO2 SLP098 T02390128"
    },
    "geometry": {
      "type": "Point",
      "coordinates": [-80.039,32.897]
    } 
  },
  { "type": "Feature",
    "properties": {
      "id": "KGEG",
      "site": "Spokane Intl",
      "prior": "1",
      "obsTime": "2018-04-27T16:53:00Z",
      "temp": 15.6,
      "dewp": 1.7,
      "wspd": 9,
      "wdir": 40,
      "cover": "FEW",
      "visib": 10.00,
      "fltcat": "VFR",
      "altim": 1011.6,
      "slp": 1010.8,
      "rawOb": "KGEG 271653Z 04009KT 10SM FEW280 16/02 A2987 RMK AO2 SLP108 T01560017"
    },
    "geometry": {
      "type": "Point",
      "coordinates": [-117.533,47.622]
    } 
  },
  { "type": "Feature",
    "properties": {
      "id": "KHON",
      "site": "Huron Rgnl",
      "prior": "1",
      "obsTime": "2018-04-27T16:55:00Z",
      "temp": 15.6,
      "dewp": 1.7,
      "wspd": 16,
      "wgst": 24,
      "wdir": 360,
      "cover": "CLR",
      "visib": 10.00,
      "fltcat": "VFR",
      "altim": 1016.0,
      "slp": 1016.2,
      "rawOb": "KHON 271655Z AUTO 36016G24KT 10SM CLR 16/02 A3000 RMK AO2 SLP162 T01560017"
    },
    "geometry": {
      "type": "Point",
      "coordinates": [-98.226,44.384]
    } 
  },
  { "type": "Feature",
    "properties": {
      "id": "KGSO",
      "site": "Greensboro Intl",
      "prior": "1",
      "obsTime": "2018-04-27T16:54:00Z",
      "temp": 18.3,
      "dewp": 10.6,
      "wspd": 5,
      "wdir": 0,
      "ceil": 34,
      "cover": "BKN",
      "visib": 10.00,
      "fltcat": "VFR",
      "altim": 1008.5,
      "slp": 1008.0,
      "rawOb": "KGSO 271654Z VRB05KT 10SM BKN034 BKN250 18/11 A2978 RMK AO2 SLP080 T01830106"
    },
    "geometry": {
      "type": "Point",
      "coordinates": [-79.943,36.101]
    } 
  },
  { "type": "Feature",
    "properties": {
      "id": "KCAR",
      "site": "Caribou Muni",
      "prior": "1",
      "obsTime": "2018-04-27T16:54:00Z",
      "temp": 15.6,
      "dewp": 6.1,
      "wspd": 6,
      "wdir": 250,
      "cover": "CLR",
      "visib": 10.00,
      "fltcat": "VFR",
      "altim": 1010.2,
      "slp": 1010.7,
      "rawOb": "KCAR 271654Z AUTO 25006KT 10SM CLR 16/06 A2983 RMK AO2 SLP107 T01560061"
    },
    "geometry": {
      "type": "Point",
      "coordinates": [-68.016,46.870]
    } 
  },
  { "type": "Feature",
    "properties": {
      "id": "KBUF",
      "site": "Buffalo-Niagara Intl",
      "prior": "1",
      "obsTime": "2018-04-27T16:54:00Z",
      "temp": 16.1,
      "dewp": 2.2,
      "wspd": 10,
      "wdir": 240,
      "ceil": 200,
      "cover": "BKN",
      "visib": 10.00,
      "fltcat": "VFR",
      "altim": 1006.2,
      "slp": 1006.4,
      "rawOb": "KBUF 271654Z 24010KT 10SM FEW055 BKN200 BKN250 16/02 A2971 RMK AO2 SLP064 T01610022"
    },
    "geometry": {
      "type": "Point",
      "coordinates": [-78.730,42.940]
    } 
  },
  { "type": "Feature",
    "properties": {
      "id": "KSLC",
      "site": "Salt Lake City Intl",
      "prior": "1",
      "obsTime": "2018-04-27T16:54:00Z",
      "temp": 22.2,
      "dewp": -2.8,
      "wspd": 6,
      "wdir": 150,
      "cover": "FEW",
      "visib": 10.00,
      "fltcat": "VFR",
      "altim": 1016.0,
      "slp": 1011.6,
      "rawOb": "KSLC 271654Z 15006KT 10SM FEW150 FEW250 22/M03 A3000 RMK AO2 SLP116 T02221028"
    },
    "geometry": {
      "type": "Point",
      "coordinates": [-111.985,40.787]
    } 
  },
  { "type": "Feature",
    "properties": {
      "id": "MUHA",
      "site": "Havana/Marti Intl",
      "prior": "1",
      "obsTime": "2018-04-27T16:55:00Z",
      "temp": 28.0,
      "dewp": 22.0,
      "wspd": 7,
      "wdir": 220,
      "ceil": 20,
      "cover": "OVC",
      "visib": 5.59,
      "fltcat": "MVFR",
      "altim": 1013.0,
      "rawOb": "MUHA 271655Z 22007KT 160V250 9000 BKN020 OVC060 28/22 Q1013"
    },
    "geometry": {
      "type": "Point",
      "coordinates": [-82.407,22.990]
    } 
  },
  { "type": "Feature",
    "properties": {
      "id": "KDSM",
      "site": "Des Moines Intl",
      "prior": "1",
      "obsTime": "2018-04-27T16:54:00Z",
      "temp": 22.2,
      "dewp": 0.6,
      "wspd": 19,
      "wgst": 24,
      "wdir": 260,
      "cover": "FEW",
      "visib": 10.00,
      "fltcat": "VFR",
      "altim": 1011.3,
      "slp": 1010.8,
      "rawOb": "KDSM 271654Z 26019G24KT 10SM FEW000 FEW110 22/01 A2986 RMK AO2 PK WND 27027/1615 SLP108 FU FEW000 T02220006"
    },
    "geometry": {
      "type": "Point",
      "coordinates": [-93.657,41.534]
    } 
  },
  { "type": "Feature",
    "properties": {
      "id": "KMAF",
      "site": "Midland Intl",
      "prior": "1",
      "obsTime": "2018-04-27T16:53:00Z",
      "temp": 18.9,
      "dewp": 5.0,
      "wspd": 6,
      "wdir": 80,
      "cover": "CLR",
      "visib": 10.00,
      "fltcat": "VFR",
      "altim": 1024.1,
      "slp": 1020.9,
      "rawOb": "KMAF 271653Z 08006KT 10SM CLR 19/05 A3024 RMK AO2 SLP209 T01890050"
    },
    "geometry": {
      "type": "Point",
      "coordinates": [-102.204,31.942]
    } 
  },
  { "type": "Feature",
    "properties": {
      "id": "KOKC",
      "site": "Oklahoma City/Will R",
      "prior": "1",
      "obsTime": "2018-04-27T16:52:00Z",
      "temp": 18.9,
      "dewp": -0.6,
      "wspd": 14,
      "wdir": 10,
      "cover": "CLR",
      "visib": 10.00,
      "fltcat": "VFR",
      "altim": 1021.1,
      "slp": 1020.5,
      "rawOb": "KOKC 271652Z 01014KT 10SM CLR 19/M01 A3015 RMK AO2 SLP205 T01891006"
    },
    "geometry": {
      "type": "Point",
      "coordinates": [-97.596,35.395]
    } 
  },
  { "type": "Feature",
    "properties": {
      "id": "KBNA",
      "site": "Nashville Intl",
      "prior": "1",
      "obsTime": "2018-04-27T16:53:00Z",
      "temp": 21.7,
      "dewp": 7.2,
      "wspd": 10,
      "wgst": 17,
      "wdir": 290,
      "cover": "SCT",
      "visib": 10.00,
      "fltcat": "VFR",
      "altim": 1013.0,
      "slp": 1012.5,
      "rawOb": "KBNA 271653Z 29010G17KT 10SM SCT050 22/07 A2991 RMK AO2 SLP125 T02170072"
    },
    "geometry": {
      "type": "Point",
      "coordinates": [-86.677,36.123]
    } 
  },
  { "type": "Feature",
    "properties": {
      "id": "KLCH",
      "site": "Lake Charles Rgnl",
      "prior": "1",
      "obsTime": "2018-04-27T16:53:00Z",
      "temp": 23.9,
      "dewp": 11.1,
      "wspd": 8,
      "wdir": 350,
      "cover": "FEW",
      "visib": 10.00,
      "fltcat": "VFR",
      "altim": 1018.4,
      "slp": 1018.8,
      "rawOb": "KLCH 271653Z 35008KT 10SM FEW044 24/11 A3007 RMK AO2 SLP188 T02390111 $"
    },
    "geometry": {
      "type": "Point",
      "coordinates": [-93.225,30.123]
    } 
  },
  { "type": "Feature",
    "properties": {
      "id": "KMCI",
      "site": "Kansas City Intl",
      "prior": "1",
      "obsTime": "2018-04-27T16:53:00Z",
      "temp": 19.4,
      "dewp": 1.1,
      "wspd": 12,
      "wgst": 17,
      "wdir": 280,
      "cover": "CLR",
      "visib": 10.00,
      "fltcat": "VFR",
      "altim": 1017.0,
      "slp": 1016.3,
      "rawOb": "KMCI 271653Z 28012G17KT 10SM CLR 19/01 A3003 RMK AO2 SLP163 T01940011"
    },
    "geometry": {
      "type": "Point",
      "coordinates": [-94.717,39.296]
    } 
  },
  { "type": "Feature",
    "properties": {
      "id": "KDTW",
      "site": "Detroit Metro/Wayne",
      "prior": "1",
      "obsTime": "2018-04-27T16:53:00Z",
      "temp": 18.9,
      "dewp": 0.6,
      "wspd": 12,
      "wdir": 230,
      "ceil": 110,
      "cover": "BKN",
      "visib": 9.00,
      "fltcat": "VFR",
      "altim": 1005.5,
      "slp": 1005.2,
      "rawOb": "KDTW 271653Z 23012KT 9SM BKN110 BKN240 19/01 A2969 RMK AO2 SLP052 T01890006"
    },
    "geometry": {
      "type": "Point",
      "coordinates": [-83.355,42.215]
    } 
  },
  { "type": "Feature",
    "properties": {
      "id": "KMOB",
      "site": "Mobile Rgnl",
      "prior": "1",
      "obsTime": "2018-04-27T16:56:00Z",
      "temp": 21.7,
      "dewp": 10.6,
      "wspd": 12,
      "wdir": 360,
      "ceil": 150,
      "cover": "BKN",
      "visib": 7.00,
      "fltcat": "VFR",
      "altim": 1015.7,
      "slp": 1015.4,
      "rawOb": "KMOB 271656Z 36012KT 7SM SCT035 BKN150 22/11 A2999 RMK AO2 SLP154 T02170106"
    },
    "geometry": {
      "type": "Point",
      "coordinates": [-88.243,30.688]
    } 
  },
  { "type": "Feature",
    "properties": {
      "id": "KLIT",
      "site": "Little Rock/Clinton",
      "prior": "1",
      "obsTime": "2018-04-27T16:53:00Z",
      "temp": 22.2,
      "dewp": 9.4,
      "wspd": 8,
      "wgst": 14,
      "wdir": 310,
      "cover": "SCT",
      "visib": 10.00,
      "fltcat": "VFR",
      "altim": 1016.7,
      "slp": 1016.8,
      "rawOb": "KLIT 271653Z 31008G14KT 10SM SCT050 22/09 A3002 RMK AO2 SLP168 T02220094"
    },
    "geometry": {
      "type": "Point",
      "coordinates": [-92.221,34.729]
    } 
  },
  { "type": "Feature",
    "properties": {
      "id": "KJAX",
      "site": "Jacksonville Intl",
      "prior": "1",
      "obsTime": "2018-04-27T16:56:00Z",
      "temp": 25.6,
      "dewp": 14.4,
      "wspd": 11,
      "wgst": 18,
      "wdir": 260,
      "ceil": 250,
      "cover": "BKN",
      "visib": 10.00,
      "fltcat": "VFR",
      "altim": 1011.3,
      "slp": 1011.1,
      "rawOb": "KJAX 271656Z 26011G18KT 10SM SCT035 BKN250 26/14 A2986 RMK AO2 SLP111 T02560144"
    },
    "geometry": {
      "type": "Point",
      "coordinates": [-81.690,30.490]
    } 
  },
  { "type": "Feature",
    "properties": {
      "id": "KINL",
      "site": "International Falls",
      "prior": "1",
      "obsTime": "2018-04-27T16:55:00Z",
      "temp": 5.0,
      "dewp": 2.8,
      "wspd": 9,
      "wdir": 50,
      "ceil": 12,
      "cover": "OVC",
      "visib": 10.00,
      "fltcat": "MVFR",
      "altim": 1012.6,
      "slp": 1013.6,
      "rawOb": "KINL 271655Z AUTO 05009KT 10SM OVC012 05/03 A2990 RMK AO2 SLP136 T00500028"
    },
    "geometry": {
      "type": "Point",
      "coordinates": [-93.402,48.566]
    } 
  },
  { "type": "Feature",
    "properties": {
      "id": "KDDC",
      "site": "Dodge City Arpt",
      "prior": "1",
      "obsTime": "2018-04-27T16:52:00Z",
      "temp": 20.0,
      "dewp": 0.0,
      "wspd": 11,
      "wdir": 260,
      "cover": "CLR",
      "visib": 10.00,
      "fltcat": "VFR",
      "altim": 1020.7,
      "slp": 1019.8,
      "rawOb": "KDDC 271652Z AUTO 26011KT 10SM CLR 20/00 A3014 RMK AO2 SLP198 T02000000"
    },
    "geometry": {
      "type": "Point",
      "coordinates": [-99.967,37.763]
    } 
  },
  { "type": "Feature",
    "properties": {
      "id": "KABQ",
      "site": "Albuquerque Intl",
      "prior": "1",
      "obsTime": "2018-04-27T16:52:00Z",
      "temp": 15.6,
      "dewp": -3.9,
      "wspd": 0,
      "wdir": 0,
      "ceil": 300,
      "cover": "BKN",
      "visib": 10.00,
      "fltcat": "VFR",
      "altim": 1024.5,
      "slp": 1019.2,
      "rawOb": "KABQ 271652Z 00000KT 10SM BKN300 16/M04 A3025 RMK AO2 SLP192 T01561039"
    },
    "geometry": {
      "type": "Point",
      "coordinates": [-106.607,35.044]
    } 
  },
  { "type": "Feature",
    "properties": {
      "id": "KMSP",
      "site": "Minneapolis-St Paul",
      "prior": "1",
      "obsTime": "2018-04-27T16:53:00Z",
      "temp": 16.7,
      "dewp": 0.6,
      "wspd": 19,
      "wgst": 30,
      "wdir": 330,
      "cover": "FEW",
      "visib": 10.00,
      "fltcat": "VFR",
      "altim": 1006.9,
      "slp": 1007.1,
      "rawOb": "KMSP 271653Z 33019G30KT 10SM FEW060 17/01 A2973 RMK AO2 PK WND 32032/1634 SLP071 T01670006"
    },
    "geometry": {
      "type": "Point",
      "coordinates": [-93.215,44.883]
    } 
  },
  { "type": "Feature",
    "properties": {
      "id": "KCVG",
      "site": "Cincinnati Intl",
      "prior": "1",
      "obsTime": "2018-04-27T16:52:00Z",
      "temp": 20.0,
      "dewp": 1.1,
      "wspd": 12,
      "wgst": 17,
      "wdir": 230,
      "cover": "FEW",
      "visib": 10.00,
      "fltcat": "VFR",
      "altim": 1008.5,
      "slp": 1007.8,
      "rawOb": "KCVG 271652Z 23012G17KT 10SM FEW060 20/01 A2978 RMK AO2 SLP078 T02000011"
    },
    "geometry": {
      "type": "Point",
      "coordinates": [-84.666,39.047]
    } 
  },
  { "type": "Feature",
    "properties": {
      "id": "KIAD",
      "site": "Washington/Dulles In",
      "prior": "1",
      "obsTime": "2018-04-27T16:52:00Z",
      "temp": 13.3,
      "dewp": 11.1,
      "wspd": 8,
      "wdir": 10,
      "ceil": 17,
      "cover": "OVC",
      "visib": 10.00,
      "fltcat": "MVFR",
      "altim": 1008.5,
      "slp": 1008.4,
      "rawOb": "KIAD 271652Z 01008KT 10SM FEW012 BKN017 OVC022 13/11 A2978 RMK AO2 SLP084 T01330111"
    },
    "geometry": {
      "type": "Point",
      "coordinates": [-77.448,38.950]
    } 
  },
  { "type": "Feature",
    "properties": {
      "id": "CYOW",
      "site": "Ottawa/Cartier Intl",
      "prior": "1",
      "obsTime": "2018-04-27T17:00:00Z",
      "temp": 13.0,
      "dewp": 2.0,
      "wspd": 4,
      "wdir": 220,
      "ceil": 230,
      "cover": "BKN",
      "visib": 15.00,
      "fltcat": "VFR",
      "altim": 1008.2,
      "slp": 1008.4,
      "rawOb": "CYOW 271700Z 22004KT 120V260 15SM FEW040 FEW140 SCT200 BKN230 13/02 A2977 RMK CU1AC1CI2CI4 CU TR SLP084 DENSITY ALT 400FT"
    },
    "geometry": {
      "type": "Point",
      "coordinates": [-75.665,45.316]
    } 
  },
  { "type": "Feature",
    "properties": {
      "id": "KLAS",
      "site": "Las Vegas/McCarran I",
      "prior": "1",
      "obsTime": "2018-04-27T16:56:00Z",
      "temp": 29.4,
      "dewp": 1.7,
      "wspd": 10,
      "wdir": 150,
      "cover": "FEW",
      "visib": 10.00,
      "fltcat": "VFR",
      "altim": 1011.3,
      "slp": 1008.3,
      "rawOb": "KLAS 271656Z 15010KT 10SM FEW150 FEW250 29/02 A2986 RMK AO2 SLP083 T02940017"
    },
    "geometry": {
      "type": "Point",
      "coordinates": [-115.157,36.081]
    } 
  },
  { "type": "Feature",
    "properties": {
      "id": "KBOI",
      "site": "Boise Arpt",
      "prior": "1",
      "obsTime": "2018-04-27T16:53:00Z",
      "temp": 18.9,
      "dewp": 2.8,
      "wspd": 6,
      "wdir": 160,
      "cover": "CLR",
      "visib": 10.00,
      "fltcat": "VFR",
      "altim": 1011.3,
      "slp": 1009.3,
      "rawOb": "KBOI 271653Z 16006KT 10SM CLR 19/03 A2986 RMK AO2 SLP093 T01890028"
    },
    "geometry": {
      "type": "Point",
      "coordinates": [-116.223,43.565]
    } 
  },
  { "type": "Feature",
    "properties": {
      "id": "KHLN",
      "site": "Helena Rgnl",
      "prior": "1",
      "obsTime": "2018-04-27T16:53:00Z",
      "temp": 13.3,
      "dewp": 1.7,
      "wspd": 3,
      "wdir": 0,
      "cover": "CLR",
      "visib": 10.00,
      "fltcat": "VFR",
      "altim": 1017.4,
      "slp": 1018.0,
      "rawOb": "KHLN 271653Z VRB03KT 10SM CLR 13/02 A3004 RMK AO2 SLP180 T01330017"
    },
    "geometry": {
      "type": "Point",
      "coordinates": [-111.977,46.605]
    } 
  },
  { "type": "Feature",
    "properties": {
      "id": "KSFO",
      "site": "San Francisco Intl",
      "prior": "1",
      "obsTime": "2018-04-27T17:15:00Z",
      "temp": 15.6,
      "dewp": 7.8,
      "wspd": 12,
      "wgst": 15,
      "wdir": 250,
      "ceil": 29,
      "cover": "BKN",
      "visib": 10.00,
      "fltcat": "MVFR",
      "altim": 1020.1,
      "rawOb": "KSFO 271715Z 25012G15KT 10SM BKN029 BKN038 16/08 A3012 RMK AO2 T01560078"
    },
    "geometry": {
      "type": "Point",
      "coordinates": [-122.374,37.619]
    } 
  },
  { "type": "Feature",
    "properties": {
      "id": "KGGW",
      "site": "Glasgow Intl Arpt",
      "prior": "1",
      "obsTime": "2018-04-27T16:53:00Z",
      "temp": 16.1,
      "dewp": -5.0,
      "wspd": 8,
      "wdir": 110,
      "cover": "CLR",
      "visib": 10.00,
      "fltcat": "VFR",
      "altim": 1020.4,
      "slp": 1020.5,
      "rawOb": "KGGW 271653Z AUTO 11008KT 10SM CLR 16/M05 A3013 RMK AO2 SLP205 T01611050"
    },
    "geometry": {
      "type": "Point",
      "coordinates": [-106.621,48.214]
    } 
  },
  { "type": "Feature",
    "properties": {
      "id": "KACV",
      "site": "Arcata Arpt",
      "prior": "1",
      "obsTime": "2018-04-27T16:53:00Z",
      "temp": 13.9,
      "dewp": 7.8,
      "wspd": 4,
      "wdir": 160,
      "ceil": 45,
      "cover": "OVC",
      "visib": 10.00,
      "fltcat": "VFR",
      "altim": 1018.0,
      "slp": 1018.4,
      "rawOb": "KACV 271653Z AUTO 16004KT 10SM OVC045 14/08 A3006 RMK AO2 SLP184 T01390078"
    },
    "geometry": {
      "type": "Point",
      "coordinates": [-124.108,40.978]
    } 
  },
  { "type": "Feature",
    "properties": {
      "id": "CYWK",
      "site": "Wabush Lake Arpt",
      "prior": "1",
      "obsTime": "2018-04-27T17:00:00Z",
      "temp": 9.0,
      "dewp": 0.0,
      "wspd": 9,
      "wdir": 240,
      "ceil": 80,
      "cover": "BKN",
      "visib": 15.00,
      "fltcat": "VFR",
      "altim": 1003.5,
      "slp": 1005.5,
      "rawOb": "CYWK 271700Z 24009KT 15SM FEW024 BKN080 09/M00 A2963 RMK CF2AC3 SLP055"
    },
    "geometry": {
      "type": "Point",
      "coordinates": [-66.866,52.924]
    } 
  },
  { "type": "Feature",
    "properties": {
      "id": "CYVP",
      "site": "Kuujjuaq Arpt",
      "prior": "1",
      "obsTime": "2018-04-27T17:00:00Z",
      "temp": -9.0,
      "dewp": -16.0,
      "wspd": 14,
      "wgst": 19,
      "wdir": 320,
      "ceil": 240,
      "cover": "BKN",
      "visib": 15.00,
      "fltcat": "VFR",
      "altim": 1010.9,
      "slp": 1011.2,
      "rawOb": "CYVP 271700Z 32014G19KT 15SM FEW021 SCT100 BKN240 M09/M16 A2985 RMK SC2AC1CI2 VIA CYQB SLP112"
    },
    "geometry": {
      "type": "Point",
      "coordinates": [-68.420,58.095]
    } 
  },
  { "type": "Feature",
    "properties": {
      "id": "CYYC",
      "site": "Calgary Intl Arpt",
      "prior": "1",
      "obsTime": "2018-04-27T17:00:00Z",
      "temp": 16.0,
      "dewp": 1.0,
      "wspd": 10,
      "wgst": 16,
      "wdir": 160,
      "cover": "SKC",
      "visib": 30.00,
      "fltcat": "VFR",
      "altim": 1016.0,
      "slp": 1016.9,
      "rawOb": "CYYC 271700Z 16010G16KT 120V180 30SM SKC 16/01 A3000 RMK SLP169 DENSITY ALT 4500FT"
    },
    "geometry": {
      "type": "Point",
      "coordinates": [-114.022,51.119]
    } 
  },
  { "type": "Feature",
    "properties": {
      "id": "KPWM",
      "site": "Portland Intl",
      "prior": "1",
      "obsTime": "2018-04-27T16:51:00Z",
      "temp": 13.9,
      "dewp": 6.1,
      "wspd": 12,
      "wgst": 17,
      "wdir": 150,
      "ceil": 200,
      "cover": "OVC",
      "visib": 10.00,
      "fltcat": "VFR",
      "altim": 1012.6,
      "slp": 1012.3,
      "rawOb": "KPWM 271651Z 15012G17KT 10SM FEW037 SCT150 OVC200 14/06 A2990 RMK AO2 SLP123 T01390061"
    },
    "geometry": {
      "type": "Point",
      "coordinates": [-70.306,43.645]
    } 
  },
  { "type": "Feature",
    "properties": {
      "id": "KPHX",
      "site": "Phoenix/Sky Harbor",
      "prior": "1",
      "obsTime": "2018-04-27T16:51:00Z",
      "temp": 30.6,
      "dewp": 2.8,
      "wspd": 3,
      "wdir": 30,
      "cover": "FEW",
      "visib": 10.00,
      "fltcat": "VFR",
      "altim": 1011.6,
      "slp": 1009.5,
      "rawOb": "KPHX 271651Z 03003KT 10SM FEW210 31/03 A2987 RMK AO2 SLP095 T03060028"
    },
    "geometry": {
      "type": "Point",
      "coordinates": [-112.010,33.435]
    } 
  },
  { "type": "Feature",
    "properties": {
      "id": "KEKO",
      "site": "Elko Rgnl",
      "prior": "1",
      "obsTime": "2018-04-27T16:56:00Z",
      "temp": 19.4,
      "dewp": -3.3,
      "wspd": 5,
      "wdir": 50,
      "cover": "CLR",
      "visib": 10.00,
      "fltcat": "VFR",
      "altim": 1014.6,
      "slp": 1010.4,
      "rawOb": "KEKO 271656Z AUTO 05005KT 10SM CLR 19/M03 A2996 RMK AO2 SLP104 T01941033"
    },
    "geometry": {
      "type": "Point",
      "coordinates": [-115.790,40.824]
    } 
  },
  { "type": "Feature",
    "properties": {
      "id": "KBIS",
      "site": "Bismarck Arpt",
      "prior": "1",
      "obsTime": "2018-04-27T16:52:00Z",
      "temp": 13.3,
      "dewp": -2.2,
      "wspd": 14,
      "wdir": 340,
      "cover": "CLR",
      "visib": 10.00,
      "fltcat": "VFR",
      "altim": 1019.7,
      "slp": 1020.1,
      "rawOb": "KBIS 271652Z 34014KT 10SM CLR 13/M02 A3011 RMK AO2 SLP201 T01331022"
    },
    "geometry": {
      "type": "Point",
      "coordinates": [-100.750,46.774]
    } 
  },
  { "type": "Feature",
    "properties": {
      "id": "CYXE",
      "site": "Saskatoon/Diefenbake",
      "prior": "1",
      "obsTime": "2018-04-27T17:00:00Z",
      "temp": 11.0,
      "dewp": -4.0,
      "wspd": 3,
      "wdir": 0,
      "cover": "FEW",
      "visib": 15.00,
      "fltcat": "VFR",
      "altim": 1023.1,
      "slp": 1024.9,
      "rawOb": "CYXE 271700Z VRB03KT 15SM FEW250 11/M04 A3021 RMK CI1 CI TR SLP249"
    },
    "geometry": {
      "type": "Point",
      "coordinates": [-106.703,52.175]
    } 
  },
  { "type": "Feature",
    "properties": {
      "id": "KSAT",
      "site": "San Antonio Intl",
      "prior": "1",
      "obsTime": "2018-04-27T16:51:00Z",
      "temp": 21.1,
      "dewp": 8.9,
      "wspd": 5,
      "wdir": 80,
      "ceil": 55,
      "cover": "OVC",
      "visib": 10.00,
      "fltcat": "VFR",
      "altim": 1021.4,
      "slp": 1020.0,
      "rawOb": "KSAT 271651Z 08005KT 10SM OVC055 21/09 A3016 RMK AO2 SLP200 T02110089"
    },
    "geometry": {
      "type": "Point",
      "coordinates": [-98.472,29.534]
    } 
  },
  { "type": "Feature",
    "properties": {
      "id": "CYXS",
      "site": "Prince George Arpt",
      "prior": "1",
      "obsTime": "2018-04-27T17:00:00Z",
      "temp": 13.0,
      "dewp": 3.0,
      "wspd": 2,
      "wdir": 0,
      "cover": "CLR",
      "visib": 9.00,
      "fltcat": "VFR",
      "altim": 1013.0,
      "slp": 1014.3,
      "rawOb": "CYXS 271700Z AUTO VRB02KT 9SM CLR 13/03 A2991 RMK SLP143 DENSITY ALT 2500FT"
    },
    "geometry": {
      "type": "Point",
      "coordinates": [-122.675,53.888]
    } 
  },
  { "type": "Feature",
    "properties": {
      "id": "KANJ",
      "site": "Sault Ste Marie Muni",
      "prior": "1",
      "obsTime": "2018-04-27T17:12:00Z",
      "temp": 6.7,
      "dewp": 0.0,
      "wspd": 7,
      "wdir": 70,
      "ceil": 31,
      "cover": "OVC",
      "visib": 10.00,
      "fltcat": "VFR",
      "altim": 1008.5,
      "rawOb": "KANJ 271712Z AUTO 07007KT 10SM OVC031 07/00 A2978 RMK AO2 T00670000"
    },
    "geometry": {
      "type": "Point",
      "coordinates": [-84.368,46.480]
    } 
  },
  { "type": "Feature",
    "properties": {
      "id": "CYZT",
      "site": "Port Hardy Arpt",
      "prior": "1",
      "obsTime": "2018-04-27T17:00:00Z",
      "temp": 11.0,
      "dewp": 8.0,
      "wspd": 4,
      "wdir": 60,
      "cover": "SCT",
      "visib": 20.00,
      "fltcat": "VFR",
      "altim": 1011.6,
      "slp": 1011.7,
      "rawOb": "CYZT 271700Z 06004KT 20SM SCT220 11/08 A2987 RMK CC3 SLP117"
    },
    "geometry": {
      "type": "Point",
      "coordinates": [-127.370,50.682]
    } 
  },
  { "type": "Feature",
    "properties": {
      "id": "CWGR",
      "site": "Iles-de-la-Madeleine",
      "prior": "1",
      "obsTime": "2018-04-27T17:00:00Z",
      "temp": 13.1,
      "dewp": 7.8,
      "wspd": 17,
      "wdir": 240,
      "slp": 1011.4,
      "rawOb": "CWGR 271700Z AUTO 24017KT 13/08 RMK AO1 PK WND 24023/1601 SLP114 T01310078 53020"
    },
    "geometry": {
      "type": "Point",
      "coordinates": [-61.775,47.427]
    } 
  },
  { "type": "Feature",
    "properties": {
      "id": "KCPR",
      "site": "Casper/Natrona Cnty",
      "prior": "1",
      "obsTime": "2018-04-27T16:53:00Z",
      "temp": 16.1,
      "dewp": -6.7,
      "wspd": 5,
      "wdir": 260,
      "cover": "CLR",
      "visib": 10.00,
      "fltcat": "VFR",
      "altim": 1020.7,
      "slp": 1018.3,
      "rawOb": "KCPR 271653Z 26005KT 10SM CLR 16/M07 A3014 RMK AO2 SLP183 T01611067"
    },
    "geometry": {
      "type": "Point",
      "coordinates": [-106.462,42.903]
    } 
  },
  { "type": "Feature",
    "properties": {
      "id": "CYGP",
      "site": "Gaspe Arpt",
      "prior": "1",
      "obsTime": "2018-04-27T17:00:00Z",
      "temp": 11.0,
      "dewp": 4.0,
      "wspd": 12,
      "wdir": 70,
      "cover": "SCT",
      "visib": 15.00,
      "fltcat": "VFR",
      "altim": 1007.9,
      "slp": 1008.1,
      "rawOb": "CYGP 271700Z 07012KT 15SM SCT220 11/04 A2976 RMK CI4 SLP081"
    },
    "geometry": {
      "type": "Point",
      "coordinates": [-64.481,48.776]
    } 
  },
  { "type": "Feature",
    "properties": {
      "id": "KEUG",
      "site": "Eugene/Mahlon Sweet",
      "prior": "1",
      "obsTime": "2018-04-27T16:54:00Z",
      "temp": 8.9,
      "dewp": 8.9,
      "wspd": 5,
      "wdir": 200,
      "ceil": 34,
      "cover": "OVC",
      "visib": 4.00,
      "fltcat": "MVFR",
      "altim": 1016.3,
      "slp": 1016.4,
      "wx": "RA BR",
      "rawOb": "KEUG 271654Z 20005KT 4SM RA BR SCT024 BKN034 OVC044 09/09 A3001 RMK AO2 RAB1559 TSB1558E26 SLP164 P0010 T00890089"
    },
    "geometry": {
      "type": "Point",
      "coordinates": [-123.213,44.122]
    } 
  },
  { "type": "Feature",
    "properties": {
      "id": "KBRO",
      "site": "Brownsville Intl",
      "prior": "1",
      "obsTime": "2018-04-27T16:53:00Z",
      "temp": 28.3,
      "dewp": 18.9,
      "wspd": 12,
      "wdir": 50,
      "ceil": 44,
      "cover": "BKN",
      "visib": 10.00,
      "fltcat": "VFR",
      "altim": 1019.0,
      "slp": 1018.7,
      "rawOb": "KBRO 271653Z 05012KT 10SM SCT030 BKN044 28/19 A3009 RMK AO2 SLP187 T02830189"
    },
    "geometry": {
      "type": "Point",
      "coordinates": [-97.428,25.908]
    } 
  },
  { "type": "Feature",
    "properties": {
      "id": "KSTL",
      "site": "St Louis/Lambert Int",
      "prior": "1",
      "obsTime": "2018-04-27T16:51:00Z",
      "temp": 17.8,
      "dewp": 2.8,
      "wspd": 8,
      "wgst": 19,
      "wdir": 300,
      "cover": "CLR",
      "visib": 10.00,
      "fltcat": "VFR",
      "altim": 1014.3,
      "slp": 1013.9,
      "rawOb": "KSTL 271651Z 30008G19KT 10SM CLR 18/03 A2995 RMK AO2 SLP139 T01780028"
    },
    "geometry": {
      "type": "Point",
      "coordinates": [-90.361,38.745]
    } 
  },
  { "type": "Feature",
    "properties": {
      "id": "CYTH",
      "site": "Thompson Arpt",
      "prior": "1",
      "obsTime": "2018-04-27T17:06:00Z",
      "temp": 2.0,
      "dewp": -2.0,
      "wspd": 7,
      "wdir": 240,
      "ceil": 18,
      "cover": "OVC",
      "visib": 15.00,
      "fltcat": "MVFR",
      "altim": 1021.1,
      "slp": 1022.8,
      "wx": "-SN",
      "rawOb": "CYTH 271706Z 24007KT 220V280 15SM -SN BKN018 BKN045 OVC080 02/M02 A3015 RMK SC5SC2AC1 SLP228"
    },
    "geometry": {
      "type": "Point",
      "coordinates": [-97.863,55.800]
    } 
  },
  { "type": "Feature",
    "properties": {
      "id": "KLBF",
      "site": "N Platte/Lee Bird Fl",
      "prior": "1",
      "obsTime": "2018-04-27T16:53:00Z",
      "temp": 21.7,
      "dewp": 1.7,
      "wspd": 13,
      "wgst": 19,
      "wdir": 320,
      "cover": "CLR",
      "visib": 10.00,
      "fltcat": "VFR",
      "altim": 1018.0,
      "slp": 1017.6,
      "rawOb": "KLBF 271653Z AUTO 32013G19KT 10SM CLR 22/02 A3006 RMK AO2 SLP176 T02170017"
    },
    "geometry": {
      "type": "Point",
      "coordinates": [-100.692,41.131]
    } 
  },
  { "type": "Feature",
    "properties": {
      "id": "CWNZ",
      "site": "Nagagami(MARS)",
      "prior": "1",
      "obsTime": "2018-04-27T17:00:00Z",
      "temp": -0.4,
      "dewp": -17.5,
      "wspd": 6,
      "wdir": 360,
      "slp": 1016.0,
      "rawOb": "CWNZ 271700Z AUTO 36006KT M00/M18 RMK AO1 SOG 26 0000 SLP160 T10041175"
    },
    "geometry": {
      "type": "Point",
      "coordinates": [-84.164,49.747]
    } 
  },
  { "type": "Feature",
    "properties": {
      "id": "CYZH",
      "site": "Slave Lake Arpt",
      "prior": "1",
      "obsTime": "2018-04-27T17:00:00Z",
      "temp": 15.0,
      "dewp": 1.0,
      "wspd": 9,
      "wdir": 80,
      "cover": "CLR",
      "visib": 9.00,
      "fltcat": "VFR",
      "altim": 1013.0,
      "slp": 1014.0,
      "rawOb": "CYZH 271700Z AUTO 08009KT 9SM CLR 15/01 A2991 RMK SLP140 DENSITY ALT 2300FT"
    },
    "geometry": {
      "type": "Point",
      "coordinates": [-114.777,55.293]
    } 
  },
  { "type": "Feature",
    "properties": {
      "id": "CYER",
      "site": "Ft Severn Arpt",
      "prior": "1",
      "obsTime": "2018-04-27T17:00:00Z",
      "temp": -9.0,
      "dewp": -13.0,
      "wspd": 5,
      "wdir": 360,
      "ceil": 20,
      "cover": "OVC",
      "visib": 8.00,
      "fltcat": "MVFR",
      "altim": 1023.1,
      "slp": 1023.5,
      "wx": "-SN",
      "rawOb": "CYER 271700Z AUTO 36005KT 310V020 8SM -SN OVC020 M09/M13 A3021 RMK SLP235"
    },
    "geometry": {
      "type": "Point",
      "coordinates": [-87.676,56.019]
    } 
  },
  { "type": "Feature",
    "properties": {
      "id": "KCDC",
      "site": "Cedar City Muni",
      "prior": "1",
      "obsTime": "2018-04-27T16:53:00Z",
      "temp": 22.8,
      "dewp": -6.1,
      "wspd": 3,
      "wdir": 90,
      "cover": "CLR",
      "visib": 10.00,
      "fltcat": "VFR",
      "altim": 1017.7,
      "slp": 1010.8,
      "rawOb": "KCDC 271653Z AUTO 09003KT 10SM CLR 23/M06 A3005 RMK AO2 SLP108 T02281061"
    },
    "geometry": {
      "type": "Point",
      "coordinates": [-113.100,37.700]
    } 
  },
  { "type": "Feature",
    "properties": {
      "id": "KHSE",
      "site": "Hatteras/Mitchell Fl",
      "prior": "1",
      "obsTime": "2018-04-27T16:51:00Z",
      "temp": 22.2,
      "dewp": 17.2,
      "wspd": 9,
      "wdir": 120,
      "cover": "SCT",
      "visib": 10.00,
      "fltcat": "VFR",
      "altim": 1008.9,
      "slp": 1008.7,
      "rawOb": "KHSE 271651Z AUTO 12009KT 10SM SCT080 22/17 A2979 RMK AO2 SLP087 T02220172"
    },
    "geometry": {
      "type": "Point",
      "coordinates": [-75.618,35.233]
    } 
  },
  { "type": "Feature",
    "properties": {
      "id": "CYKJ",
      "site": "Key Lake Arpt",
      "prior": "1",
      "obsTime": "2018-04-27T17:00:00Z",
      "temp": 9.0,
      "dewp": -5.0,
      "wspd": 8,
      "wdir": 270,
      "cover": "CLR",
      "visib": 9.00,
      "fltcat": "VFR",
      "altim": 1018.0,
      "slp": 1020.3,
      "rawOb": "CYKJ 271700Z AUTO 27008KT 200V290 9SM CLR 09/M05 A3006 RMK SLP203"
    },
    "geometry": {
      "type": "Point",
      "coordinates": [-105.620,57.255]
    } 
  },
  { "type": "Feature",
    "properties": {
      "id": "MMGL",
      "site": "Guadalajara/Hildago",
      "prior": "1",
      "obsTime": "2018-04-27T16:46:00Z",
      "temp": 27.0,
      "dewp": -4.0,
      "wspd": 7,
      "wdir": 330,
      "cover": "SKC",
      "visib": 10.00,
      "fltcat": "VFR",
      "altim": 1020.7,
      "rawOb": "MMGL 271646Z 33007KT 10SM SKC 27/M04 A3014"
    },
    "geometry": {
      "type": "Point",
      "coordinates": [-103.310,20.522]
    } 
  },
  { "type": "Feature",
    "properties": {
      "id": "CYPL",
      "site": "Pickle Lake Arpt",
      "prior": "1",
      "obsTime": "2018-04-27T17:00:00Z",
      "temp": 3.0,
      "dewp": -9.0,
      "wspd": 4,
      "wdir": 10,
      "ceil": 100,
      "cover": "BKN",
      "visib": 15.00,
      "fltcat": "VFR",
      "altim": 1016.3,
      "slp": 1018.3,
      "rawOb": "CYPL 271700Z 01004KT 330V070 15SM SCT045 BKN100 03/M09 A3001 RMK CU3AS3 SLP183"
    },
    "geometry": {
      "type": "Point",
      "coordinates": [-90.214,51.446]
    } 
  },
  { "type": "Feature",
    "properties": {
      "id": "MBPV",
      "site": "Providenciales Intl",
      "prior": "1",
      "obsTime": "2018-04-27T17:00:00Z",
      "temp": 31.0,
      "dewp": 23.0,
      "wspd": 8,
      "wdir": 140,
      "cover": "SCT",
      "visib": 6.21,
      "fltcat": "VFR",
      "altim": 1014.0,
      "rawOb": "MBPV 271700Z 14008KT 9999 SCT012TCU SCT030 31/23 Q1014"
    },
    "geometry": {
      "type": "Point",
      "coordinates": [-72.267,21.774]
    } 
  },
  { "type": "Feature",
    "properties": {
      "id": "MMTM",
      "site": "Tampico/Mina Intl",
      "prior": "1",
      "obsTime": "2018-04-27T17:02:00Z",
      "temp": 25.0,
      "dewp": 22.0,
      "wspd": 87,
      "wdir": 360,
      "ceil": 15,
      "cover": "BKN",
      "visib": 7.00,
      "fltcat": "MVFR",
      "altim": 1017.0,
      "rawOb": "MMTM 271702Z RTD 360087KT 7SM BKN015 BKN060 25/22 A3003 RMK 8/570 HZY"
    },
    "geometry": {
      "type": "Point",
      "coordinates": [-97.867,22.293]
    } 
  },
  { "type": "Feature",
    "properties": {
      "id": "MMTC",
      "site": "Torreon/Tinoco Intl",
      "prior": "1",
      "obsTime": "2018-04-27T16:48:00Z",
      "temp": 28.0,
      "dewp": 9.0,
      "wspd": 15,
      "wdir": 30,
      "cover": "FEW",
      "visib": 10.00,
      "fltcat": "VFR",
      "altim": 1018.7,
      "rawOb": "MMTC 271648Z 03015KT 10SM FEW030 28/09 A3008 RMK 8/500"
    },
    "geometry": {
      "type": "Point",
      "coordinates": [-103.404,25.562]
    } 
  },
  { "type": "Feature",
    "properties": {
      "id": "MMGM",
      "site": "Guaymas/Yanez Intl",
      "prior": "1",
      "obsTime": "2018-04-27T16:40:00Z",
      "temp": 26.0,
      "dewp": 16.0,
      "wspd": 11,
      "wdir": 210,
      "ceil": 150,
      "cover": "BKN",
      "visib": 10.00,
      "fltcat": "VFR",
      "altim": 1009.9,
      "rawOb": "MMGM 271640Z 21011KT 10SM BKN150 26/16 A2982 RMK 8/010 HZY"
    },
    "geometry": {
      "type": "Point",
      "coordinates": [-110.924,27.968]
    } 
  },
  { "type": "Feature",
    "properties": {
      "id": "MMLP",
      "site": "La Paz/De Leon Intl",
      "prior": "1",
      "obsTime": "2018-04-27T16:40:00Z",
      "temp": 32.0,
      "dewp": 2.0,
      "wspd": 0,
      "wdir": 0,
      "ceil": 180,
      "cover": "BKN",
      "visib": 10.00,
      "fltcat": "VFR",
      "altim": 1012.6,
      "rawOb": "MMLP 271640Z 00000KT 10SM BKN180 BKN220 32/02 A2990 RMK 8/038"
    },
    "geometry": {
      "type": "Point",
      "coordinates": [-110.362,24.073]
    } 
  },
  { "type": "Feature",
    "properties": {
      "id": "KSAN",
      "site": "San Diego Intl Arpt",
      "prior": "2",
      "obsTime": "2018-04-27T17:05:00Z",
      "temp": 16.7,
      "dewp": 9.4,
      "wspd": 4,
      "wdir": 190,
      "cover": "SCT",
      "visib": 10.00,
      "fltcat": "VFR",
      "altim": 1017.7,
      "rawOb": "KSAN 271705Z 19004KT 10SM SCT025 17/09 A3005 RMK AO2 T01670094"
    },
    "geometry": {
      "type": "Point",
      "coordinates": [-117.190,32.733]
    } 
  },
  { "type": "Feature",
    "properties": {
      "id": "KSYR",
      "site": "Syracuse/Hancock Int",
      "prior": "2",
      "obsTime": "2018-04-27T16:54:00Z",
      "temp": 11.7,
      "dewp": 7.2,
      "wspd": 3,
      "wdir": 50,
      "ceil": 100,
      "cover": "OVC",
      "visib": 10.00,
      "fltcat": "VFR",
      "altim": 1008.5,
      "slp": 1008.2,
      "rawOb": "KSYR 271654Z 05003KT 10SM BKN100 OVC180 12/07 A2978 RMK AO2 SLP082 T01170072"
    },
    "geometry": {
      "type": "Point",
      "coordinates": [-76.106,43.112]
    } 
  },
  { "type": "Feature",
    "properties": {
      "id": "KPHL",
      "site": "Philadelphia Intl",
      "prior": "2",
      "obsTime": "2018-04-27T16:54:00Z",
      "temp": 13.9,
      "dewp": 10.0,
      "wspd": 5,
      "wdir": 40,
      "ceil": 20,
      "cover": "OVC",
      "visib": 10.00,
      "fltcat": "MVFR",
      "altim": 1007.9,
      "slp": 1007.6,
      "rawOb": "KPHL 271654Z 04005KT 10SM BKN020 BKN034 OVC070 14/10 A2976 RMK AO2 SLP076 T01390100 $"
    },
    "geometry": {
      "type": "Point",
      "coordinates": [-75.246,39.869]
    } 
  },
  { "type": "Feature",
    "properties": {
      "id": "KRIC",
      "site": "Richmond Intl",
      "prior": "2",
      "obsTime": "2018-04-27T16:54:00Z",
      "temp": 20.6,
      "dewp": 13.9,
      "wspd": 5,
      "wdir": 0,
      "ceil": 37,
      "cover": "BKN",
      "visib": 10.00,
      "fltcat": "VFR",
      "altim": 1007.5,
      "slp": 1007.9,
      "rawOb": "KRIC 271654Z VRB05KT 10SM BKN037 BKN070 BKN250 21/14 A2975 RMK AO2 SLP079 T02060139"
    },
    "geometry": {
      "type": "Point",
      "coordinates": [-77.322,37.506]
    } 
  },
  { "type": "Feature",
    "properties": {
      "id": "KJAN",
      "site": "Jackson/Evers Intl",
      "prior": "2",
      "obsTime": "2018-04-27T16:54:00Z",
      "temp": 20.0,
      "dewp": 10.6,
      "wspd": 9,
      "wdir": 340,
      "cover": "SCT",
      "visib": 10.00,
      "fltcat": "VFR",
      "altim": 1016.7,
      "slp": 1016.2,
      "rawOb": "KJAN 271654Z 34009KT 10SM SCT250 20/11 A3002 RMK AO2 SLP162 T02000106 $"
    },
    "geometry": {
      "type": "Point",
      "coordinates": [-90.077,32.312]
    } 
  },
  { "type": "Feature",
    "properties": {
      "id": "KFWA",
      "site": "Fort Wayne Intl",
      "prior": "2",
      "obsTime": "2018-04-27T16:54:00Z",
      "temp": 15.6,
      "dewp": 5.0,
      "wspd": 15,
      "wgst": 21,
      "wdir": 290,
      "cover": "SCT",
      "visib": 10.00,
      "fltcat": "VFR",
      "altim": 1007.2,
      "slp": 1007.1,
      "rawOb": "KFWA 271654Z 29015G21KT 10SM SCT085 16/05 A2974 RMK AO2 RAB06E16 SLP071 P0000 T01560050"
    },
    "geometry": {
      "type": "Point",
      "coordinates": [-85.190,40.982]
    } 
  },
  { "type": "Feature",
    "properties": {
      "id": "KCNK",
      "site": "Concordia/Blosser Mu",
      "prior": "2",
      "obsTime": "2018-04-27T16:55:00Z",
      "temp": 20.0,
      "dewp": 1.1,
      "wspd": 13,
      "wdir": 270,
      "cover": "CLR",
      "visib": 10.00,
      "fltcat": "VFR",
      "altim": 1018.0,
      "slp": 1017.3,
      "rawOb": "KCNK 271655Z AUTO 27013KT 10SM CLR 20/01 A3006 RMK AO2 SLP173 T02000011"
    },
    "geometry": {
      "type": "Point",
      "coordinates": [-97.653,39.550]
    } 
  },
  { "type": "Feature",
    "properties": {
      "id": "KIPT",
      "site": "Williamsport Rgnl",
      "prior": "2",
      "obsTime": "2018-04-27T17:05:00Z",
      "temp": 13.3,
      "dewp": 10.0,
      "wspd": 8,
      "wdir": 100,
      "ceil": 17,
      "cover": "OVC",
      "visib": 10.00,
      "fltcat": "MVFR",
      "altim": 1008.2,
      "rawOb": "KIPT 271705Z 10008KT 10SM BKN017 OVC037 13/10 A2977 RMK AO2 T01330100"
    },
    "geometry": {
      "type": "Point",
      "coordinates": [-76.922,41.241]
    } 
  },
  { "type": "Feature",
    "properties": {
      "id": "KMEM",
      "site": "Memphis Intl",
      "prior": "2",
      "obsTime": "2018-04-27T16:54:00Z",
      "temp": 20.6,
      "dewp": 12.2,
      "wspd": 8,
      "wgst": 15,
      "wdir": 330,
      "cover": "SCT",
      "visib": 10.00,
      "fltcat": "VFR",
      "altim": 1015.7,
      "slp": 1015.4,
      "rawOb": "KMEM 271654Z 33008G15KT 10SM SCT050 21/12 A2999 RMK AO2 SLP154 T02060122 $"
    },
    "geometry": {
      "type": "Point",
      "coordinates": [-89.982,35.042]
    } 
  },
  { "type": "Feature",
    "properties": {
      "id": "KCRW",
      "site": "Charleston/Yeager Ar",
      "prior": "2",
      "obsTime": "2018-04-27T16:54:00Z",
      "temp": 18.3,
      "dewp": 8.3,
      "wspd": 8,
      "wdir": 230,
      "cover": "SCT",
      "visib": 10.00,
      "fltcat": "VFR",
      "altim": 1008.2,
      "slp": 1007.6,
      "rawOb": "KCRW 271654Z 23008KT 10SM SCT042 18/08 A2977 RMK AO2 SLP076 T01830083"
    },
    "geometry": {
      "type": "Point",
      "coordinates": [-81.594,38.374]
    } 
  },
  { "type": "Feature",
    "properties": {
      "id": "KGRR",
      "site": "Grand Rapids Intl",
      "prior": "2",
      "obsTime": "2018-04-27T16:53:00Z",
      "temp": 14.4,
      "dewp": 2.8,
      "wspd": 10,
      "wdir": 350,
      "cover": "SCT",
      "visib": 10.00,
      "fltcat": "VFR",
      "altim": 1006.5,
      "slp": 1006.7,
      "rawOb": "KGRR 271653Z 35010KT 10SM FEW044 SCT080 14/03 A2972 RMK AO2 SLP067 T01440028"
    },
    "geometry": {
      "type": "Point",
      "coordinates": [-85.520,42.880]
    } 
  },
  { "type": "Feature",
    "properties": {
      "id": "KMSY",
      "site": "New Orleans/Armstron",
      "prior": "2",
      "obsTime": "2018-04-27T16:53:00Z",
      "temp": 21.7,
      "dewp": 13.3,
      "wspd": 7,
      "wdir": 320,
      "ceil": 250,
      "cover": "BKN",
      "visib": 10.00,
      "fltcat": "VFR",
      "altim": 1017.0,
      "slp": 1017.1,
      "rawOb": "KMSY 271653Z 32007KT 10SM FEW031 BKN250 22/13 A3003 RMK AO2 SLP171 T02170133"
    },
    "geometry": {
      "type": "Point",
      "coordinates": [-90.259,29.991]
    } 
  },
  { "type": "Feature",
    "properties": {
      "id": "KBGR",
      "site": "Bangor Intl Arpt",
      "prior": "2",
      "obsTime": "2018-04-27T17:19:00Z",
      "temp": 17.2,
      "dewp": 6.1,
      "wspd": 14,
      "wdir": 190,
      "ceil": 100,
      "cover": "OVC",
      "visib": 10.00,
      "fltcat": "VFR",
      "altim": 1011.6,
      "rawOb": "KBGR 271719Z 19014KT 10SM SCT048 BKN100 OVC200 17/06 A2987 RMK AO2 WSHFT 1659 T01720061"
    },
    "geometry": {
      "type": "Point",
      "coordinates": [-68.830,44.808]
    } 
  },
  { "type": "Feature",
    "properties": {
      "id": "KBFL",
      "site": "Bakersfield/Meadows",
      "prior": "2",
      "obsTime": "2018-04-27T16:54:00Z",
      "temp": 16.7,
      "dewp": 6.7,
      "wspd": 5,
      "wdir": 260,
      "cover": "CLR",
      "visib": 10.00,
      "fltcat": "VFR",
      "altim": 1019.0,
      "slp": 1018.6,
      "rawOb": "KBFL 271654Z 26005KT 10SM CLR 17/07 A3009 RMK AO2 SLP186 T01670067"
    },
    "geometry": {
      "type": "Point",
      "coordinates": [-119.058,35.435]
    } 
  },
  { "type": "Feature",
    "properties": {
      "id": "KTCC",
      "site": "Tucumcari Muni",
      "prior": "2",
      "obsTime": "2018-04-27T16:53:00Z",
      "temp": 17.2,
      "dewp": -1.1,
      "wspd": 6,
      "wdir": 200,
      "cover": "CLR",
      "visib": 10.00,
      "fltcat": "VFR",
      "altim": 1023.5,
      "slp": 1020.3,
      "rawOb": "KTCC 271653Z AUTO 20006KT 10SM CLR 17/M01 A3022 RMK AO2 SLP203 T01721011"
    },
    "geometry": {
      "type": "Point",
      "coordinates": [-103.604,35.182]
    } 
  },
  { "type": "Feature",
    "properties": {
      "id": "KRNO",
      "site": "Reno/Tahoe Intl",
      "prior": "2",
      "obsTime": "2018-04-27T16:55:00Z",
      "temp": 18.9,
      "dewp": -2.2,
      "wspd": 24,
      "wgst": 37,
      "wdir": 220,
      "cover": "FEW",
      "visib": 10.00,
      "fltcat": "VFR",
      "altim": 1013.6,
      "slp": 1008.7,
      "rawOb": "KRNO 271655Z 22024G37KT 10SM FEW070 19/M02 A2993 RMK AO2 PK WND 23037/1651 SLP087 T01891022"
    },
    "geometry": {
      "type": "Point",
      "coordinates": [-119.770,39.500]
    } 
  },
  { "type": "Feature",
    "properties": {
      "id": "KPUB",
      "site": "Pueblo Mem Arpt",
      "prior": "2",
      "obsTime": "2018-04-27T16:53:00Z",
      "temp": 17.8,
      "dewp": -2.2,
      "wspd": 7,
      "wdir": 150,
      "cover": "CLR",
      "visib": 10.00,
      "fltcat": "VFR",
      "altim": 1021.1,
      "slp": 1018.4,
      "rawOb": "KPUB 271653Z 15007KT 10SM CLR 18/M02 A3015 RMK AO2 SLP184 T01781022"
    },
    "geometry": {
      "type": "Point",
      "coordinates": [-104.494,38.286]
    } 
  },
  { "type": "Feature",
    "properties": {
      "id": "KLBB",
      "site": "Lubbock Intl Arpt",
      "prior": "2",
      "obsTime": "2018-04-27T16:53:00Z",
      "temp": 17.2,
      "dewp": -1.7,
      "wspd": 3,
      "wdir": 0,
      "cover": "FEW",
      "visib": 10.00,
      "fltcat": "VFR",
      "altim": 1024.1,
      "slp": 1021.2,
      "rawOb": "KLBB 271653Z VRB03KT 10SM FEW300 17/M02 A3024 RMK AO2 SLP212 T01721017"
    },
    "geometry": {
      "type": "Point",
      "coordinates": [-101.828,33.660]
    } 
  },
  { "type": "Feature",
    "properties": {
      "id": "KIND",
      "site": "Indianapolis Intl",
      "prior": "2",
      "obsTime": "2018-04-27T16:54:00Z",
      "temp": 17.8,
      "dewp": 2.8,
      "wspd": 13,
      "wgst": 20,
      "wdir": 310,
      "cover": "FEW",
      "visib": 10.00,
      "fltcat": "VFR",
      "altim": 1009.2,
      "slp": 1009.2,
      "rawOb": "KIND 271654Z 31013G20KT 10SM FEW070 18/03 A2980 RMK AO2 SLP092 ACC DSNT E-S T01780028"
    },
    "geometry": {
      "type": "Point",
      "coordinates": [-86.292,39.720]
    } 
  },
  { "type": "Feature",
    "properties": {
      "id": "KFAR",
      "site": "Fargo/Hector Intl",
      "prior": "2",
      "obsTime": "2018-04-27T16:53:00Z",
      "temp": 11.1,
      "dewp": 1.7,
      "wspd": 25,
      "wgst": 34,
      "wdir": 340,
      "cover": "SCT",
      "visib": 10.00,
      "fltcat": "VFR",
      "altim": 1015.3,
      "slp": 1015.7,
      "rawOb": "KFAR 271653Z 34025G34KT 10SM SCT033 11/02 A2998 RMK AO2 PK WND 34041/1615 SLP157 T01110017"
    },
    "geometry": {
      "type": "Point",
      "coordinates": [-96.816,46.920]
    } 
  },
  { "type": "Feature",
    "properties": {
      "id": "KELY",
      "site": "Ely/Yelland Fld",
      "prior": "2",
      "obsTime": "2018-04-27T16:53:00Z",
      "temp": 22.2,
      "dewp": -6.7,
      "wspd": 12,
      "wgst": 23,
      "wdir": 150,
      "cover": "CLR",
      "visib": 10.00,
      "fltcat": "VFR",
      "altim": 1017.4,
      "slp": 1007.7,
      "rawOb": "KELY 271653Z AUTO 15012G23KT 10SM CLR 22/M07 A3004 RMK AO2 SLP077 T02221067"
    },
    "geometry": {
      "type": "Point",
      "coordinates": [-114.838,39.300]
    } 
  },
  { "type": "Feature",
    "properties": {
      "id": "KDLH",
      "site": "Duluth Intl Arpt",
      "prior": "2",
      "obsTime": "2018-04-27T17:30:00Z",
      "temp": 1.1,
      "dewp": 0.0,
      "wspd": 8,
      "wdir": 70,
      "ceil": 6,
      "cover": "OVC",
      "visib": 0.75,
      "fltcat": "LIFR",
      "altim": 1011.3,
      "wx": "-SN BR",
      "rawOb": "KDLH 271730Z 07008KT 3/4SM R09/3500V5500FT -SN BR OVC006 01/00 A2986 RMK AO2 TWR VIS 2 SNB08 P0000 T00110000"
    },
    "geometry": {
      "type": "Point",
      "coordinates": [-92.191,46.841]
    } 
  },
  { "type": "Feature",
    "properties": {
      "id": "KCYS",
      "site": "Cheyenne Rgnl",
      "prior": "2",
      "obsTime": "2018-04-27T16:53:00Z",
      "temp": 17.2,
      "dewp": -8.9,
      "wspd": 4,
      "wdir": 0,
      "cover": "CLR",
      "visib": 10.00,
      "fltcat": "VFR",
      "altim": 1022.1,
      "slp": 1017.6,
      "rawOb": "KCYS 271653Z VRB04KT 10SM CLR 17/M09 A3018 RMK AO2 SLP176 T01721089"
    },
    "geometry": {
      "type": "Point",
      "coordinates": [-104.814,41.155]
    } 
  },
  { "type": "Feature",
    "properties": {
      "id": "MUCM",
      "site": "Camaguey/Agramonte A",
      "prior": "2",
      "obsTime": "2018-04-27T16:52:00Z",
      "temp": 25.0,
      "dewp": 21.0,
      "wspd": 5,
      "wdir": 250,
      "ceil": 20,
      "cover": "BKN",
      "visib": 4.97,
      "fltcat": "MVFR",
      "altim": 1015.0,
      "wx": "TS",
      "rawOb": "MUCM 271652Z 25005KT 8000 TS FEW018CB BKN020 25/21 Q1015"
    },
    "geometry": {
      "type": "Point",
      "coordinates": [-77.847,21.420]
    } 
  },
  { "type": "Feature",
    "properties": {
      "id": "KBTV",
      "site": "Burlington Intl",
      "prior": "2",
      "obsTime": "2018-04-27T16:54:00Z",
      "temp": 13.3,
      "dewp": 5.0,
      "wspd": 5,
      "wdir": 200,
      "ceil": 120,
      "cover": "OVC",
      "visib": 10.00,
      "fltcat": "VFR",
      "altim": 1009.6,
      "slp": 1009.4,
      "rawOb": "KBTV 271654Z 20005KT 10SM OVC120 13/05 A2981 RMK AO2 SLP094 T01330050"
    },
    "geometry": {
      "type": "Point",
      "coordinates": [-73.152,44.473]
    } 
  },
  { "type": "Feature",
    "properties": {
      "id": "KBIL",
      "site": "Billings/Logan Intl",
      "prior": "2",
      "obsTime": "2018-04-27T16:53:00Z",
      "temp": 15.6,
      "dewp": 0.0,
      "wspd": 0,
      "wdir": 0,
      "cover": "CLR",
      "visib": 10.00,
      "fltcat": "VFR",
      "altim": 1018.7,
      "slp": 1017.1,
      "rawOb": "KBIL 271653Z 00000KT 10SM CLR 16/00 A3008 RMK AO2 SLP171 T01560000"
    },
    "geometry": {
      "type": "Point",
      "coordinates": [-108.538,45.807]
    } 
  },
  { "type": "Feature",
    "properties": {
      "id": "KINW",
      "site": "Winslow/Lindberg Rgn",
      "prior": "2",
      "obsTime": "2018-04-27T16:56:00Z",
      "temp": 20.6,
      "dewp": -7.8,
      "wspd": 9,
      "wdir": 280,
      "cover": "CLR",
      "visib": 10.00,
      "fltcat": "VFR",
      "altim": 1019.4,
      "slp": 1013.2,
      "rawOb": "KINW 271656Z AUTO 28009KT 10SM CLR 21/M08 A3010 RMK AO2 SLP132 T02061078"
    },
    "geometry": {
      "type": "Point",
      "coordinates": [-110.721,35.022]
    } 
  },
  { "type": "Feature",
    "properties": {
      "id": "KICT",
      "site": "Wichita/Mid Continen",
      "prior": "2",
      "obsTime": "2018-04-27T16:53:00Z",
      "temp": 19.4,
      "dewp": 1.7,
      "wspd": 7,
      "wdir": 270,
      "cover": "CLR",
      "visib": 10.00,
      "fltcat": "VFR",
      "altim": 1020.1,
      "slp": 1019.2,
      "rawOb": "KICT 271653Z 27007KT 10SM CLR 19/02 A3012 RMK AO2 SLP192 T01940017"
    },
    "geometry": {
      "type": "Point",
      "coordinates": [-97.430,37.653]
    } 
  },
  { "type": "Feature",
    "properties": {
      "id": "KTUL",
      "site": "Tulsa Intl Arpt",
      "prior": "2",
      "obsTime": "2018-04-27T16:53:00Z",
      "temp": 20.0,
      "dewp": 2.2,
      "wspd": 8,
      "wdir": 350,
      "cover": "CLR",
      "visib": 10.00,
      "fltcat": "VFR",
      "altim": 1019.4,
      "slp": 1018.9,
      "rawOb": "KTUL 271653Z 35008KT 10SM CLR 20/02 A3010 RMK AO2 SLP189 T02000022 $"
    },
    "geometry": {
      "type": "Point",
      "coordinates": [-95.884,36.195]
    } 
  },
  { "type": "Feature",
    "properties": {
      "id": "KSHR",
      "site": "Sheridan Cnty Arpt",
      "prior": "2",
      "obsTime": "2018-04-27T16:53:00Z",
      "temp": 20.0,
      "dewp": 0.0,
      "wspd": 5,
      "wdir": 60,
      "cover": "CLR",
      "visib": 10.00,
      "fltcat": "VFR",
      "altim": 1019.0,
      "slp": 1017.8,
      "rawOb": "KSHR 271653Z AUTO 06005KT 10SM CLR 20/00 A3009 RMK AO2 SLP178 T02000000"
    },
    "geometry": {
      "type": "Point",
      "coordinates": [-106.977,44.774]
    } 
  },
  { "type": "Feature",
    "properties": {
      "id": "KRAP",
      "site": "Rapid City Rgnl",
      "prior": "2",
      "obsTime": "2018-04-27T16:52:00Z",
      "temp": 16.1,
      "dewp": 1.1,
      "wspd": 15,
      "wdir": 350,
      "cover": "CLR",
      "visib": 10.00,
      "fltcat": "VFR",
      "altim": 1019.7,
      "slp": 1019.3,
      "rawOb": "KRAP 271652Z 35015KT 10SM CLR 16/01 A3011 RMK AO2 SLP193 T01610011"
    },
    "geometry": {
      "type": "Point",
      "coordinates": [-103.057,44.042]
    } 
  },
  { "type": "Feature",
    "properties": {
      "id": "KGJT",
      "site": "Grand Junction Rgnl",
      "prior": "2",
      "obsTime": "2018-04-27T16:53:00Z",
      "temp": 17.8,
      "dewp": -5.0,
      "wspd": 7,
      "wdir": 190,
      "cover": "CLR",
      "visib": 10.00,
      "fltcat": "VFR",
      "altim": 1020.7,
      "slp": 1015.5,
      "rawOb": "KGJT 271653Z 19007KT 10SM CLR 18/M05 A3014 RMK AO2 SLP155 T01781050"
    },
    "geometry": {
      "type": "Point",
      "coordinates": [-108.528,39.126]
    } 
  },
  { "type": "Feature",
    "properties": {
      "id": "KGLD",
      "site": "Goodland/Renner Fld",
      "prior": "2",
      "obsTime": "2018-04-27T16:53:00Z",
      "temp": 20.0,
      "dewp": -1.1,
      "wspd": 6,
      "wdir": 310,
      "cover": "CLR",
      "visib": 10.00,
      "fltcat": "VFR",
      "altim": 1020.4,
      "slp": 1018.8,
      "rawOb": "KGLD 271653Z AUTO 31006KT 10SM CLR 20/M01 A3013 RMK AO2 SLP188 T02001011"
    },
    "geometry": {
      "type": "Point",
      "coordinates": [-101.700,39.370]
    } 
  },
  { "type": "Feature",
    "properties": {
      "id": "KBHM",
      "site": "Birmingham Intl",
      "prior": "2",
      "obsTime": "2018-04-27T16:53:00Z",
      "temp": 20.0,
      "dewp": 10.0,
      "wspd": 9,
      "wdir": 340,
      "cover": "FEW",
      "visib": 10.00,
      "fltcat": "VFR",
      "altim": 1015.3,
      "slp": 1014.8,
      "rawOb": "KBHM 271653Z 34009KT 10SM FEW039 20/10 A2998 RMK AO2 SLP148 T02000100"
    },
    "geometry": {
      "type": "Point",
      "coordinates": [-86.750,33.565]
    } 
  },
  { "type": "Feature",
    "properties": {
      "id": "KABI",
      "site": "Abilene Rgnl",
      "prior": "2",
      "obsTime": "2018-04-27T16:52:00Z",
      "temp": 20.6,
      "dewp": 7.8,
      "wspd": 6,
      "wdir": 0,
      "cover": "CLR",
      "visib": 10.00,
      "fltcat": "VFR",
      "altim": 1022.4,
      "slp": 1020.8,
      "rawOb": "KABI 271652Z VRB06KT 10SM CLR 21/08 A3019 RMK AO2 SLP208 T02060078"
    },
    "geometry": {
      "type": "Point",
      "coordinates": [-99.680,32.409]
    } 
  },
  { "type": "Feature",
    "properties": {
      "id": "KILM",
      "site": "Wilmington Intl",
      "prior": "2",
      "obsTime": "2018-04-27T17:19:00Z",
      "temp": 22.8,
      "dewp": 16.1,
      "wspd": 9,
      "wdir": 120,
      "ceil": 29,
      "cover": "OVC",
      "visib": 10.00,
      "fltcat": "MVFR",
      "altim": 1008.5,
      "rawOb": "KILM 271719Z AUTO 12009KT 10SM SCT025 BKN029 OVC048 23/16 A2978 RMK AO2 T02280161"
    },
    "geometry": {
      "type": "Point",
      "coordinates": [-77.903,34.268]
    } 
  },
  { "type": "Feature",
    "properties": {
      "id": "KTPA",
      "site": "Tampa Intl Arpt",
      "prior": "2",
      "obsTime": "2018-04-27T16:53:00Z",
      "temp": 27.2,
      "dewp": 17.2,
      "wspd": 12,
      "wdir": 270,
      "cover": "SCT",
      "visib": 10.00,
      "fltcat": "VFR",
      "altim": 1013.0,
      "slp": 1012.9,
      "rawOb": "KTPA 271653Z 27012KT 10SM SCT040 27/17 A2991 RMK AO2 SLP129 T02720172"
    },
    "geometry": {
      "type": "Point",
      "coordinates": [-82.535,27.976]
    } 
  },
  { "type": "Feature",
    "properties": {
      "id": "KSGF",
      "site": "Springfield Muni",
      "prior": "2",
      "obsTime": "2018-04-27T16:52:00Z",
      "temp": 17.8,
      "dewp": 1.7,
      "wspd": 12,
      "wgst": 21,
      "wdir": 350,
      "cover": "CLR",
      "visib": 10.00,
      "fltcat": "VFR",
      "altim": 1017.7,
      "slp": 1017.2,
      "rawOb": "KSGF 271652Z 35012G21KT 10SM CLR 18/02 A3005 RMK AO2 SLP172 T01780017"
    },
    "geometry": {
      "type": "Point",
      "coordinates": [-93.388,37.245]
    } 
  },
  { "type": "Feature",
    "properties": {
      "id": "KSHV",
      "site": "Shreveport Rgnl",
      "prior": "2",
      "obsTime": "2018-04-27T16:56:00Z",
      "temp": 21.7,
      "dewp": 11.1,
      "wspd": 7,
      "wdir": 330,
      "cover": "FEW",
      "visib": 10.00,
      "fltcat": "VFR",
      "altim": 1018.4,
      "slp": 1018.1,
      "rawOb": "KSHV 271656Z 33007KT 10SM FEW039 22/11 A3007 RMK AO2 SLP181 T02170111 $"
    },
    "geometry": {
      "type": "Point",
      "coordinates": [-93.828,32.447]
    } 
  },
  { "type": "Feature",
    "properties": {
      "id": "KMSN",
      "site": "Madison/Dane Cnty Rg",
      "prior": "2",
      "obsTime": "2018-04-27T16:53:00Z",
      "temp": 11.1,
      "dewp": -1.7,
      "wspd": 4,
      "wdir": 160,
      "ceil": 100,
      "cover": "BKN",
      "visib": 10.00,
      "fltcat": "VFR",
      "altim": 1009.6,
      "slp": 1009.8,
      "rawOb": "KMSN 271653Z 16004KT 10SM BKN100 11/M02 A2981 RMK AO2 SLP098 T01111017"
    },
    "geometry": {
      "type": "Point",
      "coordinates": [-89.341,43.136]
    } 
  },
  { "type": "Feature",
    "properties": {
      "id": "KIAH",
      "site": "Houston/Bush Intl",
      "prior": "2",
      "obsTime": "2018-04-27T16:53:00Z",
      "temp": 23.3,
      "dewp": 11.1,
      "wspd": 9,
      "wdir": 350,
      "cover": "FEW",
      "visib": 10.00,
      "fltcat": "VFR",
      "altim": 1019.7,
      "slp": 1019.4,
      "rawOb": "KIAH 271653Z 35009KT 10SM FEW045 FEW250 23/11 A3011 RMK AO2 SLP194 T02330111"
    },
    "geometry": {
      "type": "Point",
      "coordinates": [-95.350,29.981]
    } 
  },
  { "type": "Feature",
    "properties": {
      "id": "KHVR",
      "site": "Havre/City Arpt",
      "prior": "2",
      "obsTime": "2018-04-27T16:53:00Z",
      "temp": 17.2,
      "dewp": 2.2,
      "wspd": 16,
      "wdir": 90,
      "cover": "CLR",
      "visib": 10.00,
      "fltcat": "VFR",
      "altim": 1017.7,
      "slp": 1017.6,
      "rawOb": "KHVR 271653Z AUTO 09016KT 10SM CLR 17/02 A3005 RMK AO2 SLP176 T01720022"
    },
    "geometry": {
      "type": "Point",
      "coordinates": [-109.763,48.544]
    } 
  },
  { "type": "Feature",
    "properties": {
      "id": "CYYR",
      "site": "Goose Bay Arpt",
      "prior": "2",
      "obsTime": "2018-04-27T17:00:00Z",
      "temp": 9.0,
      "dewp": 4.0,
      "wspd": 10,
      "wdir": 270,
      "ceil": 35,
      "cover": "BKN",
      "visib": 15.00,
      "fltcat": "VFR",
      "altim": 1000.8,
      "slp": 1000.8,
      "rawOb": "CYYR 271700Z 27010KT 15SM BKN035 09/04 A2955 RMK SC7 SLP008"
    },
    "geometry": {
      "type": "Point",
      "coordinates": [-60.411,53.320]
    } 
  },
  { "type": "Feature",
    "properties": {
      "id": "CYVR",
      "site": "Vancouver Intl",
      "prior": "2",
      "obsTime": "2018-04-27T17:00:00Z",
      "temp": 17.0,
      "dewp": 9.0,
      "wspd": 7,
      "wdir": 170,
      "cover": "SKC",
      "visib": 30.00,
      "fltcat": "VFR",
      "altim": 1010.6,
      "slp": 1010.7,
      "rawOb": "CYVR 271700Z 17007KT 120V180 30SM SKC 17/09 A2984 RMK SLP107 DENSITY ALT 300FT"
    },
    "geometry": {
      "type": "Point",
      "coordinates": [-123.181,49.195]
    } 
  },
  { "type": "Feature",
    "properties": {
      "id": "KSMF",
      "site": "Sacramento Intl",
      "prior": "2",
      "obsTime": "2018-04-27T16:53:00Z",
      "temp": 16.1,
      "dewp": 7.8,
      "wspd": 13,
      "wdir": 210,
      "cover": "FEW",
      "visib": 10.00,
      "fltcat": "VFR",
      "altim": 1019.0,
      "slp": 1018.8,
      "rawOb": "KSMF 271653Z 21013KT 10SM FEW065 FEW250 16/08 A3009 RMK AO2 SLP188 T01610078"
    },
    "geometry": {
      "type": "Point",
      "coordinates": [-121.591,38.696]
    } 
  },
  { "type": "Feature",
    "properties": {
      "id": "CYQB",
      "site": "Quebec/Lesage Intl",
      "prior": "2",
      "obsTime": "2018-04-27T17:00:00Z",
      "temp": 10.0,
      "dewp": 7.0,
      "wspd": 2,
      "wdir": 0,
      "ceil": 15,
      "cover": "OVC",
      "visib": 25.00,
      "fltcat": "MVFR",
      "altim": 1010.6,
      "slp": 1011.0,
      "rawOb": "CYQB 271700Z VRB02KT 25SM BKN015 OVC180 10/07 A2984 RMK SC5CS3 SLP110"
    },
    "geometry": {
      "type": "Point",
      "coordinates": [-71.389,46.788]
    } 
  },
  { "type": "Feature",
    "properties": {
      "id": "CYEG",
      "site": "Edmonton Intl Arpt",
      "prior": "2",
      "obsTime": "2018-04-27T17:00:00Z",
      "temp": 17.0,
      "dewp": 3.0,
      "wspd": 15,
      "wgst": 20,
      "wdir": 180,
      "cover": "SKC",
      "visib": 15.00,
      "fltcat": "VFR",
      "altim": 1015.0,
      "slp": 1016.3,
      "rawOb": "CYEG 271700Z 18015G20KT 15SM SKC 17/03 A2997 RMK SLP163 DENSITY ALT 3100FT"
    },
    "geometry": {
      "type": "Point",
      "coordinates": [-113.588,53.308]
    } 
  },
  { "type": "Feature",
    "properties": {
      "id": "KAPN",
      "site": "Alpena Cnty Rgnl",
      "prior": "2",
      "obsTime": "2018-04-27T17:29:00Z",
      "temp": 3.9,
      "dewp": 3.3,
      "wspd": 8,
      "wdir": 320,
      "ceil": 5,
      "cover": "OVC",
      "visib": 10.00,
      "fltcat": "IFR",
      "altim": 1007.9,
      "rawOb": "KAPN 271729Z AUTO 32008KT 10SM OVC005 04/03 A2976 RMK AO2 T00390033"
    },
    "geometry": {
      "type": "Point",
      "coordinates": [-83.561,45.083]
    } 
  },
  { "type": "Feature",
    "properties": {
      "id": "CYKL",
      "site": "Schefferville Arpt",
      "prior": "2",
      "obsTime": "2018-04-27T17:00:00Z",
      "temp": 4.0,
      "dewp": 0.0,
      "wspd": 10,
      "wdir": 320,
      "ceil": 60,
      "cover": "OVC",
      "visib": 9.00,
      "fltcat": "VFR",
      "altim": 1002.5,
      "slp": 1004.8,
      "rawOb": "CYKL 271700Z AUTO 32010KT 290V360 9SM FEW022 OVC060 04/M00 A2960 RMK SLP048"
    },
    "geometry": {
      "type": "Point",
      "coordinates": [-66.805,54.805]
    } 
  },
  { "type": "Feature",
    "properties": {
      "id": "CYGL",
      "site": "La Grande Riviere Ar",
      "prior": "2",
      "obsTime": "2018-04-27T17:00:00Z",
      "temp": -6.0,
      "dewp": -17.0,
      "wspd": 14,
      "wdir": 360,
      "cover": "SCT",
      "visib": 15.00,
      "fltcat": "VFR",
      "altim": 1014.3,
      "slp": 1016.0,
      "rawOb": "CYGL 271700Z 36014KT 15SM SCT220 M06/M17 A2995 RMK CI3 WND ESTD SLP160"
    },
    "geometry": {
      "type": "Point",
      "coordinates": [-77.705,53.625]
    } 
  },
  { "type": "Feature",
    "properties": {
      "id": "KEVV",
      "site": "Evansville Rgnl",
      "prior": "2",
      "obsTime": "2018-04-27T16:54:00Z",
      "temp": 20.0,
      "dewp": 8.3,
      "cover": "FEW",
      "visib": 10.00,
      "fltcat": "VFR",
      "altim": 1011.6,
      "slp": 1011.5,
      "rawOb": "KEVV 271654Z 10SM FEW080 20/08 A2987 RMK AO2 SLP115 T02000083 $"
    },
    "geometry": {
      "type": "Point",
      "coordinates": [-87.527,38.040]
    } 
  },
  { "type": "Feature",
    "properties": {
      "id": "CYYQ",
      "site": "Churchill Arpt",
      "prior": "2",
      "obsTime": "2018-04-27T17:00:00Z",
      "temp": -10.0,
      "dewp": -13.0,
      "wspd": 2,
      "wdir": 0,
      "cover": "FEW",
      "visib": 15.00,
      "fltcat": "VFR",
      "altim": 1023.1,
      "slp": 1023.4,
      "rawOb": "CYYQ 271700Z VRB02KT 15SM FEW013 M10/M13 A3021 RMK SC1 SC TR SLP234"
    },
    "geometry": {
      "type": "Point",
      "coordinates": [-94.081,58.750]
    } 
  },
  { "type": "Feature",
    "properties": {
      "id": "KTLH",
      "site": "Tallahassee Intl",
      "prior": "2",
      "obsTime": "2018-04-27T16:53:00Z",
      "temp": 22.8,
      "dewp": 10.6,
      "wspd": 11,
      "wgst": 17,
      "wdir": 290,
      "cover": "SCT",
      "visib": 10.00,
      "fltcat": "VFR",
      "altim": 1013.0,
      "slp": 1012.8,
      "rawOb": "KTLH 271653Z 29011G17KT 10SM FEW010 SCT045 SCT250 23/11 A2991 RMK AO2 SLP128 FU FEW010 FU SE-SW T02280106"
    },
    "geometry": {
      "type": "Point",
      "coordinates": [-84.355,30.394]
    } 
  },
  { "type": "Feature",
    "properties": {
      "id": "KMSO",
      "site": "Missoula Intl",
      "prior": "2",
      "obsTime": "2018-04-27T16:53:00Z",
      "temp": 13.9,
      "dewp": 2.2,
      "wspd": 0,
      "wdir": 0,
      "cover": "CLR",
      "visib": 10.00,
      "fltcat": "VFR",
      "altim": 1015.7,
      "slp": 1015.1,
      "rawOb": "KMSO 271653Z 00000KT 10SM CLR 14/02 A2999 RMK AO2 SLP151 T01390022"
    },
    "geometry": {
      "type": "Point",
      "coordinates": [-114.094,46.917]
    } 
  },
  { "type": "Feature",
    "properties": {
      "id": "KFAT",
      "site": "Fresno Air Terminal",
      "prior": "2",
      "obsTime": "2018-04-27T16:53:00Z",
      "temp": 17.8,
      "dewp": 5.0,
      "wspd": 11,
      "wdir": 310,
      "cover": "FEW",
      "visib": 10.00,
      "fltcat": "VFR",
      "altim": 1019.0,
      "slp": 1018.8,
      "rawOb": "KFAT 271653Z 31011KT 10SM FEW090 18/05 A3009 RMK AO2 SLP188 MTNS OBSCD HZ DSNT N-E-S T01780050"
    },
    "geometry": {
      "type": "Point",
      "coordinates": [-119.717,36.776]
    } 
  },
  { "type": "Feature",
    "properties": {
      "id": "KCRP",
      "site": "Corpus Christi Intl",
      "prior": "2",
      "obsTime": "2018-04-27T16:51:00Z",
      "temp": 25.6,
      "dewp": 11.7,
      "wspd": 6,
      "wdir": 0,
      "ceil": 250,
      "cover": "BKN",
      "visib": 10.00,
      "fltcat": "VFR",
      "altim": 1019.7,
      "slp": 1019.6,
      "rawOb": "KCRP 271651Z VRB06KT 10SM FEW027 FEW065 FEW180 BKN250 26/12 A3011 RMK AO2 SLP196 T02560117"
    },
    "geometry": {
      "type": "Point",
      "coordinates": [-97.505,27.770]
    } 
  },
  { "type": "Feature",
    "properties": {
      "id": "KWMC",
      "site": "Winnemucca Muni",
      "prior": "2",
      "obsTime": "2018-04-27T16:56:00Z",
      "temp": 22.2,
      "dewp": -0.6,
      "wspd": 13,
      "wdir": 270,
      "cover": "CLR",
      "visib": 10.00,
      "fltcat": "VFR",
      "altim": 1011.6,
      "slp": 1007.3,
      "rawOb": "KWMC 271656Z AUTO 27013KT 10SM CLR 22/M01 A2987 RMK AO2 SLP073 T02221006"
    },
    "geometry": {
      "type": "Point",
      "coordinates": [-117.807,40.899]
    } 
  },
  { "type": "Feature",
    "properties": {
      "id": "KISN",
      "site": "Williston/Sloulin Fl",
      "prior": "2",
      "obsTime": "2018-04-27T16:52:00Z",
      "temp": 13.3,
      "dewp": -3.3,
      "wspd": 11,
      "wdir": 30,
      "cover": "CLR",
      "visib": 10.00,
      "fltcat": "VFR",
      "altim": 1021.1,
      "slp": 1021.6,
      "rawOb": "KISN 271652Z AUTO 03011KT 10SM CLR 13/M03 A3015 RMK AO2 SLP216 T01331033"
    },
    "geometry": {
      "type": "Point",
      "coordinates": [-103.640,48.177]
    } 
  },
  { "type": "Feature",
    "properties": {
      "id": "CYSJ",
      "site": "Saint John Arpt",
      "prior": "2",
      "obsTime": "2018-04-27T17:00:00Z",
      "temp": 17.0,
      "dewp": 6.0,
      "wspd": 10,
      "wdir": 210,
      "ceil": 240,
      "cover": "BKN",
      "visib": 15.00,
      "fltcat": "VFR",
      "altim": 1012.6,
      "slp": 1013.0,
      "rawOb": "CYSJ 271700Z 21010KT 160V230 15SM FEW035 BKN240 17/06 A2990 RMK SC1CI6 SC TR SLP130 DENSITY ALT 700FT"
    },
    "geometry": {
      "type": "Point",
      "coordinates": [-65.884,45.322]
    } 
  },
  { "type": "Feature",
    "properties": {
      "id": "KCLE",
      "site": "Cleveland/Hopkins In",
      "prior": "2",
      "obsTime": "2018-04-27T16:51:00Z",
      "temp": 18.9,
      "dewp": 2.8,
      "wspd": 10,
      "wdir": 230,
      "ceil": 250,
      "cover": "BKN",
      "visib": 10.00,
      "fltcat": "VFR",
      "altim": 1006.5,
      "slp": 1006.5,
      "rawOb": "KCLE 271651Z 23010KT 10SM SCT180 BKN250 19/03 A2972 RMK AO2 SLP065 T01890028"
    },
    "geometry": {
      "type": "Point",
      "coordinates": [-81.850,41.410]
    } 
  },
  { "type": "Feature",
    "properties": {
      "id": "KSPW",
      "site": "Spencer Muni",
      "prior": "2",
      "obsTime": "2018-04-27T16:53:00Z",
      "temp": 18.3,
      "dewp": 3.3,
      "wspd": 16,
      "wgst": 28,
      "wdir": 320,
      "cover": "CLR",
      "visib": 10.00,
      "fltcat": "VFR",
      "altim": 1011.6,
      "slp": 1011.9,
      "rawOb": "KSPW 271653Z AUTO 32016G28KT 10SM CLR 18/03 A2987 RMK AO2 PK WND 31031/1637 SLP119 T01830033"
    },
    "geometry": {
      "type": "Point",
      "coordinates": [-95.202,43.165]
    } 
  },
  { "type": "Feature",
    "properties": {
      "id": "KPIT",
      "site": "Pittsburgh Intl",
      "prior": "2",
      "obsTime": "2018-04-27T16:51:00Z",
      "temp": 16.7,
      "dewp": 3.3,
      "wspd": 10,
      "wdir": 200,
      "ceil": 55,
      "cover": "OVC",
      "visib": 10.00,
      "fltcat": "VFR",
      "altim": 1006.5,
      "slp": 1007.0,
      "rawOb": "KPIT 271651Z 20010KT 10SM BKN055 OVC230 17/03 A2972 RMK AO2 SLP070 T01670033"
    },
    "geometry": {
      "type": "Point",
      "coordinates": [-80.243,40.495]
    } 
  },
  { "type": "Feature",
    "properties": {
      "id": "KPIA",
      "site": "Peoria Intl",
      "prior": "2",
      "obsTime": "2018-04-27T16:54:00Z",
      "temp": 17.2,
      "dewp": 0.0,
      "wspd": 9,
      "wdir": 320,
      "cover": "CLR",
      "visib": 10.00,
      "fltcat": "VFR",
      "altim": 1012.3,
      "slp": 1012.2,
      "rawOb": "KPIA 271654Z 32009KT 10SM CLR 17/00 A2989 RMK AO2 SLP122 T01720000 $"
    },
    "geometry": {
      "type": "Point",
      "coordinates": [-89.689,40.661]
    } 
  },
  { "type": "Feature",
    "properties": {
      "id": "KOMA",
      "site": "Omaha/Eppley Fld",
      "prior": "2",
      "obsTime": "2018-04-27T16:52:00Z",
      "temp": 22.8,
      "dewp": 0.6,
      "wspd": 16,
      "wdir": 300,
      "cover": "CLR",
      "visib": 10.00,
      "fltcat": "VFR",
      "altim": 1013.6,
      "slp": 1013.1,
      "rawOb": "KOMA 271652Z 30016KT 10SM CLR 23/01 A2993 RMK AO2 PK WND 27026/1626 SLP131 T02280006"
    },
    "geometry": {
      "type": "Point",
      "coordinates": [-95.897,41.303]
    } 
  },
  { "type": "Feature",
    "properties": {
      "id": "KGRB",
      "site": "Green Bay/Straubel I",
      "prior": "2",
      "obsTime": "2018-04-27T16:53:00Z",
      "temp": 8.9,
      "dewp": 1.1,
      "wspd": 4,
      "wdir": 50,
      "ceil": 90,
      "cover": "OVC",
      "visib": 10.00,
      "fltcat": "VFR",
      "altim": 1010.2,
      "slp": 1010.4,
      "rawOb": "KGRB 271653Z 05004KT 10SM OVC090 09/01 A2983 RMK AO2 SLP104 T00890011"
    },
    "geometry": {
      "type": "Point",
      "coordinates": [-88.131,44.486]
    } 
  },
  { "type": "Feature",
    "properties": {
      "id": "KCSG",
      "site": "Columbus Arpt",
      "prior": "2",
      "obsTime": "2018-04-27T16:51:00Z",
      "temp": 21.1,
      "dewp": 7.8,
      "wspd": 8,
      "wgst": 18,
      "wdir": 10,
      "cover": "CLR",
      "visib": 10.00,
      "fltcat": "VFR",
      "altim": 1013.0,
      "slp": 1012.6,
      "rawOb": "KCSG 271651Z 01008G18KT 10SM CLR 21/08 A2991 RMK AO2 SLP126 T02110078"
    },
    "geometry": {
      "type": "Point",
      "coordinates": [-84.938,32.516]
    } 
  },
  { "type": "Feature",
    "properties": {
      "id": "KCAE",
      "site": "Columbia Metro",
      "prior": "2",
      "obsTime": "2018-04-27T16:56:00Z",
      "temp": 19.4,
      "dewp": 12.8,
      "wspd": 8,
      "wdir": 260,
      "ceil": 28,
      "cover": "OVC",
      "visib": 10.00,
      "fltcat": "MVFR",
      "altim": 1010.2,
      "slp": 1009.9,
      "rawOb": "KCAE 271656Z 26008KT 10SM OVC028 19/13 A2983 RMK AO2 SLP099 HEAVY DUST FROM RUNWY CONSTR NEAR ASOS T01940128"
    },
    "geometry": {
      "type": "Point",
      "coordinates": [-81.120,33.940]
    } 
  },
  { "type": "Feature",
    "properties": {
      "id": "CWKW",
      "site": "Cape Kakkiviak",
      "prior": "2",
      "obsTime": "2018-04-27T17:00:00Z",
      "altim": 998.7,
      "rawOb": "CWKW 271700Z AUTO ///// A2949"
    },
    "geometry": {
      "type": "Point",
      "coordinates": [-64.170,59.980]
    } 
  },
  { "type": "Feature",
    "properties": {
      "id": "KBLH",
      "site": "Blythe Arpt",
      "prior": "2",
      "obsTime": "2018-04-27T16:52:00Z",
      "temp": 28.9,
      "dewp": 4.4,
      "wspd": 4,
      "wdir": 210,
      "cover": "CLR",
      "visib": 10.00,
      "fltcat": "VFR",
      "altim": 1010.6,
      "slp": 1009.8,
      "rawOb": "KBLH 271652Z AUTO 21004KT 10SM CLR 29/04 A2984 RMK AO2 SLP098 T02890044"
    },
    "geometry": {
      "type": "Point",
      "coordinates": [-114.717,33.617]
    } 
  },
  { "type": "Feature",
    "properties": {
      "id": "KALB",
      "site": "Albany Intl",
      "prior": "2",
      "obsTime": "2018-04-27T16:51:00Z",
      "temp": 10.0,
      "dewp": 6.1,
      "wspd": 4,
      "wdir": 290,
      "ceil": 48,
      "cover": "OVC",
      "visib": 7.00,
      "fltcat": "VFR",
      "altim": 1010.9,
      "slp": 1010.8,
      "wx": "-RA",
      "rawOb": "KALB 271651Z 29004KT 7SM -RA FEW020 BKN048 OVC080 10/06 A2985 RMK AO2 SLP108 P0004 T01000061"
    },
    "geometry": {
      "type": "Point",
      "coordinates": [-73.806,42.748]
    } 
  },
  { "type": "Feature",
    "properties": {
      "id": "CYVO",
      "site": "Val DOr Arpt",
      "prior": "2",
      "obsTime": "2018-04-27T17:00:00Z",
      "temp": 3.0,
      "dewp": -2.0,
      "wspd": 8,
      "wdir": 10,
      "ceil": 75,
      "cover": "BKN",
      "visib": 15.00,
      "fltcat": "VFR",
      "altim": 1008.9,
      "slp": 1010.4,
      "rawOb": "CYVO 271700Z 01008KT 15SM BKN075 BKN220 03/M02 A2979 RMK AC6CI1 SLP104"
    },
    "geometry": {
      "type": "Point",
      "coordinates": [-77.783,48.054]
    } 
  },
  { "type": "Feature",
    "properties": {
      "id": "KTPH",
      "site": "Tonopah Arpt",
      "prior": "2",
      "obsTime": "2018-04-27T16:56:00Z",
      "temp": 22.8,
      "dewp": -3.3,
      "wspd": 19,
      "wgst": 25,
      "wdir": 190,
      "cover": "CLR",
      "visib": 10.00,
      "fltcat": "VFR",
      "altim": 1015.0,
      "slp": 1008.4,
      "rawOb": "KTPH 271656Z AUTO 19019G25KT 10SM CLR 23/M03 A2997 RMK AO2 PK WND 18026/1643 SLP084 T02281033"
    },
    "geometry": {
      "type": "Point",
      "coordinates": [-117.088,38.057]
    } 
  },
  { "type": "Feature",
    "properties": {
      "id": "KFMN",
      "site": "Farmington/Four Corn",
      "prior": "2",
      "obsTime": "2018-04-27T16:53:00Z",
      "temp": 17.8,
      "dewp": -5.0,
      "wspd": 8,
      "wdir": 120,
      "cover": "CLR",
      "visib": 10.00,
      "fltcat": "VFR",
      "altim": 1022.4,
      "slp": 1018.3,
      "rawOb": "KFMN 271653Z 12008KT 10SM CLR 18/M05 A3019 RMK AO2 SLP183 T01781050"
    },
    "geometry": {
      "type": "Point",
      "coordinates": [-108.229,36.741]
    } 
  },
  { "type": "Feature",
    "properties": {
      "id": "KCMH",
      "site": "Columbus Intl",
      "prior": "2",
      "obsTime": "2018-04-27T16:51:00Z",
      "temp": 20.0,
      "dewp": 3.3,
      "wspd": 10,
      "wgst": 16,
      "wdir": 250,
      "cover": "SCT",
      "visib": 10.00,
      "fltcat": "VFR",
      "altim": 1006.9,
      "slp": 1006.5,
      "rawOb": "KCMH 271651Z 25010G16KT 200V300 10SM FEW060 SCT250 20/03 A2973 RMK AO2 SLP065 T02000033"
    },
    "geometry": {
      "type": "Point",
      "coordinates": [-82.891,39.998]
    } 
  },
  { "type": "Feature",
    "properties": {
      "id": "CYBQ",
      "site": "Tadoule Lake Arpt",
      "prior": "2",
      "obsTime": "2018-04-27T17:00:00Z",
      "temp": -1.0,
      "dewp": -5.0,
      "wspd": 4,
      "wdir": 130,
      "ceil": 22,
      "cover": "OVC",
      "visib": 9.00,
      "fltcat": "MVFR",
      "altim": 1017.7,
      "slp": 1019.9,
      "rawOb": "CYBQ 271700Z AUTO 13004KT 070V160 9SM BKN022 OVC031 M01/M05 A3005 RMK SLP199"
    },
    "geometry": {
      "type": "Point",
      "coordinates": [-98.512,58.706]
    } 
  },
  { "type": "Feature",
    "properties": {
      "id": "CYYN",
      "site": "Swift Current Arpt",
      "prior": "2",
      "obsTime": "2018-04-27T17:00:00Z",
      "temp": 14.0,
      "dewp": -5.0,
      "wspd": 7,
      "wgst": 15,
      "wdir": 150,
      "cover": "CLR",
      "visib": 9.00,
      "fltcat": "VFR",
      "altim": 1020.7,
      "slp": 1021.8,
      "rawOb": "CYYN 271700Z AUTO 15007G15KT 100V170 9SM CLR 14/M05 A3014 RMK SLP218 DENSITY ALT 2800FT"
    },
    "geometry": {
      "type": "Point",
      "coordinates": [-107.687,50.291]
    } 
  },
  { "type": "Feature",
    "properties": {
      "id": "CYYD",
      "site": "Smithers Arpt",
      "prior": "2",
      "obsTime": "2018-04-27T17:00:00Z",
      "temp": 9.0,
      "dewp": 1.0,
      "wspd": 2,
      "wdir": 0,
      "ceil": 230,
      "cover": "BKN",
      "visib": 25.00,
      "fltcat": "VFR",
      "altim": 1013.6,
      "slp": 1014.6,
      "rawOb": "CYYD 271700Z VRB02KT 25SM BKN230 09/01 A2993 RMK CI6 SLP146"
    },
    "geometry": {
      "type": "Point",
      "coordinates": [-127.182,54.824]
    } 
  },
  { "type": "Feature",
    "properties": {
      "id": "CYOJ",
      "site": "High Level Arpt",
      "prior": "2",
      "obsTime": "2018-04-27T17:00:00Z",
      "temp": 11.0,
      "dewp": 0.0,
      "wspd": 8,
      "wdir": 160,
      "cover": "SCT",
      "visib": 15.00,
      "fltcat": "VFR",
      "altim": 1008.9,
      "slp": 1010.2,
      "rawOb": "CYOJ 271700Z 16008KT 15SM FEW130 SCT260 11/M00 A2979 RMK AC2CI2 SLP102"
    },
    "geometry": {
      "type": "Point",
      "coordinates": [-117.162,58.619]
    } 
  },
  { "type": "Feature",
    "properties": {
      "id": "CYMM",
      "site": "Fort McMurray Arpt",
      "prior": "2",
      "obsTime": "2018-04-27T17:00:00Z",
      "temp": 17.0,
      "dewp": -4.0,
      "wspd": 10,
      "wdir": 190,
      "cover": "CLR",
      "visib": 9.00,
      "fltcat": "VFR",
      "altim": 1014.0,
      "slp": 1015.1,
      "rawOb": "CYMM 271700Z AUTO 19010KT 9SM CLR 17/M04 A2994 RMK SLP151 DENSITY ALT 1600FT"
    },
    "geometry": {
      "type": "Point",
      "coordinates": [-111.223,56.654]
    } 
  },
  { "type": "Feature",
    "properties": {
      "id": "KELP",
      "site": "El Paso Intl",
      "prior": "2",
      "obsTime": "2018-04-27T16:51:00Z",
      "temp": 17.2,
      "dewp": -1.7,
      "wspd": 6,
      "wdir": 110,
      "ceil": 110,
      "cover": "OVC",
      "visib": 10.00,
      "fltcat": "VFR",
      "altim": 1023.8,
      "slp": 1018.5,
      "rawOb": "KELP 271651Z 11006KT 10SM BKN110 OVC160 17/M02 A3023 RMK AO2 SLP185 SHRA DSNT SW T01721017"
    },
    "geometry": {
      "type": "Point",
      "coordinates": [-106.387,31.805]
    } 
  },
  { "type": "Feature",
    "properties": {
      "id": "CYMT",
      "site": "Chibougamau Arpt",
      "prior": "2",
      "obsTime": "2018-04-27T17:00:00Z",
      "temp": 4.0,
      "dewp": -2.0,
      "wspd": 4,
      "wdir": 0,
      "cover": "CLR",
      "visib": 9.00,
      "fltcat": "VFR",
      "altim": 1008.2,
      "slp": 1010.0,
      "rawOb": "CYMT 271700Z AUTO VRB04KT 9SM CLR 04/M02 A2977 RMK SLP100"
    },
    "geometry": {
      "type": "Point",
      "coordinates": [-74.537,49.773]
    } 
  },
  { "type": "Feature",
    "properties": {
      "id": "KCGI",
      "site": "Cape Girardeau Rgnl",
      "prior": "2",
      "obsTime": "2018-04-27T16:53:00Z",
      "temp": 20.6,
      "dewp": 8.3,
      "wspd": 10,
      "wdir": 310,
      "cover": "CLR",
      "visib": 10.00,
      "fltcat": "VFR",
      "altim": 1013.6,
      "slp": 1013.2,
      "rawOb": "KCGI 271653Z 31010KT 10SM CLR 21/08 A2993 RMK AO2 SLP132 T02060083"
    },
    "geometry": {
      "type": "Point",
      "coordinates": [-89.571,37.224]
    } 
  },
  { "type": "Feature",
    "properties": {
      "id": "KYKM",
      "site": "Yakima Air Term/McAl",
      "prior": "2",
      "obsTime": "2018-04-27T16:53:00Z",
      "temp": 22.2,
      "dewp": 4.4,
      "wspd": 5,
      "wdir": 0,
      "cover": "CLR",
      "visib": 10.00,
      "fltcat": "VFR",
      "altim": 1009.6,
      "slp": 1008.8,
      "rawOb": "KYKM 271653Z VRB05KT 10SM CLR 22/04 A2981 RMK AO2 SLP088 T02220044"
    },
    "geometry": {
      "type": "Point",
      "coordinates": [-120.540,46.568]
    } 
  },
  { "type": "Feature",
    "properties": {
      "id": "KVTN",
      "site": "Valentine/Miller Fld",
      "prior": "2",
      "obsTime": "2018-04-27T16:52:00Z",
      "temp": 21.1,
      "dewp": 0.6,
      "wspd": 14,
      "wdir": 340,
      "cover": "CLR",
      "visib": 10.00,
      "fltcat": "VFR",
      "altim": 1017.4,
      "slp": 1017.1,
      "rawOb": "KVTN 271652Z AUTO 34014KT 10SM CLR 21/01 A3004 RMK AO2 SLP171 T02110006"
    },
    "geometry": {
      "type": "Point",
      "coordinates": [-100.549,42.859]
    } 
  },
  { "type": "Feature",
    "properties": {
      "id": "CYSF",
      "site": "Stony Rapids Arpt",
      "prior": "2",
      "obsTime": "2018-04-27T17:00:00Z",
      "temp": 9.0,
      "dewp": -2.0,
      "wspd": 4,
      "wdir": 260,
      "cover": "FEW",
      "visib": 9.00,
      "fltcat": "VFR",
      "altim": 1016.3,
      "slp": 1017.8,
      "rawOb": "CYSF 271700Z AUTO 26004KT 240V320 9SM FEW190 09/M02 A3001 RMK SLP178"
    },
    "geometry": {
      "type": "Point",
      "coordinates": [-105.838,59.251]
    } 
  },
  { "type": "Feature",
    "properties": {
      "id": "CYQR",
      "site": "Regina Intl Arpt",
      "prior": "2",
      "obsTime": "2018-04-27T17:00:00Z",
      "temp": 10.0,
      "dewp": -4.0,
      "wspd": 5,
      "wdir": 0,
      "cover": "SKC",
      "visib": 15.00,
      "fltcat": "VFR",
      "altim": 1022.1,
      "slp": 1024.0,
      "rawOb": "CYQR 271700Z VRB05KT 15SM SKC 10/M04 A3018 RMK SLP240"
    },
    "geometry": {
      "type": "Point",
      "coordinates": [-104.661,50.432]
    } 
  },
  { "type": "Feature",
    "properties": {
      "id": "KPIH",
      "site": "Pocatello Muni",
      "prior": "2",
      "obsTime": "2018-04-27T16:53:00Z",
      "temp": 18.3,
      "dewp": 1.7,
      "wspd": 0,
      "wdir": 0,
      "cover": "CLR",
      "visib": 10.00,
      "fltcat": "VFR",
      "altim": 1016.7,
      "slp": 1013.8,
      "rawOb": "KPIH 271653Z 00000KT 10SM CLR 18/02 A3002 RMK AO2 SLP138 T01830017"
    },
    "geometry": {
      "type": "Point",
      "coordinates": [-112.590,42.910]
    } 
  },
  { "type": "Feature",
    "properties": {
      "id": "CYMO",
      "site": "Moosonee Arpt",
      "prior": "2",
      "obsTime": "2018-04-27T17:00:00Z",
      "temp": -4.0,
      "dewp": -12.0,
      "wspd": 8,
      "wdir": 10,
      "cover": "CLR",
      "visib": 9.00,
      "fltcat": "VFR",
      "altim": 1017.7,
      "slp": 1017.8,
      "rawOb": "CYMO 271700Z AUTO 01008KT 320V080 9SM CLR M04/M12 A3005 RMK SLP178"
    },
    "geometry": {
      "type": "Point",
      "coordinates": [-80.610,51.290]
    } 
  },
  { "type": "Feature",
    "properties": {
      "id": "CYQU",
      "site": "Grande Prairie Arpt",
      "prior": "2",
      "obsTime": "2018-04-27T17:00:00Z",
      "temp": 10.0,
      "dewp": 3.0,
      "wspd": 7,
      "wdir": 220,
      "cover": "FEW",
      "visib": 25.00,
      "fltcat": "VFR",
      "altim": 1012.3,
      "slp": 1014.1,
      "rawOb": "CYQU 271700Z 22007KT 25SM FEW250 10/03 A2989 RMK CI1 SLP141 DENSITY ALT 2300FT"
    },
    "geometry": {
      "type": "Point",
      "coordinates": [-118.880,55.180]
    } 
  },
  { "type": "Feature",
    "properties": {
      "id": "CYPA",
      "site": "Prince Albert Arpt",
      "prior": "2",
      "obsTime": "2018-04-27T17:00:00Z",
      "temp": 10.0,
      "dewp": -3.0,
      "wspd": 3,
      "wdir": 230,
      "cover": "FEW",
      "visib": 15.00,
      "fltcat": "VFR",
      "altim": 1023.1,
      "slp": 1024.7,
      "rawOb": "CYPA 271700Z 23003KT 140V300 15SM FEW250 10/M03 A3021 RMK CI1 CI TR SLP247"
    },
    "geometry": {
      "type": "Point",
      "coordinates": [-105.676,53.218]
    } 
  },
  { "type": "Feature",
    "properties": {
      "id": "CYNA",
      "site": "Natashquan Arpt",
      "prior": "2",
      "obsTime": "2018-04-27T17:00:00Z",
      "temp": 4.0,
      "dewp": 3.0,
      "wspd": 12,
      "wgst": 18,
      "wdir": 260,
      "cover": "FEW",
      "visib": 9.00,
      "fltcat": "VFR",
      "altim": 1006.5,
      "slp": 1006.6,
      "rawOb": "CYNA 271700Z AUTO 26012G18KT 9SM FEW028 04/03 A2972 RMK PRESRR SLP066"
    },
    "geometry": {
      "type": "Point",
      "coordinates": [-61.789,50.190]
    } 
  },
  { "type": "Feature",
    "properties": {
      "id": "CYYE",
      "site": "Fort Nelson Arpt",
      "prior": "2",
      "obsTime": "2018-04-27T17:00:00Z",
      "temp": 13.0,
      "dewp": 1.0,
      "wspd": 4,
      "wdir": 90,
      "cover": "SCT",
      "visib": 30.00,
      "fltcat": "VFR",
      "altim": 1010.2,
      "slp": 1011.1,
      "rawOb": "CYYE 271700Z 09004KT 070V160 30SM FEW110 SCT250 13/01 A2983 RMK AC1CI2 SLP111 DENSITY ALT 1500FT"
    },
    "geometry": {
      "type": "Point",
      "coordinates": [-122.596,58.838]
    } 
  },
  { "type": "Feature",
    "properties": {
      "id": "KBOS",
      "site": "Boston/Logan Intl",
      "prior": "2",
      "obsTime": "2018-04-27T16:54:00Z",
      "temp": 11.1,
      "dewp": 6.7,
      "wspd": 9,
      "wdir": 70,
      "ceil": 100,
      "cover": "OVC",
      "visib": 10.00,
      "fltcat": "VFR",
      "altim": 1011.9,
      "slp": 1011.7,
      "rawOb": "KBOS 271654Z 07009KT 10SM BKN100 OVC140 11/07 A2988 RMK AO2 SLP117 T01110067"
    },
    "geometry": {
      "type": "Point",
      "coordinates": [-71.006,42.364]
    } 
  },
  { "type": "Feature",
    "properties": {
      "id": "CYQT",
      "site": "Thunder Bay Intl",
      "prior": "2",
      "obsTime": "2018-04-27T17:00:00Z",
      "temp": 4.0,
      "dewp": -4.0,
      "wspd": 7,
      "wgst": 16,
      "wdir": 120,
      "ceil": 260,
      "cover": "BKN",
      "visib": 20.00,
      "fltcat": "VFR",
      "altim": 1014.0,
      "slp": 1014.9,
      "rawOb": "CYQT 271700Z 12007G16KT 070V140 20SM SCT031 BKN260 04/M04 A2994 RMK SC4CI2 SLP149"
    },
    "geometry": {
      "type": "Point",
      "coordinates": [-89.325,48.371]
    } 
  },
  { "type": "Feature",
    "properties": {
      "id": "CYSB",
      "site": "Sudbury Arpt",
      "prior": "2",
      "obsTime": "2018-04-27T17:00:00Z",
      "temp": 5.0,
      "dewp": 1.0,
      "wspd": 17,
      "wdir": 20,
      "ceil": 90,
      "cover": "BKN",
      "visib": 20.00,
      "fltcat": "VFR",
      "altim": 1006.9,
      "slp": 1008.3,
      "rawOb": "CYSB 271700Z 02017KT 20SM FEW050 BKN090 05/01 A2973 RMK SC1AC6 SLP083"
    },
    "geometry": {
      "type": "Point",
      "coordinates": [-80.798,46.627]
    } 
  },
  { "type": "Feature",
    "properties": {
      "id": "KMFR",
      "site": "Medford/Roque Valley",
      "prior": "2",
      "obsTime": "2018-04-27T16:53:00Z",
      "temp": 13.3,
      "dewp": 3.3,
      "wspd": 12,
      "wdir": 310,
      "cover": "SCT",
      "visib": 10.00,
      "fltcat": "VFR",
      "altim": 1015.7,
      "slp": 1014.9,
      "rawOb": "KMFR 271653Z COR 31012KT 10SM SCT036 13/03 A2999 RMK AO2 SLP149 T01330033"
    },
    "geometry": {
      "type": "Point",
      "coordinates": [-122.874,42.374]
    } 
  },
  { "type": "Feature",
    "properties": {
      "id": "KLND",
      "site": "Lander/Hunt Fld",
      "prior": "2",
      "obsTime": "2018-04-27T16:53:00Z",
      "temp": 15.6,
      "dewp": -3.3,
      "wspd": 4,
      "wdir": 0,
      "cover": "CLR",
      "visib": 10.00,
      "fltcat": "VFR",
      "altim": 1020.1,
      "slp": 1016.6,
      "rawOb": "KLND 271653Z AUTO VRB04KT 10SM CLR 16/M03 A3012 RMK AO2 SLP166 T01561033"
    },
    "geometry": {
      "type": "Point",
      "coordinates": [-108.728,42.816]
    } 
  },
  { "type": "Feature",
    "properties": {
      "id": "CYPH",
      "site": "Inukjuak Arpt",
      "prior": "2",
      "obsTime": "2018-04-27T17:00:00Z",
      "temp": -15.0,
      "dewp": -17.0,
      "wspd": 6,
      "wdir": 310,
      "cover": "CLR",
      "visib": 9.00,
      "fltcat": "VFR",
      "altim": 1018.0,
      "slp": 1018.4,
      "rawOb": "CYPH 271700Z AUTO 31006KT 9SM CLR M15/M17 A3006 RMK SLP184"
    },
    "geometry": {
      "type": "Point",
      "coordinates": [-78.078,58.471]
    } 
  },
  { "type": "Feature",
    "properties": {
      "id": "CWEQ",
      "site": "Swan River Arpt",
      "prior": "2",
      "obsTime": "2018-04-27T17:00:00Z",
      "temp": 3.9,
      "dewp": -2.2,
      "wspd": 4,
      "wdir": 10,
      "slp": 1024.1,
      "rawOb": "CWEQ 271700Z AUTO 01004KT 04/M02 RMK AO1 SLP241 T00391022 51010"
    },
    "geometry": {
      "type": "Point",
      "coordinates": [-101.235,52.121]
    } 
  },
  { "type": "Feature",
    "properties": {
      "id": "KPDX",
      "site": "Portland Intl Arpt",
      "prior": "2",
      "obsTime": "2018-04-27T16:53:00Z",
      "temp": 11.7,
      "dewp": 8.9,
      "wspd": 10,
      "wdir": 190,
      "ceil": 15,
      "cover": "OVC",
      "visib": 10.00,
      "fltcat": "MVFR",
      "altim": 1015.0,
      "slp": 1014.6,
      "rawOb": "KPDX 271653Z 19010KT 10SM OVC015 12/09 A2997 RMK AO2 SLP146 T01170089"
    },
    "geometry": {
      "type": "Point",
      "coordinates": [-122.596,45.590]
    } 
  },
  { "type": "Feature",
    "properties": {
      "id": "KBNO",
      "site": "Burns Muni",
      "prior": "2",
      "obsTime": "2018-04-27T16:53:00Z",
      "temp": 18.3,
      "dewp": -1.7,
      "wspd": 14,
      "wdir": 50,
      "cover": "CLR",
      "visib": 10.00,
      "fltcat": "VFR",
      "altim": 1010.9,
      "slp": 1008.4,
      "rawOb": "KBNO 271653Z AUTO 05014KT 10SM CLR 18/M02 A2985 RMK AO2 SLP084 T01831017"
    },
    "geometry": {
      "type": "Point",
      "coordinates": [-118.955,43.591]
    } 
  },
  { "type": "Feature",
    "properties": {
      "id": "CYBC",
      "site": "Baie Comeau Arpt",
      "prior": "2",
      "obsTime": "2018-04-27T17:00:00Z",
      "temp": 5.0,
      "dewp": 3.0,
      "wspd": 14,
      "wdir": 230,
      "cover": "CLR",
      "visib": 9.00,
      "fltcat": "VFR",
      "altim": 1009.2,
      "slp": 1009.3,
      "rawOb": "CYBC 271700Z AUTO 23014KT 9SM CLR 05/03 A2980 RMK SLP093"
    },
    "geometry": {
      "type": "Point",
      "coordinates": [-68.202,49.133]
    } 
  },
  { "type": "Feature",
    "properties": {
      "id": "CYQL",
      "site": "Lethbridge Cnty Arpt",
      "prior": "2",
      "obsTime": "2018-04-27T17:00:00Z",
      "temp": 17.0,
      "dewp": 1.0,
      "wspd": 5,
      "wdir": 140,
      "cover": "SKC",
      "visib": 60.00,
      "fltcat": "VFR",
      "altim": 1016.3,
      "slp": 1017.2,
      "rawOb": "CYQL 271700Z 14005KT 090V160 60SM SKC 17/01 A3001 RMK SLP172 DENSITY ALT 3900FT"
    },
    "geometry": {
      "type": "Point",
      "coordinates": [-112.795,49.629]
    } 
  },
  { "type": "Feature",
    "properties": {
      "id": "CYAH",
      "site": "La Grande IV Arpt",
      "prior": "2",
      "obsTime": "2018-04-27T17:00:00Z",
      "temp": 0.0,
      "dewp": -4.0,
      "wspd": 6,
      "wdir": 290,
      "ceil": 20,
      "cover": "OVC",
      "visib": 9.00,
      "fltcat": "MVFR",
      "altim": 1008.2,
      "slp": 1010.0,
      "rawOb": "CYAH 271700Z AUTO 29006KT 270V330 9SM OVC020 00/M04 A2977 RMK ICG MISG SLP100"
    },
    "geometry": {
      "type": "Point",
      "coordinates": [-73.677,53.754]
    } 
  },
  { "type": "Feature",
    "properties": {
      "id": "KSAW",
      "site": "Sawyer AFB",
      "prior": "2",
      "obsTime": "2018-04-27T16:45:00Z",
      "temp": 1.0,
      "dewp": -2.0,
      "wspd": 14,
      "wgst": 18,
      "wdir": 20,
      "ceil": 14,
      "cover": "OVC",
      "visib": 10.00,
      "fltcat": "MVFR",
      "altim": 1010.9,
      "rawOb": "KSAW 271645Z 02014G18KT 10SM OVC014 01/M02 A2985"
    },
    "geometry": {
      "type": "Point",
      "coordinates": [-87.396,46.351]
    } 
  },
  { "type": "Feature",
    "properties": {
      "id": "KPIR",
      "site": "Pierre Muni",
      "prior": "2",
      "obsTime": "2018-04-27T16:53:00Z",
      "temp": 17.2,
      "dewp": -1.7,
      "wspd": 15,
      "wgst": 24,
      "wdir": 360,
      "cover": "CLR",
      "visib": 10.00,
      "fltcat": "VFR",
      "altim": 1017.4,
      "slp": 1017.3,
      "rawOb": "KPIR 271653Z AUTO 36015G24KT 10SM CLR 17/M02 A3004 RMK AO2 SLP173 T01721017"
    },
    "geometry": {
      "type": "Point",
      "coordinates": [-100.288,44.380]
    } 
  },
  { "type": "Feature",
    "properties": {
      "id": "KTUS",
      "site": "Tucson Intl Arpt",
      "prior": "2",
      "obsTime": "2018-04-27T16:53:00Z",
      "temp": 28.9,
      "dewp": 0.0,
      "wspd": 4,
      "wdir": 160,
      "cover": "CLR",
      "visib": 10.00,
      "fltcat": "VFR",
      "altim": 1015.0,
      "slp": 1010.0,
      "rawOb": "KTUS 271653Z 16004KT 10SM CLR 29/00 A2997 RMK AO2 SLP100 T02890000"
    },
    "geometry": {
      "type": "Point",
      "coordinates": [-110.940,32.120]
    } 
  },
  { "type": "Feature",
    "properties": {
      "id": "CWSA",
      "site": "Sable Island",
      "prior": "2",
      "obsTime": "2018-04-27T17:00:00Z",
      "temp": 11.0,
      "dewp": 8.0,
      "wspd": 11,
      "wdir": 200,
      "cover": "CLR",
      "visib": 3.00,
      "fltcat": "MVFR",
      "altim": 1017.0,
      "slp": 1016.9,
      "wx": "HZ",
      "rawOb": "CWSA 271700Z AUTO 20011KT 3SM HZ CLR 11/08 A3003 RMK TS/LTNG TEMPO UNAVBL SLP169"
    },
    "geometry": {
      "type": "Point",
      "coordinates": [-60.009,43.932]
    } 
  },
  { "type": "Feature",
    "properties": {
      "id": "KTYS",
      "site": "Knoxville/Tyson Arpt",
      "prior": "2",
      "obsTime": "2018-04-27T16:53:00Z",
      "temp": 17.2,
      "dewp": 9.4,
      "wspd": 6,
      "wdir": 220,
      "cover": "FEW",
      "visib": 10.00,
      "fltcat": "VFR",
      "altim": 1011.6,
      "slp": 1011.1,
      "rawOb": "KTYS 271653Z 22006KT 10SM FEW024 FEW250 17/09 A2987 RMK AO2 SLP111 T01720094"
    },
    "geometry": {
      "type": "Point",
      "coordinates": [-83.994,35.812]
    } 
  },
  { "type": "Feature",
    "properties": {
      "id": "CYQI",
      "site": "Yarmouth Arpt",
      "prior": "2",
      "obsTime": "2018-04-27T17:00:00Z",
      "temp": 13.0,
      "dewp": 8.0,
      "wspd": 9,
      "wgst": 16,
      "wdir": 190,
      "cover": "SCT",
      "visib": 15.00,
      "fltcat": "VFR",
      "altim": 1014.6,
      "slp": 1014.7,
      "rawOb": "CYQI 271700Z 19009G16KT 150V230 15SM FEW020 SCT250 13/08 A2996 RMK SC1CI3 SC TR SLP147"
    },
    "geometry": {
      "type": "Point",
      "coordinates": [-66.084,43.830]
    } 
  },
  { "type": "Feature",
    "properties": {
      "id": "KEYW",
      "site": "Key West Intl",
      "prior": "2",
      "obsTime": "2018-04-27T16:53:00Z",
      "temp": 25.6,
      "dewp": 21.1,
      "wspd": 14,
      "wdir": 220,
      "cover": "FEW",
      "visib": 10.00,
      "fltcat": "VFR",
      "altim": 1013.6,
      "slp": 1013.6,
      "rawOb": "KEYW 271653Z 22014KT 10SM FEW027 26/21 A2993 RMK AO2 LTG DSNT W-N RAE35 SLP136 P0001 T02560211"
    },
    "geometry": {
      "type": "Point",
      "coordinates": [-81.759,24.555]
    } 
  },
  { "type": "Feature",
    "properties": {
      "id": "CWJW",
      "site": "Jasper/Warden(AUTO)",
      "prior": "2",
      "obsTime": "2018-04-27T17:00:00Z",
      "temp": 12.9,
      "dewp": -1.8,
      "wspd": 3,
      "wdir": 200,
      "slp": 1015.6,
      "rawOb": "CWJW 271700Z AUTO 20003KT 13/M02 RMK AO1 SOG 03 8020 SLP156 T01291018"
    },
    "geometry": {
      "type": "Point",
      "coordinates": [-118.030,52.926]
    } 
  },
  { "type": "Feature",
    "properties": {
      "id": "KAMA",
      "site": "Amarillo Intl Arpt",
      "prior": "2",
      "obsTime": "2018-04-27T16:53:00Z",
      "temp": 17.2,
      "dewp": -3.9,
      "wspd": 5,
      "wdir": 310,
      "cover": "CLR",
      "visib": 10.00,
      "fltcat": "VFR",
      "altim": 1023.8,
      "slp": 1021.2,
      "rawOb": "KAMA 271653Z 31005KT 10SM CLR 17/M04 A3023 RMK AO2 SLP212 T01721039"
    },
    "geometry": {
      "type": "Point",
      "coordinates": [-101.710,35.223]
    } 
  },
  { "type": "Feature",
    "properties": {
      "id": "KGRI",
      "site": "Grand Island Rgnl",
      "prior": "2",
      "obsTime": "2018-04-27T16:53:00Z",
      "temp": 22.8,
      "dewp": 1.7,
      "wspd": 14,
      "wgst": 21,
      "wdir": 340,
      "cover": "CLR",
      "visib": 10.00,
      "fltcat": "VFR",
      "altim": 1016.3,
      "slp": 1016.4,
      "rawOb": "KGRI 271653Z 34014G21KT 10SM CLR 23/02 A3001 RMK AO2 SLP164 T02280017"
    },
    "geometry": {
      "type": "Point",
      "coordinates": [-98.314,40.969]
    } 
  },
  { "type": "Feature",
    "properties": {
      "id": "KDRT",
      "site": "Del Rio Intl",
      "prior": "2",
      "obsTime": "2018-04-27T16:53:00Z",
      "temp": 25.0,
      "dewp": 8.9,
      "wspd": 6,
      "wdir": 350,
      "cover": "CLR",
      "visib": 10.00,
      "fltcat": "VFR",
      "altim": 1020.4,
      "slp": 1018.8,
      "rawOb": "KDRT 271653Z AUTO 35006KT 10SM CLR 25/09 A3013 RMK AO2 SLP188 T02500089 $"
    },
    "geometry": {
      "type": "Point",
      "coordinates": [-100.926,29.372]
    } 
  },
  { "type": "Feature",
    "properties": {
      "id": "MYNN",
      "site": "Nassau Intl",
      "prior": "2",
      "obsTime": "2018-04-27T17:00:00Z",
      "temp": 29.0,
      "dewp": 21.0,
      "wspd": 6,
      "wdir": 170,
      "ceil": 200,
      "cover": "BKN",
      "visib": 6.21,
      "fltcat": "VFR",
      "altim": 1013.6,
      "wx": "VCSH",
      "rawOb": "MYNN 271700Z 17006KT 9999 VCSH FEW018CB BKN200 29/21 A2993"
    },
    "geometry": {
      "type": "Point",
      "coordinates": [-77.465,25.042]
    } 
  },
  { "type": "Feature",
    "properties": {
      "id": "KTCS",
      "site": "Truth or Consequence",
      "prior": "2",
      "obsTime": "2018-04-27T16:53:00Z",
      "temp": 17.8,
      "dewp": -3.9,
      "wspd": 6,
      "wdir": 0,
      "visib": 10.00,
      "altim": 1023.8,
      "slp": 1017.3,
      "rawOb": "KTCS 271653Z AUTO VRB06KT 10SM 18/M04 A3023 RMK AO2 SLP173 T01781039"
    },
    "geometry": {
      "type": "Point",
      "coordinates": [-107.270,33.234]
    } 
  },
  { "type": "Feature",
    "properties": {
      "id": "CYGX",
      "site": "Gillam Arpt",
      "prior": "2",
      "obsTime": "2018-04-27T17:00:00Z",
      "temp": -1.0,
      "dewp": -11.0,
      "wspd": 4,
      "wdir": 340,
      "cover": "FEW",
      "visib": 15.00,
      "fltcat": "VFR",
      "altim": 1021.8,
      "slp": 1023.1,
      "rawOb": "CYGX 271700Z 34004KT 15SM FEW120 M01/M11 A3017 RMK AS1 AS TR SLP231"
    },
    "geometry": {
      "type": "Point",
      "coordinates": [-94.711,56.357]
    } 
  },
  { "type": "Feature",
    "properties": {
      "id": "CWPK",
      "site": "Parent(MARS)",
      "prior": "2",
      "obsTime": "2018-04-27T16:00:00Z",
      "temp": 11.0,
      "dewp": -2.9,
      "wspd": 6,
      "wdir": 200,
      "slp": 1008.0,
      "rawOb": "CWPK 271600Z AUTO 20006KT 11/M03 RMK AO1 SOG 36 8000 SLP080 T01101029"
    },
    "geometry": {
      "type": "Point",
      "coordinates": [-74.624,47.922]
    } 
  },
  { "type": "Feature",
    "properties": {
      "id": "CYTL",
      "site": "Big Trout Lake Arpt",
      "prior": "2",
      "obsTime": "2018-04-27T17:00:00Z",
      "temp": 0.0,
      "dewp": -7.0,
      "wspd": 8,
      "wdir": 190,
      "cover": "CLR",
      "visib": 9.00,
      "fltcat": "VFR",
      "altim": 1019.4,
      "slp": 1021.0,
      "rawOb": "CYTL 271700Z AUTO 19008KT 9SM CLR 00/M07 A3010 RMK SLP210"
    },
    "geometry": {
      "type": "Point",
      "coordinates": [-89.898,53.818]
    } 
  },
  { "type": "Feature",
    "properties": {
      "id": "KMRF",
      "site": "Marfa Muni",
      "prior": "2",
      "obsTime": "2018-04-27T16:56:00Z",
      "temp": 14.4,
      "dewp": 1.1,
      "wspd": 15,
      "wdir": 10,
      "cover": "CLR",
      "visib": 10.00,
      "fltcat": "VFR",
      "altim": 1025.8,
      "slp": 1021.7,
      "rawOb": "KMRF 271656Z AUTO 01015KT 10SM CLR 14/01 A3029 RMK AO2 SLP217 T01440011"
    },
    "geometry": {
      "type": "Point",
      "coordinates": [-104.016,30.370]
    } 
  },
  { "type": "Feature",
    "properties": {
      "id": "CYYL",
      "site": "Lynn Lake Arpt",
      "prior": "2",
      "obsTime": "2018-04-27T17:00:00Z",
      "temp": 7.0,
      "dewp": 0.0,
      "wspd": 7,
      "wdir": 290,
      "ceil": 80,
      "cover": "OVC",
      "visib": 9.00,
      "fltcat": "VFR",
      "altim": 1018.4,
      "slp": 1020.5,
      "rawOb": "CYYL 271700Z AUTO 29007KT 260V330 9SM OVC080 07/00 A3007 RMK SLP205"
    },
    "geometry": {
      "type": "Point",
      "coordinates": [-101.071,56.865]
    } 
  },
  { "type": "Feature",
    "properties": {
      "id": "CYIV",
      "site": "Island Lake Arpt",
      "prior": "2",
      "obsTime": "2018-04-27T17:00:00Z",
      "temp": 3.0,
      "dewp": -12.0,
      "wspd": 7,
      "wdir": 30,
      "cover": "FEW",
      "visib": 15.00,
      "fltcat": "VFR",
      "altim": 1020.4,
      "slp": 1021.8,
      "rawOb": "CYIV 271700Z 03007KT 330V050 15SM FEW160 03/M12 A3013 RMK AC1 AC TR SLP218"
    },
    "geometry": {
      "type": "Point",
      "coordinates": [-94.655,53.857]
    } 
  },
  { "type": "Feature",
    "properties": {
      "id": "CWCT",
      "site": "Coronation Arpt",
      "prior": "2",
      "obsTime": "2018-04-27T17:00:00Z",
      "temp": 15.6,
      "dewp": -3.7,
      "wspd": 14,
      "wgst": 20,
      "wdir": 150,
      "slp": 1019.5,
      "rawOb": "CWCT 271700Z AUTO 15014G20KT 16/M04 RMK AO1 SOG 03 8010 PK WND 15020/1659 SLP195 T01561037"
    },
    "geometry": {
      "type": "Point",
      "coordinates": [-111.447,52.076]
    } 
  },
  { "type": "Feature",
    "properties": {
      "id": "CYRL",
      "site": "Red Lake Arpt",
      "prior": "2",
      "obsTime": "2018-04-27T17:00:00Z",
      "temp": 3.0,
      "dewp": -1.0,
      "wspd": 5,
      "wdir": 40,
      "ceil": 25,
      "cover": "BKN",
      "visib": 15.00,
      "fltcat": "MVFR",
      "altim": 1016.7,
      "slp": 1018.7,
      "rawOb": "CYRL 271700Z 04005KT 010V090 15SM SCT015 BKN025 03/M01 A3002 RMK CU4SC3 SLP187"
    },
    "geometry": {
      "type": "Point",
      "coordinates": [-93.795,51.067]
    } 
  },
  { "type": "Feature",
    "properties": {
      "id": "MMPR",
      "site": "Puerto Vallarta Intl",
      "prior": "2",
      "obsTime": "2018-04-27T16:51:00Z",
      "temp": 28.0,
      "dewp": 15.0,
      "wspd": 9,
      "wdir": 230,
      "cover": "SKC",
      "visib": 15.00,
      "fltcat": "VFR",
      "altim": 1011.9,
      "rawOb": "MMPR 271651Z 23009KT 15SM SKC 28/15 A2988"
    },
    "geometry": {
      "type": "Point",
      "coordinates": [-105.252,20.682]
    } 
  },
  { "type": "Feature",
    "properties": {
      "id": "MMUN",
      "site": "Cancun Intl",
      "prior": "2",
      "obsTime": "2018-04-27T16:44:00Z",
      "temp": 30.0,
      "dewp": 22.0,
      "wspd": 4,
      "wgst": 14,
      "wdir": 220,
      "ceil": 15,
      "cover": "BKN",
      "visib": 7.00,
      "fltcat": "MVFR",
      "altim": 1013.0,
      "rawOb": "MMUN 271644Z 22004G14KT 7SM BKN015 30/22 A2991 RMK 8/100 ISOL MDT CU CI SE S"
    },
    "geometry": {
      "type": "Point",
      "coordinates": [-86.869,21.038]
    } 
  },
  { "type": "Feature",
    "properties": {
      "id": "MMDO",
      "site": "Durango/Victoria Int",
      "prior": "2",
      "obsTime": "2018-04-27T16:41:00Z",
      "temp": 24.0,
      "dewp": 1.0,
      "wspd": 2,
      "wdir": 330,
      "cover": "SKC",
      "visib": 10.00,
      "fltcat": "VFR",
      "altim": 1023.1,
      "rawOb": "MMDO 271641Z 33002KT 10SM SKC 24/01 A3021 RMK HZY"
    },
    "geometry": {
      "type": "Point",
      "coordinates": [-104.527,24.126]
    } 
  },
  { "type": "Feature",
    "properties": {
      "id": "MMMY",
      "site": "Monterrey Intl",
      "prior": "2",
      "obsTime": "2018-04-27T16:41:00Z",
      "temp": 20.0,
      "dewp": 18.0,
      "wspd": 5,
      "wdir": 120,
      "ceil": 10,
      "cover": "OVC",
      "visib": 6.00,
      "fltcat": "MVFR",
      "altim": 1020.7,
      "rawOb": "MMMY 271641Z 12005KT 6SM BKN010 OVC025 20/18 A3014 RMK 60015 8/5// -DZ INTMT LWR SC/S"
    },
    "geometry": {
      "type": "Point",
      "coordinates": [-100.107,25.778]
    } 
  },
  { "type": "Feature",
    "properties": {
      "id": "MMAS",
      "site": "Aguascalientes Arpt",
      "prior": "2",
      "obsTime": "2018-04-27T16:45:00Z",
      "temp": 24.0,
      "dewp": -2.0,
      "wspd": 5,
      "wdir": 230,
      "cover": "SKC",
      "visib": 7.00,
      "fltcat": "VFR",
      "altim": 1023.8,
      "rawOb": "MMAS 271645Z 23005KT 7SM SKC 24/M02 A3023 RMK HZY"
    },
    "geometry": {
      "type": "Point",
      "coordinates": [-102.318,21.702]
    } 
  },
  { "type": "Feature",
    "properties": {
      "id": "MMLT",
      "site": "Loreto Intl",
      "prior": "2",
      "obsTime": "2018-04-27T16:46:00Z",
      "temp": 31.0,
      "dewp": 20.0,
      "wspd": 0,
      "wdir": 0,
      "ceil": 240,
      "cover": "BKN",
      "visib": 8.00,
      "fltcat": "VFR",
      "altim": 1010.2,
      "rawOb": "MMLT 271646Z 00000KT 8SM SCT180 BKN240 31/20 A2983 RMK 8/085"
    },
    "geometry": {
      "type": "Point",
      "coordinates": [-111.348,25.992]
    } 
  },
  { "type": "Feature",
    "properties": {
      "id": "MMMZ",
      "site": "Mazatlan/Buelna Intl",
      "prior": "2",
      "obsTime": "2018-04-27T16:40:00Z",
      "temp": 30.0,
      "dewp": 13.0,
      "wspd": 5,
      "wdir": 160,
      "cover": "SCT",
      "visib": 15.00,
      "fltcat": "VFR",
      "altim": 1011.9,
      "rawOb": "MMMZ 271640Z 16005KT 15SM SCT090 SCT230 30/13 A2988 RMK 8/032"
    },
    "geometry": {
      "type": "Point",
      "coordinates": [-106.269,23.161]
    } 
  },
  { "type": "Feature",
    "properties": {
      "id": "MMCV",
      "site": "Ciudad Victoria Intl",
      "prior": "2",
      "obsTime": "2018-04-27T16:45:00Z",
      "temp": 21.0,
      "dewp": 21.0,
      "wspd": 7,
      "wdir": 320,
      "ceil": 5,
      "cover": "OVC",
      "visib": 5.00,
      "fltcat": "IFR",
      "altim": 1019.4,
      "wx": "-DZ",
      "rawOb": "MMCV 271645Z 32007KT 5SM -DZ SCT003 BKN005 OVC030 21/21 A3010 RMK 60015 8/7// HZ BR VSBY LWR 2 QUAD -DZ INTMT"
    },
    "geometry": {
      "type": "Point",
      "coordinates": [-98.957,23.704]
    } 
  },
  { "type": "Feature",
    "properties": {
      "id": "MMCL",
      "site": "Culiacan/Bachigualat",
      "prior": "2",
      "obsTime": "2018-04-27T16:43:00Z",
      "temp": 28.0,
      "dewp": 18.0,
      "wspd": 7,
      "wdir": 220,
      "ceil": 80,
      "cover": "BKN",
      "visib": 10.00,
      "fltcat": "VFR",
      "altim": 1011.9,
      "rawOb": "MMCL 271643Z 22007KT 10SM SCT025 BKN080 BKN120 28/18 A2988 RMK 8/570"
    },
    "geometry": {
      "type": "Point",
      "coordinates": [-107.474,24.766]
    } 
  }]}
